0161010470999992013010100004+69000+023033FM-12+0307ENKA V0201801N005010042019N0600001N1-00421-00531099031ADDAY171061AY221061GF108991081051004501999999MA1999999095321MD1710021+9999MW1021REMSYN072AAXX  01001 01047 41486 81805 11042 21053 39532 49903 57002 70272 885//;
0266010470999992013010106004+69000+023033FM-12+0307ENKA V0209999C000010075019N0650001N1-00481-00621099061ADDAA112000091AA224000391AJ100649199999999AY171061AY221061GF108991081051008001999999IA1249KA1999N-00531MA1999999095351MD1210031+9999MW1021REMSYN100AAXX  01061 01047 11587 80000 11048 21062 39535 49906 52003 69922 70272 885// 333 21053 48064 70002;EQDQ01  00002PRCP12
0161010470999992013010109004+69000+023033FM-12+0307ENKA V0209999C000010075019N0250001N1-00441-00581099111ADDAY171031AY221031GF108991081001008001021999MA1999999095401MD1210061+9999MW1701REMSYN072AAXX  01091 01047 41575 80000 11044 21058 39540 49911 52006 77072 8802/;
0161010470999992013010112004+69000+023033FM-12+0307ENKA V0201801N001010075019N0600001N1-00421-00531099161ADDAY171061AY221061GF108991081051008001999999MA1999999095451MD1010051+9999MW1021REMSYN072AAXX  01121 01047 41586 81801 11042 21053 39545 49916 50005 70272 885//;
0161010470999992013010115004+69000+023033FM-12+0307ENKA V0201801N003010042019N0700001N1-00221-00331099201ADDAY121031AY221031GF108991081051004501999999MA1999999095481MD1210041+9999MW1021REMSYN072AAXX  01151 01047 41488 81803 11022 21033 39548 49920 52004 70222 885//;
0201010470999992013010118004+69000+023033FM-12+0307ENKA V0201801N003010075019N0040001N1-00231-00341099221ADDAA112000021AY171061AY221061GF108991081001008001021999KA1999M-00201MA1999999095511MD1210031+9999MW1711REMSYN088AAXX  01181 01047 11540 81803 11023 21034 39551 49922 52003 69912 77172 8802/ 333 11020;
0161010470999992013010200004+69000+023033FM-12+0307ENKA V0200501N001010075019N0080001N1-00521-00631099351ADDAY171061AY221061GF108991081001008001021999MA1999999095621MD1310051+9999MW1711REMSYN072AAXX  02001 01047 41558 80501 11052 21063 39562 49935 53005 77172 8802/;
0247010470999992013010206004+69000+023033FM-12+0307ENKA V0203201N001010075019N0300001N1-00521-00631099531ADDAA112000891AA224000891AJ100659199999999AY171061AY221061GF108991081051008001999999IA1249KA1999N-00661MA1999999095801MD1310111+9999MW1021REMSYN100AAXX  02061 01047 11580 83201 11052 21063 39580 49953 53011 69972 70272 885// 333 21066 48065 70008;
0161010470999992013010209004+69000+023033FM-12+0307ENKA V0203201N005010012019N0020001N1-00741-00851099661ADDAY121031AY221031GF108991081061001501999999MA1999999095911MD1310111+9999MW1101REMSYN072AAXX  02091 01047 41220 83205 11074 21085 39591 49966 53011 71022 886//;
0161010470999992013010212004+69000+023033FM-12+0307ENKA V0202201N001010042019N0600001N1-01481-01641099791ADDAY121061AY221061GF106991061051004501001001MA1999999096011MD1210101+9999MW1011REMSYN072AAXX  02121 01047 41486 62201 11148 21164 39601 49979 52010 70122 86500;
0161010470999992013010215004+69000+023033FM-12+0307ENKA V0201401N005010012019N0600001N1-01511-01681099881ADDAY121031AY221031GF108991081061001501999999MA1999999096081MD1210071+9999MW1021REMSYN072AAXX  02151 01047 41286 81405 11151 21168 39608 49988 52007 70222 886//;
0184010470999992013010218004+69000+023033FM-12+0307ENKA V0201401N005010075019N0700001N1-01421-01601099901ADDAY121061AY221061GF108991081051008001999999KA1999M-00401MA1999999096111MD1210021+9999MW1021REMSYN082AAXX  02181 01047 31588 81405 11142 21160 39611 49990 52002 70222 885// 333 11040;
0161010470999992013010300004+69000+023033FM-12+0307ENKA V0201801N003010075019N0700001N1-00911-01091099831ADDAY121061AY221061GF108991081051008001999999MA1999999096071MD1710021+9999MW1021REMSYN072AAXX  03001 01047 41588 81803 11091 21109 39607 49983 57002 70222 885//;
0249010470999992013010306004+69000+023033FM-12+0307ENKA V0201801N003010075019N0700001N1-00761-00931099641ADDAA124000091AJ100659199999999AY121061AY221061GF108991081051008001999999IA1239KA1999N-01431MA1999999095881MD1710041+9999MW1021REMSYN094AAXX  03061 01047 31588 81803 11076 21093 39588 49964 57004 70222 885// 333 21143 47065 70000;EQDQ01  00002PRCP24
0161010470999992013010309004+69000+023033FM-12+0307ENKA V0202201N005010075019N0700001N1-00641-00761099601ADDAY121031AY221031GF108991081051008001999999MA1999999095861MD1510021+9999MW1021REMSYN072AAXX  03091 01047 41588 82205 11064 21076 39586 49960 55002 70222 885//;
0161010470999992013010312004+69000+023033FM-12+0307ENKA V0201801N005010075019N0015001N1-00861-00971099621ADDAY121061AY221061GF108991081001008001021999MA1999999095871MD1510001+9999MW1101REMSYN072AAXX  03121 01047 41515 81805 11086 21097 39587 49962 55000 71022 8802/;
0161010470999992013010315004+69000+023033FM-12+0307ENKA V0201801N005010012019N0600001N1-01041-01151099691ADDAY121031AY221031GF108991081061001501999999MA1999999095921MD1310061+9999MW1021REMSYN072AAXX  03151 01047 41286 81805 11104 21115 39592 49969 53006 70222 886//;
0184010470999992013010318004+69000+023033FM-12+0307ENKA V0201801N003010042019N0700001N1-01161-01281099711ADDAY121061AY221061GF108991081051004501999999KA1999M-00501MA1999999095931MD1210011+9999MW1021REMSYN082AAXX  03181 01047 31488 81803 11116 21128 39593 49971 52001 70222 885// 333 11050;
0161010470999992013010400004+69000+023033FM-12+0307ENKA V0203601N003012200019N0700001N1-01321-01471100061ADDAY121061AY201061GF102991021001017501041001MA1999999096271MD1310171+9999MW1021REMSYN072AAXX  04001 01047 41788 23603 11132 21147 39627 40006 53017 70220 82040;
0259010470999992013010406004+69000+023033FM-12+0307ENKA V0203601N001012200019N0700001N1-02141-02341100491ADDAA124000091AJ100659199999999AY121061AY201061GA1001+999999999GF100991001001999999001001IA1239KA1999N-02141MA1999999096651MD1210211+9999MW1021REMSYN088AAXX  04061 01047 31988 03601 11214 21234 39665 40049 52021 70220 333 21214 47065 70000;EQDQ01  00002PRCP24
0161010470999992013010409004+69000+023033FM-12+0307ENKA V0201801N005019999999N0700001N1-02081-02281100651ADDAY121031AY201031GF106991061001012501071001MA1999999096811MD1110151+9999MW1031REMSYN072AAXX  04091 01047 41688 61805 11208 21228 39681 40065 51015 70320 86070;
0161010470999992013010412004+69000+023033FM-12+0307ENKA V0201801N001012200019N0700001N1-02121-02321100811ADDAY121061AY221061GF103991031001012501071001MA1999999096961MD1310161+9999MW1011REMSYN072AAXX  04121 01047 41688 31801 11212 21232 39696 40081 53016 70122 83070;
0161010470999992013010415004+69000+023033FM-12+0307ENKA V0202201N003012200019N0700001N1-02041-02241100961ADDAY101031AY201031GF103991031001012501071001MA1999999097111MD1210151+9999MW1021REMSYN072AAXX  04151 01047 41688 32203 11204 21224 39711 40096 52015 70200 83070;
0184010470999992013010418004+69000+023033FM-12+0307ENKA V0203201N003012200019N0700001N1-02111-02311101081ADDAY101061AY201061GF103991031001012501071001KA1999M-01451MA1999999097221MD1110111+9999MW1031REMSYN082AAXX  04181 01047 31688 33203 11211 21231 39722 40108 51011 70300 83070 333 11145;
0190010470999992013010500004+69000+023033FM-12+0307ENKA V0203201N007012200019N0700001N1-00312-00731101441ADDAY101061AY201061GA1001+999999999GF100991001001999999001001MA1999999097631MD1310211+9999MW1021REMSYN066AAXX  05001 01047 41988 03207 11031 21073 39763 40144 53021 70200;EQDQ01-000313ATOT  
0259010470999992013010506004+69000+023033FM-12+0307ENKA V0203201N001012200019N0700001N1-01361-01541101871ADDAA124000091AJ100649199999999AY101061AY201061GA1001+999999999GF100991001001999999001001IA1239KA1999N-02121MA1999999098011MD1210161+9999MW1021REMSYN088AAXX  05061 01047 31988 03201 11136 21154 39801 40187 52016 70200 333 21212 47064 70000;EQDQ01  00002PRCP24
0161010470999992013010509004+69000+023033FM-12+0307ENKA V0201801N005012200019N0700001N1-01501-01631102101ADDAY101031AY201031GF102991021001017501041001MA1999999098221MD1310211+9999MW1021REMSYN072AAXX  05091 01047 41788 21805 11150 21163 39822 40210 53021 70200 82040;
0161010470999992013010512004+69000+023033FM-12+0307ENKA V0203601N003010150019N0700001N1-01701-01881102231ADDAY121061AY201061GF105991051001017501071001MA1999999098331MD1210111+9999MW1031REMSYN072AAXX  05121 01047 41788 53603 11170 21188 39833 40223 52011 70320 85070;
0161010470999992013010515004+69000+023033FM-12+0307ENKA V0203601N003010120019N0700001N1-01451-01641102301ADDAY121031AY221031GF108991081001012501021999MA1999999098421MD1210091+9999MW1021REMSYN072AAXX  05151 01047 41688 83603 11145 21164 39842 40230 52009 70222 8802/;
0184010470999992013010518004+69000+023033FM-12+0307ENKA V0203601N003019999999N0700001N1-01651-01821102331ADDAY121061AY211061GF106991061001012501071001KA1999M-00791MA1999999098431MD1310011+9999MW1021REMSYN082AAXX  05181 01047 31688 63603 11165 21182 39843 40233 53001 70221 86070 333 11079;
0171010470999992013010600004+69000+023033FM-12+0307ENKA V0201401N001010001519N0001001N1-01781-01981102301ADDAY171061AY241061GA1091+999999999GF109991091999999999999999MA1999999098411MD1810091+9999MW1441REMSYN066AAXX  06001 01047 41/01 91401 11178 21198 39841 40230 58009 74474;
0282010470999992013010606004+69000+023033FM-12+0307ENKA V0201401N001012200019N0300001N1-01821-02031102051ADDAA112000091AA224000091AJ100649199999999AY171061AY241061GF104991041001017501011001IA1239KA1999N-01981MA1999999098171MD1610141+9999MW1021REMSYN100AAXX  06061 01047 11780 41401 11182 21203 39817 40205 56014 69912 70274 84010 333 21198 47064 70001;EQDQ01  00002PRCP24Q02  00002PRCP12
0161010470999992013010609004+69000+023033FM-12+0307ENKA V0201801N007019999999N0600001N1-01001-01161101851ADDAY121031AY221031GF106991061001012501071001MA1999999098011MD1710161+9999MW1031REMSYN072AAXX  06091 01047 41686 61807 11100 21116 39801 40185 57016 70322 86070;
0161010470999992013010612004+69000+023033FM-12+0307ENKA V0202201N007010120019N0100001N1-00881-01001101671ADDAY171061AY221061GF108991081001012501021999MA1999999097831MD1810171+9999MW1711REMSYN072AAXX  06121 01047 41660 82207 11088 21100 39783 40167 58017 77172 8802/;
0161010470999992013010615004+69000+023033FM-12+0307ENKA V0201601N007010075019N0200001N1-00701-00821101531ADDAY171031AY271031GF108991081001008001021999MA1999999097711MD1710131+9999MW1711REMSYN072AAXX  06151 01047 41570 81607 11070 21082 39771 40153 57013 77177 8802/;
0201010470999992013010618004+69000+023033FM-12+0307ENKA V0201601N007010075019N0150001N1-00701-00821101391ADDAA112000891AY171061AY231061GF108991081001008001021999KA1999M-00621MA1999999097571MD1810141+9999MW1711REMSYN088AAXX  06181 01047 11565 81607 11070 21082 39757 40139 58014 69982 77173 8802/ 333 11062;
0171010470999992013010700004+69000+023033FM-12+0307ENKA V0201801N007012200019N0700001N1-00731-00921101521ADDAY171061AY231061GA1001+999999999GF100991001001999999001001MA1999999097701MD1310081+9999MW1011REMSYN066AAXX  07001 01047 41988 01807 11073 21092 39770 40152 53008 70173;
0257010470999992013010706004+69000+023033FM-12+0307ENKA V0201801N001012200019N0700001N1-01361-01541101871ADDAA112001091AA224002391AJ100629199999999AY171061AY231061GA1001+999999999GF100991001001999999001001IA1239KA1999N-01361MA1999999098011MD1310111+9999MW1021REMSYN094AAXX  07061 01047 11988 01801 11136 21154 39801 40187 53011 60012 70273 333 21136 47062 70022;
0161010470999992013010709004+69000+023033FM-12+0307ENKA V0203601N003012200019N0700001N1-01701-01881101951ADDAY101031AY201031GF104991041001017501071001MA1999999098071MD1010061+9999MW1031REMSYN072AAXX  07091 01047 41788 43603 11170 21188 39807 40195 50006 70300 84070;
0161010470999992013010712004+69000+023033FM-12+0307ENKA V0203601N003012200019N0700001N1-01651-01851101941ADDAY101061AY201061GF103991031001017501071001MA1999999098071MD1710011+9999MW1021REMSYN072AAXX  07121 01047 41788 33603 11165 21185 39807 40194 57001 70200 83070;
0161010470999992013010715004+69000+023033FM-12+0307ENKA V0200501N003012200019N0020001N1-01901-02091101921ADDAY101031AY201031GF103991031001017501071001MA1999999098031MD1810031+9999MW1101REMSYN072AAXX  07151 01047 41720 30503 11190 21209 39803 40192 58003 71000 83070;
0194010470999992013010718004+69000+023033FM-12+0307ENKA V0200501N003010006019N0008001N1-01721-01921101871ADDAY141061AY201061GA1091+999999999GF109991091999999999999999KA1999M-01181MA1999999098001MD1710051+9999MW1481REMSYN076AAXX  07181 01047 31/08 90503 11172 21192 39800 40187 57005 74840 333 11118;
0161010470999992013010800004+69000+023033FM-12+0307ENKA V0201801N001010006019N0015001N1-01721-01931101601ADDAY141061AY221061GF108991081061000751999999MA1999999097731MD1710161+9999MW1101REMSYN072AAXX  08001 01047 41115 81801 11172 21193 39773 40160 57016 71042 886//;
0249010470999992013010806004+69000+023033FM-12+0307ENKA V0201801N005010075019N0300001N1-01291-01481101231ADDAA124000091AJ100629199999999AY141061AY221061GF108991081001008001021999IA1239KA1999N-01831MA1999999097401MD1810201+9999MW1021REMSYN094AAXX  08061 01047 31580 81805 11129 21148 39740 40123 58020 70242 8802/ 333 21183 47062 70000;EQDQ01  00002PRCP24
0161010470999992013010809004+69000+023033FM-12+0307ENKA V0201801N007010075019N0030001N1-01261-01451101051ADDAY171031AY221031GF108991081001008001021999MA1999999097221MD1810151+9999MW1711REMSYN072AAXX  08091 01047 41530 81807 11126 21145 39722 40105 58015 77172 8802/;
0161010470999992013010812004+69000+023033FM-12+0307ENKA V0201601N007010075019N0020001N1-01121-01301100801ADDAY171061AY271061GF108991081001008001021999MA1999999096981MD1810241+9999MW1711REMSYN072AAXX  08121 01047 41520 81607 11112 21130 39698 40080 58024 77177 8802/;
0161010470999992013010815004+69000+023033FM-12+0307ENKA V0201601N007010075019N0200001N1-00981-01141100561ADDAY171031AY271031GF108991081001008001021999MA1999999096771MD1610221+9999MW1711REMSYN072AAXX  08151 01047 41570 81607 11098 21114 39677 40056 56022 77177 8802/;
0201010470999992013010818004+69000+023033FM-12+0307ENKA V0201601N005010075019N0700001N1-00941-01071100391ADDAA112001091AY171061AY221061GF108991081001008001021999KA1999M-00901MA1999999096611MD1610161+9999MW1021REMSYN088AAXX  08181 01047 11588 81605 11094 21107 39661 40039 56016 60012 70272 8802/ 333 11090;
0171010470999992013010900004+69000+023033FM-12+0307ENKA V0201801N003012200019N0700001N1-01861-02041100431ADDAY121061AY201061GA1001+999999999GF100991001001999999001001MA1999999096611MD1810021+9999MW1021REMSYN066AAXX  09001 01047 41988 01803 11186 21204 39661 40043 58002 70220;
0230010470999992013010906004+69000+023033FM-12+0307ENKA V0209999C000012200019N0700001N1-01731-01931100391ADDAA124001091AJ100619199999999AY121061AY201061GF104991041001017501071001IA1239KA1999N-01901MA1999999096571MD1510001+9999MW1021REMSYN094AAXX  09061 01047 31788 40000 11173 21193 39657 40039 55000 70220 84070 333 21190 47061 70010;
0161010470999992013010909004+69000+023033FM-12+0307ENKA V0203601N001012200019N0700001N1-01961-02141100761ADDAY101031AY201031GF104991041001017501071001MA1999999096921MD1310331+9999MW1021REMSYN072AAXX  09091 01047 41788 43601 11196 21214 39692 40076 53033 70200 84070;
0161010470999992013010912004+69000+023033FM-12+0307ENKA V0203601N001019999999N0700001N1-02081-02261100961ADDAY101061AY201061GF105991051001012501071001MA1999999097111MD1210191+9999MW1031REMSYN072AAXX  09121 01047 41688 53601 11208 21226 39711 40096 52019 70300 85070;
0161010470999992013010915004+69000+023033FM-12+0307ENKA V0203601N001010150019N0700001N1-01381-01561101061ADDAY121031AY211031GF106991061001017501071001MA1999999097221MD1210141+9999MW1021REMSYN072AAXX  09151 01047 41788 63601 11138 21156 39722 40106 52014 70221 86070;
0220010470999992013010918004+69000+023033FM-12+0307ENKA V0200501N001010300019N0650001N1-01301-01491101311ADDAA112000091AY171061AY221061GF108991041051004501021999KA1999M-01151MA1999999097471MD1310241+9999MW1021REMSYN088AAXX  09181 01047 11487 80501 11130 21149 39747 40131 53024 69912 70272 8452/ 333 11115;EQDQ01  00002PRCP12
0161010470999992013011000004+69000+023033FM-12+0307ENKA V0209999C000010075019N0700001N1-00821-00941101721ADDAY121061AY221061GF108991081051008001999999MA1999999097881MD1210191+9999MW1021REMSYN072AAXX  10001 01047 41588 80000 11082 21094 39788 40172 52019 70222 885//;
0249010470999992013011006004+69000+023033FM-12+0307ENKA V0209999C000010075019N0700001N1-00441-00511102001ADDAA124000091AJ100619199999999AY121061AY221061GF107991071051008001001001IA1239KA1999N-01301MA1999999098171MD1110151+9999MW1021REMSYN094AAXX  10061 01047 31588 70000 11044 21051 39817 40200 51015 70222 87500 333 21130 47061 70001;EQDQ01  00002PRCP24
0161010470999992013011009004+69000+023033FM-12+0307ENKA V0202201N003010075019N0600001N1-00381-00451102171ADDAY121031AY221031GF108991081051008001999999MA1999999098331MD1310151+9999MW1021REMSYN072AAXX  10091 01047 41586 82203 11038 21045 39833 40217 53015 70222 885//;
0161010470999992013011012004+69000+023033FM-12+0307ENKA V0209999C000010075019N0700001N1-00661-00741102161ADDAY121061AY221061GF108991081051008001999999MA1999999098321MD1710021+9999MW1021REMSYN072AAXX  10121 01047 41588 80000 11066 21074 39832 40216 57002 70222 885//;
0161010470999992013011015004+69000+023033FM-12+0307ENKA V0203601N003010075019N0700001N1-00531-00601102211ADDAY121031AY221031GF108991081051008001999999MA1999999098371MD1110061+9999MW1021REMSYN072AAXX  10151 01047 41588 83603 11053 21060 39837 40221 51006 70222 885//;
0184010470999992013011018004+69000+023033FM-12+0307ENKA V0201801N005010075019N0700001N1-00641-00721102201ADDAY121061AY221061GF108991081051008001999999KA1999M-00301MA1999999098361MD1710031+9999MW1021REMSYN082AAXX  10181 01047 31588 81805 11064 21072 39836 40220 57003 70222 885// 333 11030;
0161010470999992013011100004+69000+023033FM-12+0307ENKA V0201801N003010075019N0700001N1-01001-01081102181ADDAY121061AY221061GF106991061051008001001001MA1999999098321MD1810041+9999MW1011REMSYN072AAXX  11001 01047 41588 61803 11100 21108 39832 40218 58004 70122 86500;
0249010470999992013011106004+69000+023033FM-12+0307ENKA V0201801N003010075019N0700001N1-01521-01681102051ADDAA124000091AJ100619199999999AY121061AY221061GF107991071051008001001001IA1239KA1999N-01521MA1999999098171MD1810031+9999MW1021REMSYN094AAXX  11061 01047 31588 71803 11152 21168 39817 40205 58003 70222 87500 333 21152 47061 70000;EQDQ01  00002PRCP24
0161010470999992013011109004+69000+023033FM-12+0307ENKA V0201801N003019999999N0700001N1-01241-01421101971ADDAY121031AY221031GF108991081001012501071999MA1999999098111MD1710061+9999MW1021REMSYN072AAXX  11091 01047 41688 81803 11124 21142 39811 40197 57006 70222 8807/;
0161010470999992013011112004+69000+023033FM-12+0307ENKA V0202201N005019999999N0700001N1-01161-01341101851ADDAY121061AY221061GF107991071001012501071001MA1999999098001MD1710111+9999MW1021REMSYN072AAXX  11121 01047 41688 72205 11116 21134 39800 40185 57011 70222 87070;
0161010470999992013011115004+69000+023033FM-12+0307ENKA V0202201N005019999999N0700001N1-01201-01371101711ADDAY121031AY221031GF107991071001012501071001MA1999999097871MD1810121+9999MW1021REMSYN072AAXX  11151 01047 41688 72205 11120 21137 39787 40171 58012 70222 87070;
0184010470999992013011118004+69000+023033FM-12+0307ENKA V0202201N003019999999N0700001N1-00911-01041101681ADDAY121061AY221061GF105991051001012501071001KA1999M-00551MA1999999097851MD1510031+9999MW1011REMSYN082AAXX  11181 01047 31688 52203 11091 21104 39785 40168 55003 70122 85070 333 11055;
0171010470999992013011200004+69000+023033FM-12+0307ENKA V0202701N003012200019N0700001N1-00111-00551101521ADDAY121061AY201061GA1001+999999999GF100991001001999999001001MA1999999097721MD1810051+9999MW1021REMSYN066AAXX  12001 01047 41988 02703 11011 21055 39772 40152 58005 70220;
0249010470999992013011206004+69000+023033FM-12+0307ENKA V0202701N003012200019N0700001N1+00051-00431101501ADDAA124000091AJ100619199999999AY121061AY201061GF104991041051008001001001IA1239KA1999N-00911MA1999999097721MD1310041+9999MW1021REMSYN094AAXX  12061 01047 31588 42703 10005 21043 39772 40150 53004 70220 84500 333 21091 47061 70000;EQDQ01  00002PRCP24
0161010470999992013011209004+69000+023033FM-12+0307ENKA V0203201N005010300019N0700001N1+00121-00331101611ADDAY121031AY201031GF107991021041012501071001MA1999999097821MD1310111+9999MW1031REMSYN072AAXX  12091 01047 41688 73205 10012 21033 39782 40161 53011 70320 82470;
0161010470999992013011212004+69000+023033FM-12+0307ENKA V0203201N007010300019N0700001N1+00001-00441101671ADDAY121061AY221061GF106991011051008001071001MA1999999097871MD1310051+9999MW1021REMSYN072AAXX  12121 01047 41588 63207 10000 21044 39787 40167 53005 70222 81570;
0161010470999992013011215004+69000+023033FM-12+0307ENKA V0203201N005019999999N0700001N1-00351-00731101781ADDAY121031AY221031GF106991061001012501071001MA1999999097971MD1310091+9999MW1021REMSYN072AAXX  12151 01047 41688 63205 11035 21073 39797 40178 53009 70222 86070;
0184010470999992013011218004+69000+023033FM-12+0307ENKA V0202201N005019999999N0700001N1-00641-00901101871ADDAY121061AY221061GF106991061001012501071001KA1999M+00161MA1999999098031MD1310071+9999MW1021REMSYN082AAXX  12181 01047 31688 62205 11064 21090 39803 40187 53007 70222 86070 333 10016;
0161010470999992013011300004+69000+023033FM-12+0307ENKA V0203201N003019999999N0700001N1-00601-00801101851ADDAY121061AY221061GF107991071001012501011001MA1999999098021MD1710021+9999MW1021REMSYN072AAXX  13001 01047 41688 73203 11060 21080 39802 40185 57002 70222 87010;
0249010470999992013011306004+69000+023033FM-12+0307ENKA V0201801N003019999999N0700001N1-00901-01021101801ADDAA124000091AJ100609199999999AY121061AY211061GF106991061001012501011001IA1239KA1999N-01011MA1999999097971MD1710021+9999MW1021REMSYN094AAXX  13061 01047 31688 61803 11090 21102 39797 40180 57002 70221 86010 333 21101 47060 70000;EQDQ01  00002PRCP24
0161010470999992013011309004+69000+023033FM-12+0307ENKA V0201801N001019999999N0700001N1-01111-01231101801ADDAY121031AY221031GF108991081001012501071999MA1999999097961MD1410001+9999MW1021REMSYN072AAXX  13091 01047 41688 81801 11111 21123 39796 40180 54001 70222 8807/;
0161010470999992013011312004+69000+023033FM-12+0307ENKA V0201801N003010300019N0700001N1-00841-00961101731ADDAY121061AY221061GF107991031051008001071001MA1999999097901MD1710061+9999MW1021REMSYN072AAXX  13121 01047 41588 71803 11084 21096 39790 40173 57006 70222 83570;
0161010470999992013011315004+69000+023033FM-12+0307ENKA V0201801N003010075019N0700001N1-01201-01351101681ADDAY121031AY221031GF107991071051008001001001MA1999999097831MD1710071+9999MW1021REMSYN072AAXX  13151 01047 41588 71803 11120 21135 39783 40168 57007 70222 87500;
0220010470999992013011318004+69000+023033FM-12+0307ENKA V0203201N001010075019N0700001N1-00881-01001101601ADDAA112000091AY171061AY221061GF108991081001008001021999KA1999M-00781MA1999999097771MD1710071+9999MW1021REMSYN088AAXX  13181 01047 11588 83201 11088 21100 39777 40160 57007 69912 70272 8802/ 333 11078;EQDQ01  00002PRCP12
0161010470999992013011400004+69000+023033FM-12+0307ENKA V0209999C000010075019N0700001N1-00781-00901101361ADDAY171061AY221061GF108991081001008001021999MA1999999097551MD1710101+9999MW1021REMSYN072AAXX  14001 01047 41588 80000 11078 21090 39755 40136 57010 70272 8802/;
0247010470999992013011406004+69000+023033FM-12+0307ENKA V0209999C000010075019N0700001N1-01081-01201101251ADDAA112000391AA224000591AJ100619199999999AY171061AY221061GF107991071001008001021001IA1239KA1999N-01081MA1999999097421MD1710041+9999MW1021REMSYN100AAXX  14061 01047 11588 70000 11108 21120 39742 40125 57004 69932 70272 87020 333 21108 47061 70004;
0161010470999992013011409004+69000+023033FM-12+0307ENKA V0209999C000010075019N0600001N1-01051-01171101291ADDAY171031AY221031GF106991061051008001001001MA1999999097471MD1210041+9999MW1021REMSYN072AAXX  14091 01047 41586 60000 11105 21117 39747 40129 52004 70272 86500;
0161010470999992013011412004+69000+023033FM-12+0307ENKA V0203601N001010075019N0600001N1-01101-01221101391ADDAY171061AY221061GF108991081001008001021999MA1999999097561MD1210091+9999MW1021REMSYN072AAXX  14121 01047 41586 83601 11110 21122 39756 40139 52009 70272 8802/;
0161010470999992013011415004+69000+023033FM-12+0307ENKA V0203601N003010006019N0025001N1-00631-00741101551ADDAY121031AY221031GF108991081061000751999999MA1999999097731MD1310161+9999MW1101REMSYN072AAXX  14151 01047 41125 83603 11063 21074 39773 40155 53016 71022 886//;
0220010470999992013011418004+69000+023033FM-12+0307ENKA V0201801N003010075019N0700001N1-00801-00911101671ADDAA112000091AY121061AY221061GF108991081001008001021999KA1999M-00631MA1999999097831MD1210111+9999MW1021REMSYN088AAXX  14181 01047 11588 81803 11080 21091 39783 40167 52011 69912 70222 8802/ 333 11063;EQDQ01  00002PRCP12
0161010470999992013011500004+69000+023033FM-12+0307ENKA V0201801N001010075019N0700001N1-01111-01211101861ADDAY121061AY221061GF105991051051008001001001MA1999999098011MD1310081+9999MW1011REMSYN072AAXX  15001 01047 41588 51801 11111 21121 39801 40186 53008 70122 85500;
0259010470999992013011506004+69000+023033FM-12+0307ENKA V0209999C000010006019N0010001N1-01891-02101102011ADDAA124000091AJ100619199999999AY121061AY221061GA1091+999999999GF109991091999999999999999IA1239KA1999N-02041MA1999999098121MD1010031+9999MW1101REMSYN088AAXX  15061 01047 31/10 90000 11189 21210 39812 40201 50003 71022 333 21204 47061 70001;EQDQ01  00002PRCP24
0171010470999992013011509004+69000+023033FM-12+0307ENKA V0201801N003010003019N0002001N1-01901-02091102111ADDAY141031AY241031GA1091+999999999GF109991091999999999999999MA1999999098221MD1210091+9999MW1491REMSYN066AAXX  15091 01047 41/02 91803 11190 21209 39822 40211 52009 74944;
0171010470999992013011512004+69000+023033FM-12+0307ENKA V0201801N003010003019N0005001N1-02201-02401102191ADDAY141061AY241061GA1091+999999999GF109991091999999999999999MA1999999098271MD1210071+9999MW1421REMSYN066AAXX  15121 01047 41/05 91803 11220 21240 39827 40219 52007 74244;
0161010470999992013011515004+69000+023033FM-12+0307ENKA V0203201N001010012019N0020001N1-02341-02541102191ADDAY141031AY221031GF108991081061001501999999MA1999999098271MD1510001+9999MW1101REMSYN072AAXX  15151 01047 41220 83201 11234 21254 39827 40219 55000 71042 886//;
0201010470999992013011518004+69000+023033FM-12+0307ENKA V0209999C000010042019N0030001N1-02041-02241102201ADDAA112000021AY171061AY221061GF108991081001004501021999KA1999M-01151MA1999999098301MD1210021+9999MW1711REMSYN088AAXX  15181 01047 11430 80000 11204 21224 39830 40220 52002 69912 77172 8802/ 333 11115;
0161010470999992013011600004+69000+023033FM-12+0307ENKA V0200501N003010042019N0020001N1-01631-01831102041ADDAY171061AY221061GF108991081001004501021999MA1999999098161MD1710081+9999MW1711REMSYN072AAXX  16001 01047 41420 80503 11163 21183 39816 40204 57008 77172 8802/;
0247010470999992013011606004+69000+023033FM-12+0307ENKA V0209999C000010075019N0050001N1-01341-01561101931ADDAA112000021AA224000391AJ100629199999999AY171061AY221061GF108991081001008001021999IA1239KA1999N-02051MA1999999098061MD1710071+9999MW1101REMSYN100AAXX  16061 01047 11550 80000 11134 21156 39806 40193 57007 69922 71072 8802/ 333 21205 47062 70003;
0161010470999992013011609004+69000+023033FM-12+0307ENKA V0202201N003010042019N0300001N1-01141-01321101951ADDAY121031AY221031GF108991081051004501999999MA1999999098101MD1210041+9999MW1021REMSYN072AAXX  16091 01047 41480 82203 11114 21132 39810 40195 52004 70222 885//;
0161010470999992013011612004+69000+023033FM-12+0307ENKA V0201801N005019999999N0600001N1-01381-01561101981ADDAY121061AY221061GF106991061001012501011001MA1999999098121MD1210021+9999MW1021REMSYN072AAXX  16121 01047 41686 61805 11138 21156 39812 40198 52002 70222 86010;
0161010470999992013011615004+69000+023033FM-12+0307ENKA V0201801N003012200019N0600001N1-01621-01811102001ADDAY121031AY221031GF104991041001012501011001MA1999999098121MD1410001+9999MW1011REMSYN072AAXX  16151 01047 41686 41803 11162 21181 39812 40200 54001 70122 84010;
0194010470999992013011618004+69000+023033FM-12+0307ENKA V0201801N003012200019N0600001N1-01981-02201102021ADDAY101061AY201061GA1001+999999999GF100991001001999999001001KA1999M-01051MA1999999098121MD1510001+9999MW1021REMSYN076AAXX  16181 01047 31986 01803 11198 21220 39812 40202 55000 70200 333 11105;
0171010470999992013011700004+69000+023033FM-12+0307ENKA V0201401N003012200019N0700001N1-02061-02291102031ADDAY101061AY201061GA1001+999999999GF100991001001999999001001MA1999999098131MD1410001+9999MW1021REMSYN066AAXX  17001 01047 41988 01403 11206 21229 39813 40203 54001 70200;
0249010470999992013011706004+69000+023033FM-12+0307ENKA V0201401N001010150019N0700001N1-01861-02091101901ADDAA124000091AJ100629199999999AY111061AY201061GF105991051001017501011001IA1239KA1999N-02061MA1999999098021MD1710091+9999MW1021REMSYN094AAXX  17061 01047 31788 51401 11186 21209 39802 40190 57009 70210 85010 333 21206 47062 70000;EQDQ01  00002PRCP24
0161010470999992013011709004+69000+023033FM-12+0307ENKA V0201601N005010075019N0700001N1-01461-01661101801ADDAY121031AY221031GF107991071051008001001001MA1999999097931MD1710081+9999MW1031REMSYN072AAXX  17091 01047 41588 71605 11146 21166 39793 40180 57008 70322 87500;
0161010470999992013011712004+69000+023033FM-12+0307ENKA V0201601N003019999999N0700001N1-01501-01701101701ADDAY121061AY221061GF108991081001012501071999MA1999999097831MD1810101+9999MW1021REMSYN072AAXX  17121 01047 41688 81603 11150 21170 39783 40170 58010 70222 8807/;
0161010470999992013011715004+69000+023033FM-12+0307ENKA V0201601N005019999999N0700001N1-01481-01681101621ADDAY121031AY221031GF108991081001012501011999MA1999999097771MD1710071+9999MW1021REMSYN072AAXX  17151 01047 41688 81605 11148 21168 39777 40162 57007 70222 8801/;
0184010470999992013011718004+69000+023033FM-12+0307ENKA V0201601N005019999999N0700001N1-01461-01651101441ADDAY121061AY221061GF108991081001012501011999KA1999M-01351MA1999999097581MD1810171+9999MW1021REMSYN082AAXX  17181 01047 31688 81605 11146 21165 39758 40144 58017 70222 8801/ 333 11135;
0161010470999992013011800004+69000+023033FM-12+0307ENKA V0201801N007010075019N0040001N1-01131-01311100971ADDAY171061AY221061GF108991081001008001021999MA1999999097161MD1810231+9999MW1711REMSYN072AAXX  18001 01047 41540 81807 11113 21131 39716 40097 58023 77172 8802/;
0247010470999992013011806004+69000+023033FM-12+0307ENKA V0201801N007010120019N0700001N1-00471-00711100301ADDAA112000021AA224000021AJ100619199999999AY171061AY221061GF108991081001012501021999IA1239KA1999N-01461MA1999999096531MD1810281+9999MW1021REMSYN100AAXX  18061 01047 11688 81807 11047 21071 39653 40030 58028 69912 70272 8802/ 333 21146 47061 70001;
0161010470999992013011809004+69000+023033FM-12+0307ENKA V0201801N007019999999N0700001N1-00231-00411100281ADDAY121031AY221031GF108991081001012501071999MA1999999096521MD1710011+9999MW1021REMSYN072AAXX  18091 01047 41688 81807 11023 21041 39652 40028 57001 70222 8807/;
0161010470999992013011812004+69000+023033FM-12+0307ENKA V0201801N005012200019N0700001N1-00261-00611100321ADDAY121061AY221061GF104991011051008001071001MA1999999096571MD1210041+9999MW1011REMSYN072AAXX  18121 01047 41588 41805 11026 21061 39657 40032 52004 70122 81570;
0161010470999992013011815004+69000+023033FM-12+0307ENKA V0201601N005019999999N0700001N1-00741-01021100271ADDAY121031AY221031GF106991061001012501071001MA1999999096501MD1710061+9999MW1031REMSYN072AAXX  18151 01047 41688 61605 11074 21102 39650 40027 57006 70322 86070;
0184010470999992013011818004+69000+023033FM-12+0307ENKA V0201601N001019999999N0700001N1-00561-00681100151ADDAY121061AY221061GF108991081001012501071999KA1999M-00021MA1999999096381MD1710101+9999MW1021REMSYN082AAXX  18181 01047 31688 81601 11056 21068 39638 40015 57010 70222 8807/ 333 11002;
0161010470999992013011900004+69000+023033FM-12+0307ENKA V0203601N005010075019N0030001N1-00181-00311100061ADDAY171061AY221061GF108991081001008001021999MA1999999096321MD1310091+9999MW1711REMSYN072AAXX  19001 01047 41530 83605 11018 21031 39632 40006 53009 77172 8802/;
0247010470999992013011906004+69000+023033FM-12+0307ENKA V0203201N005012200019N0700001N1-00591-00951100251ADDAA112000591AA224000591AJ100629199999999AY171061AY221061GF103991031001017501071001IA1239KA1999N-00781MA1999999096481MD1310121+9999MW1021REMSYN100AAXX  19061 01047 11788 33205 11059 21095 39648 40025 53012 69942 70272 83070 333 21078 47062 70004;
0161010470999992013011909004+69000+023033FM-12+0307ENKA V0203201N005012200019N0700001N1-00441-00791100291ADDAY111031AY211031GF103991031001017501071001MA1999999096521MD1310051+9999MW1011REMSYN072AAXX  19091 01047 41788 33205 11044 21079 39652 40029 53005 70111 83070;
0161010470999992013011912004+69000+023033FM-12+0307ENKA V0203201N007010300019N0700001N1-00461-00811100541ADDAY111061AY211061GF105991021051008001071001MA1999999096771MD1210231+9999MW1031REMSYN072AAXX  19121 01047 41588 53207 11046 21081 39677 40054 52023 70311 82570;
0161010470999992013011915004+69000+023033FM-12+0307ENKA V0203201N007010300019N0700001N1-00621-00901100691ADDAY121031AY221031GF106991041051008001071001MA1999999096911MD1310161+9999MW1031REMSYN072AAXX  19151 01047 41588 63207 11062 21090 39691 40069 53016 70322 84570;
0230010470999992013011918004+69000+023033FM-12+0307ENKA V0203201N007012200019N0700001N1-00581-01001100891ADDAA112000091AY111061AY211061GA1001+999999999GF100991001001999999001001KA1999M-00351MA1999999097101MD1110151+9999MW1011REMSYN082AAXX  19181 01047 11988 03207 11058 21100 39710 40089 51015 69912 70111 333 11035;EQDQ01  00002PRCP12
0161010470999992013012000004+69000+023033FM-12+0307ENKA V0203201N007010075019N0700001N1-00681-01021101171ADDAY111061AY211061GF105991051051008001001001MA1999999097371MD1210111+9999MW1031REMSYN072AAXX  20001 01047 41588 53207 11068 21102 39737 40117 52011 70311 85500;
0247010470999992013012006004+69000+023033FM-12+0307ENKA V0203201N005010075019N0700001N1-00791-01071101421ADDAA112000591AA224000591AJ100639199999999AY171061AY211061GF106991061051008001001001IA1239KA1999N-00911MA1999999097601MD1210111+9999MW1021REMSYN100AAXX  20061 01047 11588 63205 11079 21107 39760 40142 52011 69952 70271 86500 333 21091 47063 70006;
0161010470999992013012009004+69000+023033FM-12+0307ENKA V0203201N005019999999N0700001N1-00821-01101101541ADDAY121031AY221031GF106991061001012501071001MA1999999097721MD1310131+9999MW1021REMSYN072AAXX  20091 01047 41688 63205 11082 21110 39772 40154 53013 70222 86070;
0161010470999992013012012004+69000+023033FM-12+0307ENKA V0203201N007012200019N0700001N1-00881-01301101641ADDAY121061AY221061GF104991041001012501071001MA1999999097811MD1010071+9999MW1011REMSYN072AAXX  20121 01047 41688 43207 11088 21130 39781 40164 50007 70122 84070;
0161010470999992013012015004+69000+023033FM-12+0307ENKA V0203201N007010075019N0700001N1-00611-01031101531ADDAY121031AY221031GF108991081051008001999999MA1999999097721MD1810081+9999MW1021REMSYN072AAXX  20151 01047 41588 83207 11061 21103 39772 40153 58008 70222 885//;
0184010470999992013012018004+69000+023033FM-12+0307ENKA V0203001N007010075019N0700001N1-00401-01111101361ADDAY121061AY221061GF108991081001008001021999KA1999M-00401MA1999999097561MD1810161+9999MW1021REMSYN082AAXX  20181 01047 31588 83007 11040 21111 39756 40136 58016 70222 8802/ 333 11040;
0161010470999992013012100004+69000+023033FM-12+0307ENKA V0203001N005010120019N0700001N1-00141-00721101141ADDAY121061AY221061GF108991081001012501021999MA1999999097361MD1810121+9999MW1021REMSYN072AAXX  21001 01047 41688 83005 11014 21072 39736 40114 58012 70222 8802/;
0249010470999992013012106004+69000+023033FM-12+0307ENKA V0203001N003010120019N0700001N1-00191-00661100611ADDAA124000091AJ100639199999999AY121061AY221061GF107991071001012501021001IA1239KA1999N-00401MA1999999096851MD1610291+9999MW1021REMSYN094AAXX  21061 01047 31688 73003 11019 21066 39685 40061 56029 70222 87020 333 21040 47063 70000;EQDQ01  00002PRCP24
0161010470999992013012109004+69000+023033FM-12+0307ENKA V0203201N003010075019N0700001N1-00081-00521100491ADDAY121031AY221031GF107991071051008001001001MA1999999096731MD1610101+9999MW1021REMSYN072AAXX  21091 01047 41588 73203 11008 21052 39673 40049 56010 70222 87500;
0161010470999992013012112004+69000+023033FM-12+0307ENKA V0202701N005012200019N0700001N1-00161-00561100341ADDAY121061AY221061GF104991031051008001041001MA1999999096581MD1810151+9999MW1011REMSYN072AAXX  21121 01047 41588 42705 11016 21056 39658 40034 58015 70122 83540;
0161010470999992013012115004+69000+023033FM-12+0307ENKA V0202701N005012200019N0700001N1-00111-00471100181ADDAY111031AY211031GF103991031051008001001001MA1999999096431MD1610161+9999MW1031REMSYN072AAXX  21151 01047 41588 32705 11011 21047 39643 40018 56016 70311 83500;
0194010470999992013012118004+69000+023033FM-12+0307ENKA V0203001N005012200019N0700001N1-00231-00581100151ADDAY101061AY201061GA1001+999999999GF100991001001999999001001KA1999M+00001MA1999999096411MD1710021+9999MW1011REMSYN076AAXX  21181 01047 31988 03005 11023 21058 39641 40015 57002 70100 333 10000;
0171010470999992013012200004+69000+023033FM-12+0307ENKA V0202201N005012200019N0700001N1-00441-00791100101ADDAY101061AY201061GA1001+999999999GF100991001001999999001001MA1999999096351MD1810061+9999MW1021REMSYN066AAXX  22001 01047 41988 02205 11044 21079 39635 40010 58006 70200;
0249010470999992013012206004+69000+023033FM-12+0307ENKA V0203201N005010075019N0700001N1-00531-00891100141ADDAA124000091AJ100619199999999AY121061AY211061GF106991061001008001021001IA1239KA1999N-00531MA1999999096371MD1010021+9999MW1021REMSYN094AAXX  22061 01047 31588 63205 11053 21089 39637 40014 50002 70221 86020 333 21053 47061 70000;EQDQ01  00002PRCP24
0161010470999992013012209004+69000+023033FM-12+0307ENKA V0202201N003010042019N0550001N1-00701-00951100011ADDAY121031AY221031GF107991071001004501021001MA1999999096251MD1710131+9999MW1031REMSYN072AAXX  22091 01047 41485 72203 11070 21095 39625 40001 57013 70322 87020;
0161010470999992013012212004+69000+023033FM-12+0307ENKA V0203401N007012200019N0600001N1-00861-01201100181ADDAY181061AY221061GF103991031001008001021001MA1999999096411MD1310161+9999MW1011REMSYN072AAXX  22121 01047 41586 33407 11086 21120 39641 40018 53016 70182 83020;
0161010470999992013012215004+69000+023033FM-12+0307ENKA V0203401N007010075019N0600001N1-00901-01241100291ADDAY111031AY211031GF106991061001008001021001MA1999999096511MD1210101+9999MW1031REMSYN072AAXX  22151 01047 41586 63407 11090 21124 39651 40029 52010 70311 86020;
0211010470999992013012218004+69000+023033FM-12+0307ENKA V0203401N005012200019N0700001N1-01021-01341100281ADDAA112000391AY111061AY211061GA1001+999999999GF100991001001999999001001KA1999M-00421MA1999999096501MD1810011+9999MW1011REMSYN082AAXX  22181 01047 11988 03405 11102 21134 39650 40028 58001 69932 70111 333 11042;
0161010470999992013012300004+69000+023033FM-12+0307ENKA V0203201N007012200019N0600001N1-01001-01291100211ADDAY181061AY221061GF103991031091004501001001MA1999999096421MD1710051+9999MW1011REMSYN072AAXX  23001 01047 41486 33207 11100 21129 39642 40021 57005 70182 83900;
0266010470999992013012306004+69000+023033FM-12+0307ENKA V0203201N005012200019N0700001N1-01021-01431100031ADDAA112000091AA224000591AJ100619199999999AY181061AY211061GF104991041041008001001001IA1239KA1999N-01131MA1999999096261MD1710111+9999MW1021REMSYN100AAXX  23061 01047 11588 43205 11102 21143 39626 40003 57011 69922 70281 84400 333 21113 47061 70005;EQDQ01  00002PRCP12
0161010470999992013012309004+69000+023033FM-12+0307ENKA V0202201N007012200019N0600001N1-00921-01331099881ADDAY111031AY211031GF104991031091004501041001MA1999999096121MD1810131+9999MW1031REMSYN072AAXX  23091 01047 41486 42207 11092 21133 39612 49988 58013 70311 83940;
0161010470999992013012312004+69000+023033FM-12+0307ENKA V0203201N010010042019N0500001N1-00721-01081099861ADDAY181061AY231061GF108991081001004501021999MA1999999096111MD1510021+9999MW1361REMSYN072AAXX  23121 01047 41484 83210 11072 21108 39611 49986 55002 73683 8802/;
0161010470999992013012315004+69000+023033FM-12+0307ENKA V0203201N010010042019N0500001N1-00641-00841099951ADDAY181031AY231031GF105991051091004501001001MA1999999096201MD1310091+9999MW1361REMSYN072AAXX  23151 01047 41484 53210 11064 21084 39620 49995 53009 73683 85900;
0201010470999992013012318004+69000+023033FM-12+0307ENKA V0203201N007010300019N0600001N1-00611-00901100111ADDAA112000891AY181061AY231061GF105991041041008001041001KA1999M-00551MA1999999096351MD1310151+9999MW1021REMSYN088AAXX  23181 01047 11586 53207 11061 21090 39635 40011 53015 69982 70283 84440 333 11055;
0161010470999992013012400004+69000+023033FM-12+0307ENKA V0203201N007012200019N0700001N1-00601-00861100411ADDAY111061AY211061GF104991021041008001041001MA1999999096631MD1310141+9999MW1021REMSYN072AAXX  24001 01047 41588 43207 11060 21086 39663 40041 53014 70211 82440;
0230010470999992013012406004+69000+023033FM-12+0307ENKA V0203201N001019999999N0700001N1-00921-01141100681ADDAA124000891AJ100589199999999AY121061AY211061GF105991051001012501071001IA1239KA1999N-00921MA1999999096881MD1310101+9999MW1021REMSYN094AAXX  24061 01047 31688 53201 11092 21114 39688 40068 53010 70221 85070 333 21092 47058 70008;
0161010470999992013012409004+69000+023033FM-12+0307ENKA V0202201N001010075019N0025001N1-01001-01221100721ADDAY171031AY221031GF108991081001008001021999MA1999999096921MD1010041+9999MW1711REMSYN072AAXX  24091 01047 41525 82201 11100 21122 39692 40072 50004 77172 8802/;
0161010470999992013012412004+69000+023033FM-12+0307ENKA V0202201N001010300019N0600001N1-01251-01431100721ADDAY171061AY221061GF106991021051004501021001MA1999999096911MD1410001+9999MW1011REMSYN072AAXX  24121 01047 41486 62201 11125 21143 39691 40072 54001 70172 82520;
0161010470999992013012415004+69000+023033FM-12+0307ENKA V0201401N005019999999N0700001N1-01511-01641100711ADDAY121031AY221031GF105991051001012501071001MA1999999096881MD1710031+9999MW1021REMSYN072AAXX  24151 01047 41688 51405 11151 21164 39688 40071 57003 70222 85070;
0201010470999992013012418004+69000+023033FM-12+0307ENKA V0202701N005019999999N0700001N1-01401-01611100661ADDAA112000021AY121061AY221061GF105991051001012501071001KA1999M-00801MA1999999096851MD1710041+9999MW1021REMSYN088AAXX  24181 01047 11688 52705 11140 21161 39685 40066 57004 69922 70222 85070 333 11080;
0161010470999992013012500004+69000+023033FM-12+0307ENKA V0201801N005012200019N0700001N1-02111-02301100521ADDAY121061AY221061GF102991021001017501071001MA1999999096671MD1810101+9999MW1011REMSYN072AAXX  25001 01047 41788 21805 11211 21230 39667 40052 58010 70122 82070;
0230010470999992013012506004+69000+023033FM-12+0307ENKA V0201801N003012200019N0700001N1-02191-02391100441ADDAA124000391AJ100589199999999AY121061AY211061GF103991031001017501071001IA1239KA1999N-02341MA1999999096601MD1810021+9999MW1021REMSYN094AAXX  25061 01047 31788 31803 11219 21239 39660 40044 58002 70221 83070 333 21234 47058 70002;
0161010470999992013012509004+69000+023033FM-12+0307ENKA V0202201N003012200019N0700001N1-02461-02671100471ADDAY101031AY201031GF103991031001012501071001MA1999999096621MD1210021+9999MW1021REMSYN072AAXX  25091 01047 41688 32203 11246 21267 39662 40047 52002 70200 83070;
0161010470999992013012512004+69000+023033FM-12+0307ENKA V0202201N003012200019N0600001N1-02481-02691100411ADDAY101061AY201061GF104991021051008001071001MA1999999096561MD1710051+9999MW1021REMSYN072AAXX  25121 01047 41586 42203 11248 21269 39656 40041 57005 70200 82570;
0161010470999992013012515004+69000+023033FM-12+0307ENKA V0202201N001012200019N0600001N1-02641-02831100391ADDAY101031AY201031GF103991031001012501071001MA1999999096521MD1710041+9999MW1011REMSYN072AAXX  25151 01047 41686 32201 11264 21283 39652 40039 57004 70100 83070;
0184010470999992013012518004+69000+023033FM-12+0307ENKA V0201801N005012200019N0700001N1-02901-03101100351ADDAY101061AY201061GF102991021001012501071001KA1999M-01441MA1999999096471MD1510051+9999MW1021REMSYN082AAXX  25181 01047 31688 21805 11290 21310 39647 40035 55005 70200 82070 333 11144;
0161010470999992013012600004+69000+023033FM-12+0307ENKA V0200501N001019999999N0600001N1-02981-03181100231ADDAY111061AY211061GF105991001001999999001081MA1999999096361MD1710071+9999MW1021REMSYN072AAXX  26001 01047 41986 50501 11298 21318 39636 40023 57007 70211 80008;
0249010470999992013012606004+69000+023033FM-12+0307ENKA V0209999C000010150019N0300001N1-02981-03181100131ADDAA124000091AJ100589199999999AY121061AY211061GF106991061001017501011001IA1239KA1999N-03111MA1999999096271MD1810061+9999MW1021REMSYN094AAXX  26061 01047 31780 60000 11298 21318 39627 40013 58006 70221 86010 333 21311 47058 70000;EQDQ01  00002PRCP24
0161010470999992013012609004+69000+023033FM-12+0307ENKA V0201801N001010075019N0500001N1-02981-03181100141ADDAY121031AY221031GF108991081001008001021999MA1999999096271MD1510011+9999MW1021REMSYN072AAXX  26091 01047 41584 81801 11298 21318 39627 40014 55001 70222 8802/;
0161010470999992013012612004+69000+023033FM-12+0307ENKA V0202201N001010075019N0300001N1-02561-02771100031ADDAY121061AY221061GF108991081001008001021999MA1999999096181MD1710091+9999MW1021REMSYN072AAXX  26121 01047 41580 82201 11256 21277 39618 40003 57009 70222 8802/;
0201010470999992013012618004+69000+023033FM-12+0307ENKA V0209999C000010075019N0200001N1-02081-02301099761ADDAA112002091AY171061AY271061GF108991081001008001021999KA1999M-02001MA1999999095951MD1710131+9999MW1711REMSYN088AAXX  26181 01047 11570 80000 11208 21230 39595 49976 57013 60022 77177 8802/ 333 11200;
0161010470999992013012700004+69000+023033FM-12+0307ENKA V0209999C000010042019N0600001N1-02041-02261099671ADDAY171061AY221061GF108991081051004501999999MA1999999095871MD1710041+9999MW1021REMSYN072AAXX  27001 01047 41486 80000 11204 21226 39587 49967 57004 70272 885//;
0247010470999992013012706004+69000+023033FM-12+0307ENKA V0209999C000010075019N0650001N1-01961-02181099641ADDAA112000391AA224002891AJ100619199999999AY171061AY221061GF108991081001008001021999IA1239KA1999N-02211MA1999999095831MD1810021+9999MW1021REMSYN100AAXX  27061 01047 11587 80000 11196 21218 39583 49964 58002 69932 70272 8802/ 333 21221 47061 70027;
0161010470999992013012709004+69000+023033FM-12+0307ENKA V0202201N001012200019N0650001N1-02621-02841099721ADDAY121031AY221031GF103991031051008001001001MA1999999095881MD1310051+9999MW1011REMSYN072AAXX  27091 01047 41587 32201 11262 21284 39588 49972 53005 70122 83500;
0161010470999992013012712004+69000+023033FM-12+0307ENKA V0201801N003012200019N0650001N1-02911-03151099791ADDAY101061AY201061GF101991011011012501001001MA1999999095931MD1010051+9999MW1021REMSYN072AAXX  27121 01047 41687 11803 11291 21315 39593 49979 50005 70200 81100;
0171010470999992013012715004+69000+023033FM-12+0307ENKA V0201801N003012200019N0600001N1-03311-03541099841ADDAY101031AY201031GA1001+999999999GF100991001001999999001001MA1999999095971MD1010031+9999MW1021REMSYN066AAXX  27151 01047 41986 01803 11331 21354 39597 49984 50003 70200;
0171010470999992013012800004+69000+023033FM-12+0307ENKA V0201801N003012200019N0600001N1-03681-03901099911ADDAY101061AY201061GA1001+999999999GF100991001001999999001001MA1999999096021MD1210031+9999MW1021REMSYN066AAXX  28001 01047 41986 01803 11368 21390 39602 49991 52003 70200;
0213010470999992013012806004+69000+023033FM-12+0307ENKA V0201801N001012200019N0600001N1-03681-03881099901ADDAJ100619199999999AY101061AY201061GF103991031001017501011001IA1239KA1999N-03681MA1999999096011MD1810021+9999MW1021REMSYN088AAXX  28061 01047 31786 31801 11368 21388 39601 49990 58002 70200 83010 333 21368 47061;
0161010470999992013012809004+69000+023033FM-12+0307ENKA V0201801N001010120019N0600001N1-03221-03431099821ADDAY121031AY201031GF107991071001012501021001MA1999999095961MD1710051+9999MW1031REMSYN072AAXX  28091 01047 41686 71801 11322 21343 39596 49982 57005 70320 87020;
0161010470999992013012812004+69000+023033FM-12+0307ENKA V0209999C000010075019N0600001N1-02761-03001099621ADDAY121061AY221061GF108991081001008001021999MA1999999095781MD1710171+9999MW1021REMSYN072AAXX  28121 01047 41586 80000 11276 21300 39578 49962 57017 70222 8802/;
0161010470999992013012815004+69000+023033FM-12+0307ENKA V0200501N001010075019N0015001N1-02211-02461099351ADDAY171031AY221031GF108991081001008001021999MA1999999095551MD1610251+9999MW1731REMSYN072AAXX  28151 01047 41515 80501 11221 21246 39555 49935 56025 77372 8802/;
0201010470999992013012818004+69000+023033FM-12+0307ENKA V0200901N003010075019N0007001N1-01241-01411099051ADDAA112003091AY171061AY271061GF108991081001008001021999KA1999M-01241MA1999999095301MD1710251+9999MW1731REMSYN088AAXX  28181 01047 11507 80903 11124 21141 39530 49905 57025 60032 77377 8802/ 333 11124;
0161010470999992013012900004+69000+023033FM-12+0307ENKA V0203601N003010075019N0040001N1-01231-01401098771ADDAY171061AY271061GF108991081001008001021999MA1999999095031MD1710091+9999MW1711REMSYN072AAXX  29001 01047 41540 83603 11123 21140 39503 49877 57009 77177 8802/;
0247010470999992013012906004+69000+023033FM-12+0307ENKA V0209999C000010075019N0600001N1-01131-01301098701ADDAA112003091AA224006191AJ100679199999999AY171061AY221061GF108991081001008001021999IA1239KA1999N-01251MA1999999094971MD1510021+9999MW1021REMSYN100AAXX  29061 01047 11586 80000 11113 21130 39497 49870 55002 60032 70272 8802/ 333 21125 47067 70061;
0161010470999992013012909004+69000+023033FM-12+0307ENKA V0203601N001010075019N0007001N1-01131-01301098701ADDAY171031AY221031GF108991081001008001021999MA1999999094971MD1210011+9999MW1731REMSYN072AAXX  29091 01047 41507 83601 11113 21130 39497 49870 52001 77372 8802/;
0161010470999992013012912004+69000+023033FM-12+0307ENKA V0203601N001010075019N0100001N1-01161-01311098731ADDAY171061AY271061GF108991081001008001021999MA1999999095001MD1210041+9999MW1711REMSYN072AAXX  29121 01047 41560 83601 11116 21131 39500 49873 52004 77177 8802/;
0161010470999992013012915004+69000+023033FM-12+0307ENKA V0209999C000010075019N0200001N1-01041-01201098751ADDAY171031AY271031GF108991081001008001021999MA1999999095021MD1210021+9999MW1711REMSYN072AAXX  29151 01047 41570 80000 11104 21120 39502 49875 52002 77177 8802/;
0201010470999992013012918004+69000+023033FM-12+0307ENKA V0201801N003010075019N0200001N1-01101-01251098851ADDAA112003091AY171061AY271061GF108991081001008001021999KA1999M-00921MA1999999095121MD1210091+9999MW1711REMSYN088AAXX  29181 01047 11570 81803 11110 21125 39512 49885 52009 60032 77177 8802/ 333 11092;
0161010470999992013013000004+69000+023033FM-12+0307ENKA V0201401N003012200019N0700001N1-02501-02751099061ADDAY171061AY211061GF103991031001008001041001MA1999999095261MD1110101+9999MW1021REMSYN072AAXX  30001 01047 41588 31403 11250 21275 39526 49906 51010 70271 83040;
0247010470999992013013006004+69000+023033FM-12+0307ENKA V0201401N003012200019N0700001N1-03001-03241098931ADDAA112000021AA224002591AJ100679199999999AY171061AY221061GF102991021001017501041001IA1239KA1999N-03021MA1999999095111MD1810111+9999MW1021REMSYN100AAXX  30061 01047 11788 21403 11300 21324 39511 49893 58011 69912 70272 82040 333 21302 47067 70026;
0161010470999992013013009004+69000+023033FM-12+0307ENKA V02099999999990012019N0300001N1-02701-02941098781ADDAY121031AY221031GF108991081061001501999999MA1999999094971MD1810111+9999MW1021REMSYN072AAXX  30091 01047 41280 8//// 11270 21294 39497 49878 58011 70222 886//;
0161010470999992013013012004+69000+023033FM-12+0307ENKA V0203601N003010042019N0020001N1-02061-02291098531ADDAY171061AY221061GF108991081001004501021999MA1999999094771MD1810201+9999MW1711REMSYN072AAXX  30121 01047 41420 83603 11206 21229 39477 49853 58020 77172 8802/;
0161010470999992013013015004+69000+023033FM-12+0307ENKA V0200501N001010042019N0080001N1-01721-01921098251ADDAY171031AY271031GF108991081001004501021999MA1999999094511MD1810261+9999MW1711REMSYN072AAXX  30151 01047 41458 80501 11172 21192 39451 49825 58026 77177 8802/;
0201010470999992013013018004+69000+023033FM-12+0307ENKA V0200501N003010042019N0020001N1-01381-01561097961ADDAA112002091AY171061AY271061GF108991081001004501021999KA1999M-01301MA1999999094251MD1710251+9999MW1711REMSYN088AAXX  30181 01047 11420 80503 11138 21156 39425 49796 57025 60022 77177 8802/ 333 11130;
0161010470999992013013100004+69000+023033FM-12+0307ENKA V0209999C000010042019N0008001N1-00921-01031097571ADDAY171061AY271061GF108991081001004501021999MA1999999093881MD1710151+9999MW1731REMSYN072AAXX  31001 01047 41408 80000 11092 21103 39388 49757 57015 77377 8802/;
0247010470999992013013106004+69000+023033FM-12+0307ENKA V0209999C000010075019N0700001N1-00441-00531097441ADDAA112004191AA224005891AJ100779199999999AY171061AY221061GF108991081001008001021999IA1239KA1999N-01381MA1999999093781MD1710051+9999MW1021REMSYN100AAXX  31061 01047 11588 80000 11044 21053 39378 49744 57005 60042 70272 8802/ 333 21138 47077 70058;
0161010470999992013013109004+69000+023033FM-12+0307ENKA V0209999C000010075019N0020001N1-00411-00481097451ADDAY171031AY271031GF108991081001008001021999MA1999999093801MD1310021+9999MW1711REMSYN072AAXX  31091 01047 41520 80000 11041 21048 39380 49745 53002 77177 8802/;
0161010470999992013013112004+69000+023033FM-12+0307ENKA V0200501N001010075019N0007001N1-00381-00491097461ADDAY171061AY271061GF108991081001008001021999MA1999999093811MD1210011+9999MW1731REMSYN072AAXX  31121 01047 41507 80501 11038 21049 39381 49746 52001 77377 8802/;
0161010470999992013013115004+69000+023033FM-12+0307ENKA V0203601N001010075019N0020001N1-00441-00551097501ADDAY171031AY271031GF108991081001008001021999MA1999999093851MD1210031+9999MW1711REMSYN072AAXX  31151 01047 41520 83601 11044 21055 39385 49750 52003 77177 8802/;
0201010470999992013013118004+69000+023033FM-12+0307ENKA V0203601N001010075019N0100001N1-00521-00631097561ADDAA112004191AY171061AY271061GF108991081001008001021999KA1999M-00341MA1999999093901MD1210051+9999MW1711REMSYN088AAXX  31181 01047 11560 83601 11052 21063 39390 49756 52005 60042 77177 8802/ 333 11034;
0161010470999992013020100004+69000+023033FM-12+0307ENKA V0209999C000010300019N0650001N1-01001-01111097731ADDAY171061AY221061GF108991031051004501021999MA1999999094031MD1210061+9999MW1021REMSYN072AAXX  01001 01047 41487 80000 11100 21111 39403 49773 52006 70272 8352/;
0247010470999992013020106004+69000+023033FM-12+0307ENKA V0209999C000010075019N0300001N1-00521-00631097771ADDAA112001091AA224005191AJ100789199999999AY171061AY221061GF108991081001008001021999IA1239KA1999N-01001MA1999999094101MD1210041+9999MW1701REMSYN100AAXX  01061 01047 11580 80000 11052 21063 39410 49777 52004 69992 77072 8802/ 333 21100 47078 70051;
0161010470999992013020109004+69000+023033FM-12+0307ENKA V0203601N003010075019N0250001N1-00451-00561097871ADDAY171031AY271031GF108991081001008001021999MA1999999094201MD1310101+9999MW1711REMSYN072AAXX  01091 01047 41575 83603 11045 21056 39420 49787 53010 77177 8802/;
0161010470999992013020112004+69000+023033FM-12+0307ENKA V0201401N005010075019N0600001N1-00261-00371098021ADDAY171061AY221061GF108991081001008001021999MA1999999094351MD1210151+9999MW1021REMSYN072AAXX  01121 01047 41586 81405 11026 21037 39435 49802 52015 70272 8802/;
0161010470999992013020115004+69000+023033FM-12+0307ENKA V0201401N001010075019N0650001N1-00511-00651098201ADDAY121031AY221031GF108991081001008001021999MA1999999094521MD1210171+9999MW1021REMSYN072AAXX  01151 01047 41587 81401 11051 21065 39452 49820 52017 70222 8802/;
0201010470999992013020118004+69000+023033FM-12+0307ENKA V0201801N001010075019N0650001N1-00501-00621098321ADDAA112000891AY171061AY221061GF108991081001008001021999KA1999M-00221MA1999999094621MD1310101+9999MW1021REMSYN088AAXX  01181 01047 11587 81801 11050 21062 39462 49832 53010 69972 70272 8802/ 333 11022;
0161010470999992013020200004+69000+023033FM-12+0307ENKA V0203601N003010042019N0700001N1-00761-00871098631ADDAY121061AY221061GF108991081051004501999999MA1999999094921MD1210131+9999MW1021REMSYN072AAXX  02001 01047 41488 83603 11076 21087 39492 49863 52013 70222 885//;
0230010470999992013020206004+69000+023033FM-12+0307ENKA V0209999C000010075019N0700001N1-01041-01161098891ADDAA124000891AJ100789199999999AY121061AY221061GF108991081051008001999999IA1239KA1999N-01041MA1999999095161MD1210121+9999MW1021REMSYN094AAXX  02061 01047 31588 80000 11104 21116 39516 49889 52012 70222 885// 333 21104 47078 70007;
0161010470999992013020209004+69000+023033FM-12+0307ENKA V0209999C000010075019N0080001N1-00961-01121099101ADDAY171031AY221031GF108991081001008001021999MA1999999095361MD1210191+9999MW1701REMSYN072AAXX  02091 01047 41558 80000 11096 21112 39536 49910 52019 77072 8802/;
0161010470999992013020212004+69000+023033FM-12+0307ENKA V0209999C000010075019N0200001N1-00971-01151099241ADDAY171061AY271061GF108991081001008001021999MA1999999095501MD1210141+9999MW1711REMSYN072AAXX  02121 01047 41570 80000 11097 21115 39550 49924 52014 77177 8802/;
0161010470999992013020215004+69000+023033FM-12+0307ENKA V0203601N001010075019N0600001N1-01401-01601099411ADDAY171031AY221031GF108991081051008001999999MA1999999095631MD1210141+9999MW1021REMSYN072AAXX  02151 01047 41586 83601 11140 21160 39563 49941 52014 70272 885//;
0201010470999992013020218004+69000+023033FM-12+0307ENKA V0209999C000010300019N0300001N1-01381-01531099501ADDAA112000591AY171061AY221061GF108991041051004501021999KA1999M-00901MA1999999095721MD1210091+9999MW1711REMSYN088AAXX  02181 01047 11480 80000 11138 21153 39572 49950 52009 69962 77172 8452/ 333 11090;
0161010470999992013020300004+69000+023033FM-12+0307ENKA V0203601N001010042019N0300001N1-01141-01291099541ADDAY171061AY221061GF108991061071004501021999MA1999999095771MD1410001+9999MW1701REMSYN072AAXX  03001 01047 41480 83601 11114 21129 39577 49954 54001 77072 8672/;
0247010470999992013020306004+69000+023033FM-12+0307ENKA V0209999C000010075019N0200001N1-00781-00961099441ADDAA112000591AA224001091AJ100809199999999AY171061AY221061GF108991051071008001021999IA1239KA1999N-01381MA1999999095701MD1710051+9999MW1701REMSYN100AAXX  03061 01047 11570 80000 11078 21096 39570 49944 57005 69942 77072 8572/ 333 21138 47080 70010;
0161010470999992013020309004+69000+023033FM-12+0307ENKA V0209999C000010075019N0070001N1-00811-00991099471ADDAY171031AY271031GF108991081001008001021999MA1999999095721MD1210021+9999MW1711REMSYN072AAXX  03091 01047 41557 80000 11081 21099 39572 49947 52002 77177 8802/;
0161010470999992013020312004+69000+023033FM-12+0307ENKA V0203401N001010075019N0030001N1-00961-01161099441ADDAY171061AY271061GF108991081001008001021999MA1999999095681MD1810041+9999MW1711REMSYN072AAXX  03121 01047 41530 83401 11096 21116 39568 49944 58004 77177 8802/;
0161010470999992013020315004+69000+023033FM-12+0307ENKA V0201401N003010075019N0020001N1-00921-01051099391ADDAY171031AY271031GF108991081001008001021999MA1999999095651MD1710041+9999MW1731REMSYN072AAXX  03151 01047 41520 81403 11092 21105 39565 49939 57004 77377 8802/;
0201010470999992013020318004+69000+023033FM-12+0307ENKA V0201401N003010075019N0030001N1-01161-01331099391ADDAA112002091AY171061AY271061GF108991081001008001021999KA1999M-00661MA1999999095631MD1710021+9999MW1711REMSYN088AAXX  03181 01047 11530 81403 11116 21133 39563 49939 57002 60022 77177 8802/ 333 11066;
0161010470999992013020400004+69000+023033FM-12+0307ENKA V0201801N003010075019N0035001N1-01101-01251099231ADDAY171061AY271061GF108991081001008001021999MA1999999095471MD1810121+9999MW1711REMSYN072AAXX  04001 01047 41535 81803 11110 21125 39547 49923 58012 77177 8802/;
0247010470999992013020406004+69000+023033FM-12+0307ENKA V0201801N003010075019N0600001N1-00831-00991099011ADDAA112001091AA224003691AJ100829199999999AY171061AY221061GF108991081001008001021999IA1239KA1999N-01201MA1999999095271MD1710111+9999MW1021REMSYN100AAXX  04061 01047 11586 81803 11083 21099 39527 49901 57011 60012 70272 8802/ 333 21120 47082 70036;
0161010470999992013020409004+69000+023033FM-12+0307ENKA V0201801N003010075019N0005001N1-00841-00971098921ADDAY171031AY221031GF108991081001008001021999MA1999999095201MD1710081+9999MW1731REMSYN072AAXX  04091 01047 41505 81803 11084 21097 39520 49892 57008 77372 8802/;
0161010470999992013020412004+69000+023033FM-12+0307ENKA V0201801N007010042019N0300001N1-00811-01031098851ADDAY171061AY231061GF108991071071004501021999MA1999999095121MD1710081+9999MW1361REMSYN072AAXX  04121 01047 41480 81807 11081 21103 39512 49885 57008 73673 8772/;
0161010470999992013020415004+69000+023033FM-12+0307ENKA V0201801N007010075019N0500001N1-00861-01071098891ADDAY171031AY231031GF108991081001008001021999MA1999999095171MD1010041+9999MW1021REMSYN072AAXX  04151 01047 41584 81807 11086 21107 39517 49889 50004 70273 8802/;
0201010470999992013020418004+69000+023033FM-12+0307ENKA V0201601N007010300019N0070001N1-00581-00771098771ADDAA112000891AY171061AY231061GF108991031071004501021999KA1999M-00581MA1999999095061MD1710111+9999MW1711REMSYN088AAXX  04181 01047 11457 81607 11058 21077 39506 49877 57011 69982 77173 8372/ 333 11058;
0161010470999992013020500004+69000+023033FM-12+0307ENKA V0201601N010010075019N0200001N1-00741-00991098801ADDAY171061AY231061GF106991061001008001021001MA1999999095081MD1210011+9999MW1381REMSYN072AAXX  05001 01047 41570 61610 11074 21099 39508 49880 52001 73873 86020;
0247010470999992013020506004+69000+023033FM-12+0307ENKA V0201601N007010075019N0600001N1-00681-00941099051ADDAA112000391AA224001091AJ100809199999999AY171061AY231061GF108991081001008001021999IA1249KA1999N-00761MA1999999095321MD1210141+9999MW1021REMSYN100AAXX  05061 01047 11586 81607 11068 21094 39532 49905 52014 69932 70273 8802/ 333 21076 48080 70011;
0161010470999992013020509004+69000+023033FM-12+0307ENKA V0201601N007010075019N0500001N1-00661-00921099281ADDAY121031AY221031GF108991081001008001021999MA1999999095551MD1210211+9999MW1021REMSYN072AAXX  05091 01047 41584 81607 11066 21092 39555 49928 52021 70222 8802/;
0161010470999992013020512004+69000+023033FM-12+0307ENKA V0201601N007010042019N0600001N1-00611-00871099481ADDAY121061AY221061GF108991081051004501999999MA1999999095751MD1210201+9999MW1021REMSYN072AAXX  05121 01047 41486 81607 11061 21087 39575 49948 52020 70222 885//;
0161010470999992013020515004+69000+023033FM-12+0307ENKA V0201601N005010300019N0600001N1-00641-00871099701ADDAY121031AY221031GF108991031051004501021999MA1999999095961MD1210241+9999MW1021REMSYN072AAXX  05151 01047 41486 81605 11064 21087 39596 49970 52024 70222 8352/;
0184010470999992013020518004+69000+023033FM-12+0307ENKA V0201601N003010042019N0650001N1-00681-00921099971ADDAY121061AY221061GF108991051051004501021999KA1999M-00551MA1999999096211MD1310231+9999MW1021REMSYN082AAXX  05181 01047 31487 81603 11068 21092 39621 49997 53023 70222 8552/ 333 11055;
0161010470999992013020600004+69000+023033FM-12+0307ENKA V0201601N005010042019N0600001N1-00911-01031100361ADDAY171061AY221061GF108991061071004501021999MA1999999096571MD1110201+9999MW1021REMSYN072AAXX  06001 01047 41486 81605 11091 21103 39657 40036 51020 70272 8672/;
0282010470999992013020606004+69000+023033FM-12+0307ENKA V0201601N005010075019N0650001N1-00931-01131100611ADDAA112000091AA224000091AJ100809199999999AY171061AY221061GF108991061051008001021999IA1249KA1999N-00931MA1999999096821MD1210111+9999MW1021REMSYN100AAXX  06061 01047 11587 81605 11093 21113 39682 40061 52011 69912 70272 8652/ 333 21093 48080 70001;EQDQ01  00002PRCP24Q02  00002PRCP12
0161010470999992013020609004+69000+023033FM-12+0307ENKA V0203201N003010075019N0060001N1-00981-01261100761ADDAY171031AY221031GF108991081001008001021999MA1999999096961MD1210141+9999MW1711REMSYN072AAXX  06091 01047 41556 83203 11098 21126 39696 40076 52014 77172 8802/;
0161010470999992013020612004+69000+023033FM-12+0307ENKA V0203201N001010042019N0500001N1-01021-01341100831ADDAY171061AY221061GF107991071051004501001001MA1999999097021MD1210061+9999MW1781REMSYN072AAXX  06121 01047 41484 73201 11102 21134 39702 40083 52006 77872 87500;
0161010470999992013020615004+69000+023033FM-12+0307ENKA V0209999C000012200019N0600001N1-02001-02311100991ADDAY171031AY221031GF102991021051004501001001MA1999999097131MD1210091+9999MW1011REMSYN072AAXX  06151 01047 41486 20000 11200 21231 39713 40099 52009 70172 82500;
0211010470999992013020618004+69000+023033FM-12+0307ENKA V0201801N003012200019N0600001N1-02681-02971101121ADDAA112000021AY171061AY201061GA1001+999999999GF100991001001999999001001KA1999M-00801MA1999999097221MD1210121+9999MW1021REMSYN082AAXX  06181 01047 11986 01803 11268 21297 39722 40112 52012 69912 70270 333 11080;
0075010470999992013020700004+69000+023033FM-12+0307ENKA V02099999999999999999N9999999N1-02561-02861999999REMSYN066AAXX  07001 01047 41X05 91803 11256 21286 39741 40130 52007 74740;
0230010470999992013020706004+69000+023033FM-12+0307ENKA V0201801N001012200019N0300001N1-02981-03271101411ADDAA124000021AJ100809199999999AY141061AY201061GF104991041001017501071001IA1249KA1999N-02981MA1999999097501MD1210051+9999MW1021REMSYN094AAXX  07061 01047 31780 41801 11298 21327 39750 40141 52005 70240 84070 333 21298 48080 70001;
0161010470999992013020709004+69000+023033FM-12+0307ENKA V0201801N003019999999N0400001N1-03061-03341101531ADDAY121031AY221031GF108991081001012501011999MA1999999097611MD1210101+9999MW1021REMSYN072AAXX  07091 01047 41682 81803 11306 21334 39761 40153 52010 70222 8801/;
0161010470999992013020712004+69000+023033FM-12+0307ENKA V0201801N001012200019N0600001N1-02921-03211101581ADDAY121061AY201061GF102991021001017501041001MA1999999097661MD1110061+9999MW1021REMSYN072AAXX  07121 01047 41786 21801 11292 21321 39766 40158 51006 70220 82040;
0171010470999992013020715004+69000+023033FM-12+0307ENKA V0201801N003012200019N0600001N1-03151-03431101651ADDAY101031AY201031GA1001+999999999GF100991001001999999001001MA1999999097721MD1310051+9999MW1021REMSYN066AAXX  07151 01047 41986 01803 11315 21343 39772 40165 53005 70200;
0194010470999992013020718004+69000+023033FM-12+0307ENKA V0201801N003012200019N0500001N1-03381-03661101751ADDAY101061AY201061GA1001+999999999GF100991001001999999001001KA1999M-02751MA1999999097811MD1210081+9999MW1021REMSYN076AAXX  07181 01047 31984 01803 11338 21366 39781 40175 52008 70200 333 11275;
0161010470999992013020800004+69000+023033FM-12+0307ENKA V0201801N003010012019N0500001N1-03381-03661101891ADDAY121061AY201061GF108991081061001501999999MA1999999097931MD1210041+9999MW1021REMSYN072AAXX  08001 01047 41284 81803 11338 21366 39793 40189 52004 70220 886//;
0249010470999992013020806004+69000+023033FM-12+0307ENKA V0201801N003010150019N0650001N1-02861-03151101961ADDAA124000091AJ100809199999999AY121061AY201061GF107991071001017501071001IA1249KA1999N-03421MA1999999098021MD1210051+9999MW1021REMSYN094AAXX  08061 01047 31787 71803 11286 21315 39802 40196 52005 70220 87070 333 21342 48080 70000;EQDQ01  00002PRCP24
0161010470999992013020809004+69000+023033FM-12+0307ENKA V0209999C000010300019N0650001N1-02541-02841102051ADDAY121031AY221031GF106991031051008001031001MA1999999098121MD1310101+9999MW1021REMSYN072AAXX  08091 01047 41587 60000 11254 21284 39812 40205 53010 70222 83530;
0161010470999992013020812004+69000+023033FM-12+0307ENKA V0201601N001012200019N0650001N1-02361-02661102111ADDAY121061AY221061GF103991031001017501031001MA1999999098201MD1210071+9999MW1011REMSYN072AAXX  08121 01047 41787 31601 11236 21266 39820 40211 52007 70122 83030;
0161010470999992013020815004+69000+023033FM-12+0307ENKA V0201601N005012200019N0650001N1-02681-02971102161ADDAY101031AY201031GF102991021051008001001001MA1999999098221MD1210131+9999MW1021REMSYN072AAXX  08151 01047 41587 21605 11268 21297 39822 40216 52013 70200 82500;
0194010470999992013020818004+69000+023033FM-12+0307ENKA V0201601N005012200019N0650001N1-03031-03321102401ADDAY101061AY201061GA1001+999999999GF100991001001999999001001KA1999M-02201MA1999999098451MD1210131+9999MW1021REMSYN076AAXX  08181 01047 31987 01605 11303 21332 39845 40240 52013 70200 333 11220;
0249010470999992013020906004+69000+023033FM-12+0307ENKA V0209999C000012200019N0650001N1-03341-03621102831ADDAA124000091AJ100809199999999AY101061AY201061GF103991031001017501071001IA1249KA1999N-03341MA1999999098851MD1210071+9999MW1021REMSYN094AAXX  09061 01047 31787 30000 11334 21362 39885 40283 52007 70200 83070 333 21334 48080 70000;EQDQ01  00002PRCP24
0161010470999992013020909004+69000+023033FM-12+0307ENKA V0201801N003019999999N0500001N1-03301-03581102991ADDAY121031AY221031GF108991081001012501011999MA1999999099001MD1210151+9999MW1021REMSYN072AAXX  09091 01047 41684 81803 11330 21358 39900 40299 52015 70222 8801/;
0161010470999992013020912004+69000+023033FM-12+0307ENKA V0201801N003012200019N0500001N1-02921-03211103021ADDAY121061AY221061GF104991041001012501011001MA1999999099051MD1010051+9999MW1011REMSYN072AAXX  09121 01047 41684 41803 11292 21321 39905 40302 50005 70122 84010;
0161010470999992013020915004+69000+023033FM-12+0307ENKA V0201801N003010021019N0500001N1-03001-03291103091ADDAY101031AY201031GF106991061061002501001001MA1999999099111MD1210061+9999MW1031REMSYN072AAXX  09151 01047 41384 61803 11300 21329 39911 40309 52006 70300 86600;
0184010470999992013020918004+69000+023033FM-12+0307ENKA V0201801N003010012019N0400001N1-03021-03311103101ADDAY121061AY221061GF106991061061001501001001KA1999M-02851MA1999999099121MD1010011+9999MW1021REMSYN082AAXX  09181 01047 31282 61803 11302 21331 39912 40310 50001 70222 86600 333 11285;
0161010470999992013021000004+69000+023033FM-12+0307ENKA V0201801N003012200019N0500001N1-02951-03241103031ADDAY121061AY221061GF104991041061002501001001MA1999999099061MD1710031+9999MW1011REMSYN072AAXX  10001 01047 41384 41803 11295 21324 39906 40303 57003 70122 84600;
0249010470999992013021006004+69000+023033FM-12+0307ENKA V0201801N001010150019N0650001N1-02881-03171102921ADDAA124000091AJ100809199999999AY121061AY221061GF106991061001017501071001IA1249KA1999N-03081MA1999999098951MD1710111+9999MW1021REMSYN094AAXX  10061 01047 31787 61801 11288 21317 39895 40292 57011 70222 86070 333 21308 48080 70000;EQDQ01  00002PRCP24
0161010470999992013021009004+69000+023033FM-12+0307ENKA V0201601N003010075019N0600001N1-02421-02721102911ADDAY121031AY221031GF107991071051008001001001MA1999999098971MD1210021+9999MW1031REMSYN072AAXX  10091 01047 41586 71603 11242 21272 39897 40291 52002 70322 87500;
0161010470999992013021012004+69000+023033FM-12+0307ENKA V0201801N001010075019N0650001N1-01841-02151102841ADDAY121061AY221061GF108991081051008001999999MA1999999098921MD1710051+9999MW1021REMSYN072AAXX  10121 01047 41587 81801 11184 21215 39892 40284 57005 70222 885//;
0161010470999992013021015004+69000+023033FM-12+0307ENKA V0209999C000010075019N0200001N1-01601-01921102771ADDAY171031AY221031GF108991081001008001021999MA1999999098871MD1810041+9999MW1711REMSYN072AAXX  10151 01047 41570 80000 11160 21192 39887 40277 58004 77172 8802/;
0201010470999992013021018004+69000+023033FM-12+0307ENKA V0209999C000010075019N0600001N1-01501-01731102761ADDAA112000021AY171061AY221061GF106991061051008001001001KA1999M-01451MA1999999098861MD1410001+9999MW1011REMSYN088AAXX  10181 01047 11586 60000 11150 21173 39886 40276 54000 69912 70172 86500 333 11145;
0171010470999992013021100004+69000+023033FM-12+0307ENKA V0203601N001012200019N0600001N1-02421-02671102811ADDAY101061AY201061GA1001+999999999GF100991001001999999001001MA1999999098871MD1210031+9999MW1021REMSYN066AAXX  11001 01047 41986 03601 11242 21267 39887 40281 52003 70200;
0230010470999992013021106004+69000+023033FM-12+0307ENKA V0203601N001010150019N0650001N1-02411-02661102831ADDAA124000021AJ100819199999999AY111061AY201061GF105991051001017501071001IA1249KA1999N-02591MA1999999098881MD1010031+9999MW1031REMSYN094AAXX  11061 01047 31787 53601 11241 21266 39888 40283 50003 70310 85070 333 21259 48081 70001;
0161010470999992013021109004+69000+023033FM-12+0307ENKA V0209999C000012200019N0650001N1-02521-02781102861ADDAY111031AY211031GF103991031001017501071001MA1999999098911MD1210031+9999MW1011REMSYN072AAXX  11091 01047 41787 30000 11252 21278 39891 40286 52003 70111 83070;
0161010470999992013021112004+69000+023033FM-12+0307ENKA V0202201N001012200019N0650001N1-02151-02421102841ADDAY101061AY201061GF103991031001017501071001MA1999999098911MD1410001+9999MW1021REMSYN072AAXX  11121 01047 41787 32201 11215 21242 39891 40284 54000 70200 83070;
0161010470999992013021115004+69000+023033FM-12+0307ENKA V0201801N003010150019N0650001N1-02361-02611102861ADDAY121031AY201031GF105991051001017501071001MA1999999098921MD1210011+9999MW1031REMSYN072AAXX  11151 01047 41787 51803 11236 21261 39892 40286 52001 70320 85070;
0184010470999992013021118004+69000+023033FM-12+0307ENKA V0201801N003010150019N0650001N1-02181-02451102871ADDAY121061AY221061GF106991061001017501071001KA1999M-01701MA1999999098931MD1210021+9999MW1021REMSYN082AAXX  11181 01047 31787 61803 11218 21245 39893 40287 52002 70222 86070 333 11170;
0161010470999992013021200004+69000+023033FM-12+0307ENKA V0203601N003010042019N0650001N1-01661-01921102941ADDAY121061AY221061GF108991081051004501999999MA1999999099021MD1210051+9999MW1021REMSYN072AAXX  12001 01047 41487 83603 11166 21192 39902 40294 52005 70222 885//;
0249010470999992013021206004+69000+023033FM-12+0307ENKA V0209999C000010075019N0700001N1-01231-01411102961ADDAA124000091AJ100819199999999AY121061AY221061GF107991071051008001001001IA1249KA1999N-02181MA1999999099071MD1210041+9999MW1021REMSYN094AAXX  12061 01047 31588 70000 11123 21141 39907 40296 52004 70222 87500 333 21218 48081 70000;EQDQ01  00002PRCP24
0161010470999992013021209004+69000+023033FM-12+0307ENKA V0201801N001010021019N0030001N1-01181-01371103051ADDAY121031AY221031GF108991081061002501999999MA1999999099161MD1210111+9999MW1101REMSYN072AAXX  12091 01047 41330 81801 11118 21137 39916 40305 52011 71022 886//;
0161010470999992013021212004+69000+023033FM-12+0307ENKA V0201801N001010042019N0025001N1-00781-00901103121ADDAY171061AY221061GF108991081001004501021999MA1999999099231MD1110081+9999MW1711REMSYN072AAXX  12121 01047 41425 81801 11078 21090 39923 40312 51008 77172 8802/;
0161010470999992013021215004+69000+023033FM-12+0307ENKA V0200901N003010042019N0300001N1-00641-00751103121ADDAY171031AY221031GF108991081001004501021999MA1999999099251MD1410001+9999MW1021REMSYN072AAXX  12151 01047 41480 80903 11064 21075 39925 40312 54001 70272 8802/;
0201010470999992013021218004+69000+023033FM-12+0307ENKA V0201601N005010012019N0100001N1-00681-00751103171ADDAA112000591AY171061AY221061GF108991081061001501999999KA1999M-00541MA1999999099281MD1210031+9999MW1711REMSYN088AAXX  12181 01047 11260 81605 11068 21075 39928 40317 52003 69942 77172 886// 333 11054;
0161010470999992013021300004+69000+023033FM-12+0307ENKA V0203401N003010021019N0600001N1-00641-00711103121ADDAY171061AY221061GF108991081061002501999999MA1999999099251MD1810041+9999MW1021REMSYN072AAXX  13001 01047 41386 83403 11064 21071 39925 40312 58004 70272 886//;
0247010470999992013021306004+69000+023033FM-12+0307ENKA V0201801N005010075019N0650001N1-00581-00691103121ADDAA112000021AA224000591AJ100789199999999AY171061AY221061GF108991081071008001999999IA1249KA1999N-00681MA1999999099251MD1210011+9999MW1021REMSYN100AAXX  13061 01047 11587 81805 11058 21069 39925 40312 52001 69912 70272 887// 333 21068 48078 70005;
0161010470999992013021309004+69000+023033FM-12+0307ENKA V0201601N005010042019N0650001N1-00751-00821103151ADDAY121031AY221031GF106991061051004501001001MA1999999099271MD1310041+9999MW1011REMSYN072AAXX  13091 01047 41487 61605 11075 21082 39927 40315 53004 70122 86500;
0161010470999992013021312004+69000+023033FM-12+0307ENKA V0201801N007010042019N0650001N1-00681-00881103111ADDAY121061AY221061GF108991081051004501999999MA1999999099231MD1810021+9999MW1021REMSYN072AAXX  13121 01047 41487 81807 11068 21088 39923 40311 58002 70222 885//;
0161010470999992013021315004+69000+023033FM-12+0307ENKA V0201801N005010075019N0300001N1-00701-00901103081ADDAY171031AY221031GF108991081001008001021999MA1999999099211MD1710041+9999MW1711REMSYN072AAXX  13151 01047 41580 81805 11070 21090 39921 40308 57004 77172 8802/;
0201010470999992013021318004+69000+023033FM-12+0307ENKA V0202201N005010042019N0300001N1-00701-00821102961ADDAA112000021AY171061AY221061GF108991081001004501021999KA1999M-00451MA1999999099081MD1710121+9999MW1701REMSYN088AAXX  13181 01047 11480 82205 11070 21082 39908 40296 57012 69912 77072 8802/ 333 11045;
0161010470999992013021400004+69000+023033FM-12+0307ENKA V0202201N007010021019N0600001N1-00561-00781102671ADDAY171061AY221061GF108991081061002501999999MA1999999098821MD1810171+9999MW1021REMSYN072AAXX  14001 01047 41386 82207 11056 21078 39882 40267 58017 70272 886//;
0247010470999992013021406004+69000+023033FM-12+0307ENKA V0202201N007010042019N0600001N1-00491-00781102421ADDAA112000391AA224000591AJ100799199999999AY171061AY221061GF108991081061004501999999IA1249KA1999N-00701MA1999999098571MD1810101+9999MW1021REMSYN100AAXX  14061 01047 11486 82207 11049 21078 39857 40242 58010 69932 70272 886// 333 21070 48079 70004;
0161010470999992013021409004+69000+023033FM-12+0307ENKA V0202201N007019999999N0700001N1-00471-00821102461ADDAY121031AY221031GF107991071001012501071001MA1999999098621MD1310041+9999MW1021REMSYN072AAXX  14091 01047 41688 72207 11047 21082 39862 40246 53004 70222 87070;
0161010470999992013021412004+69000+023033FM-12+0307ENKA V0202201N007010075019N0700001N1-00491-00921102421ADDAY121061AY221061GF106991061041008001001001MA1999999098571MD1510041+9999MW1021REMSYN072AAXX  14121 01047 41588 62207 11049 21092 39857 40242 55004 70222 86400;
0161010470999992013021415004+69000+023033FM-12+0307ENKA V0202201N003019999999N0700001N1-00571-00931102411ADDAY121031AY211031GF107991071001012501071001MA1999999098571MD1710021+9999MW1021REMSYN072AAXX  14151 01047 41688 72203 11057 21093 39857 40241 57002 70221 87070;
0184010470999992013021418004+69000+023033FM-12+0307ENKA V0202201N003019999999N0700001N1-00521-00911102361ADDAY121061AY221061GF108991081001008001071999KA1999M-00421MA1999999098521MD1710051+9999MW1021REMSYN082AAXX  14181 01047 31588 82203 11052 21091 39852 40236 57005 70222 8807/ 333 11042;
0161010470999992013021500004+69000+023033FM-12+0307ENKA V0203201N005010300019N0300001N1-00651-00861102241ADDAY171061AY221061GF108991031051004501021999MA1999999098401MD1710081+9999MW1701REMSYN072AAXX  15001 01047 41480 83205 11065 21086 39840 40224 57008 77072 8352/;
0247010470999992013021506004+69000+023033FM-12+0307ENKA V0209999C000010075019N0700001N1-00901-01141102131ADDAA112000021AA224000021AJ100809199999999AY171061AY221061GF108991081051008001999999IA1239KA1999N-00901MA1999999098271MD1810061+9999MW1021REMSYN100AAXX  15061 01047 11588 80000 11090 21114 39827 40213 58006 69912 70272 885// 333 21090 47080 70001;
0161010470999992013021509004+69000+023033FM-12+0307ENKA V0203401N003010075019N0600001N1-00741-00981102131ADDAY121031AY221031GF108991081001008001021999MA1999999098281MD1210011+9999MW1021REMSYN072AAXX  15091 01047 41586 83403 11074 21098 39828 40213 52001 70222 8802/;
0161010470999992013021512004+69000+023033FM-12+0307ENKA V0203401N003010075019N0300001N1-00751-01031102111ADDAY171061AY221061GF108991081001008001021999MA1999999098271MD1710021+9999MW1711REMSYN072AAXX  15121 01047 41580 83403 11075 21103 39827 40211 57002 77172 8802/;
0161010470999992013021515004+69000+023033FM-12+0307ENKA V0202201N001010075019N0300001N1-00581-00871102031ADDAY171031AY271031GF108991081001008001021999MA1999999098201MD1710081+9999MW1711REMSYN072AAXX  15151 01047 41580 82201 11058 21087 39820 40203 57008 77177 8802/;
0201010470999992013021518004+69000+023033FM-12+0307ENKA V0209999C000010075019N0300001N1-00681-00891101951ADDAA112000021AY171061AY271061GF108991081001008001021999KA1999M-00441MA1999999098121MD1710071+9999MW1711REMSYN088AAXX  15181 01047 11580 80000 11068 21089 39812 40195 57007 69912 77177 8802/ 333 11044;
0161010470999992013021600004+69000+023033FM-12+0307ENKA V0202201N003010075019N0600001N1-00501-00801101781ADDAY171061AY221061GF108991081001008001021999MA1999999097961MD1710101+9999MW1021REMSYN072AAXX  16001 01047 41586 82203 11050 21080 39796 40178 57010 70272 8802/;
0247010470999992013021606004+69000+023033FM-12+0307ENKA V0209999C000010075019N0650001N1-00591-00781101551ADDAA112000021AA224000391AJ100809199999999AY171061AY221061GF108991081001008001021999IA1239KA1999N-00681MA1999999097731MD1710101+9999MW1021REMSYN100AAXX  16061 01047 11587 80000 11059 21078 39773 40155 57010 69912 70272 8802/ 333 21068 47080 70002;
0161010470999992013021609004+69000+023033FM-12+0307ENKA V0209999C000010075019N0060001N1-00601-00801101521ADDAY171031AY221031GF108991081001008001021999MA1999999097711MD1710031+9999MW1711REMSYN072AAXX  16091 01047 41556 80000 11060 21080 39771 40152 57003 77172 8802/;
0161010470999992013021612004+69000+023033FM-12+0307ENKA V0201801N005010075019N0600001N1-00621-01041101491ADDAY171061AY221061GF105991051051008001001001MA1999999097671MD1710031+9999MW1011REMSYN072AAXX  16121 01047 41586 51805 11062 21104 39767 40149 57003 70172 85500;
0161010470999992013021615004+69000+023033FM-12+0307ENKA V0202201N005010075019N0200001N1-01231-01561101491ADDAY171031AY211031GF108991081001008001021999MA1999999097651MD1710031+9999MW1711REMSYN072AAXX  16151 01047 41570 82205 11123 21156 39765 40149 57003 77171 8802/;
0201010470999992013021618004+69000+023033FM-12+0307ENKA V0202201N003010075019N0600001N1-01231-01471101441ADDAA112000021AY171061AY221061GF108991081001008001021999KA1999M-00451MA1999999097601MD1710041+9999MW1021REMSYN088AAXX  16181 01047 11586 82203 11123 21147 39760 40144 57004 69912 70272 8802/ 333 11045;
0161010470999992013021700004+69000+023033FM-12+0307ENKA V0201801N003010042019N0600001N1-01061-01311101441ADDAY121061AY221061GF108991081051004501999999MA1999999097611MD1210011+9999MW1021REMSYN072AAXX  17001 01047 41486 81803 11106 21131 39761 40144 52001 70222 885//;
0230010470999992013021706004+69000+023033FM-12+0307ENKA V0201801N001010042019N0650001N1-00951-01171101481ADDAA124000021AJ100809199999999AY121061AY221061GF108991081051004501999999IA1239KA1999N-01301MA1999999097661MD1210031+9999MW1021REMSYN094AAXX  17061 01047 31487 81801 11095 21117 39766 40148 52003 70222 885// 333 21130 47080 70001;
0161010470999992013021709004+69000+023033FM-12+0307ENKA V0202701N001010300019N0650001N1-00921-01141101581ADDAY121031AY221031GF106991031051008001031001MA1999999097751MD1310101+9999MW1021REMSYN072AAXX  17091 01047 41587 62701 11092 21114 39775 40158 53010 70222 83530;
0161010470999992013021712004+69000+023033FM-12+0307ENKA V0200501N003010300019N0300001N1-00701-01041101641ADDAY171061AY221061GF108991031051008001021999MA1999999097821MD1210071+9999MW1711REMSYN072AAXX  17121 01047 41580 80503 11070 21104 39782 40164 52007 77172 8352/;
0161010470999992013021715004+69000+023033FM-12+0307ENKA V0203601N005010075019N0300001N1-00941-01231101691ADDAY171031AY221031GF106991061001008001021001MA1999999097861MD1210051+9999MW1701REMSYN072AAXX  17151 01047 41580 63605 11094 21123 39786 40169 52005 77072 86020;
0201010470999992013021718004+69000+023033FM-12+0307ENKA V0203601N003010300019N0600001N1-00781-01061101781ADDAA112000021AY171061AY221061GF108991031051008001021999KA1999M-00621MA1999999097951MD1110091+9999MW1021REMSYN088AAXX  17181 01047 11586 83603 11078 21106 39795 40178 51009 69912 70272 8352/ 333 11062;
0161010470999992013021800004+69000+023033FM-12+0307ENKA V0203601N005010300019N0600001N1-00481-00641101991ADDAY171061AY221061GF108991041051004501021999MA1999999098171MD1210111+9999MW1021REMSYN072AAXX  18001 01047 41486 83605 11048 21064 39817 40199 52011 70272 8452/;
0247010470999992013021806004+69000+023033FM-12+0307ENKA V0203601N003010075019N0650001N1-00341-00681102211ADDAA112000391AA224000591AJ100789199999999AY171061AY221061GF108991081001008001021999IA1239KA1999N-00781MA1999999098371MD1310131+9999MW1021REMSYN100AAXX  18061 01047 11587 83603 11034 21068 39837 40221 53013 69932 70272 8802/ 333 21078 47078 70004;
0161010470999992013021809004+69000+023033FM-12+0307ENKA V0203601N003010075019N0650001N1-00321-00671102401ADDAY121031AY221031GF108991081051008001999999MA1999999098571MD1210191+9999MW1021REMSYN072AAXX  18091 01047 41587 83603 11032 21067 39857 40240 52019 70222 885//;
0161010470999992013021812004+69000+023033FM-12+0307ENKA V0200501N003010075019N0650001N1-00331-00901102521ADDAY121061AY221061GF108991081051008001999999MA1999999098671MD1210121+9999MW1021REMSYN072AAXX  18121 01047 41587 80503 11033 21090 39867 40252 52012 70222 885//;
0161010470999992013021815004+69000+023033FM-12+0307ENKA V0203601N003010300019N0650001N1-00641-01061102621ADDAY121031AY221031GF106991041051008001031001MA1999999098771MD1210091+9999MW1021REMSYN072AAXX  18151 01047 41587 63603 11064 21106 39877 40262 52009 70222 84530;
0194010470999992013021818004+69000+023033FM-12+0307ENKA V0201801N003012200019N0650001N1-01631-01891102781ADDAY121061AY201061GA1001+999999999GF100991001001999999001001KA1999M-00251MA1999999098871MD1210111+9999MW1011REMSYN076AAXX  18181 01047 31987 01803 11163 21189 39887 40278 52011 70120 333 11025;
0171010470999992013021900004+69000+023033FM-12+0307ENKA V0202201N003012200019N0600001N1-02401-02621102971ADDAY101061AY201061GA1001+999999999GF100991001001999999001001MA1999999099021MD1110031+9999MW1021REMSYN066AAXX  19001 01047 41986 02203 11240 21262 39902 40297 51003 70200;
0249010470999992013021906004+69000+023033FM-12+0307ENKA V0209999C000012200019N0600001N1-02761-03001103051ADDAA124000091AJ100789199999999AY101061AY201061GF103991001001999999001081IA1239KA1999N-02761MA1999999099071MD1210041+9999MW1021REMSYN094AAXX  19061 01047 31986 30000 11276 21300 39907 40305 52004 70200 80008 333 21276 47078 70000;EQDQ01  00002PRCP24
0161010470999992013021909004+69000+023033FM-12+0307ENKA V0202201N003010150019N0600001N1-02361-02611103091ADDAY121031AY221031GF106991061001017501071001MA1999999099131MD1010071+9999MW1031REMSYN072AAXX  19091 01047 41786 62203 11236 21261 39913 40309 50007 70322 86070;
0161010470999992013021912004+69000+023033FM-12+0307ENKA V0201801N001012200019N0600001N1-01951-02211103121ADDAY111061AY211061GF103991031001022501041001MA1999999099181MD1010041+9999MW1021REMSYN072AAXX  19121 01047 41886 31801 11195 21221 39918 40312 50004 70211 83040;
0161010470999992013021915004+69000+023033FM-12+0307ENKA V0201801N001012200019N0650001N1-02031-02341103111ADDAY101031AY201031GF102991001001999999001011MA1999999099171MD1710011+9999MW1021REMSYN072AAXX  19151 01047 41987 21801 11203 21234 39917 40311 57001 70200 80001;
0194010470999992013021918004+69000+023033FM-12+0307ENKA V0201801N001012200019N0650001N1-02361-02651103151ADDAY101061AY201061GA1001+999999999GF100991001001999999001001KA1999M-01781MA1999999099201MD1210021+9999MW1021REMSYN076AAXX  19181 01047 31987 01801 11236 21265 39920 40315 52002 70200 333 11178;
0161010470999992013022000004+69000+023033FM-12+0307ENKA V0201801N001012200019N0600001N1-02221-02471103151ADDAY101061AY201061GF103991001001999999001081MA1999999099211MD1510021+9999MW1021REMSYN072AAXX  20001 01047 41986 31801 11222 21247 39921 40315 55002 70200 80008;
0249010470999992013022006004+69000+023033FM-12+0307ENKA V0209999C000019999999N0650001N1-02651-02891103021ADDAA124000091AJ100789199999999AY111061AY201061GF105991001001999999001081IA1239KA1999N-02651MA1999999099061MD1710081+9999MW1021REMSYN094AAXX  20061 01047 31987 50000 11265 21289 39906 40302 57008 70210 80008 333 21265 47078 70000;EQDQ01  00002PRCP24
0161010470999992013022009004+69000+023033FM-12+0307ENKA V0209999C000010150019N0650001N1-02461-02721102791ADDAY121031AY221031GF106991061001017501071001MA1999999098851MD1810211+9999MW1031REMSYN072AAXX  20091 01047 41787 60000 11246 21272 39885 40279 58021 70322 86070;
0161010470999992013022012004+69000+023033FM-12+0307ENKA V0202201N005010150019N0650001N1-01281-01611102391ADDAY121061AY221061GF108991081001017501071999MA1999999098521MD1810331+9999MW1021REMSYN072AAXX  20121 01047 41787 82205 11128 21161 39852 40239 58033 70222 8807/;
0161010470999992013022015004+69000+023033FM-12+0307ENKA V0202201N005019999999N0650001N1-00961-01511102021ADDAY121031AY221031GF108991081001012501071999MA1999999098171MD1810351+9999MW1021REMSYN072AAXX  20151 01047 41687 82205 11096 21151 39817 40202 58035 70222 8807/;
0184010470999992013022018004+69000+023033FM-12+0307ENKA V0202201N007019999999N0650001N1-00481-01221101681ADDAY121061AY221061GF108991081001012501071999KA1999M-00401MA1999999097871MD1610291+9999MW1021REMSYN082AAXX  20181 01047 31687 82207 11048 21122 39787 40168 56029 70222 8807/ 333 11040;
0161010470999992013022100004+69000+023033FM-12+0307ENKA V0202201N007010150019N0600001N1-00081-00491101281ADDAY131061AY201061GF106991061001017501071001MA1999999097501MD1610141+9999MW1021REMSYN072AAXX  21001 01047 41786 62207 11008 21049 39750 40128 56014 70230 86070;
0247010470999992013022106004+69000+023033FM-12+0307ENKA V0203601N003010075019N0050001N1-00161-00291101411ADDAA112001091AA224001091AJ100799199999999AY171061AY231061GF108991081001008001021999IA1249KA1999N-00481MA1999999097621MD1210091+9999MW1701REMSYN100AAXX  21061 01047 11550 83603 11016 21029 39762 40141 52009 69992 77073 8802/ 333 21048 48079 70009;
0161010470999992013022109004+69000+023033FM-12+0307ENKA V0203601N003010075019N0030001N1-00351-00491101541ADDAY171031AY271031GF108991081001008001021999MA1999999097731MD1110121+9999MW1711REMSYN072AAXX  21091 01047 41530 83603 11035 21049 39773 40154 51012 77177 8802/;
0161010470999992013022112004+69000+023033FM-12+0307ENKA V0203601N001010075019N0100001N1-00381-00631101631ADDAY171061AY271061GF108991081001008001021999MA1999999097821MD1210081+9999MW1711REMSYN072AAXX  21121 01047 41560 83601 11038 21063 39782 40163 52008 77177 8802/;
0161010470999992013022115004+69000+023033FM-12+0307ENKA V0209999C000010300019N0200001N1-00531-00751101721ADDAY171031AY271031GF108991031051004501021999MA1999999097901MD1210081+9999MW1711REMSYN072AAXX  21151 01047 41470 80000 11053 21075 39790 40172 52008 77177 8352/;
0201010470999992013022118004+69000+023033FM-12+0307ENKA V0209999C000010300019N0600001N1-00941-01121101881ADDAA112001091AY171061AY221061GF106991021051004501021001KA1999M-00151MA1999999098031MD1210141+9999MW1011REMSYN088AAXX  21181 01047 11486 60000 11094 21112 39803 40188 52014 60012 70172 82520 333 11015;
0161010470999992013022200004+69000+023033FM-12+0307ENKA V0209999C000010075019N0650001N1-01421-01621102021ADDAY111061AY211061GF106991061051008001001001MA1999999098151MD1310031+9999MW1021REMSYN072AAXX  22001 01047 41587 60000 11142 21162 39815 40202 53003 70211 86500;
0230010470999992013022206004+69000+023033FM-12+0307ENKA V0209999C000010075019N0650001N1-01141-01311102211ADDAA124001591AJ100809199999999AY121061AY211061GF108991081001008001021999IA1249KA1999N-01821MA1999999098351MD1110111+9999MW1021REMSYN094AAXX  22061 01047 31587 80000 11114 21131 39835 40221 51011 70221 8802/ 333 21182 48080 70014;
0161010470999992013022209004+69000+023033FM-12+0307ENKA V0201801N001010075019N0500001N1-00981-01141102281ADDAY171031AY221031GF108991081051008001999999MA1999999098421MD1310081+9999MW1781REMSYN072AAXX  22091 01047 41584 81801 11098 21114 39842 40228 53008 77872 885//;
0161010470999992013022212004+69000+023033FM-12+0307ENKA V0201801N003010075019N0400001N1-00821-01031102181ADDAY171061AY221061GF108991081001008001021999MA1999999098321MD1810091+9999MW1701REMSYN072AAXX  22121 01047 41582 81803 11082 21103 39832 40218 58009 77072 8802/;
0161010470999992013022215004+69000+023033FM-12+0307ENKA V0202201N005010075019N0650001N1-00881-01081102031ADDAY171031AY221031GF108991081051008001999999MA1999999098181MD1810141+9999MW1021REMSYN072AAXX  22151 01047 41587 82205 11088 21108 39818 40203 58014 70272 885//;
0201010470999992013022218004+69000+023033FM-12+0307ENKA V0202201N005010150019N0650001N1-01021-01141101861ADDAA112000021AY171061AY221061GF106991061001017501071001KA1999M-00751MA1999999098021MD1710171+9999MW1021REMSYN088AAXX  22181 01047 11787 62205 11102 21114 39802 40186 57017 69912 70272 86070 333 11075;
0161010470999992013022300004+69000+023033FM-12+0307ENKA V0202201N005010150019N0650001N1-00281-00651101361ADDAY121061AY221061GF106991061001017501071001MA1999999097571MD1610191+9999MW1021REMSYN072AAXX  23001 01047 41787 62205 11028 21065 39757 40136 56019 70222 86070;
0230010470999992013022306004+69000+023033FM-12+0307ENKA V0202201N003010150019N0650001N1-00031-00331101081ADDAA124000021AJ100799199999999AY121061AY221061GF107991071001017501071001IA1249KA1999N-01021MA1999999097311MD1610141+9999MW1021REMSYN094AAXX  23061 01047 31787 72203 11003 21033 39731 40108 56014 70222 87070 333 21102 48079 70001;
0161010470999992013022309004+69000+023033FM-12+0307ENKA V0203201N007010075019N0600001N1+00111-00301101151ADDAY121031AY221031GF108991081001008001021999MA1999999097371MD1310071+9999MW1021REMSYN072AAXX  23091 01047 41586 83207 10011 21030 39737 40115 53007 70222 8802/;
0161010470999992013022312004+69000+023033FM-12+0307ENKA V0203201N003010075019N0600001N1-00021-00431101421ADDAY121061AY221061GF107991071051008001001001MA1999999097631MD1310281+9999MW1021REMSYN072AAXX  23121 01047 41586 73203 11002 21043 39763 40142 53028 70222 87500;
0161010470999992013022315004+69000+023033FM-12+0307ENKA V0209999C000010075019N0650001N1-00091-00501101561ADDAY121031AY221031GF108991081051008001999999MA1999999097771MD1310111+9999MW1221REMSYN072AAXX  23151 01047 41587 80000 11009 21050 39777 40156 53011 72222 885//;
0201010470999992013022318004+69000+023033FM-12+0307ENKA V0203201N003010075019N0400001N1-00181-00431101601ADDAA112000021AY171061AY221061GF108991081001008001021999KA1999M+00151MA1999999097801MD1010041+9999MW1701REMSYN088AAXX  23181 01047 11582 83203 11018 21043 39780 40160 50004 69902 77072 8802/ 333 10015;
0161010470999992013022400004+69000+023033FM-12+0307ENKA V0202201N005010075019N0650001N1-00281-00531101441ADDAY171061AY221061GF106991061051008001001001MA1999999097651MD1810151+9999MW1021REMSYN072AAXX  24001 01047 41587 62205 11028 21053 39765 40144 58015 70272 86500;
0230010470999992013022406004+69000+023033FM-12+0307ENKA V0202201N003010075019N0650001N1+00141-00311101101ADDAA124000021AJ100799199999999AY121061AY221061GF107991051051008001021001IA1249KA1999N-00431MA1999999097331MD1610081+9999MW1021REMSYN094AAXX  24061 01047 31587 72203 10014 21031 39733 40110 56008 70222 85520 333 21043 48079 79999;
0161010470999992013022409004+69000+023033FM-12+0307ENKA V0202201N003010300019N0650001N1+00211-00301101161ADDAY121031AY221031GF106991021051008001071001MA1999999097401MD1310061+9999MW1021REMSYN072AAXX  24091 01047 41587 62203 10021 21030 39740 40116 53006 70222 82570;
0161010470999992013022412004+69000+023033FM-12+0307ENKA V0202201N003010075019N0650001N1+00281-00271101291ADDAY121061AY221061GF106991061051008001001001MA1999999097531MD1210141+9999MW1021REMSYN072AAXX  24121 01047 41587 62203 10028 21027 39753 40129 52014 70222 86500;
0161010470999992013022415004+69000+023033FM-12+0307ENKA V0203201N005010300019N0650001N1+00121-00381101491ADDAY121031AY221031GF105991041041008001071001MA1999999097711MD1310161+9999MW1021REMSYN072AAXX  24151 01047 41587 53205 10012 21038 39771 40149 53016 70222 84470;
0184010470999992013022418004+69000+023033FM-12+0307ENKA V0202701N005012200019N0650001N1-00061-00441101741ADDAY111061AY211061GF104991041051008001001001KA1999M+00351MA1999999097931MD1110221+9999MW1021REMSYN082AAXX  24181 01047 41587 42705 11006 21044 39793 40174 51022 70211 84500 333 10035;
0161010470999992013022500004+69000+023033FM-12+0307ENKA V0202201N005010150019N0650001N1-00781-00901101871ADDAY121061AY221061GF106991061001017501071001MA1999999098031MD1710051+9999MW1021REMSYN072AAXX  25001 01047 41787 62205 11078 21090 39803 40187 57005 70222 86070;
0213010470999992013022506004+69000+023033FM-12+0307ENKA V0202201N005010150019N0700001N1+00211-00201101721ADDAJ100779199999999AY121061AY221061GF107991051001017501071011IA1239KA1999N-00781MA1999999097931MD1810061+9999MW1021REMSYN088AAXX  25061 01047 31788 72205 10021 21020 39793 40172 58006 70222 85071 333 21078 47077;
0161010470999992013022509004+69000+023033FM-12+0307ENKA V0202201N007010150019N0700001N1+00151-00321101731ADDAY121031AY221031GF108991081001017501071999MA1999999097931MD1810011+9999MW1021REMSYN072AAXX  25091 01047 41788 82207 10015 21032 39793 40173 58001 70222 8807/;
0165010470999992013022512004+69000+023033FM-12+0307ENKA V0202201N007010150019N0700001N1+00181-00401999999ADDAY121061AY221061GF107991071001017501071001MD1810071+9999MW1021REMSYN072AAXX  25121 01047 41788 72207 10018 21040 39877 40258 58007 70222 87070;EQDQ01+098773APOSP 
0161010470999992013022515004+69000+023033FM-12+0307ENKA V0202201N007010150019N0700001N1+00021-00441101481ADDAY121031AY221031GF107991071001017501041001MA1999999097701MD1810161+9999MW1021REMSYN072AAXX  25151 01047 41788 72207 10002 21044 39770 40148 58016 70222 87040;
0184010470999992013022518004+69000+023033FM-12+0307ENKA V0201801N005010150019N0700001N1+00101-00361101261ADDAY121061AY221061GF106991061001017501071001KA1999M+00401MA1999999097481MD1810211+9999MW1021REMSYN082AAXX  25181 01047 31788 61805 10010 21036 39748 40126 58021 70222 86070 333 10040;
0180010470999992013022600004+69000+023033FM-12+0307ENKA V0202201N007010075019N0650001N1+00181-00331100272ADDAY121061AY221061GF108991081001008001021999MA1999999096532MD1810552+9999MW1021REMSYN072AAXX  26001 01047 41587 82207 10018 21033 39653 40027 58055 70222 8802/;EQDQ01+096533APOSP 
0249010470999992013022606004+69000+023033FM-12+0307ENKA V0202201N007010300019N0650001N1+00221-00271099951ADDAA124000091AJ100759199999999AY121061AY211061GF106991021041008001071001IA1279KA1999N+00101MA1999999096231MD1310081+9999MW1021REMSYN094AAXX  26061 01047 31587 62207 10022 21027 39623 49995 53008 70221 82470 333 20010 43075 70000;EQDQ01  00002PRCP24
0161010470999992013022609004+69000+023033FM-12+0307ENKA V0203201N007012200019N0700001N1-00151-00571100781ADDAY111031AY211031GF104991031041008001041001MA1999999097021MD1110771+9999MW1021REMSYN072AAXX  26091 01047 41588 43207 11015 21057 39702 40078 51077 70211 83440;
0161010470999992013022612004+69000+023033FM-12+0307ENKA V0203201N005010300019N0650001N1-00201-00641101351ADDAY111061AY211061GF105991021041008001041001MA1999999097561MD1310541+9999MW1021REMSYN072AAXX  26121 01047 41587 53205 11020 21064 39756 40135 53054 70211 82440;
0161010470999992013022615004+69000+023033FM-12+0307ENKA V0203201N007010300019N0650001N1-00301-00721101671ADDAY111031AY211031GF105991041051008001041001MA1999999097871MD1110311+9999MW1021REMSYN072AAXX  26151 01047 41587 53207 11030 21072 39787 40167 51031 70211 84540;
0184010470999992013022618004+69000+023033FM-12+0307ENKA V0203201N005012200019N0650001N1-00581-00961101891ADDAY111061AY211061GF104991041001017501071001KA1999M+00251MA1999999098071MD1310211+9999MW1021REMSYN082AAXX  26181 01047 31787 43205 11058 21096 39807 40189 53021 70211 84070 333 10025;
0161010470999992013022700004+69000+023033FM-12+0307ENKA V0201401N005010075019N0650001N1-00781-01081102011ADDAY121061AY221061GF108991081051008001999999MA1999999098171MD1810051+9999MW1021REMSYN072AAXX  27001 01047 41587 81405 11078 21108 39817 40201 58005 70222 885//;
0247010470999992013022706004+69000+023033FM-12+0307ENKA V0209999C000010075019N0030001N1-00721-00841101241ADDAA112002091AA224002391AJ100789199999999AY171061AY221061GF108991081001008001021999IA1239KA1999N-00901MA1999999097421MD1810441+9999MW1701REMSYN100AAXX  27061 01047 11530 80000 11072 21084 39742 40124 58044 60022 77072 8802/ 333 21090 47078 70024;
0161010470999992013022709004+69000+023033FM-12+0307ENKA V0201801N007010075019N0040001N1-00541-00661100711ADDAY171031AY271031GF108991081001008001021999MA1999999096921MD1810511+9999MW1711REMSYN072AAXX  27091 01047 41540 81807 11054 21066 39692 40071 58051 77177 8802/;
0161010470999992013022712004+69000+023033FM-12+0307ENKA V0201801N007010300019N0650001N1-00421-00711100271ADDAY171061AY221061GF106991041051008001071001MA1999999096511MD1810431+9999MW1021REMSYN072AAXX  27121 01047 41587 61807 11042 21071 39651 40027 58043 70272 84570;
0161010470999992013022715004+69000+023033FM-12+0307ENKA V0201601N005012200019N0650001N1-00461-00751100071ADDAY121031AY221031GF102991021051008001001001MA1999999096321MD1710201+9999MW1011REMSYN072AAXX  27151 01047 41587 21605 11046 21075 39632 40007 57020 70122 82500;
0201010470999992013022718004+69000+023033FM-12+0307ENKA V0202201N005010075019N0650001N1-00231-00341099961ADDAA112002091AY111061AY211061GF105991051051008001001001KA1999M-00231MA1999999096221MD1810101+9999MW1031REMSYN088AAXX  27181 01047 11587 52205 11023 21034 39622 49996 58010 60022 70311 85500 333 11023;
0230010470999992013022806004+69000+023033FM-12+0307ENKA V0209999C000010120019N0650001N1-00671-00751099641ADDAA124002091AJ100789199999999AY121061AY221061GF108991081001012501021999IA1239KA1999N-01301MA1999999095901MD1810141+9999MW1021REMSYN094AAXX  28061 01047 31687 80000 11067 21075 39590 49964 58014 70222 8802/ 333 21130 47078 70020;
0161010470999992013022809004+69000+023033FM-12+0307ENKA V0203201N005010075019N0030001N1-00601-00671099591ADDAY171031AY221031GF108991081001008001021999MA1999999095851MD1610051+9999MW1711REMSYN072AAXX  28091 01047 41530 83205 11060 21067 39585 49959 56005 77172 8802/;
0161010470999992013022812004+69000+023033FM-12+0307ENKA V0203201N005010075019N0100001N1-00771-01071099741ADDAY171061AY221061GF108991081001008001021999MA1999999095981MD1210141+9999MW1711REMSYN072AAXX  28121 01047 41560 83205 11077 21107 39598 49974 52014 77172 8802/;
0161010470999992013022815004+69000+023033FM-12+0307ENKA V0203201N005010075019N0030001N1-00891-01101099961ADDAY171031AY271031GF108991081001008001021999MA1999999096201MD1310221+9999MW1731REMSYN072AAXX  28151 01047 41530 83205 11089 21110 39620 49996 53022 77377 8802/;
0201010470999992013022818004+69000+023033FM-12+0307ENKA V0200501N005010075019N0070001N1-00981-01221100231ADDAA112002091AY171061AY271061GF108991081001008001021999KA1999M-00481MA1999999096451MD1210241+9999MW1711REMSYN088AAXX  28181 01047 11557 80505 11098 21122 39645 40023 52024 60022 77177 8802/ 333 11048;
0161010470999992013030100004+69000+023033FM-12+0307ENKA V0203601N005012200019N0700001N1-01401-01681100791ADDAY121061AY221061GF104991041051008001001001MA1999999096971MD1310281+9999MW1011REMSYN072AAXX  01001 01047 41588 43605 11140 21168 39697 40079 53028 70122 84500;
0247010470999992013030106004+69000+023033FM-12+0307ENKA V0209999C000019999999N0700001N1-02341-02551101321ADDAA112000021AA224001891AJ100819199999999AY171061AY221061GF105991001001999999001081IA1239KA1999N-02671MA1999999097431MD1210201+9999MW1021REMSYN100AAXX  01061 01047 11988 50000 11234 21255 39743 40132 52020 69912 70272 80008 333 21267 47081 70019;
0161010470999992013030109004+69000+023033FM-12+0307ENKA V0201801N003019999999N0600001N1-02181-02431101491ADDAY121031AY221031GF106991001001999999001081MA1999999097611MD1110181+9999MW1021REMSYN072AAXX  01091 01047 41986 61803 11218 21243 39761 40149 51018 70222 80008;
0161010470999992013030112004+69000+023033FM-12+0307ENKA V0201801N003019999999N0600001N1-01381-01961101491ADDAY121061AY221061GF106991001001999999001081MA1999999097651MD1210041+9999MW1021REMSYN072AAXX  01121 01047 41986 61803 11138 21196 39765 40149 52004 70222 80008;
0161010470999992013030115004+69000+023033FM-12+0307ENKA V0201801N003019999999N0650001N1-01371-02011101431ADDAY121031AY221031GF106991001001999999001081MA1999999097581MD1710061+9999MW1021REMSYN072AAXX  01151 01047 41987 61803 11137 21201 39758 40143 57006 70222 80008;
0184010470999992013030118004+69000+023033FM-12+0307ENKA V0201801N003012200019N0650001N1-02281-02701101381ADDAY121061AY201061GF103991031001022501041001KA1999M-01151MA1999999097501MD1810091+9999MW1021REMSYN082AAXX  01181 01047 31887 31803 11228 21270 39750 40138 58009 70220 83040 333 11115;
0161010470999992013030200004+69000+023033FM-12+0307ENKA V0201801N003012200019N0600001N1-02341-02641100841ADDAY101061AY201061GF103991031001017501071001MA1999999096971MD1810271+9999MW1021REMSYN072AAXX  02001 01047 41786 31803 11234 21264 39697 40084 58027 70200 83070;
0249010470999992013030206004+69000+023033FM-12+0307ENKA V0201801N003010150019N0650001N1-01861-02311100201ADDAA124000091AJ100819199999999AY111061AY201061GF105991051001017501071001IA1239KA1999N-02361MA1999999096371MD1810301+9999MW1021REMSYN094AAXX  02061 01047 31787 51803 11186 21231 39637 40020 58030 70210 85070 333 21236 47081 70000;EQDQ01  00002PRCP24
0161010470999992013030209004+69000+023033FM-12+0307ENKA V0201601N003010150019N0650001N1-01681-02071100101ADDAY121031AY221031GF105991051001017501071001MA1999999096301MD1510071+9999MW1031REMSYN072AAXX  02091 01047 41787 51603 11168 21207 39630 40010 55007 70322 85070;
0161010470999992013030212004+69000+023033FM-12+0307ENKA V0200501N003010150019N0650001N1-01711-02211100121ADDAY121061AY221061GF108991081001017501071999MA1999999096311MD1210011+9999MW1021REMSYN072AAXX  02121 01047 41787 80503 11171 21221 39631 40012 52001 70222 8807/;
0161010470999992013030215004+69000+023033FM-12+0307ENKA V0200501N003010150019N0650001N1-01701-02151100191ADDAY121031AY221031GF108991081001017501011999MA1999999096371MD1310071+9999MW1021REMSYN072AAXX  02151 01047 41787 80503 11170 21215 39637 40019 53007 70222 8801/;
0184010470999992013030218004+69000+023033FM-12+0307ENKA V0200501N001010150019N0650001N1-01801-02141100371ADDAY121061AY221061GF108991081001017501011999KA1999M-01531MA1999999096551MD1310181+9999MW1021REMSYN082AAXX  02181 01047 31787 80501 11180 21214 39655 40037 53018 70222 8801/ 333 11153;
0161010470999992013030300004+69000+023033FM-12+0307ENKA V0209999C000010075019N0040001N1-01661-01921100701ADDAY171061AY221061GF108991081001008001021999MA1999999096871MD1210151+9999MW1711REMSYN072AAXX  03001 01047 41540 80000 11166 21192 39687 40070 52015 77172 8802/;
0247010470999992013030306004+69000+023033FM-12+0307ENKA V0209999C000010075019N0100001N1-01551-01761100871ADDAA112000591AA224000591AJ100809199999999AY171061AY221061GF108991081001008001021999IA1239KA1999N-01811MA1999999097031MD1210121+9999MW1701REMSYN100AAXX  03061 01047 11560 80000 11155 21176 39703 40087 52012 69952 77072 8802/ 333 21181 47080 70005;
0161010470999992013030309004+69000+023033FM-12+0307ENKA V0203601N003010075019N0600001N1-01411-01731101001ADDAY171031AY221031GF108991081001008001021999MA1999999097171MD1210131+9999MW1021REMSYN072AAXX  03091 01047 41586 83603 11141 21173 39717 40100 52013 70272 8802/;
0161010470999992013030312004+69000+023033FM-12+0307ENKA V0201801N003019999999N0600001N1-01161-01701101061ADDAY121061AY221061GF108991081001012501011999MA1999999097231MD1210071+9999MW1021REMSYN072AAXX  03121 01047 41686 81803 11116 21170 39723 40106 52007 70222 8801/;
0161010470999992013030315004+69000+023033FM-12+0307ENKA V0201801N003019999999N0600001N1-01401-01931101061ADDAY121031AY221031GF108991081001012501011999MA1999999097221MD1710011+9999MW1021REMSYN072AAXX  03151 01047 41686 81803 11140 21193 39722 40106 57001 70222 8801/;
0201010470999992013030318004+69000+023033FM-12+0307ENKA V0202201N001012200019N0600001N1-01881-02211101101ADDAA112000021AY121061AY221061GF102991021001012501011001KA1999M-01081MA1999999097251MD1010021+9999MW1011REMSYN088AAXX  03181 01047 11686 22201 11188 21221 39725 40110 50002 69912 70122 82010 333 11108;
0171010470999992013030400004+69000+023033FM-12+0307ENKA V0202201N003012200019N0600001N1-02681-02921101051ADDAY101061AY201061GA1001+999999999GF100991001001999999001001MA1999999097171MD1810061+9999MW1021REMSYN066AAXX  04001 01047 41986 02203 11268 21292 39717 40105 58006 70200;
0230010470999992013030406004+69000+023033FM-12+0307ENKA V0209999C000012200019N0600001N1-03041-03291100891ADDAA124000021AJ100809199999999AY101061AY201061GF103991031001017501071001IA1239KA1999N-03041MA1999999097001MD1510061+9999MW1021REMSYN094AAXX  04061 01047 31786 30000 11304 21329 39700 40089 55006 70200 83070 333 21304 47080 70001;
0161010470999992013030409004+69000+023033FM-12+0307ENKA V0201801N003010750019N0600001N1-02021-02321100771ADDAY121031AY221031GF105991011001022501041021MA1999999096921MD1610071+9999MW1031REMSYN072AAXX  04091 01047 41886 51803 11202 21232 39692 40077 56007 70322 81042;
0161010470999992013030412004+69000+023033FM-12+0307ENKA V0201801N003010750019N0600001N1-01721-02071100691ADDAY121061AY211061GF106991031001022501041021MA1999999096861MD1810071+9999MW1021REMSYN072AAXX  04121 01047 41886 61803 11172 21207 39686 40069 58007 70221 83042;
0161010470999992013030415004+69000+023033FM-12+0307ENKA V0202201N003012200019N0650001N1-01681-02031100721ADDAY121031AY221031GF102991001001999999001021MA1999999096881MD1010031+9999MW1011REMSYN072AAXX  04151 01047 41987 22203 11168 21203 39688 40072 50003 70122 80002;
0194010470999992013030418004+69000+023033FM-12+0307ENKA V0203601N003012200019N0600001N1-01901-02091100841ADDAY101061AY201061GA1001+999999999GF100991001001999999001001KA1999M-01541MA1999999097001MD1310111+9999MW1021REMSYN076AAXX  04181 01047 31986 03603 11190 21209 39700 40084 53011 70200 333 11154;
0171010470999992013030500004+69000+023033FM-12+0307ENKA V0201801N005012200019N0600001N1-02261-02491101041ADDAY101061AY201061GA1001+999999999GF100991001001999999001001MA1999999097171MD1310061+9999MW1021REMSYN066AAXX  05001 01047 41986 01805 11226 21249 39717 40104 53006 70200;
0249010470999992013030506004+69000+023033FM-12+0307ENKA V0209999C000019999999N0600001N1-02911-03151100901ADDAA124000091AJ100809199999999AY121061AY201061GF107991001001999999001081IA1239KA1999N-02911MA1999999097011MD1810161+9999MW1021REMSYN094AAXX  05061 01047 31986 70000 11291 21315 39701 40090 58016 70220 80008 333 21291 47080 70000;EQDQ01  00002PRCP24
0161010470999992013030509004+69000+023033FM-12+0307ENKA V0203401N001010075019N0050001N1-02361-02611100641ADDAY171031AY221031GF108991081001008001021999MA1999999096781MD1810221+9999MW1711REMSYN072AAXX  05091 01047 41550 83401 11236 21261 39678 40064 58022 77172 8802/;
0161010470999992013030512004+69000+023033FM-12+0307ENKA V0203401N003010075019N0040001N1-01781-02011100361ADDAY171061AY221061GF108991081001008001021999MA1999999096531MD1710251+9999MW1701REMSYN072AAXX  05121 01047 41540 83403 11178 21201 39653 40036 57025 77072 8802/;
0161010470999992013030515004+69000+023033FM-12+0307ENKA V0209999C000010075019N0650001N1-01741-01961100131ADDAY171031AY221031GF108991081001008001021999MA1999999096321MD1810211+9999MW1701REMSYN072AAXX  05151 01047 41587 80000 11174 21196 39632 40013 58021 77072 8802/;
0211010470999992013030518004+69000+023033FM-12+0307ENKA V0203201N003012200019N0600001N1-02381-02631100161ADDAA112000591AY171061AY221061GA1001+999999999GF100991001001999999001001KA1999M-01381MA1999999096321MD1710031+9999MW1011REMSYN082AAXX  05181 01047 11986 03203 11238 21263 39632 40016 57003 69952 70172 333 11138;
0171010470999992013030600004+69000+023033FM-12+0307ENKA V0202701N003012200019N0600001N1-02661-02901100121ADDAY101061AY201061GA1001+999999999GF100991001001999999001001MA1999999096271MD1710041+9999MW1021REMSYN066AAXX  06001 01047 41986 02703 11266 21290 39627 40012 57004 70200;
0230010470999992013030606004+69000+023033FM-12+0307ENKA V0209999C000012200019N0600001N1-03231-03501100041ADDAA124000591AJ100809199999999AY101061AY201061GF102991001001999999001081IA1239KA1999N-03231MA1999999096171MD1810031+9999MW1021REMSYN094AAXX  06061 01047 31986 20000 11323 21350 39617 40004 58003 70200 80008 333 21323 47080 70005;
0161010470999992013030609004+69000+023033FM-12+0307ENKA V0201401N003012200019N0600001N1-02461-02721099961ADDAY101031AY201031GF102991001001999999001081MA1999999096121MD1810041+9999MW1021REMSYN072AAXX  06091 01047 41986 21403 11246 21272 39612 49996 58004 70200 80008;
0161010470999992013030612004+69000+023033FM-12+0307ENKA V0203201N007012200019N0600001N1-01021-01551099791ADDAY101061AY201061GF102991021011012501001001MA1999999096021MD1710101+9999MW1021REMSYN072AAXX  06121 01047 41686 23207 11102 21155 39602 49979 57010 70200 82100;
0161010470999992013030615004+69000+023033FM-12+0307ENKA V0203201N003010075019N0650001N1-00921-01471099631ADDAY121031AY201031GF108991081001008001021999MA1999999095871MD1610161+9999MW1021REMSYN072AAXX  06151 01047 41587 83203 11092 21147 39587 49963 56016 70220 8802/;
0201010470999992013030618004+69000+023033FM-12+0307ENKA V0202201N005010075019N0030001N1-01401-01721099621ADDAA112000021AY171061AY221061GF108991081001008001021999KA1999M-00901MA1999999095851MD1710041+9999MW1711REMSYN088AAXX  06181 01047 11530 82205 11140 21172 39585 49962 57004 69912 77172 8802/ 333 11090;
0171010470999992013030700004+69000+023033FM-12+0307ENKA V0203201N001012200019N0650001N1-01781-01961100311ADDAY171061AY221061GA1001+999999999GF100991001001999999001001MA1999999096481MD1710321+9999MW1021REMSYN066AAXX  07001 01047 41987 03201 11178 21196 39648 40031 57032 70272;
0247010470999992013030706004+69000+023033FM-12+0307ENKA V0203201N003010750019N0650001N1-01151-01301100851ADDAA112000021AA224000391AJ100809199999999AY171061AY221061GF106991031001017501011021IA1239KA1999N-02151MA1999999097031MD1110251+9999MW1021REMSYN100AAXX  07061 01047 11787 63203 11115 21130 39703 40085 51025 69912 70272 83012 333 21215 47080 70002;
0161010470999992013030709004+69000+023033FM-12+0307ENKA V0200501N001012200019N0650001N1-00861-01261101071ADDAY121031AY221031GF104991041001012501021001MA1999999097261MD1310231+9999MW1011REMSYN072AAXX  07091 01047 41687 40501 11086 21126 39726 40107 53023 70122 84020;
0161010470999992013030712004+69000+023033FM-12+0307ENKA V0200501N003010150019N0650001N1-00581-01201101151ADDAY121061AY221061GF108991081001017501011999MA1999999097351MD1210091+9999MW1021REMSYN072AAXX  07121 01047 41787 80503 11058 21120 39735 40115 52009 70222 8801/;
0161010470999992013030715004+69000+023033FM-12+0307ENKA V0200501N003010150019N0650001N1-01031-01611101151ADDAY121031AY221031GF108991081001017501011999MA1999999097321MD1710031+9999MW1021REMSYN072AAXX  07151 01047 41787 80503 11103 21161 39732 40115 57003 70222 8801/;
0184010470999992013030718004+69000+023033FM-12+0307ENKA V0201801N003010120019N0650001N1-01261-01601101111ADDAY121061AY221061GF108991081001012501021999KA1999M-00551MA1999999097281MD1710041+9999MW1021REMSYN082AAXX  07181 01047 41687 81803 11126 21160 39728 40111 57004 70222 8802/ 333 11055;
0161010470999992013030800004+69000+023033FM-12+0307ENKA V0203601N005010075019N0060001N1-01101-01321101361ADDAY171061AY221061GF108991081001008001021999MA1999999097521MD1310181+9999MW1711REMSYN072AAXX  08001 01047 41556 83605 11110 21132 39752 40136 53018 77172 8802/;
0230010470999992013030806004+69000+023033FM-12+0307ENKA V0209999C000019999999N0600001N1-01841-02041101651ADDAA112000021AJ100799199999999AY171061AY221061GF108991081001012501071999IA1239KA1999N-01841MA1999999097771MD1110081+9999MW1021REMSYN094AAXX  08061 01047 11686 80000 11184 21204 39777 40165 51008 69912 70272 8807/ 333 21184 47079;
0161010470999992013030809004+69000+023033FM-12+0307ENKA V0201801N003012200019N0650001N1-01231-01501101711ADDAY111031AY211031GF103991001001999999001081MA1999999097861MD1210071+9999MW1021REMSYN072AAXX  08091 01047 41987 31803 11123 21150 39786 40171 52007 70211 80008;
0161010470999992013030812004+69000+023033FM-12+0307ENKA V0203601N003010300019N0650001N1-00921-01401101761ADDAY111061AY211061GF105991011051008001021001MA1999999097921MD1010071+9999MW1031REMSYN072AAXX  08121 01047 41587 53603 11092 21140 39792 40176 50007 70311 81520;
0161010470999992013030815004+69000+023033FM-12+0307ENKA V0203401N005010075019N0650001N1-00881-01431101781ADDAY121031AY221031GF106991061001008001021001MA1999999097951MD1210031+9999MW1021REMSYN072AAXX  08151 01047 41587 63405 11088 21143 39795 40178 52003 70222 86020;
0184010470999992013030818004+69000+023033FM-12+0307ENKA V0203401N005012200019N0650001N1-01421-01741101971ADDAY121061AY221061GF102991021001008001021001KA1999M-00701MA1999999098111MD1310161+9999MW1011REMSYN082AAXX  08181 01047 31587 23405 11142 21174 39811 40197 53016 70122 82020 333 11070;
0171010470999992013030900004+69000+023033FM-12+0307ENKA V0201801N003012200019N0650001N1-02681-02921102261ADDAY101061AY201061GA1001+999999999GF100991001001999999001001MA1999999098321MD1110101+9999MW1021REMSYN066AAXX  09001 01047 41987 01803 11268 21292 39832 40226 51010 70200;
0249010470999992013030906004+69000+023033FM-12+0307ENKA V0201801N003010150019N0650001N1-02881-03121102211ADDAA124000091AJ100799199999999AY121061AY201061GF106991061001017501071001IA1239KA1999N-03041MA1999999098271MD1810081+9999MW1031REMSYN094AAXX  09061 01047 31787 61803 11288 21312 39827 40221 58008 70320 86070 333 21304 47079 70000;EQDQ01  00002PRCP24
0161010470999992013030909004+69000+023033FM-12+0307ENKA V0201801N003012200019N0650001N1-02201-02471102151ADDAY121031AY221031GF102991021001017501071001MA1999999098231MD1810031+9999MW1011REMSYN072AAXX  09091 01047 41787 21803 11220 21247 39823 40215 58003 70122 82070;
0161010470999992013030912004+69000+023033FM-12+0307ENKA V0201801N003012200019N0650001N1-01451-02031102031ADDAY101061AY201061GF104991001001999999001081MA1999999098161MD1810081+9999MW1021REMSYN072AAXX  09121 01047 41987 41803 11145 21203 39816 40203 58008 70200 80008;
0161010470999992013030915004+69000+023033FM-12+0307ENKA V0203201N003010150019N0650001N1-01021-01561101791ADDAY121031AY221031GF106991061001017501071001MA1999999097951MD1810211+9999MW1031REMSYN072AAXX  09151 01047 41787 63203 11102 21156 39795 40179 58021 70322 86070;
0184010470999992013030918004+69000+023033FM-12+0307ENKA V0202201N003010150019N0650001N1-01001-01551101541ADDAY121061AY221061GF108991081001017501071999KA1999M-00851MA1999999097711MD1810261+9999MW1021REMSYN082AAXX  09181 01047 31787 82203 11100 21155 39771 40154 58026 70222 8807/ 333 11085;
0161010470999992013031000004+69000+023033FM-12+0307ENKA V0202701N005010120019N0650001N1-00801-01221101231ADDAY121061AY221061GF108991081001012501021999MA1999999097421MD1710141+9999MW1021REMSYN072AAXX  10001 01047 41687 82705 11080 21122 39742 40123 57014 70222 8802/;
0282010470999992013031006004+69000+023033FM-12+0307ENKA V0202701N003010075019N0650001N1-00881-01221100991ADDAA112000091AA224000091AJ100809199999999AY171061AY221061GF107991071071008001001001IA1249KA1999N-01001MA1999999097181MD1510081+9999MW1021REMSYN100AAXX  10061 01047 11587 72703 11088 21122 39718 40099 55008 69912 70272 87700 333 21100 48080 70001;EQDQ01  00002PRCP24Q02  00002PRCP12
0161010470999992013031009004+69000+023033FM-12+0307ENKA V0203201N005010300019N0650001N1-00781-01201100961ADDAY121031AY221031GF108991031051008001071999MA1999999097161MD1710031+9999MW1021REMSYN072AAXX  10091 01047 41587 83205 11078 21120 39716 40096 57003 70222 8357/;
0161010470999992013031012004+69000+023033FM-12+0307ENKA V0203201N005010300019N0650001N1-00701-01121100921ADDAY121061AY221061GF106991041051008001071001MA1999999097121MD1510031+9999MW1021REMSYN072AAXX  10121 01047 41587 63205 11070 21112 39712 40092 55003 70222 84570;
0161010470999992013031015004+69000+023033FM-12+0307ENKA V0203201N005010300019N0650001N1-00861-01211100951ADDAY121031AY221031GF106991041051008001071001MA1999999097151MD1210021+9999MW1021REMSYN072AAXX  10151 01047 41587 63205 11086 21121 39715 40095 52002 70222 84570;
0184010470999992013031018004+69000+023033FM-12+0307ENKA V0203201N003019999999N0650001N1-01211-01501100961ADDAY121061AY221061GF107991071001012501071001KA1999M-00701MA1999999097131MD1410001+9999MW1021REMSYN082AAXX  10181 01047 31687 73203 11121 21150 39713 40096 54000 70222 87070 333 11070;
0249010470999992013031106004+69000+023033FM-12+0307ENKA V0209999C000012200019N0650001N1-02001-02181100831ADDAA124000091AJ100809199999999AY121061AY201061GF102991001001999999001081IA1249KA1999N-02001MA1999999096971MD1710051+9999MW1021REMSYN094AAXX  11061 01047 31987 20000 11200 21218 39697 40083 57005 70220 80008 333 21200 48080 70000;EQDQ01  00002PRCP24
0161010470999992013031109004+69000+023033FM-12+0307ENKA V0201401N003012200019N0650001N1-01351-01691100851ADDAY101031AY201031GF104991041001017501071001MA1999999097021MD1210051+9999MW1031REMSYN072AAXX  11091 01047 41787 41403 11135 21169 39702 40085 52005 70300 84070;
0161010470999992013031112004+69000+023033FM-12+0307ENKA V0203401N005010150019N0650001N1-00981-01471100801ADDAY121061AY221061GF106991061001017501071001MA1999999097001MD1710031+9999MW1031REMSYN072AAXX  11121 01047 41787 63405 11098 21147 39700 40080 57003 70322 86070;
0161010470999992013031115004+69000+023033FM-12+0307ENKA V0203201N005012200019N0650001N1-01131-01671100781ADDAY121031AY201031GF101991011001017501071001MA1999999096971MD1810031+9999MW1011REMSYN072AAXX  11151 01047 41787 13205 11113 21167 39697 40078 58003 70120 81070;
0194010470999992013031118004+69000+023033FM-12+0307ENKA V0200501N001012200019N0650001N1-02221-02511100861ADDAY101061AY201061GA1001+999999999GF100991001001999999001001KA1999M-00761MA1999999097001MD1210031+9999MW1021REMSYN076AAXX  11181 01047 31987 00501 11222 21251 39700 40086 52003 70200 333 11076;
0161010470999992013031200004+69000+023033FM-12+0307ENKA V0201801N003010150019N0600001N1-02821-03101100931ADDAY101061AY201061GF105991051001017501011001MA1999999097031MD1010001+9999MW1031REMSYN072AAXX  12001 01047 41786 51803 11282 21310 39703 40093 50000 70300 85010;
0282010470999992013031206004+69000+023033FM-12+0307ENKA V0209999C000010150019N0650001N1-02321-02581100761ADDAA112000091AA224000091AJ100809199999999AY171061AY221061GF107991071001017501071001IA1249KA1999N-02901MA1999999096901MD1710101+9999MW1021REMSYN100AAXX  12061 01047 11787 70000 11232 21258 39690 40076 57010 69912 70272 87070 333 21290 48080 70001;EQDQ01  00002PRCP24Q02  00002PRCP12
0161010470999992013031209004+69000+023033FM-12+0307ENKA V0201801N003012200019N0650001N1-01781-02171100681ADDAY121031AY201031GF102991001001999999001011MA1999999096851MD1610051+9999MW1021REMSYN072AAXX  12091 01047 41987 21803 11178 21217 39685 40068 56005 70220 80001;
0161010470999992013031212004+69000+023033FM-12+0307ENKA V0201401N003012200019N0650001N1-01121-01711100551ADDAY101061AY201061GF102991001001999999001011MA1999999096751MD1710101+9999MW1021REMSYN072AAXX  12121 01047 41987 21403 11112 21171 39675 40055 57010 70200 80001;
0161010470999992013031215004+69000+023033FM-12+0307ENKA V0203601N003012200019N0650001N1-01121-01661100451ADDAY101031AY201031GF104991041001017501071001MA1999999096661MD1710091+9999MW1031REMSYN072AAXX  12151 01047 41787 43603 11112 21166 39666 40045 57009 70300 84070;
0184010470999992013031218004+69000+023033FM-12+0307ENKA V0201801N003010150019N0650001N1-01811-02071100401ADDAY111061AY211061GF105991051001017501071001KA1999M-00951MA1999999096571MD1710081+9999MW1021REMSYN082AAXX  12181 01047 31787 51803 11181 21207 39657 40040 57008 70211 85070 333 11095;
0161010470999992013031300004+69000+023033FM-12+0307ENKA V0201801N003012200019N0600001N1-02351-02571100331ADDAY111061AY211061GF103991031001017501071001MA1999999096481MD1810011+9999MW1021REMSYN072AAXX  13001 01047 41786 31803 11235 21257 39648 40033 58001 70211 83070;
0249010470999992013031306004+69000+023033FM-12+0307ENKA V0201801N003010150019N0650001N1-02591-02831100291ADDAA124000091AJ100809199999999AY121061AY211061GF106991061001017501071001IA1249KA1999N-02591MA1999999096431MD1010041+9999MW1021REMSYN094AAXX  13061 01047 31787 61803 11259 21283 39643 40029 50004 70221 86070 333 21259 48080 70000;EQDQ01  00002PRCP24
0161010470999992013031309004+69000+023033FM-12+0307ENKA V0201801N005010075019N0025001N1-01981-02241100231ADDAY171031AY221031GF108991081001008001021999MA1999999096411MD1710031+9999MW1711REMSYN072AAXX  13091 01047 41525 81805 11198 21224 39641 40023 57003 77172 8802/;
0161010470999992013031312004+69000+023033FM-12+0307ENKA V0201801N005010075019N0030001N1-01401-01671100171ADDAY171061AY271061GF108991081001008001021999MA1999999096371MD1710031+9999MW1711REMSYN072AAXX  13121 01047 41530 81805 11140 21167 39637 40017 57003 77177 8802/;
0161010470999992013031315004+69000+023033FM-12+0307ENKA V0201801N003012200019N0650001N1-01351-01741100261ADDAY171031AY221031GF104991041001008001021001MA1999999096461MD1310071+9999MW1011REMSYN072AAXX  13151 01047 41587 41803 11135 21174 39646 40026 53007 70172 84020;
0201010470999992013031318004+69000+023033FM-12+0307ENKA V0200501N003010075019N0200001N1-01921-02131100451ADDAA112002091AY171061AY221061GF106991061001008001021001KA1999M-01241MA1999999096621MD1310161+9999MW1711REMSYN088AAXX  13181 01047 11570 60503 11192 21213 39662 40045 53016 60022 77172 86020 333 11124;
0161010470999992013031400004+69000+023033FM-12+0307ENKA V0200501N003010042019N0250001N1-01921-02151100551ADDAY171061AY221061GF108991061071004501021999MA1999999096721MD1210031+9999MW1701REMSYN072AAXX  14001 01047 41475 80503 11192 21215 39672 40055 52003 77072 8672/;
0247010470999992013031406004+69000+023033FM-12+0307ENKA V0209999C000010021019N0020001N1-02011-02191100491ADDAA112000021AA224001591AJ100819199999999AY171061AY221061GF108991081061002501999999IA1239KA1999N-02481MA1999999096661MD1410001+9999MW1101REMSYN100AAXX  14061 01047 11320 80000 11201 21219 39666 40049 54000 69912 71072 886// 333 21248 47081 70016;
0161010470999992013031409004+69000+023033FM-12+0307ENKA V0209999C000010021019N0030001N1-02121-02321100511ADDAY121031AY221031GF108991081061002501999999MA1999999096671MD1410001+9999MW1101REMSYN072AAXX  14091 01047 41330 80000 11212 21232 39667 40051 54001 71022 886//;
0161010470999992013031412004+69000+023033FM-12+0307ENKA V0209999C000010042019N0250001N1-01971-02191100461ADDAY121061AY221061GF105991051061004501001001MA1999999096621MD1710041+9999MW1011REMSYN072AAXX  14121 01047 41475 50000 11197 21219 39662 40046 57004 70122 85600;
0161010470999992013031415004+69000+023033FM-12+0307ENKA V0209999C000012200019N0300001N1-02001-02221100391ADDAY111031AY211031GF104991041061004501001001MA1999999096561MD1610071+9999MW1011REMSYN072AAXX  14151 01047 41480 40000 11200 21222 39656 40039 56007 70111 84600;
0184010470999992013031418004+69000+023033FM-12+0307ENKA V0200901N003010150019N0500001N1-02981-03221100501ADDAY111061AY211061GF105991051001017501071001KA1999M-01801MA1999999096621MD1310061+9999MW1021REMSYN082AAXX  14181 01047 41784 50903 11298 21322 39662 40050 53006 70211 85070 333 11180;
0161010470999992013031500004+69000+023033FM-12+0307ENKA V0201801N003010012019N0008001N1-02701-02941100611ADDAY141061AY221061GF108991081061001501999999MA1999999096731MD1210071+9999MW1441REMSYN072AAXX  15001 01047 41208 81803 11270 21294 39673 40061 52007 74442 886//;
0213010470999992013031506004+69000+023033FM-12+0307ENKA V0209999C000010012019N0020001N1-02791-03031100821ADDAJ100819199999999AY141061AY221061GF108991081061001501999999IA1239KA1999N-02791MA1999999096931MD1210121+9999MW1101REMSYN088AAXX  15061 01047 31220 80000 11279 21303 39693 40082 52012 71042 886// 333 21279 47081;
0161010470999992013031509004+69000+023033FM-12+0307ENKA V0201401N003010012019N0500001N1-02601-02841100991ADDAY121031AY221031GF106991061061001501001001MA1999999097111MD1210181+9999MW1011REMSYN072AAXX  15091 01047 41284 61403 11260 21284 39711 40099 52018 70122 86600;
0161010470999992013031512004+69000+023033FM-12+0307ENKA V0201401N001010021019N0600001N1-02261-02511101091ADDAY121061AY221061GF107991071061002501001001MA1999999097221MD1210111+9999MW1021REMSYN072AAXX  15121 01047 41386 71401 11226 21251 39722 40109 52011 70222 87600;
0161010470999992013031515004+69000+023033FM-12+0307ENKA V0200901N003012200019N0600001N1-02181-02431101161ADDAY121031AY221031GF103991031061002501001001MA1999999097281MD1210071+9999MW1011REMSYN072AAXX  15151 01047 41386 30903 11218 21243 39728 40116 52007 70122 83600;
0184010470999992013031518004+69000+023033FM-12+0307ENKA V0200901N001010012019N0500001N1-02661-02901101291ADDAY121061AY221061GF108991081061001501999999KA1999M-02081MA1999999097401MD1310111+9999MW1021REMSYN082AAXX  15181 01047 31284 80901 11266 21290 39740 40129 53011 70222 886// 333 11208;
0171010470999992013031600004+69000+023033FM-12+0307ENKA V0201801N001012200019N0600001N1-03151-03401101391ADDAY121061AY201061GA1001+999999999GF100991001001999999001001MA1999999097471MD1310041+9999MW1021REMSYN066AAXX  16001 01047 41986 01801 11315 21340 39747 40139 53004 70220;
0249010470999992013031606004+69000+023033FM-12+0307ENKA V0201801N001010075019N0650001N1-03041-03291101341ADDAA124000091AJ100819199999999AY121061AY201061GF106991061051008001001001IA1239KA1999N-03211MA1999999097421MD1210021+9999MW1031REMSYN094AAXX  16061 01047 31587 61801 11304 21329 39742 40134 52002 70320 86500 333 21321 47081 70000;EQDQ01  00002PRCP24
0161010470999992013031609004+69000+023033FM-12+0307ENKA V0209999C000010750019N0650001N1-02501-02751101341ADDAY121031AY221031GF106991021051004501001081MA1999999097451MD1210021+9999MW1021REMSYN072AAXX  16091 01047 41487 60000 11250 21275 39745 40134 52002 70222 82508;
0161010470999992013031612004+69000+023033FM-12+0307ENKA V0201801N005010150019N0650001N1-01281-01481101271ADDAY121061AY221061GF105991051001017501071001MA1999999097431MD1710011+9999MW1011REMSYN072AAXX  16121 01047 41787 51805 11128 21148 39743 40127 57001 70122 85070;
0161010470999992013031615004+69000+023033FM-12+0307ENKA V0201801N005012200019N0650001N1-01061-01531101251ADDAY111031AY211031GF104991041001017501071001MA1999999097421MD1410001+9999MW1021REMSYN072AAXX  16151 01047 41787 41805 11106 21153 39742 40125 54001 70211 84070;
0201010470999992013031618004+69000+023033FM-12+0307ENKA V0201801N007010075019N0200001N1-00961-01401101321ADDAA112000021AY171061AY221061GF108991081001008001021999KA1999M-00961MA1999999097501MD1310061+9999MW1711REMSYN088AAXX  16181 01047 11570 81807 11096 21140 39750 40132 53006 69912 77172 8802/ 333 11096;
0161010470999992013031700004+69000+023033FM-12+0307ENKA V0201801N010010075019N0600001N1-01121-01411101441ADDAY171061AY231061GF108991081001008001021999MA1999999097611MD1310041+9999MW1361REMSYN072AAXX  17001 01047 41586 81810 11112 21141 39761 40144 53004 73673 8802/;
0247010470999992013031706004+69000+023033FM-12+0307ENKA V0201801N010010075019N0050001N1-01151-01381101651ADDAA112000021AA224000391AJ100789199999999AY171061AY231061GF108991081001008001021999IA1249KA1999N-01171MA1999999097811MD1310091+9999MW1731REMSYN100AAXX  17061 01047 11550 81810 11115 21138 39781 40165 53009 69922 77373 8802/ 333 21117 48078 70003;
0161010470999992013031709004+69000+023033FM-12+0307ENKA V0201801N007010075019N0600001N1-01121-01451101791ADDAY171031AY231031GF108991081001008001021999MA1999999097951MD1310151+9999MW1361REMSYN072AAXX  17091 01047 41586 81807 11112 21145 39795 40179 53015 73673 8802/;
0161010470999992013031712004+69000+023033FM-12+0307ENKA V0202201N010010075019N0600001N1-00901-01251101771ADDAY131061AY221061GF108991081001008001021999MA1999999097931MD1510011+9999MW1361REMSYN072AAXX  17121 01047 41586 82210 11090 21125 39793 40177 55001 73632 8802/;
0161010470999992013031715004+69000+023033FM-12+0307ENKA V0201801N010010075019N0550001N1-00681-01101101741ADDAY171031AY231031GF108991081001008001021999MA1999999097921MD1510021+9999MW1361REMSYN072AAXX  17151 01047 41585 81810 11068 21110 39792 40174 55002 73673 8802/;
0201010470999992013031718004+69000+023033FM-12+0307ENKA V0201801N010010075019N0060001N1-00721-01081101841ADDAA112000021AY171061AY231061GF108991081001008001021999KA1999M-00651MA1999999098011MD1310091+9999MW1711REMSYN088AAXX  17181 01047 11556 81810 11072 21108 39801 40184 53009 69912 77173 8802/ 333 11065;
0161010470999992013031800004+69000+023033FM-12+0307ENKA V0201801N005010120019N0600001N1-00831-01071102021ADDAY171061AY231061GF108991081001012501021999MA1999999098171MD1310071+9999MW1021REMSYN072AAXX  18001 01047 41686 81805 11083 21107 39817 40202 53007 70273 8802/;
0247010470999992013031806004+69000+023033FM-12+0307ENKA V0201801N005010120019N0600001N1-00861-01081102071ADDAA112000891AA224001091AJ100789199999999AY171061AY231061GF108991081001012501021999IA1239KA1999N-00861MA1999999098221MD1210041+9999MW1021REMSYN100AAXX  18061 01047 11686 81805 11086 21108 39822 40207 52004 69982 70273 8802/ 333 21086 47078 70009;
0161010470999992013031809004+69000+023033FM-12+0307ENKA V0201801N005010120019N0600001N1-00721-01001102161ADDAY121031AY221031GF108991081001012501021999MA1999999098321MD1210091+9999MW1021REMSYN072AAXX  18091 01047 41686 81805 11072 21100 39832 40216 52009 70222 8802/;
0161010470999992013031812004+69000+023033FM-12+0307ENKA V0201801N005010075019N0050001N1-00711-01041102351ADDAY171061AY221061GF108991081001008001021999MA1999999098501MD1310161+9999MW1701REMSYN072AAXX  18121 01047 41550 81805 11071 21104 39850 40235 53016 77072 8802/;
0161010470999992013031815004+69000+023033FM-12+0307ENKA V0201801N007010075019N0500001N1-00581-00941102381ADDAY171031AY231031GF108991081001008001021999MA1999999098531MD1210051+9999MW1361REMSYN072AAXX  18151 01047 41584 81807 11058 21094 39853 40238 52005 73673 8802/;
0201010470999992013031818004+69000+023033FM-12+0307ENKA V0201801N007010075019N0600001N1-00611-01101102471ADDAA112000021AY171061AY231061GF108991081001008001021999KA1999M-00551MA1999999098621MD1310081+9999MW1021REMSYN088AAXX  18181 01047 11586 81807 11061 21110 39862 40247 53008 69912 70273 8802/ 333 11055;
0171010470999992013031900004+69000+023033FM-12+0307ENKA V0201801N005012200019N0600001N1-01601-02121102921ADDAY121061AY201061GA1001+999999999GF100991001001999999001001MA1999999099011MD1310201+9999MW1021REMSYN066AAXX  19001 01047 41986 01805 11160 21212 39901 40292 53020 70220;
0230010470999992013031906004+69000+023033FM-12+0307ENKA V0209999C000019999999N0650001N1-02511-02821103281ADDAA124000021AJ100789199999999AY111061AY201061GF106991001001999999001081IA1239KA1999N-02511MA1999999099321MD1310161+9999MW1021REMSYN094AAXX  19061 01047 31987 60000 11251 21282 39932 40328 53016 70210 80008 333 21251 47078 70001;
0161010470999992013031909004+69000+023033FM-12+0307ENKA V0201801N003010150019N0650001N1-01881-02331103441ADDAY121031AY221031GF106991061001017501071001MA1999999099501MD1210181+9999MW1021REMSYN072AAXX  19091 01047 41787 61803 11188 21233 39950 40344 52018 70222 86070;
0161010470999992013031912004+69000+023033FM-12+0307ENKA V0200501N003010150019N0650001N1-01241-01711103471ADDAY121061AY221061GF105991051001017501071001MA1999999099561MD1210061+9999MW1011REMSYN072AAXX  19121 01047 41787 50503 11124 21171 39956 40347 52006 70122 85070;
0161010470999992013031915004+69000+023033FM-12+0307ENKA V0200501N003012200019N0650001N1-01221-01921103571ADDAY111031AY211031GF104991041001017501071001MA1999999099651MD1210091+9999MW1021REMSYN072AAXX  19151 01047 41787 40503 11122 21192 39965 40357 52009 70211 84070;
0184010470999992013031918004+69000+023033FM-12+0307ENKA V0200501N003010150019N0650001N1-01731-02281103751ADDAY121061AY221061GF106991061001017501071001KA1999M-01181MA1999999099801MD1310151+9999MW1021REMSYN082AAXX  19181 01047 41787 60503 11173 21228 39980 40375 53015 70222 86070 333 11118;
0161010470999992013032000004+69000+023033FM-12+0307ENKA V0200501N003010150019N0600001N1-02051-02431104081ADDAY121061AY221061GF108991081001017501011999MA1999999100111MD1210141+9999MW1021REMSYN072AAXX  20001 01047 41786 80503 11205 21243 30011 40408 52014 70222 8801/;
0213010470999992013032006004+69000+023033FM-12+0307ENKA V0209999C000012200019N0650001N1-02341-02641104231ADDAJ100789199999999AY121061AY201061GF102991001001999999001081IA1239KA1999N-02341MA1999999100231MD1210031+9999MW1021REMSYN088AAXX  20061 01047 31987 20000 11234 21264 30023 40423 52003 70220 80008 333 21234 47078;
0171010470999992013032009004+69000+023033FM-12+0307ENKA V0201801N003012200019N0650001N1-01431-02071104211ADDAY101031AY201031GA1001+999999999GF100991001001999999001001MA1999999100261MD1210031+9999MW1021REMSYN066AAXX  20091 01047 41987 01803 11143 21207 30026 40421 52003 70200;
0171010470999992013032012004+69000+023033FM-12+0307ENKA V0203401N003012200019N0650001N1-01041-01731104171ADDAY101061AY201061GA1001+999999999GF100991001001999999001001MA1999999100231MD1810021+9999MW1021REMSYN066AAXX  20121 01047 41987 03403 11104 21173 30023 40417 58002 70200;
0161010470999992013032015004+69000+023033FM-12+0307ENKA V0203401N003012200019N0650001N1-01141-01931104081ADDAY101031AY201031GF102991001001999999001011MA1999999100151MD1710081+9999MW1021REMSYN072AAXX  20151 01047 41987 23403 11114 21193 30015 40408 57008 70200 80001;
0194010470999992013032018004+69000+023033FM-12+0307ENKA V0203401N003012200019N0650001N1-01511-02201104081ADDAY101061AY201061GA1001+999999999GF100991001001999999001001KA1999M-00881MA1999999100121MD1510021+9999MW1021REMSYN076AAXX  20181 01047 41987 03403 11151 21220 30012 40408 55002 70200 333 11088;
0161010470999992013032100004+69000+023033FM-12+0307ENKA V0203601N003010120019N0300001N1-01341-01711104061ADDAY171061AY221061GF108991081001012501021999MA1999999100121MD1710021+9999MW1701REMSYN072AAXX  21001 01047 41680 83603 11134 21171 30012 40406 57002 77072 8802/;
0230010470999992013032106004+69000+023033FM-12+0307ENKA V0209999C000010210019N0650001N1-02051-02311104111ADDAA112000021AJ100789199999999AY171061AY221061GF106991061001022501011001IA1239KA1999N-02051MA1999999100131MD1210031+9999MW1021REMSYN094AAXX  21061 01047 11887 60000 11205 21231 30013 40411 52003 69912 70272 86010 333 21205 47078;
0161010470999992013032109004+69000+023033FM-12+0307ENKA V0203601N003012200019N0650001N1-00821-01221104051ADDAY111031AY211031GF104991001001999999001081MA1999999100121MD1410001+9999MW1021REMSYN072AAXX  21091 01047 41987 43603 11082 21122 30012 40405 54001 70211 80008;
0171010470999992013032112004+69000+023033FM-12+0307ENKA V0203601N005012200019N0650001N1-00601-01061104011ADDAY101061AY201061GA1001+999999999GF100991001001999999001001MA1999999100111MD1710021+9999MW1021REMSYN066AAXX  21121 01047 41987 03605 11060 21106 30011 40401 57002 70200;
0161010470999992013032115004+69000+023033FM-12+0307ENKA V0203601N005012200019N0650001N1-00621-01091103951ADDAY101031AY201031GF103991001001999999001081MA1999999100051MD1710051+9999MW1021REMSYN072AAXX  21151 01047 41987 33605 11062 21109 30005 40395 57005 70200 80008;
0184010470999992013032118004+69000+023033FM-12+0307ENKA V0203601N005010150019N0650001N1-01001-01321103911ADDAY121061AY201061GF106991061001017501071001KA1999M-00551MA1999999099981MD1710061+9999MW1031REMSYN082AAXX  21181 01047 31787 63605 11100 21132 39998 40391 57006 70320 86070 333 11055;
0161010470999992013032200004+69000+023033FM-12+0307ENKA V0203401N005010120019N0650001N1-00631-00911103631ADDAY171061AY221061GF108991081001012501021999MA1999999099731MD1810121+9999MW1021REMSYN072AAXX  22001 01047 41687 83405 11063 21091 39973 40363 58012 70272 8802/;
0282010470999992013032206004+69000+023033FM-12+0307ENKA V0203401N010019999999N0650001N1-00481-00811103431ADDAA112000091AA224000091AJ100759199999999AY171061AY221061GF108991061001012501071011IA1249KA1999N-01051MA1999999099551MD1810081+9999MW1021REMSYN100AAXX  22061 01047 11687 83410 11048 21081 39955 40343 58008 69912 70272 86071 333 21105 48075 70001;EQDQ01  00002PRCP24Q02  00002PRCP12
0161010470999992013032209004+69000+023033FM-12+0307ENKA V0203401N007012200019N0650001N1-00321-00881103411ADDAY121031AY201031GF102991011011012501001011MA1999999099531MD1510011+9999MW1021REMSYN072AAXX  22091 01047 41687 23407 11032 21088 39953 40341 55001 70220 81101;
0161010470999992013032212004+69000+023033FM-12+0307ENKA V0203201N010010150019N0650001N1-00281-00781103301ADDAY111061AY211061GF106991061001017501071001MA1999999099431MD1710101+9999MW1031REMSYN072AAXX  22121 01047 41787 63210 11028 21078 39943 40330 57010 70311 86070;
0161010470999992013032215004+69000+023033FM-12+0307ENKA V0203201N010010150019N0650001N1-00321-00751103181ADDAY121031AY221031GF108991081001017501071999MA1999999099321MD1710131+9999MW1021REMSYN072AAXX  22151 01047 41787 83210 11032 21075 39932 40318 57013 70222 8807/;
0184010470999992013032218004+69000+023033FM-12+0307ENKA V0203401N010010150019N0600001N1-00421-00851103071ADDAY131061AY221061GF108991081001017501071999KA1999M-00201MA1999999099211MD1810121+9999MW1361REMSYN082AAXX  22181 01047 31786 83410 11042 21085 39921 40307 58012 73632 8807/ 333 11020;
0161010470999992013032300004+69000+023033FM-12+0307ENKA V0203401N010010150019N0600001N1-00581-00941103041ADDAY131061AY221061GF106991061001017501071001MA1999999099171MD1810021+9999MW1021REMSYN072AAXX  23001 01047 41786 63410 11058 21094 39917 40304 58002 70232 86070;
0249010470999992013032306004+69000+023033FM-12+0307ENKA V0203401N001010150019N0650001N1-00611-00951102971ADDAA124000091AJ100759199999999AY131061AY221061GF107991071001017501071001IA1249KA1999N-00721MA1999999099101MD1710051+9999MW1021REMSYN094AAXX  23061 01047 31787 73401 11061 21095 39910 40297 57005 70232 87070 333 21072 48075 70000;EQDQ01  00002PRCP24
0161010470999992013032309004+69000+023033FM-12+0307ENKA V0203201N005010150019N0650001N1-00321+99999102871ADDAY121031AY221031GF108991081001017501071999MA1999999099021MD1710081+9999MW1021REMSYN072AAXX  23091 01047 41787 83205 11032 2//// 39902 40287 57008 70222 8807/;
0161010470999992013032312004+69000+023033FM-12+0307ENKA V0203201N007010150019N0650001N1-00201-00591102821ADDAY121061AY221061GF106991061001017501071001MA1999999098971MD1810041+9999MW1021REMSYN072AAXX  23121 01047 41787 63207 11020 21059 39897 40282 58004 70222 86070;
0161010470999992013032315004+69000+023033FM-12+0307ENKA V0203201N007010150019N0650001N1-00251-00691102741ADDAY121031AY221031GF106991061001017501071001MA1999999098901MD1710091+9999MW1021REMSYN072AAXX  23151 01047 41787 63207 11025 21069 39890 40274 57009 70222 86070;
0184010470999992013032318004+69000+023033FM-12+0307ENKA V0203201N005010300019N0650001N1-00271-00581102761ADDAY121061AY221061GF106991031051008001071001KA1999M-00081MA1999999098921MD1310041+9999MW1021REMSYN082AAXX  23181 01047 31587 63205 11027 21058 39892 40276 53004 70222 83570 333 11008;
0161010470999992013032400004+69000+023033FM-12+0307ENKA V0201401N005010075019N0060001N1-00481-00601102741ADDAY171061AY221061GF108991081001008001021999MA1999999098881MD1810061+9999MW1711REMSYN072AAXX  24001 01047 41556 81405 11048 21060 39888 40274 58006 77172 8802/;
0247010470999992013032406004+69000+023033FM-12+0307ENKA V0209999C000010075019N0650001N1-00661-00941102531ADDAA112000021AA224000021AJ100779199999999AY171061AY221061GF106991061051008001001001IA1249KA1999N-00721MA1999999098671MD1710101+9999MW1021REMSYN100AAXX  24061 01047 11587 60000 11066 21094 39867 40253 57010 69912 70272 86500 333 21072 48077 70001;
0161010470999992013032409004+69000+023033FM-12+0307ENKA V0202701N005010300019N0650001N1-00161-00671102481ADDAY121031AY221031GF106991041051008001071001MA1999999098651MD1810031+9999MW1021REMSYN072AAXX  24091 01047 41587 62705 11016 21067 39865 40248 58003 70222 84570;
0161010470999992013032412004+69000+023033FM-12+0307ENKA V0202201N005010300019N0650001N1-00061-00701102391ADDAY121061AY221061GF108991021051008001071999MA1999999098571MD1710091+9999MW1021REMSYN072AAXX  24121 01047 41587 82205 11006 21070 39857 40239 57009 70222 8257/;
0161010470999992013032415004+69000+023033FM-12+0307ENKA V0202201N003010300019N0650001N1-00151-00731102271ADDAY121031AY221031GF106991011051008001071001MA1999999098451MD1610111+9999MW1021REMSYN072AAXX  24151 01047 41587 62203 11015 21073 39845 40227 56011 70222 81570;
0184010470999992013032418004+69000+023033FM-12+0307ENKA V0202201N005010150019N0650001N1-00351-00851102191ADDAY121061AY221061GF105991051001017501071001KA1999M-00051MA1999999098361MD1710101+9999MW1021REMSYN082AAXX  24181 01047 31787 52205 11035 21085 39836 40219 57010 70222 85070 333 11005;
0161010470999992013032500004+69000+023033FM-12+0307ENKA V0203201N005012200019N0650001N1-00681-01011102151ADDAY111061AY211061GF103991031001017501071001MA1999999098311MD1510031+9999MW1021REMSYN072AAXX  25001 01047 41787 33205 11068 21101 39831 40215 55003 70211 83070;
0249010470999992013032506004+69000+023033FM-12+0307ENKA V0203201N005010150019N0650001N1-00781-01121102471ADDAA124000091AJ100779199999999AY121061AY211061GF107991071001017501071001IA1249KA1999N-01021MA1999999098621MD1310141+9999MW1021REMSYN094AAXX  25061 01047 31787 73205 11078 21112 39862 40247 53014 70221 87070 333 21102 48077 70000;EQDQ01  00002PRCP24
0161010470999992013032509004+69000+023033FM-12+0307ENKA V0203201N005010300019N0650001N1-00411-00931102611ADDAY121031AY221031GF105991041051008001041001MA1999999098771MD1110181+9999MW1021REMSYN072AAXX  25091 01047 41587 53205 11041 21093 39877 40261 51018 70222 84540;
0161010470999992013032512004+69000+023033FM-12+0307ENKA V0203201N005012200019N0650001N1-00311-00881102641ADDAY111061AY211061GF104991031001022501041011MA1999999098801MD1210031+9999MW1021REMSYN072AAXX  25121 01047 41887 43205 11031 21088 39880 40264 52003 70211 83041;
0161010470999992013032515004+69000+023033FM-12+0307ENKA V0203201N003019999999N0650001N1-00481-01051102641ADDAY111031AY211031GF105991001001999999001081MA1999999098781MD1710011+9999MW1021REMSYN072AAXX  25151 01047 41987 53203 11048 21105 39878 40264 57001 70211 80008;
0184010470999992013032518004+69000+023033FM-12+0307ENKA V0201801N005010120019N0650001N1-00981-01351102561ADDAY121061AY221061GF108991081001012501021999KA1999M-00281MA1999999098681MD1710091+9999MW1021REMSYN082AAXX  25181 01047 31687 81805 11098 21135 39868 40256 57009 70222 8802/ 333 11028;
0161010470999992013032600004+69000+023033FM-12+0307ENKA V0201801N005010210019N0650001N1-01481-01681102351ADDAY121061AY221061GF105991051001022501071001MA1999999098471MD1710141+9999MW1021REMSYN072AAXX  26001 01047 41887 51805 11148 21168 39847 40235 57014 70222 85070;
0249010470999992013032606004+69000+023033FM-12+0307ENKA V0209999C000012200019N0650001N1-01681-01851102041ADDAA124000091AJ100779199999999AY121061AY201061GF103991001001999999001081IA1249KA1999N-01871MA1999999098161MD1710141+9999MW1021REMSYN094AAXX  26061 01047 31987 30000 11168 21185 39816 40204 57014 70220 80008 333 21187 48077 70000;EQDQ01  00002PRCP24
0161010470999992013032609004+69000+023033FM-12+0307ENKA V0201801N007012200019N0650001N1-00981-01391101811ADDAY101031AY201031GF102991021001022501041001MA1999999097971MD1110181+9999MW1021REMSYN072AAXX  26091 01047 41887 21807 11098 21139 39797 40181 51018 70200 82040;
0161010470999992013032612004+69000+023033FM-12+0307ENKA V0201401N007012200019N0650001N1-00721-01281101661ADDAY101061AY201061GF102991001001999999001011MA1999999097831MD1810131+9999MW1021REMSYN072AAXX  26121 01047 41987 21407 11072 21128 39783 40166 58013 70200 80001;
0161010470999992013032615004+69000+023033FM-12+0307ENKA V0201401N005012200019N0650001N1-00601-01221101461ADDAY101031AY201031GF104991021001022501041011MA1999999097651MD1710191+9999MW1021REMSYN072AAXX  26151 01047 41887 41405 11060 21122 39765 40146 57019 70200 82041;
0184010470999992013032618004+69000+023033FM-12+0307ENKA V0201401N005012200019N0650001N1-01121-01591101271ADDAY101061AY201061GF104991041001017501071001KA1999M-00581MA1999999097451MD1710201+9999MW1021REMSYN082AAXX  26181 01047 31787 41405 11112 21159 39745 40127 57020 70200 84070 333 11058;
0161010470999992013032700004+69000+023033FM-12+0307ENKA V0201801N005010150019N0650001N1-00881-01231100961ADDAY121061AY221061GF106991061001017501071001MA1999999097161MD1610111+9999MW1021REMSYN072AAXX  27001 01047 41787 61805 11088 21123 39716 40096 56011 70222 86070;
0247010470999992013032706004+69000+023033FM-12+0307ENKA V0201801N003010075019N0040001N1-00781-00941100741ADDAA112000891AA224000891AJ100769199999999AY171061AY221061GF108991081001008001021999IA1239KA1999N-01271MA1999999096951MD1810081+9999MW1701REMSYN100AAXX  27061 01047 11540 81803 11078 21094 39695 40074 58008 69982 77072 8802/ 333 21127 47076 70008;
0161010470999992013032709004+69000+023033FM-12+0307ENKA V0201401N005010075019N0600001N1-00611-01031100741ADDAY171031AY221031GF108991081001008001021999MA1999999096961MD1310011+9999MW1021REMSYN072AAXX  27091 01047 41586 81405 11061 21103 39696 40074 53001 70272 8802/;
0161010470999992013032712004+69000+023033FM-12+0307ENKA V0202201N005012200019N0650001N1-00411-01041100811ADDAY121061AY201061GF102991021011012501001001MA1999999097021MD1210071+9999MW1021REMSYN072AAXX  27121 01047 41687 22205 11041 21104 39702 40081 52007 70220 82100;
0161010470999992013032715004+69000+023033FM-12+0307ENKA V0201801N007012200019N0650001N1-00311-01061100871ADDAY101031AY201031GF102991021011012501001001MA1999999097101MD1310081+9999MW1021REMSYN072AAXX  27151 01047 41687 21807 11031 21106 39710 40087 53008 70200 82100;
0201010470999992013032718004+69000+023033FM-12+0307ENKA V0201801N003012200019N0650001N1-00761-01351100961ADDAA112000021AY101061AY201061GF104991011051008001071001KA1999M-00301MA1999999097161MD1310051+9999MW1031REMSYN088AAXX  27181 01047 11587 41803 11076 21135 39716 40096 53005 69912 70300 81570 333 11030;
0161010470999992013032800004+69000+023033FM-12+0307ENKA V0202201N005010075019N0600001N1-00641-01201101041ADDAY121061AY221061GF108991081001008001021999MA1999999097251MD1110091+9999MW1021REMSYN072AAXX  28001 01047 41586 82205 11064 21120 39725 40104 51009 70222 8802/;
0230010470999992013032806004+69000+023033FM-12+0307ENKA V0201401N001010150019N0650001N1-01091-01531101291ADDAA124000021AJ100769199999999AY121061AY221061GF107991061001017501071011IA1239KA1999N-01161MA1999999097471MD1210081+9999MW1021REMSYN094AAXX  28061 01047 31787 71401 11109 21153 39747 40129 52008 70222 86071 333 21116 47076 70001;
0161010470999992013032809004+69000+023033FM-12+0307ENKA V0202701N005012200019N0650001N1-00551-01171101341ADDAY121031AY221031GF103991011011012501041001MA1999999097531MD1210071+9999MW1011REMSYN072AAXX  28091 01047 41687 32705 11055 21117 39753 40134 52007 70122 81140;
0161010470999992013032812004+69000+023033FM-12+0307ENKA V0202701N005010150019N0650001N1-00441-01071101441ADDAY121061AY201061GF106991061001017501071001MA1999999097631MD1110101+9999MW1031REMSYN072AAXX  28121 01047 41787 62705 11044 21107 39763 40144 51010 70320 86070;
0161010470999992013032815004+69000+023033FM-12+0307ENKA V0202701N003010150019N0650001N1-00541-01161101481ADDAY121031AY221031GF108991081001017501071999MA1999999097671MD1210031+9999MW1021REMSYN072AAXX  28151 01047 41787 82703 11054 21116 39767 40148 52003 70222 8807/;
0184010470999992013032818004+69000+023033FM-12+0307ENKA V0202201N001010150019N0650001N1-00821-01371101501ADDAY121061AY221061GF108991081001017501071999KA1999M-00351MA1999999097671MD1410001+9999MW1021REMSYN082AAXX  28181 01047 31787 82201 11082 21137 39767 40150 54000 70222 8807/ 333 11035;
0161010470999992013032900004+69000+023033FM-12+0307ENKA V0202201N003010150019N0650001N1-01461-01691101421ADDAY121061AY221061GF106991061001017501071001MA1999999097571MD1610061+9999MW1021REMSYN072AAXX  29001 01047 41787 62203 11146 21169 39757 40142 56006 70222 86070;
0249010470999992013032906004+69000+023033FM-12+0307ENKA V0209999C000012200019N0650001N1-01901-02121101391ADDAA124000091AJ100769199999999AY121061AY211061GF103991001001999999001081IA1239KA1999N-02161MA1999999097521MD1010011+9999MW1021REMSYN094AAXX  29061 01047 31987 30000 11190 21212 39752 40139 50001 70221 80008 333 21216 47076 70000;EQDQ01  00002PRCP24
0161010470999992013032909004+69000+023033FM-12+0307ENKA V0201801N005012200019N0650001N1-00921-01471101291ADDAY101031AY201031GF104991011011012501001081MA1999999097471MD1710061+9999MW1021REMSYN072AAXX  29091 01047 41687 41805 11092 21147 39747 40129 57006 70200 81108;
0161010470999992013032912004+69000+023033FM-12+0307ENKA V0201801N005010210019N0650001N1-00501-01181101201ADDAY121061AY221061GF106991061001022501071001MA1999999097411MD1710061+9999MW1031REMSYN072AAXX  29121 01047 41887 61805 11050 21118 39741 40120 57006 70322 86070;
0161010470999992013032915004+69000+023033FM-12+0307ENKA V0201801N005010150019N0650001N1-00511-01131101121ADDAY121031AY221031GF108991081001017501071999MA1999999097321MD1710081+9999MW1021REMSYN072AAXX  29151 01047 41787 81805 11051 21113 39732 40112 57008 70222 8807/;
0184010470999992013032918004+69000+023033FM-12+0307ENKA V0203201N003010150019N0650001N1-00881-01361101031ADDAY121061AY221061GF108991081001017501071999KA1999M-00381MA1999999097221MD1710091+9999MW1021REMSYN082AAXX  29181 01047 31787 83203 11088 21136 39722 40103 57009 70222 8807/ 333 11038;
0161010470999992013033000004+69000+023033FM-12+0307ENKA V0201801N005010150019N0650001N1-01511-01721100811ADDAY121061AY221061GF105991051001017501071001MA1999999096981MD1810111+9999MW1021REMSYN072AAXX  30001 01047 41787 51805 11151 21172 39698 40081 58011 70222 85070;
0249010470999992013033006004+69000+023033FM-12+0307ENKA V0201801N003010750019N0650001N1-01211-01531100511ADDAA124000091AJ100759199999999AY121061AY221061GF106991021011012501001081IA1239KA1999N-01521MA1999999096711MD1510121+9999MW1021REMSYN094AAXX  30061 01047 31687 61803 11121 21153 39671 40051 55012 70222 82108 333 21152 47075 70000;EQDQ01  00002PRCP24
0161010470999992013033009004+69000+023033FM-12+0307ENKA V0201801N003012200019N0650001N1-00481-01101100471ADDAY121031AY221031GF103991031001017501071001MA1999999096701MD1510011+9999MW1011REMSYN072AAXX  30091 01047 41787 31803 11048 21110 39670 40047 55001 70122 83070;
0161010470999992013033012004+69000+023033FM-12+0307ENKA V0202701N003012200019N0650001N1-00321-01011100561ADDAY101061AY201061GF104991011011012501001081MA1999999096801MD1210101+9999MW1021REMSYN072AAXX  30121 01047 41687 42703 11032 21101 39680 40056 52010 70200 81108;
0161010470999992013033015004+69000+023033FM-12+0307ENKA V0202701N003012200019N0650001N1-00401-01031100611ADDAY101031AY201031GF104991011011012501001081MA1999999096831MD1210041+9999MW1021REMSYN072AAXX  30151 01047 41687 42703 11040 21103 39683 40061 52004 70200 81108;
0184010470999992013033018004+69000+023033FM-12+0307ENKA V0202701N001010150019N0650001N1-00811-01261100601ADDAY121061AY221061GF106991061001017501071001KA1999M-00201MA1999999096811MD1710041+9999MW1031REMSYN082AAXX  30181 01047 31787 62701 11081 21126 39681 40060 57004 70322 86070 333 11020;
0161010470999992013033100004+69000+023033FM-12+0307ENKA V0201801N005010120019N0650001N1-00891-01171100281ADDAY121061AY221061GF108991081001012501021999MA1999999096501MD1810191+9999MW1021REMSYN072AAXX  31001 01047 41687 81805 11089 21117 39650 40028 58019 70222 8802/;
0266010470999992013033106004+69000+023033FM-12+0307ENKA V0201401N005010120019N0600001N1-00691-01021099841ADDAA112000091AA224000391AJ100769199999999AY171061AY221061GF108991081001012501021999IA1239KA1999N-01071MA1999999096081MD1710181+9999MW1021REMSYN100AAXX  31061 01047 11686 81405 11069 21102 39608 49984 57018 69922 70272 8802/ 333 21107 47076 70002;EQDQ01  00002PRCP12
0161010470999992013033109004+69000+023033FM-12+0307ENKA V0201401N001010042019N0650001N1-00391-00821099901ADDAY121031AY221031GF107991061091004501041001MA1999999096161MD1310081+9999MW1021REMSYN072AAXX  31091 01047 41487 71401 11039 21082 39616 49990 53008 70222 86940;
0161010470999992013033112004+69000+023033FM-12+0307ENKA V0203201N003010042019N0650001N1-00361-00861099991ADDAY121061AY221061GF108991081051004501999999MA1999999096251MD1010091+9999MW1021REMSYN072AAXX  31121 01047 41487 83203 11036 21086 39625 49999 50009 70222 885//;
0161010470999992013033115004+69000+023033FM-12+0307ENKA V0203201N005010075019N0300001N1-00501-00881100071ADDAY171031AY221031GF108991081001008001021999MA1999999096321MD1310061+9999MW1711REMSYN072AAXX  31151 01047 41580 83205 11050 21088 39632 40007 53006 77172 8802/;
0201010470999992013033118004+69000+023033FM-12+0307ENKA V0203201N005010075019N0600001N1-00641-00851100201ADDAA112000021AY171061AY221061GF108991081001008001021999KA1999M-00281MA1999999096431MD1210111+9999MW1021REMSYN088AAXX  31181 01047 11586 83205 11064 21085 39643 40020 52011 69912 70272 8802/ 333 11028;
0230010470999992013040106004+69000+023033FM-12+0307ENKA V0209999C000019999999N0650001N1-01551-01721100821ADDAA124000021AJ100769199999999AY121061AY211061GF105991001001999999001081IA1239KA1999N-01761MA1999999096981MD1210141+9999MW1021REMSYN094AAXX  01061 01047 31987 50000 11155 21172 39698 40082 52014 70221 80008 333 21176 47076 70001;
0161010470999992013040109004+69000+023033FM-12+0307ENKA V0201801N005012200019N0650001N1-00541-01071100871ADDAY101031AY201031GF104991001001999999001081MA1999999097081MD1310101+9999MW1021REMSYN072AAXX  01091 01047 41987 41805 11054 21107 39708 40087 53010 70200 80008;
0161010470999992013040112004+69000+023033FM-12+0307ENKA V0201801N005012200019N0650001N1-00301-00931100881ADDAY101061AY201061GF101991001001999999001011MA1999999097111MD1010021+9999MW1021REMSYN072AAXX  01121 01047 41987 11805 11030 21093 39711 40088 50002 70200 80001;
0161010470999992013040115004+69000+023033FM-12+0307ENKA V0201801N005012200019N0650001N1-00361-00991100811ADDAY101031AY201031GF104991001001999999001081MA1999999097031MD1810081+9999MW1021REMSYN072AAXX  01151 01047 41987 41805 11036 21099 39703 40081 58008 70200 80008;
0184010470999992013040118004+69000+023033FM-12+0307ENKA V0201801N005010300019N0650001N1-00611-01171100641ADDAY121061AY201061GF108991041051008001021999KA1999M-00181MA1999999096861MD1810191+9999MW1021REMSYN082AAXX  01181 01047 31587 81805 11061 21117 39686 40064 58019 70220 8452/ 333 11018;
0161010470999992013040200004+69000+023033FM-12+0307ENKA V0201801N003010120019N0700001N1-00601-01091100291ADDAY121061AY221061GF108991081001012501021999MA1999999096521MD1710171+9999MW1021REMSYN072AAXX  02001 01047 41688 81803 11060 21109 39652 40029 57017 70222 8802/;
0249010470999992013040206004+69000+023033FM-12+0307ENKA V0209999C000010075019N0650001N1-01021-01371100411ADDAA124000091AJ100769199999999AY121061AY221061GF107991051041008001071001IA1239KA1999N-01021MA1999999096621MD1210121+9999MW1021REMSYN094AAXX  02061 01047 31587 70000 11102 21137 39662 40041 52012 70222 85470 333 21102 47076 70000;EQDQ01  00002PRCP24
0161010470999992013040209004+69000+023033FM-12+0307ENKA V0203201N003010150019N0650001N1-00461-00961100531ADDAY121031AY221031GF106991061001017501071001MA1999999096761MD1310141+9999MW1021REMSYN072AAXX  02091 01047 41787 63203 11046 21096 39676 40053 53014 70222 86070;
0161010470999992013040212004+69000+023033FM-12+0307ENKA V0203201N005010750019N0650001N1-00181-00761100711ADDAY181061AY221061GF106991011001022501041031MA1999999096951MD1310181+9999MW1021REMSYN072AAXX  02121 01047 41887 63205 11018 21076 39695 40071 53018 70282 81043;
0161010470999992013040215004+69000+023033FM-12+0307ENKA V0203201N003010075019N0060001N1-00321-00511100871ADDAY171031AY221031GF108991081001008001021999MA1999999097101MD1310141+9999MW1711REMSYN072AAXX  02151 01047 41556 83203 11032 21051 39710 40087 53014 77172 8802/;
0201010470999992013040218004+69000+023033FM-12+0307ENKA V0203201N005010075019N0600001N1-00401-00811100991ADDAA112002091AY171061AY221061GF108991081001008001021999KA1999M-00151MA1999999097211MD1310131+9999MW1021REMSYN088AAXX  02181 01047 11586 83205 11040 21081 39721 40099 53013 60022 70272 8802/ 333 11015;
0161010470999992013040300004+69000+023033FM-12+0307ENKA V0203401N003010150019N0650001N1-00751-01111101251ADDAY121061AY221061GF105991051001017501071001MA1999999097431MD1110121+9999MW1021REMSYN072AAXX  03001 01047 41787 53403 11075 21111 39743 40125 51012 70222 85070;
0230010470999992013040306004+69000+023033FM-12+0307ENKA V0201401N003012200019N0650001N1-01281-01521101391ADDAA124001591AJ100769199999999AY121061AY211061GF102991021001017501071001IA1239KA1999N-01491MA1999999097551MD1210011+9999MW1021REMSYN094AAXX  03061 01047 31787 21403 11128 21152 39755 40139 52001 70221 82070 333 21149 47076 70015;
0161010470999992013040309004+69000+023033FM-12+0307ENKA V0201401N005012200019N0700001N1-00611-01211101271ADDAY101031AY201031GF104991001001999999001081MA1999999097471MD1710081+9999MW1021REMSYN072AAXX  03091 01047 41988 41405 11061 21121 39747 40127 57008 70200 80008;
0161010470999992013040312004+69000+023033FM-12+0307ENKA V0201401N007010150019N0700001N1-00501-01121101121ADDAY121061AY201061GF106991061001017501071001MA1999999097321MD1810131+9999MW1031REMSYN072AAXX  03121 01047 41788 61407 11050 21112 39732 40112 58013 70320 86070;
0161010470999992013040315004+69000+023033FM-12+0307ENKA V0201801N007010075019N0010001N1-00401-00861100801ADDAY171031AY221031GF108991081001008001021999MA1999999097021MD1610321+9999MW1731REMSYN072AAXX  03151 01047 41510 81807 11040 21086 39702 40080 56032 77372 8802/;
0201010470999992013040318004+69000+023033FM-12+0307ENKA V0201601N005010075019N0025001N1-00421-00641100511ADDAA112000591AY171061AY271061GF108991081001008001021999KA1999M-00351MA1999999096731MD1610271+9999MW1711REMSYN088AAXX  03181 01047 11525 81605 11042 21064 39673 40051 56027 69952 77177 8802/ 333 11035;
0161010470999992013040400004+69000+023033FM-12+0307ENKA V0203401N005010075019N0700001N1-00581-00941101091ADDAY171061AY221061GF106991061001008001021001MA1999999097301MD1110201+9999MW1011REMSYN072AAXX  04001 01047 41588 63405 11058 21094 39730 40109 51020 70172 86020;
0247010470999992013040406004+69000+023033FM-12+0307ENKA V0203401N003010075019N0650001N1-00571-00991101381ADDAA112000591AA224001091AJ100779199999999AY171061AY221061GF107991071001008001021001IA1249KA1999N-01011MA1999999097571MD1310181+9999MW1021REMSYN100AAXX  04061 01047 11587 73403 11057 21099 39757 40138 53018 69962 70272 87020 333 21101 48077 70011;
0161010470999992013040409004+69000+023033FM-12+0307ENKA V0203201N005012200019N0700001N1-00511-01131101571ADDAY111031AY211031GF104991001001999999001021MA1999999097761MD1210181+9999MW1021REMSYN072AAXX  04091 01047 41988 43205 11051 21113 39776 40157 52018 70211 80002;
0161010470999992013040412004+69000+023033FM-12+0307ENKA V0203201N005012200019N0700001N1-00381-01071101701ADDAY101061AY201061GF101991001001999999001011MA1999999097881MD1210131+9999MW1021REMSYN072AAXX  04121 01047 41988 13205 11038 21107 39788 40170 52013 70200 80001;
0171010470999992013040415004+69000+023033FM-12+0307ENKA V0202701N005012200019N0700001N1-00341-01031101741ADDAY101031AY201031GA1001+999999999GF100991001001999999001001MA1999999097921MD1210051+9999MW1021REMSYN066AAXX  04151 01047 41988 02705 11034 21103 39792 40174 52005 70200;
0184010470999992013040418004+69000+023033FM-12+0307ENKA V0202701N001012200019N0700001N1-01001-01481101781ADDAY101061AY201061GF102991021001017501071001KA1999M-00251MA1999999097931MD1310021+9999MW1021REMSYN082AAXX  04181 01047 31788 22701 11100 21148 39793 40178 53002 70200 82070 333 11025;
0171010470999992013040500004+69000+023033FM-12+0307ENKA V0201801N003012200019N0700001N1-02321-02531101941ADDAY101061AY201061GA1001+999999999GF100991001001999999001001MA1999999098031MD1210061+9999MW1021REMSYN066AAXX  05001 01047 41988 01803 11232 21253 39803 40194 52006 70200;
0249010470999992013040506004+69000+023033FM-12+0307ENKA V0201801N003012200019N0700001N1-01461-01841101881ADDAA124000091AJ100779199999999AY101061AY201061GF103991001001999999001081IA1239KA1999N-02341MA1999999098021MD1210011+9999MW1021REMSYN094AAXX  05061 01047 31988 31803 11146 21184 39802 40188 52001 70200 80008 333 21234 47077 70000;EQDQ01  00002PRCP24
0161010470999992013040509004+69000+023033FM-12+0307ENKA V0201801N003012200019N0700001N1-01081-01601101881ADDAY101031AY201031GF104991001001999999001081MA1999999098021MD1210011+9999MW1021REMSYN072AAXX  05091 01047 41988 41803 11108 21160 39802 40188 52001 70200 80008;
0161010470999992013040512004+69000+023033FM-12+0307ENKA V0203201N005019999999N0700001N1-00201-00901101831ADDAY101061AY201061GF105991001001999999001081MA1999999098021MD1410001+9999MW1031REMSYN072AAXX  05121 01047 41988 53205 11020 21090 39802 40183 54001 70300 80008;
0161010470999992013040515004+69000+023033FM-12+0307ENKA V0202701N005012200019N0700001N1-00291-00981101741ADDAY111031AY211031GF104991001001999999001081MA1999999097921MD1810081+9999MW1021REMSYN072AAXX  05151 01047 41988 42705 11029 21098 39792 40174 58008 70211 80008;
0184010470999992013040518004+69000+023033FM-12+0307ENKA V0202701N005010150019N0700001N1-00541-01161101651ADDAY111061AY211061GF106991061001017501071001KA1999M-00121MA1999999097831MD1710091+9999MW1031REMSYN082AAXX  05181 01047 31788 62705 11054 21116 39783 40165 57009 70311 86070 333 11012;
0161010470999992013040600004+69000+023033FM-12+0307ENKA V0202701N005010075019N0700001N1-00611-01121101461ADDAY121061AY221061GF108991081001008001021999MA1999999097651MD1710131+9999MW1021REMSYN072AAXX  06001 01047 41588 82705 11061 21112 39765 40146 57013 70222 8802/;
0282010470999992013040606004+69000+023033FM-12+0307ENKA V0202701N003010042019N0650001N1-00351-00691101301ADDAA112000091AA224000091AJ100779199999999AY181061AY221061GF108991061071004501021999IA1239KA1999N-00991MA1999999097511MD1410001+9999MW1021REMSYN100AAXX  06061 01047 11487 82703 11035 21069 39751 40130 54000 69912 70282 8672/ 333 21099 47077 70001;EQDQ01  00002PRCP24Q02  00002PRCP12
0161010470999992013040609004+69000+023033FM-12+0307ENKA V0203201N003010750019N0600001N1-00281-00781101291ADDAY121031AY221031GF106991021021012501001081MA1999999097501MD1710011+9999MW1021REMSYN072AAXX  06091 01047 41686 63203 11028 21078 39750 40129 57001 70222 82208;
0161010470999992013040612004+69000+023033FM-12+0307ENKA V0203201N005010300019N0600001N1-00201-00781101201ADDAY121061AY221061GF106991031031008001011001MA1999999097421MD1710081+9999MW1021REMSYN072AAXX  06121 01047 41586 63205 11020 21078 39742 40120 57008 70222 83310;
0161010470999992013040615004+69000+023033FM-12+0307ENKA V0203201N003010150019N0600001N1-00301-00861101151ADDAY121031AY221031GF108991081001017501011999MA1999999097371MD1710051+9999MW1021REMSYN072AAXX  06151 01047 41786 83203 11030 21086 39737 40115 57005 70222 8801/;
0184010470999992013040618004+69000+023033FM-12+0307ENKA V0203201N005010075019N0600001N1-00621-01111101131ADDAY121061AY221061GF107991071051008001001001KA1999M-00121MA1999999097321MD1710031+9999MW1021REMSYN082AAXX  06181 01047 31586 73205 11062 21111 39732 40113 57003 70222 87500 333 11012;
0161010470999992013040700004+69000+023033FM-12+0307ENKA V0201801N005012200019N0600001N1-01681-01881101271ADDAY121061AY221061GF103991031051008001001001MA1999999097421MD1210041+9999MW1011REMSYN072AAXX  07001 01047 41586 31805 11168 21188 39742 40127 52004 70122 83500;
0249010470999992013040706004+69000+023033FM-12+0307ENKA V0201801N001010150019N0650001N1-01781-01941101231ADDAA124000091AJ100769199999999AY121061AY211061GF106991061001017501011001IA1239KA1999N-02031MA1999999097371MD1510021+9999MW1021REMSYN094AAXX  07061 01047 31787 61801 11178 21194 39737 40123 55002 70221 86010 333 21203 47076 70000;EQDQ01  00002PRCP24
0161010470999992013040709004+69000+023033FM-12+0307ENKA V0201801N003012200019N0650001N1-00911-01391101211ADDAY121031AY201031GF101991011011012501001001MA1999999097401MD1210021+9999MW1021REMSYN072AAXX  07091 01047 41687 11803 11091 21139 39740 40121 52002 70220 81100;
0161010470999992013040712004+69000+023033FM-12+0307ENKA V0203201N003012200019N0650001N1-00661-01221101361ADDAY101061AY201061GF102991001001999999001021MA1999999097551MD1810051+9999MW1021REMSYN072AAXX  07121 01047 41987 23203 11066 21122 39755 40136 58005 70200 80002;
0161010470999992013040715004+69000+023033FM-12+0307ENKA V0202701N005012200019N0600001N1-00581-01301101011ADDAY101031AY201031GF104991001001999999001021MA1999999097221MD1710131+9999MW1031REMSYN072AAXX  07151 01047 41986 42705 11058 21130 39722 40101 57013 70300 80002;
0184010470999992013040718004+69000+023033FM-12+0307ENKA V0202201N005010300019N0650001N1-00861-01411100711ADDAY121061AY221061GF106991041051008001071001KA1999M-00541MA1999999096921MD1610201+9999MW1021REMSYN082AAXX  07181 01047 31587 62205 11086 21141 39692 40071 56020 70222 84570 333 11054;
0161010470999992013040800004+69000+023033FM-12+0307ENKA V0203201N007012200019N0650001N1-00881-01341100571ADDAY111061AY211061GF104991041051008001001001MA1999999096771MD1510051+9999MW1021REMSYN072AAXX  08001 01047 41587 43207 11088 21134 39677 40057 55005 70211 84500;
0282010470999992013040806004+69000+023033FM-12+0307ENKA V0203201N003012200019N0650001N1-01361-01721100851ADDAA112000091AA224000091AJ100769199999999AY171061AY211061GF103991031001017501071001IA1239KA1999N-01501MA1999999097021MD1210081+9999MW1021REMSYN100AAXX  08061 01047 11787 33203 11136 21172 39702 40085 52008 69912 70271 83070 333 21150 47076 70001;EQDQ01  00002PRCP24Q02  00002PRCP12
0161010470999992013040809004+69000+023033FM-12+0307ENKA V0203201N003012200019N0650001N1-00591-01151100931ADDAY111031AY211031GF104991011051008001071001MA1999999097131MD1210101+9999MW1021REMSYN072AAXX  08091 01047 41587 43203 11059 21115 39713 40093 52010 70211 81570;
0161010470999992013040812004+69000+023033FM-12+0307ENKA V0203201N005012200019N0650001N1-00611-01231101011ADDAY101061AY201061GF103991031011012501001001MA1999999097221MD1210081+9999MW1021REMSYN072AAXX  08121 01047 41687 33205 11061 21123 39722 40101 52008 70200 83100;
0161010470999992013040815004+69000+023033FM-12+0307ENKA V0203201N005012200019N0650001N1-00651-01321101061ADDAY101031AY201031GF102991021011012501001001MA1999999097261MD1210041+9999MW1021REMSYN072AAXX  08151 01047 41687 23205 11065 21132 39726 40106 52004 70200 82100;
0184010470999992013040818004+69000+023033FM-12+0307ENKA V0200501N003012200019N0650001N1-01201-01671101131ADDAY101061AY201061GF102991001001999999001081KA1999M-00551MA1999999097311MD1310051+9999MW1021REMSYN082AAXX  08181 01047 31987 20503 11120 21167 39731 40113 53005 70200 80008 333 11055;
0161010470999992013040900004+69000+023033FM-12+0307ENKA V0201401N003012200019N0600001N1-02621-02861101321ADDAY101061AY201061GF103991031001017501071001MA1999999097421MD1010031+9999MW1021REMSYN072AAXX  09001 01047 41786 31403 11262 21286 39742 40132 50003 70200 83070;
0249010470999992013040906004+69000+023033FM-12+0307ENKA V0209999C000010150019N0600001N1-02341-02591101251ADDAA124000091AJ100769199999999AY121061AY201061GF107991071001017501071001IA1239KA1999N-02781MA1999999097371MD1710061+9999MW1021REMSYN094AAXX  09061 01047 31786 70000 11234 21259 39737 40125 57006 70220 87070 333 21278 47076 70000;EQDQ01  00002PRCP24
0161010470999992013040909004+69000+023033FM-12+0307ENKA V0209999C000010150019N0600001N1-01481-01991101111ADDAY121031AY221031GF106991061001017501071001MA1999999097271MD1710091+9999MW1011REMSYN072AAXX  09091 01047 41786 60000 11148 21199 39727 40111 57009 70122 86070;
0161010470999992013040912004+69000+023033FM-12+0307ENKA V0201401N005010210019N0650001N1-00761-01321100941ADDAY121061AY221061GF106991061001022501071001MA1999999097131MD1610141+9999MW1021REMSYN072AAXX  09121 01047 41887 61405 11076 21132 39713 40094 56014 70222 86070;
0161010470999992013040915004+69000+023033FM-12+0307ENKA V0201801N005010210019N0650001N1-00541-01161100861ADDAY121031AY221031GF106991061001022501071001MA1999999097071MD1710061+9999MW1021REMSYN072AAXX  09151 01047 41887 61805 11054 21116 39707 40086 57006 70222 86070;
0184010470999992013040918004+69000+023033FM-12+0307ENKA V0201401N001012200019N0650001N1-00951-01451100871ADDAY121061AY221061GF104991041001022501071001KA1999M-00481MA1999999097071MD1410001+9999MW1011REMSYN082AAXX  09181 01047 31887 41401 11095 21145 39707 40087 54001 70122 84070 333 11048;
0161010470999992013041000004+69000+023033FM-12+0307ENKA V0201401N003012200019N0600001N1-02181-02371100941ADDAY111061AY211061GF103991031001017501071001MA1999999097071MD1710011+9999MW1021REMSYN072AAXX  10001 01047 41786 31403 11218 21237 39707 40094 57001 70211 83070;
0249010470999992013041006004+69000+023033FM-12+0307ENKA V0201401N005010150019N0600001N1-00751-01201101001ADDAA124000091AJ100769199999999AY111061AY211061GF105991051001017501071001IA1239KA1999N-02181MA1999999097201MD1210111+9999MW1021REMSYN094AAXX  10061 01047 31786 51405 11075 21120 39720 40100 52011 70211 85070 333 21218 47076 70000;EQDQ01  00002PRCP24
0161010470999992013041009004+69000+023033FM-12+0307ENKA V0201401N007012200019N0700001N1-00261-00871101121ADDAY121031AY221031GF104991001001999999001081MA1999999097331MD1310131+9999MW1021REMSYN072AAXX  10091 01047 41988 41407 11026 21087 39733 40112 53013 70222 80008;
0161010470999992013041012004+69000+023033FM-12+0307ENKA V0202201N007012200019N0650001N1-00121-00761101171ADDAY101061AY201061GF103991001001999999001081MA1999999097381MD1210051+9999MW1021REMSYN072AAXX  10121 01047 41987 32207 11012 21076 39738 40117 52005 70200 80008;
0161010470999992013041015004+69000+023033FM-12+0307ENKA V0201801N007010210019N0650001N1-00181-00921101131ADDAY121031AY201031GF106991061001022501071001MA1999999097351MD1810041+9999MW1031REMSYN072AAXX  10151 01047 41887 61807 11018 21092 39735 40113 58004 70320 86070;
0184010470999992013041018004+69000+023033FM-12+0307ENKA V0201401N007010150019N0600001N1-00311-01001101121ADDAY121061AY221061GF108991081001017501071999KA1999M-00061MA1999999097331MD1510011+9999MW1021REMSYN082AAXX  10181 01047 31786 81407 11031 21100 39733 40112 55001 70222 8807/ 333 11006;
0161010470999992013041100004+69000+023033FM-12+0307ENKA V0200901N005010150019N0600001N1-00661-01151101241ADDAY121061AY221061GF105991051001017501071001MA1999999097431MD1310021+9999MW1011REMSYN072AAXX  11001 01047 41786 50905 11066 21115 39743 40124 53002 70122 85070;
0249010470999992013041106004+69000+023033FM-12+0307ENKA V0200901N001012200019N0650001N1-00581-01141101321ADDAA124000091AJ100759199999999AY121061AY211061GF104991041001017501041001IA1239KA1999N-00811MA1999999097521MD1310071+9999MW1021REMSYN094AAXX  11061 01047 31787 40901 11058 21114 39752 40132 53007 70221 84040 333 21081 47075 70000;EQDQ01  00002PRCP24
0161010470999992013041109004+69000+023033FM-12+0307ENKA V0201401N007012200019N0650001N1-00361-00971101401ADDAY101031AY201031GF102991001001999999001011MA1999999097601MD1210081+9999MW1021REMSYN072AAXX  11091 01047 41987 21407 11036 21097 39760 40140 52008 70200 80001;
0171010470999992013041112004+69000+023033FM-12+0307ENKA V0201801N007012200019N0650001N1-00061-00831101411ADDAY101061AY201061GA1001+999999999GF100991001001999999001001MA1999999097621MD1310031+9999MW1021REMSYN066AAXX  11121 01047 41987 01807 11006 21083 39762 40141 53003 70200;
0161010470999992013041115004+69000+023033FM-12+0307ENKA V0203201N005012200019N0650001N1+00141-00841101431ADDAY101031AY201031GF102991011011012501001011MA1999999097651MD1210031+9999MW1021REMSYN072AAXX  11151 01047 41687 23205 10014 21084 39765 40143 52003 70200 81101;
0184010470999992013041118004+69000+023033FM-12+0307ENKA V0209999C000012200019N0650001N1-00531-01091101481ADDAY101061AY201061GF103991031001017501071001KA1999M+00181MA1999999097671MD1310021+9999MW1031REMSYN082AAXX  11181 01047 31787 30000 11053 21109 39767 40148 53002 70300 83070 333 10018;
0171010470999992013041200004+69000+023033FM-12+0307ENKA V0201401N005012200019N0600001N1-01211-01481101581ADDAY101061AY201061GA1001+999999999GF100991001001999999001001MA1999999097731MD1210031+9999MW1021REMSYN066AAXX  12001 01047 41986 01405 11121 21148 39773 40158 52003 70200;
0249010470999992013041206004+69000+023033FM-12+0307ENKA V0201401N005019999999N0650001N1-00761-01211101571ADDAA124000091AJ100759199999999AY111061AY201061GF105991001001999999001081IA1239KA1999N-01471MA1999999097751MD1410001+9999MW1021REMSYN094AAXX  12061 01047 31987 51405 11076 21121 39775 40157 54000 70210 80008 333 21147 47075 70000;EQDQ01  00002PRCP24
0161010470999992013041209004+69000+023033FM-12+0307ENKA V0201401N005012200019N0650001N1-00421-01031101581ADDAY101031AY201031GF101991001001999999001011MA1999999097771MD1210021+9999MW1021REMSYN072AAXX  12091 01047 41987 11405 11042 21103 39777 40158 52002 70200 80001;
0161010470999992013041212004+69000+023033FM-12+0307ENKA V0201401N005012200019N0650001N1-00181-00881101531ADDAY101061AY201061GF102991001001999999001011MA1999999097731MD1210031+9999MW1021REMSYN072AAXX  12121 01047 41987 21405 11018 21088 39773 40153 52003 70200 80001;
0161010470999992013041215004+69000+023033FM-12+0307ENKA V0203401N003012200019N0650001N1+00121-00831101421ADDAY101031AY201031GF102991011011012501001011MA1999999097631MD1710101+9999MW1021REMSYN072AAXX  12151 01047 41687 23403 10012 21083 39763 40142 57010 70200 81101;
0184010470999992013041218004+69000+023033FM-12+0307ENKA V0203401N003012200019N0650001N1-00501-01101101411ADDAY101061AY201061GF103991031041012501001001KA1999M+00181MA1999999097611MD1510041+9999MW1031REMSYN082AAXX  12181 01047 31687 33403 11050 21110 39761 40141 55004 70300 83400 333 10018;
0161010470999992013041300004+69000+023033FM-12+0307ENKA V0203201N001012200019N0600001N1-01411-01601101401ADDAY111061AY211061GF103991031001017501071001MA1999999097561MD1410001+9999MW1021REMSYN072AAXX  13001 01047 41786 33201 11141 21160 39756 40140 54000 70211 83070;
0247010470999992013041306004+69000+023033FM-12+0307ENKA V0209999C000010075019N0200001N1-01061-01231101371ADDAA112000391AA224000391AJ100759199999999AY171061AY221061GF108991081001008001021999IA1239KA1999N-01451MA1999999097531MD1710011+9999MW1701REMSYN100AAXX  13061 01047 11570 80000 11106 21123 39753 40137 57001 69932 77072 8802/ 333 21145 47075 70003;
0161010470999992013041309004+69000+023033FM-12+0307ENKA V0209999C000010075019N0600001N1-00441-00731101311ADDAY171031AY221031GF108991081001008001021999MA1999999097511MD1710031+9999MW1021REMSYN072AAXX  13091 01047 41586 80000 11044 21073 39751 40131 57003 70272 8802/;
0161010470999992013041312004+69000+023033FM-12+0307ENKA V0201401N003010075019N0600001N1-00121-00311101251ADDAY121061AY221061GF108991081001008001021999MA1999999097471MD1710041+9999MW1021REMSYN072AAXX  13121 01047 41586 81403 11012 21031 39747 40125 57004 70222 8802/;
0161010470999992013041315004+69000+023033FM-12+0307ENKA V0201401N005010075019N0600001N1-00021-00241101201ADDAY121031AY221031GF108991081001008001021999MA1999999097421MD1710041+9999MW1021REMSYN072AAXX  13151 01047 41586 81405 11002 21024 39742 40120 57004 70222 8802/;
0201010470999992013041318004+69000+023033FM-12+0307ENKA V0201801N001010075019N0600001N1-00081-00331101191ADDAA112000021AY121061AY221061GF108991081001008001021999KA1999M+00001MA1999999097411MD1710021+9999MW1021REMSYN088AAXX  13181 01047 11586 81801 11008 21033 39741 40119 57002 69912 70222 8802/ 333 10000;
0161010470999992013041400004+69000+023033FM-12+0307ENKA V0201801N003010300019N0600001N1-00351-00421101141ADDAY121061AY221061GF108991031051008001021999MA1999999097351MD1710041+9999MW1021REMSYN072AAXX  14001 01047 41586 81803 11035 21042 39735 40114 57004 70222 8352/;
0230010470999992013041406004+69000+023033FM-12+0307ENKA V0203601N003010075019N0200001N1-00601-00681101211ADDAA124000021AJ100759199999999AY121061AY221061GF108991081001008001021999IA1239KA1999N-00611MA1999999097411MD1010031+9999MW1021REMSYN094AAXX  14061 01047 31570 83603 11060 21068 39741 40121 50003 70222 8802/ 333 21061 47075 70001;
0161010470999992013041409004+69000+023033FM-12+0307ENKA V0200501N003012200019N0600001N1-00181-00691101221ADDAY121031AY201031GF101991011011012501001001MA1999999097431MD1210031+9999MW1021REMSYN072AAXX  14091 01047 41686 10503 11018 21069 39743 40122 52003 70220 81100;
0161010470999992013041412004+69000+023033FM-12+0307ENKA V0201801N005012200019N0600001N1+00121-00681101201ADDAY101061AY201061GF103991011011012501001081MA1999999097421MD1510011+9999MW1021REMSYN072AAXX  14121 01047 41686 31805 10012 21068 39742 40120 55001 70200 81108;
0161010470999992013041415004+69000+023033FM-12+0307ENKA V0202201N005012200019N0600001N1+00201-00681101181ADDAY101031AY201031GF104991001001999999001081MA1999999097421MD1810011+9999MW1031REMSYN072AAXX  14151 01047 41986 42205 10020 21068 39742 40118 58001 70300 80008;
0184010470999992013041418004+69000+023033FM-12+0307ENKA V0202201N001010150019N0600001N1-00161-00781101051ADDAY121061AY221061GF108991081001017501071999KA1999M+00281MA1999999097271MD1810141+9999MW1021REMSYN082AAXX  14181 01047 31786 82201 11016 21078 39727 40105 58014 70222 8807/ 333 10028;
0180010470999992013041500004+69000+023033FM-12+0307ENKA V0201801N005010075019N0600001N1+00041-00461100232ADDAY121061AY221061GF108991081001008001021999MA1999999096481MD1610502+9999MW1021REMSYN072AAXX  15001 01047 41586 81805 10004 21046 39648 40023 56050 70222 8802/;EQDQ01+100233APOSLP
0247010470999992013041506004+69000+023033FM-12+0307ENKA V0201801N005010075019N0600001N1+00051-00091099611ADDAA112002091AA224002091AJ100769199999999AY171061AY221061GF108991051051008001021999IA1279KA1999N-00521MA1999999095901MD1610191+9999MW1021REMSYN100AAXX  15061 01047 11586 81805 10005 21009 39590 49961 56019 60022 70272 8552/ 333 21052 43076 70021;
0161010470999992013041509004+69000+023033FM-12+0307ENKA V0202701N005010150019N0600001N1+00311-00201099721ADDAY121031AY221031GF106991061001017501071001MA1999999096021MD1310131+9999MW1011REMSYN072AAXX  15091 01047 41786 62705 10031 21020 39602 49972 53013 70122 86070;
0161010470999992013041512004+69000+023033FM-12+0307ENKA V0203201N005012200019N0600001N1+00501-00251100011ADDAY101061AY201061GF102991011011012501041001MA1999999096321MD1310291+9999MW1021REMSYN072AAXX  15121 01047 41686 23205 10050 21025 39632 40001 53029 70200 81140;
0161010470999992013041515004+69000+023033FM-12+0307ENKA V0203201N003012200019N0600001N1+00641-00201100201ADDAY101031AY201031GF104991011011012501071001MA1999999096521MD1110221+9999MW1031REMSYN072AAXX  15151 01047 41686 43203 10064 21020 39652 40020 51022 70300 81170;
0184010470999992013041518004+69000+023033FM-12+0307ENKA V0202701N001010300019N0600001N1+00151-00411100371ADDAY121061AY221061GF105991021051008001071001KA1999M+00661MA1999999096621MD1210101+9999MW1031REMSYN082AAXX  15181 01047 31586 52701 10015 21041 39662 40037 52010 70322 82570 333 10066;
0161010470999992013041600004+69000+023033FM-12+0307ENKA V0201801N003010300019N0600001N1-00341-00401100571ADDAY121061AY221061GF106991041051008001071001MA1999999096811MD1110061+9999MW1021REMSYN072AAXX  16001 01047 41586 61803 11034 21040 39681 40057 51006 70222 84570;
0249010470999992013041606004+69000+023033FM-12+0307ENKA V0209999C000010150019N0650001N1-00381-00571100641ADDAA124000091AJ100749199999999AY121061AY221061GF106991061001017501071001IA1239KA1999N-00701MA1999999096871MD1010011+9999MW1021REMSYN094AAXX  16061 01047 31787 60000 11038 21057 39687 40064 50001 70222 86070 333 21070 47074 70000;EQDQ01  00002PRCP24
0161010470999992013041609004+69000+023033FM-12+0307ENKA V0201801N007010042019N0650001N1+00111-00111100651ADDAY121031AY221031GF108991081091004501999999MA1999999096901MD1310011+9999MW1021REMSYN072AAXX  16091 01047 41487 81807 10011 21011 39690 40065 53001 70222 889//;
0161010470999992013041612004+69000+023033FM-12+0307ENKA V0201801N007010090019N0650001N1+00241+00011100691ADDAY121061AY221061GF108991081081004501999999MA1999999096951MD1110051+9999MW1021REMSYN072AAXX  16121 01047 41487 81807 10024 20001 39695 40069 51005 70222 888//;
0161010470999992013041615004+69000+023033FM-12+0307ENKA V0201801N007010300019N0650001N1+00391-00071100631ADDAY121031AY221031GF108991041051008001021999MA1999999096921MD1610041+9999MW1021REMSYN072AAXX  16151 01047 41587 81807 10039 21007 39692 40063 56004 70222 8452/;
0184010470999992013041618004+69000+023033FM-12+0307ENKA V0201801N007010075019N0600001N1+00311-00141100571ADDAY121061AY221061GF108991081001008001021999KA1999M+00451MA1999999096851MD1710071+9999MW1021REMSYN082AAXX  16181 01047 31586 81807 10031 21014 39685 40057 57007 70222 8802/ 333 10045;
0213010470999992013041706004+69000+023033FM-12+0307ENKA V0201801N007010075019N0650001N1+00021-00061099831ADDAJ100699199999999AY121061AY221061GF108991061051008001021999IA1279KA1999N-00011MA1999999096111MD1610021+9999MW1021REMSYN088AAXX  17061 01047 41587 81807 10002 21006 39611 49983 56002 70222 8652/ 333 21001 43069;
0161010470999992013041709004+69000+023033FM-12+0307ENKA V0201801N007010075019N0600001N1+00101-00041099651ADDAY121031AY221031GF108991081001008001021999MA1999999095931MD1610161+9999MW1021REMSYN072AAXX  17091 01047 41586 81807 10010 21004 39593 49965 56016 70222 8802/;
0161010470999992013041712004+69000+023033FM-12+0307ENKA V0201801N007010075019N0600001N1+00141-00121099561ADDAY121061AY221061GF108991081001008001021999MA1999999095851MD1710091+9999MW1021REMSYN072AAXX  17121 01047 41586 81807 10014 21012 39585 49956 57009 70222 8802/;
0161010470999992013041715004+69000+023033FM-12+0307ENKA V0201801N005010075019N0600001N1+00181+00021099451ADDAY151031AY221031GF108991081001008001021999MA1999999095751MD1710091+9999MW1201REMSYN072AAXX  17151 01047 41586 81805 10018 20002 39575 49945 57009 72052 8802/;
0201010470999992013041718004+69000+023033FM-12+0307ENKA V0201801N005010042019N0600001N1+00151-00011099401ADDAA112000021AY151061AY221061GF108991051051004501021999KA1999M+00201MA1999999095701MD1710051+9999MW1021REMSYN088AAXX  17181 01047 11486 81805 10015 21001 39570 49940 57005 69902 70252 8552/ 333 10020;
0161010470999992013041800004+69000+023033FM-12+0307ENKA V0209999C000010042019N0600001N1+00021-00061099451ADDAY161061AY221061GF108991081051004501999999MA1999999095731MD1310051+9999MW1021REMSYN072AAXX  18001 01047 41486 80000 10002 21006 39573 49945 53005 70262 885//;
0266010470999992013041806004+69000+023033FM-12+0307ENKA V0200501N001010042019N0650001N1+00321-00041099581ADDAA112000091AA224000021AJ100659199999999AY161061AY221061GF107991071071004501001001IA1279KA1999N+00021MA1999999095901MD1210031+9999MW1021REMSYN100AAXX  18061 01047 11487 70501 10032 21004 39590 49958 52003 69912 70262 87700 333 20002 43065 70001;EQDQ01  00002PRCP12
0161010470999992013041809004+69000+023033FM-12+0307ENKA V0201401N005010075019N0600001N1+00441-00081099551ADDAY121031AY221031GF108991081051008001999999MA1999999095871MD1810011+9999MW1021REMSYN072AAXX  18091 01047 41586 81405 10044 21008 39587 49955 58001 70222 885//;
0161010470999992013041812004+69000+023033FM-12+0307ENKA V0201401N007010750019N0600001N1+00561-00041099411ADDAY121061AY221061GF106991021051008001001081MA1999999095761MD1810121+9999MW1021REMSYN072AAXX  18121 01047 41586 61407 10056 21004 39576 49941 58012 70222 82508;
0161010470999992013041815004+69000+023033FM-12+0307ENKA V0201401N005010075019N0600001N1+00481-00121099171ADDAY121031AY221031GF108991081001008001021999MA1999999095521MD1810221+9999MW1021REMSYN072AAXX  18151 01047 41586 81405 10048 21012 39552 49917 58022 70222 8802/;
0184010470999992013041818004+69000+023033FM-12+0307ENKA V0201401N005010300019N0600001N1+00261-00081098871ADDAY121061AY221061GF108991041051008001021999KA1999M+00581MA1999999095201MD1810361+9999MW1021REMSYN082AAXX  18181 01047 31586 81405 10026 21008 39520 49887 58036 70222 8452/ 333 10058;
0180010470999992013041900004+69000+023033FM-12+0307ENKA V0200901N005010075019N0020001N1+00081-00051098062ADDAY171061AY271061GF108991081001008001021999MA1999999094411MD1610371+9999MW1731REMSYN072AAXX  19001 01047 41520 80905 10008 21005 39441 49806 56037 77377 8802/;EQDQ01+098063APOSLP
0247010470999992013041906004+69000+023033FM-12+0307ENKA V0200901N005010075019N0100001N1+00121+00031097901ADDAA112007991AA224008191AJ100599199999999AY171061AY271061GF108991081001008001021999IA1279KA1999N+00061MA1999999094251MD1210021+9999MW1701REMSYN100AAXX  19061 01047 11560 80905 10012 20003 39425 49790 52002 60082 77077 8802/ 333 20006 43059 70082;
0161010470999992013041909004+69000+023033FM-12+0307ENKA V0203401N007010075019N0500001N1+00201-00111098091ADDAY171031AY221031GF108991081001008001021999MA1999999094451MD1310201+9999MW1021REMSYN072AAXX  19091 01047 41584 83407 10020 21011 39445 49809 53020 70272 8802/;
0161010470999992013041912004+69000+023033FM-12+0307ENKA V0203201N010010075019N0400001N1+00241-00161098451ADDAY161061AY221061GF108991081001008001021999MA1999999094801MD1310331+9999MW1611REMSYN072AAXX  19121 01047 41582 83210 10024 21016 39480 49845 53033 76162 8802/;
0161010470999992013041915004+69000+023033FM-12+0307ENKA V0203201N007010075019N0200001N1+00201-00041098871ADDAY171031AY261031GF108991081001008001021999MA1999999095201MD1210401+9999MW1681REMSYN072AAXX  19151 01047 41570 83207 10020 21004 39520 49887 52040 76876 8802/;
0201010470999992013041918004+69000+023033FM-12+0307ENKA V0203201N007010075019N0500001N1+00201-00141099221ADDAA112000591AY171061AY221061GF108991081001008001021999KA1999M+00281MA1999999095521MD1310331+9999MW1021REMSYN088AAXX  19181 01047 11584 83207 10020 21014 39552 49922 53033 69952 70272 8802/ 333 10028;
0213010470999992013042006004+69000+023033FM-12+0307ENKA V0203201N005019999999N0650001N1+00141-00441100631ADDAJ100559199999999AY121061AY221061GF108991081001012501071999IA1279KA1999N+00091MA1999999096871MD1210331+9999MW1021REMSYN088AAXX  20061 01047 41687 83205 10014 21044 39687 40063 52033 70222 8807/ 333 20009 43055;
0161010470999992013042009004+69000+023033FM-12+0307ENKA V0203201N005010150019N0650001N1+00311-00431100951ADDAY121031AY221031GF108991081001017501011999MA1999999097211MD1310341+9999MW1021REMSYN072AAXX  20091 01047 41787 83205 10031 21043 39721 40095 53034 70222 8801/;
0161010470999992013042012004+69000+023033FM-12+0307ENKA V0203201N005010300019N0600001N1+00281-00481101251ADDAY121061AY221061GF108991041051008001021999MA1999999097501MD1210291+9999MW1021REMSYN072AAXX  20121 01047 41586 83205 10028 21048 39750 40125 52029 70222 8452/;
0161010470999992013042015004+69000+023033FM-12+0307ENKA V0203201N005012200019N0600001N1+00281-00601101481ADDAY121031AY221031GF103991011051008001011001MA1999999097721MD1110201+9999MW1011REMSYN072AAXX  20151 01047 41586 33205 10028 21060 39772 40148 51020 70122 81510;
0184010470999992013042018004+69000+023033FM-12+0307ENKA V0203201N005012200019N0600001N1+00001-00671101641ADDAY101061AY201061GF102991021001017501071001KA1999M+00361MA1999999097851MD1210131+9999MW1021REMSYN082AAXX  20181 01047 31786 23205 10000 21067 39785 40164 52013 70200 82070 333 10036;
0161010470999992013042100004+69000+023033FM-12+0307ENKA V0201401N003012200019N0600001N1-00641-00801101841ADDAY101061AY201061GF104991041001017501071001MA1999999098021MD1210081+9999MW1031REMSYN072AAXX  21001 01047 41786 41403 11064 21080 39802 40184 52008 70300 84070;
0213010470999992013042106004+69000+023033FM-12+0307ENKA V0201801N003010150019N0650001N1-00261-00421101851ADDAJ100529199999999AY121061AY201061GF108991081001017501021999IA1279KA1999N-00651MA1999999098031MD1510011+9999MW1021REMSYN088AAXX  21061 01047 41787 81803 11026 21042 39803 40185 55001 70220 8802/ 333 21065 43052;
0161010470999992013042109004+69000+023033FM-12+0307ENKA V0201401N005010075019N0600001N1+00001-00511101811ADDAY121031AY221031GF108991081051008001999999MA1999999098011MD1510031+9999MW1021REMSYN072AAXX  21091 01047 41586 81405 10000 21051 39801 40181 55003 70222 885//;
0161010470999992013042112004+69000+023033FM-12+0307ENKA V0201601N007010150019N0600001N1+00241-00351101761ADDAY111061AY211061GF105991051001017501071001MA1999999097971MD1810031+9999MW1021REMSYN072AAXX  21121 01047 41786 51607 10024 21035 39797 40176 58003 70211 85070;
0161010470999992013042115004+69000+023033FM-12+0307ENKA V0201601N005010150019N0600001N1+00371-00291101701ADDAY121031AY221031GF106991061001017501071001MA1999999097931MD1810051+9999MW1021REMSYN072AAXX  21151 01047 41786 61605 10037 21029 39793 40170 58005 70222 86070;
0184010470999992013042118004+69000+023033FM-12+0307ENKA V0201601N005010150019N0600001N1+00311-00281101571ADDAY121061AY221061GF108991081001017501071999KA1999M+00371MA1999999097811MD1710131+9999MW1021REMSYN082AAXX  21181 01047 31786 81605 10031 21028 39781 40157 57013 70222 8807/ 333 10037;
0161010470999992013042200004+69000+023033FM-12+0307ENKA V0202201N005010075019N0600001N1+00221-00141101311ADDAY121061AY221061GF108991081001008001021999MA1999999097551MD1810181+9999MW1021REMSYN072AAXX  22001 01047 41586 82205 10022 21014 39755 40131 58018 70222 8802/;
0213010470999992013042206004+69000+023033FM-12+0307ENKA V0202201N005010150019N0650001N1+00081-00331100891ADDAJ100529199999999AY121061AY221061GF107991071001017501011001IA1279KA1999N+00051MA1999999097121MD1710211+9999MW1021REMSYN088AAXX  22061 01047 41787 72205 10008 21033 39712 40089 57021 70222 87010 333 20005 43052;
0161010470999992013042209004+69000+023033FM-12+0307ENKA V0201801N007010300019N0650001N1+00301-00291100621ADDAY121031AY221031GF107991021051008001071001MA1999999096881MD1710241+9999MW1021REMSYN072AAXX  22091 01047 41587 71807 10030 21029 39688 40062 57024 70222 82570;
0161010470999992013042212004+69000+023033FM-12+0307ENKA V0201801N007010210019N0650001N1+00481-00251100261ADDAY121061AY221061GF106991061001022501071001MA1999999096571MD1710321+9999MW1021REMSYN072AAXX  22121 01047 41887 61807 10048 21025 39657 40026 57032 70222 86070;
0161010470999992013042215004+69000+023033FM-12+0307ENKA V0201801N010010210019N0650001N1+00511-00251100091ADDAY121031AY221031GF106991061001022501091001MA1999999096411MD1610161+9999MW1021REMSYN072AAXX  22151 01047 41887 61810 10051 21025 39641 40009 56016 70222 86090;
0184010470999992013042218004+69000+023033FM-12+0307ENKA V0201801N010010075019N0600001N1+00341-00251100051ADDAY121061AY221061GF108991081051008001999999KA1999M+00521MA1999999096351MD1610071+9999MW1021REMSYN082AAXX  22181 01047 31586 81810 10034 21025 39635 40005 56007 70222 885// 333 10052;
0161010470999992013042300004+69000+023033FM-12+0307ENKA V0201601N007010210019N0600001N1+00001-00441099891ADDAY121061AY221061GF106991061001022501071001MA1999999096171MD1810151+9999MW1021REMSYN072AAXX  23001 01047 41886 61607 10000 21044 39617 49989 58015 70222 86070;
0213010470999992013042306004+69000+023033FM-12+0307ENKA V0201601N007010120019N0100001N1+00101-00061099441ADDAJ100309199999999AY121061AY221061GF108991081001012501021999IA1279KA1999N-00011MA1999999095731MD1210181+9999MW1021REMSYN088AAXX  23061 01047 41660 81607 10010 21006 39573 49944 52018 70222 8802/ 333 21001 43030;
0161010470999992013042309004+69000+023033FM-12+0307ENKA V0201601N010010075019N0200001N1+00141-00051099251ADDAY151031AY221031GF108991081001008001021999MA1999999095561MD1810161+9999MW1511REMSYN072AAXX  23091 01047 41570 81610 10014 21005 39556 49925 58016 75152 8802/;
0161010470999992013042312004+69000+023033FM-12+0307ENKA V0201601N010010042019N0400001N1+00201-00071099111ADDAY161061AY251061GF108991081051004501999999MA1999999095421MD1710141+9999MW1601REMSYN072AAXX  23121 01047 41482 81610 10020 21007 39542 49911 57014 76065 885//;
0161010470999992013042315004+69000+023033FM-12+0307ENKA V0201601N007010042019N0500001N1+00181-00061099041ADDAY171031AY261031GF108991081051004501999999MA1999999095361MD1710061+9999MW1021REMSYN072AAXX  23151 01047 41484 81607 10018 21006 39536 49904 57006 70276 885//;
0201010470999992013042318004+69000+023033FM-12+0307ENKA V0201601N007010042019N0500001N1+00121-00041099001ADDAA112000021AY161061AY221061GF108991051051004501999999KA1999M+00201MA1999999095311MD1610051+9999MW1021REMSYN088AAXX  23181 01047 11484 81607 10012 21004 39531 49900 56005 69912 70262 855// 333 10020;
0161010470999992013042400004+69000+023033FM-12+0307ENKA V0201801N005010042019N0550001N1+00081-00061098951ADDAY161061AY221061GF108991081051004501999999MA1999999095261MD1710021+9999MW1021REMSYN072AAXX  24001 01047 41485 81805 10008 21006 39526 49895 57002 70262 885//;
0266010470999992013042406004+69000+023033FM-12+0307ENKA V0201601N003010300019N0650001N1+00151-00071098961ADDAA112000091AA224000391AJ100309199999999AY161061AY221061GF108991041051004501021999IA1279KA1999N+00081MA1999999095271MD1210041+9999MW1021REMSYN100AAXX  24061 01047 11487 81603 10015 21007 39527 49896 52004 69912 70262 8452/ 333 20008 43030 70002;EQDQ01  00002PRCP12
0161010470999992013042409004+69000+023033FM-12+0307ENKA V0201601N007010042019N0600001N1+00221-00141099041ADDAY121031AY221031GF108991081051004501999999MA1999999095361MD1210071+9999MW1021REMSYN072AAXX  24091 01047 41486 81607 10022 21014 39536 49904 52007 70222 885//;
0161010470999992013042412004+69000+023033FM-12+0307ENKA V0201401N007010042019N0600001N1+00301-00131099181ADDAY121061AY221061GF108991081051004501999999MA1999999095511MD1310151+9999MW1021REMSYN072AAXX  24121 01047 41486 81407 10030 21013 39551 49918 53015 70222 885//;
0161010470999992013042415004+69000+023033FM-12+0307ENKA V0201601N005010075019N0600001N1+00291-00141099311ADDAY161031AY221031GF108991081001008001021999MA1999999095621MD1210131+9999MW1021REMSYN072AAXX  24151 01047 41586 81605 10029 21014 39562 49931 52013 70262 8802/;
0220010470999992013042418004+69000+023033FM-12+0307ENKA V0201601N005010300019N0600001N1+00241-00101099431ADDAA112000091AY161061AY221061GF106991021051008001071001KA1999M+00241MA1999999095731MD1310101+9999MW1021REMSYN088AAXX  24181 01047 11586 61605 10024 21010 39573 49943 53010 69912 70262 82570 333 10024;EQDQ01  00002PRCP12
0161010470999992013042500004+69000+023033FM-12+0307ENKA V0201801N003010150019N0600001N1-00241-00301099741ADDAY121061AY221061GF106991061001017501071001MA1999999096011MD1310131+9999MW1021REMSYN072AAXX  25001 01047 41786 61803 11024 21030 39601 49974 53013 70222 86070;
0213010470999992013042506004+69000+023033FM-12+0307ENKA V0203201N003010300019N0650001N1+00171-00241099981ADDAJ100309199999999AY121061AY221061GF108991031041008001071999IA1279KA1999N-00241MA1999999096261MD1210141+9999MW1021REMSYN088AAXX  25061 01047 41587 83203 10017 21024 39626 49998 52014 70222 8347/ 333 21024 43030;
0161010470999992013042509004+69000+023033FM-12+0307ENKA V0200501N005010300019N0600001N1+00241-00191100151ADDAY121031AY221031GF106991041031012501071001MA1999999096421MD1210161+9999MW1021REMSYN072AAXX  25091 01047 41686 60505 10024 21019 39642 40015 52016 70222 84370;
0161010470999992013042512004+69000+023033FM-12+0307ENKA V0203201N005010150019N0600001N1+00481-00421100251ADDAY121061AY221061GF106991061081012501001001MA1999999096561MD1210131+9999MW1021REMSYN072AAXX  25121 01047 41686 63205 10048 21042 39656 40025 52013 70222 86800;
0161010470999992013042515004+69000+023033FM-12+0307ENKA V0203201N005012200019N0600001N1+00501-00431100341ADDAY121031AY221031GF103991021031012501041001MA1999999096651MD1210091+9999MW1011REMSYN072AAXX  25151 01047 41686 33205 10050 21043 39665 40034 52009 70122 82340;
0184010470999992013042518004+69000+023033FM-12+0307ENKA V0203201N003012200019N0600001N1+00201-00611100411ADDAY101061AY201061GF102991001001999999001021KA1999M+00521MA1999999096671MD1210031+9999MW1021REMSYN082AAXX  25181 01047 31986 23203 10020 21061 39667 40041 52003 70200 80002 333 10052;
0161010470999992013042600004+69000+023033FM-12+0307ENKA V0209999C000012200019N0600001N1-00641-00761100501ADDAY101061AY201061GF104991001001999999001021MA1999999096721MD1210021+9999MW1021REMSYN072AAXX  26001 01047 41986 40000 11064 21076 39672 40050 52002 70200 80002;
0213010470999992013042606004+69000+023033FM-12+0307ENKA V0209999C000010120019N0650001N1-00221-00761100491ADDAJ100299199999999AY111061AY201061GF106991061051012501001001IA1279KA1999N-00711MA1999999096721MD1210031+9999MW1021REMSYN088AAXX  26061 01047 41687 60000 11022 21076 39672 40049 52003 70210 86500 333 21071 43029;
0161010470999992013042609004+69000+023033FM-12+0307ENKA V0203401N005010300019N0650001N1+00121-00551100461ADDAY121031AY221031GF106991021051008001071001MA1999999096721MD1410001+9999MW1021REMSYN072AAXX  26091 01047 41587 63405 10012 21055 39672 40046 54001 70222 82570;
0161010470999992013042612004+69000+023033FM-12+0307ENKA V0203401N003010075019N0600001N1+00221-00121100451ADDAY181061AY221061GF107991061031008001041001MA1999999096721MD1410001+9999MW1261REMSYN072AAXX  26121 01047 41586 73403 10022 21012 39672 40045 54000 72682 86340;
0161010470999992013042615004+69000+023033FM-12+0307ENKA V0200501N005010300019N0600001N1+00441-00311100391ADDAY121031AY221031GF106991041031008001091081MA1999999096681MD1710021+9999MW1021REMSYN072AAXX  26151 01047 41586 60505 10044 21031 39668 40039 57002 70222 84398;
0201010470999992013042618004+69000+023033FM-12+0307ENKA V0200501N005010300019N0600001N1+00291-00451100441ADDAA112000021AY121061AY221061GF106991021041012501071001KA1999M+00521MA1999999096721MD1210021+9999MW1021REMSYN088AAXX  26181 01047 11686 60505 10029 21045 39672 40044 52002 69912 70222 82470 333 10052;
0161010470999992013042700004+69000+023033FM-12+0307ENKA V0200501N003010150019N0600001N1-00411-00531100561ADDAY111061AY211061GF105991051001017501071001MA1999999096781MD1210031+9999MW1021REMSYN072AAXX  27001 01047 41786 50503 11041 21053 39678 40056 52003 70211 85070;
0232010470999992013042706004+69000+023033FM-12+0307ENKA V0200501N003019999999N0650001N1-00091-00451100571ADDAJ100299199999999AY111061AY211061GF106991999001017501041001IA1279KA1999N-00441MA1999999096821MD1410001+9999MW1021REMSYN088AAXX  27061 01047 41787 60503 11009 21045 39682 40057 54000 70211 84040 333 21044 43029;EQDQ01+000042SCOTLC
0161010470999992013042709004+69000+023033FM-12+0307ENKA V0203201N005010075019N0040001N1+00101-00331100591ADDAY171031AY221031GF108991081001008001021999MA1999999096831MD1210021+9999MW1711REMSYN072AAXX  27091 01047 41540 83205 10010 21033 39683 40059 52002 77172 8802/;
0161010470999992013042712004+69000+023033FM-12+0307ENKA V0203401N007010075019N0050001N1+00281-00231100621ADDAY181061AY271061GF107991071031008001001001MA1999999096881MD1210051+9999MW1851REMSYN072AAXX  27121 01047 41550 73407 10028 21023 39688 40062 52005 78587 87300;
0161010470999992013042715004+69000+023033FM-12+0307ENKA V0203201N005010075019N0600001N1+00111-00471100691ADDAY181031AY221031GF106991051031008001041001MA1999999096931MD1010041+9999MW1021REMSYN072AAXX  27151 01047 41586 63205 10011 21047 39693 40069 50004 70282 85340;
0201010470999992013042718004+69000+023033FM-12+0307ENKA V0203201N005019999999N0600001N1-00031-00471100711ADDAA112000021AY181061AY221061GF106991061001012501041001KA1999M+00281MA1999999096951MD1410001+9999MW1021REMSYN088AAXX  27181 01047 11686 63205 11003 21047 39695 40071 54001 69922 70282 86040 333 10028;
0161010470999992013042800004+69000+023033FM-12+0307ENKA V0203601N005010300019N0600001N1-00521-00811100771ADDAY111061AY211061GF105991031051012501071001MA1999999096981MD1410001+9999MW1021REMSYN072AAXX  28001 01047 41686 53605 11052 21081 39698 40077 54001 70211 83570;
0213010470999992013042806004+69000+023033FM-12+0307ENKA V0209999C000010075019N0650001N1-00341-00691100751ADDAJ100289199999999AY121061AY211061GF107991071051008001001001IA1279KA1999N-00681MA1999999096971MD1410001+9999MW1021REMSYN088AAXX  28061 01047 41587 70000 11034 21069 39697 40075 54000 70221 87500 333 21068 43028;
0161010470999992013042809004+69000+023033FM-12+0307ENKA V0203601N003012200019N0650001N1+00121-00611100721ADDAY121031AY221031GF102991021051008001001001MA1999999096971MD1410001+9999MW1011REMSYN072AAXX  28091 01047 41587 23603 10012 21061 39697 40072 54001 70122 82500;
0161010470999992013042812004+69000+023033FM-12+0307ENKA V0203401N003012200019N0650001N1+00261-00701100731ADDAY101061AY201061GF104991031011012501041001MA1999999097001MD1210031+9999MW1031REMSYN072AAXX  28121 01047 41687 43403 10026 21070 39700 40073 52003 70300 83140;
0161010470999992013042815004+69000+023033FM-12+0307ENKA V0200501N003012200019N0650001N1+00121-00751100741ADDAY101031AY201031GF102991021011012501001001MA1999999096981MD1810011+9999MW1021REMSYN072AAXX  28151 01047 41687 20503 10012 21075 39698 40074 58001 70200 82100;
0184010470999992013042818004+69000+023033FM-12+0307ENKA V0201401N003012200019N0650001N1-00101-00801100741ADDAY101061AY201061GF103991031001022501031001KA1999M+00351MA1999999096971MD1410001+9999MW1021REMSYN082AAXX  28181 01047 31887 31403 11010 21080 39697 40074 54000 70200 83030 333 10035;
0213010470999992013042906004+69000+023033FM-12+0307ENKA V0201401N005019999999N0650001N1+00021-00441100431ADDAJ100279199999999AY121061AY221061GF108991081001012501071999IA1279KA1999N-00351MA1999999096681MD1710121+9999MW1021REMSYN088AAXX  29061 01047 41687 81405 10002 21044 39668 40043 57012 70222 8807/ 333 21035 43027;
0161010470999992013042909004+69000+023033FM-12+0307ENKA V0201601N007010075019N0010001N1+00081-00111100281ADDAY171031AY221031GF108991081001008001021999MA1999999096531MD1710141+9999MW1731REMSYN072AAXX  29091 01047 41510 81607 10008 21011 39653 40028 57014 77372 8802/;
0161010470999992013042912004+69000+023033FM-12+0307ENKA V0201401N007010075019N0600001N1+00161-00111100241ADDAY171061AY271061GF108991081001008001021999MA1999999096511MD1510031+9999MW1231REMSYN072AAXX  29121 01047 41586 81407 10016 21011 39651 40024 55003 72377 8802/;
0161010470999992013042915004+69000+023033FM-12+0307ENKA V0201601N007010120019N0600001N1+00211-00061100161ADDAY121031AY221031GF106991061031012501001001MA1999999096431MD1710071+9999MW1021REMSYN072AAXX  29151 01047 41686 61607 10021 21006 39643 40016 57007 70222 86300;
0201010470999992013042918004+69000+023033FM-12+0307ENKA V0201401N005010120019N0600001N1+00141-00121100111ADDAA112000591AY171061AY221061GF106991051031012501041001KA1999M+00251MA1999999096371MD1710061+9999MW1021REMSYN088AAXX  29181 01047 11686 61405 10014 21012 39637 40011 57006 69962 70272 85340 333 10025;
0161010470999992013043000004+69000+023033FM-12+0307ENKA V0201801N007010042019N0600001N1+00041-00101100031ADDAY121061AY221061GF108991051051004501021999MA1999999096301MD1810051+9999MW1021REMSYN072AAXX  30001 01047 41486 81807 10004 21010 39630 40003 58005 70222 8552/;
0247010470999992013043006004+69000+023033FM-12+0307ENKA V0209999C000010075019N0060001N1+00131+00041099871ADDAA112000591AA224001391AJ100289199999999AY171061AY221061GF108991081001008001021999IA1279KA1999N+00041MA1999999096151MD1710071+9999MW1701REMSYN100AAXX  30061 01047 11556 80000 10013 20004 39615 49987 57007 69962 77072 8802/ 333 20004 43028 70012;
0161010470999992013043009004+69000+023033FM-12+0307ENKA V0201601N005010075019N0050001N1+00221-00041099851ADDAY171031AY271031GF108991081001008001021999MA1999999096131MD1410001+9999MW1681REMSYN072AAXX  30091 01047 41550 81605 10022 21004 39613 49985 54001 76877 8802/;
0161010470999992013043012004+69000+023033FM-12+0307ENKA V0209999C000010075019N0050001N1+00341-00011099871ADDAY171061AY221061GF108991081001008001021999MA1999999096171MD1210041+9999MW1681REMSYN072AAXX  30121 01047 41550 80000 10034 21001 39617 49987 52004 76872 8802/;
0161010470999992013043015004+69000+023033FM-12+0307ENKA V0203601N003010075019N0300001N1+00251+00121099951ADDAY171031AY261031GF108991081001008001021999MA1999999096231MD1210061+9999MW1611REMSYN072AAXX  30151 01047 41580 83603 10025 20012 39623 49995 52006 76176 8802/;
0201010470999992013043018004+69000+023033FM-12+0307ENKA V0203601N003010075019N0030001N1+00161+00001100061ADDAA112003091AY171061AY261061GF108991081001008001021999KA1999M+00361MA1999999096331MD1310101+9999MW1681REMSYN088AAXX  30181 01047 11530 83603 10016 21000 39633 40006 53010 60032 76876 8802/ 333 10036;
0187010470999992013050100004+69000+023033FM-12+030799999V0203201N005019999999N060000199+00081-00141100401ADDAY171021AY221021GA1081+999991061GE19MSL   +99999+99999GF108991999999999999999999MA1999990096661MD1210161+9990MW1021REMSYN06001047 41486 83205 10008 21014 39666 40040 52016 70272 885//=
0273010470999992013050106004+69000+023033FM-12+030799999V0203201N005019999999N065000199+00091-00491100671ADDAA112000831AA224003331AJ100283100280094AY171021AY221021GA1081+999991041GE19MSL   +99999+99999GF108991999999999999999999IA1279KA1240N-00011MA1999990096921MD1310111+9990MW1021REMSYN08801047 11787 83205 10009 21049 39692 40067 53011 69982 70272 8801/ 333 21001 43028 70033=
0187010470999992013050109004+69000+023033FM-12+030799999V0203201N005019999999N065000199+00281-00531100841ADDAY121021AY221021GA1061+999991041GE19MSL   +99999+99999GF106991999999999999999999MA1999990097101MD1210171+9990MW1021REMSYN06001047 41787 63205 10028 21053 39710 40084 52017 70222 86010=
0203010470999992013050112004+69000+023033FM-12+030799999V0203201N005019999999N065000199+00431-00391100981ADDAY121021AY221021GA1011+999991081GA2991+999991021GE19MSL   +99999+99999GF105991999999999999999999MA1999990097261MD1310171+9990MW1021REMSYN06001047 41687 53205 10043 21039 39726 40098 53017 70222 81108=
0203010470999992013050115004+69000+023033FM-12+030799999V0203201N005019999999N065000199+00421-00401101141ADDAY111021AY211021GA1021+999991081GA2991+999991031GE19MSL   +99999+99999GF105991999999999999999999MA1999990097411MD1210151+9990MW1021REMSYN06001047 41687 53205 10042 21040 39741 40114 52015 70211 82290=
0140010470999992013050118004+69000+023033FM-12+030799999V0203201N005019999999N065000199+00121-00681101291ADDAY101021AY201021KA1120M+00481MA1999990097521MD1210111+9990MW1011REMSYN06401047 31987 03205 10012 21068 39752 40129 52011 70100 333 10048=
0117010470999992013050200004+69000+023033FM-12+030799999V0209999C999999999999N060000199-00701-00831101381ADDAY101021AY201021MA1999990097571MD1900001+9990MW1021REMSYN05401047 41986 00000 11070 21083 39757 40138 50000 70200=
0140010470999992013050206004+69000+023033FM-12+030799999V0209999C999999999999N065000199-00131-00751101151ADDAY101021AY201021KA1240N-00831MA1999990097371MD1710131+9990MW1021REMSYN06401047 41987 00000 11013 21075 39737 40115 57013 70200 333 21083=
0187010470999992013050209004+69000+023033FM-12+030799999V0201401N005019999999N065000199+00181-00621101031ADDAY101021AY201021GA1011+999991081GE19MSL   +99999+99999GF101991999999999999999999MA1999990097271MD1810101+9990MW1021REMSYN06001047 41687 11405 10018 21062 39727 40103 58010 70200 81100=
0187010470999992013050212004+69000+023033FM-12+030799999V0201401N005019999999N065000199+00401-00491100871ADDAY101021AY201021GA1051+999991031GE19MSL   +99999+99999GF105991999999999999999999MA1999990097151MD1710121+9990MW1031REMSYN06001047 41887 51405 10040 21049 39715 40087 57012 70300 85030=
0187010470999992013050215004+69000+023033FM-12+030799999V0201601N005019999999N065000199+00461-00521100731ADDAY111021AY211021GA1041+999991031GE19MSL   +99999+99999GF104991999999999999999999MA1999990097021MD1710141+9990MW1021REMSYN06001047 41887 41605 10046 21052 39702 40073 57014 70211 84030=
0210010470999992013050218004+69000+023033FM-12+030799999V0209999C999999999999N065000199+00381-00541100621ADDAY111021AY211021GA1051+999991031GE19MSL   +99999+99999GF105991999999999999999999KA1120M+00551MA1999990096911MD1710111+9990MW1031REMSYN07001047 31787 50000 10038 21054 39691 40062 57011 70311 85070 333 10055=
0187010470999992013050300004+69000+023033FM-12+030799999V0201601N005019999999N065000199-00341-00721100571ADDAY111021AY211021GA1031+999991031GE19MSL   +99999+99999GF103991999999999999999999MA1999990096811MD1810031+9990MW1011REMSYN06001047 41787 31605 11034 21072 39681 40057 58003 70111 83070=
0239010470999992013050306004+69000+023033FM-12+030799999V0200501N001019999999N065000199-00011-00641100581ADDAJ100273100270094AY111021AY211021GA1031+999991031GE19MSL   +99999+99999GF103991999999999999999999IA1279KA1240N-00611MA1999990096821MD1210031+9990MW1021REMSYN07601047 41787 30501 11001 21064 39682 40058 52003 70211 83040 333 21061 43027=
0203010470999992013050309004+69000+023033FM-12+030799999V0200901N003019999999N065000199+00421-00471100621ADDAY101021AY201021GA1011+999991081GA2991+999991001GE19MSL   +99999+99999GF102991999999999999999999MA1999990096911MD1210081+9990MW1021REMSYN06001047 41687 20903 10042 21047 39691 40062 52008 70200 81101=
0187010470999992013050312004+69000+023033FM-12+030799999V0200501N003019999999N065000199+00521-00381100651ADDAY101021AY201021GA1031+999991031GE19MSL   +99999+99999GF103991999999999999999999MA1999990096951MD1210041+9990MW1021REMSYN06001047 41887 30503 10052 21038 39695 40065 52004 70200 83030=
0187010470999992013050315004+69000+023033FM-12+030799999V0201401N003019999999N065000199+00421-00471100671ADDAY121021AY221021GA1071+999991031GE19MSL   +99999+99999GF107991999999999999999999MA1999990096961MD1210011+9990MW1031REMSYN06001047 41787 71403 10042 21047 39696 40067 52001 70322 87070=
0210010470999992013050318004+69000+023033FM-12+030799999V0201401N003019999999N065000199+00331-00351100641ADDAY121021AY221021GA1071+999991061GE19MSL   +99999+99999GF107991999999999999999999KA1120M+00561MA1999990096921MD1710041+9990MW1021REMSYN07001047 31687 71403 10033 21035 39692 40064 57004 70222 87500 333 10056=
0187010470999992013050400004+69000+023033FM-12+030799999V0209999C999999999999N060000199+00001-00201100681ADDAY171021AY221021GA1081+999991061GE19MSL   +99999+99999GF108991999999999999999999MA1999990096921MD1510021+9990MW1021REMSYN06001047 41586 80000 10000 21020 39692 40068 55002 70272 885//=
0289010470999992013050406004+69000+023033FM-12+030799999V0203201N003019999999N065000199+00121-00221100651ADDAA112000131AA224000131AJ100273100270094AY171021AY221021GA1051+999991061GA2991+999991051GE19MSL   +99999+99999GF108991999999999999999999IA1279KA1240N-00021MA1999990096901MD1410001+9990MW1021REMSYN08801047 11587 83203 10012 21022 39690 40065 54000 69912 70272 8552/ 333 21002 43027 70001=
0187010470999992013050409004+69000+023033FM-12+030799999V0203601N005019999999N060000199+00301-00171100671ADDAY121021AY221021GA1081+999991061GE19MSL   +99999+99999GF108991999999999999999999MA1999990096931MD1210041+9990MW1021REMSYN06001047 41586 83605 10030 21017 39693 40067 52004 70222 885//=
0187010470999992013050412004+69000+023033FM-12+030799999V0203601N005019999999N060000199+00281-00171100731ADDAY121021AY221021GA1081+999991061GE19MSL   +99999+99999GF108991999999999999999999MA1999990097001MD1210061+9990MW1021REMSYN06001047 41486 83605 10028 21017 39700 40073 52006 70222 885//=
0203010470999992013050415004+69000+023033FM-12+030799999V0203601N005019999999N060000199+00461-00121100781ADDAY121021AY221021GA1031+999991091GA2991+999991031GE19MSL   +99999+99999GF104991999999999999999999MA1999990097071MD1210071+9990MW1021REMSYN06001047 41686 43605 10046 21012 39707 40078 52007 70222 83340=
0226010470999992013050418004+69000+023033FM-12+030799999V0203201N005019999999N060000199+00181-00231100881ADDAY121021AY221021GA1041+999991061GA2991+999991031GE19MSL   +99999+99999GF105991999999999999999999KA1120M+00501MA1999990097121MD1210061+9990MW1021REMSYN07001047 31686 53205 10018 21023 39712 40088 52006 70222 84440 333 10050=
0187010470999992013050500004+69000+023033FM-12+030799999V0209999C999999999999N060000199-00121-00231100981ADDAY121021AY221021GA1041+999991031GE19MSL   +99999+99999GF104991999999999999999999MA1999990097211MD1900011+9990MW1021REMSYN06001047 41886 40000 11012 21023 39721 40098 50001 70222 84030=
0256010470999992013050506004+69000+023033FM-12+030799999V0203601N003019999999N065000199+00161-00251101031ADDAA124000091AJ100273100270094AY121021AY221021GA1071+999991091GE19MSL   +99999+99999GF107991999999999999999999IA1279KA1240N-00271MA1999990097271MD1310041+9990MW1021REMSYN08201047 31487 73603 10016 21025 39727 40103 53004 70222 87900 333 21027 43027 70000=
0203010470999992013050509004+69000+023033FM-12+030799999V0200501N005019999999N065000199+00341-00251101061ADDAY121021AY221021GA1031+999991081GA2991+999991031GE19MSL   +99999+99999GF104991999999999999999999MA1999990097321MD1210061+9990MW1021REMSYN06001047 41687 40505 10034 21025 39732 40106 52006 70222 83290=
0203010470999992013050512004+69000+023033FM-12+030799999V0200901N005019999999N065000199+00381-00301101151ADDAY111021AY211021GA1031+999991091GA2991+999991031GE19MSL   +99999+99999GF104991999999999999999999MA1999990097421MD1210101+9990MW1021REMSYN06001047 41687 40905 10038 21030 39742 40115 52010 70211 83340=
0187010470999992013050515004+69000+023033FM-12+030799999V0200901N003019999999N065000199+00401-00491101271ADDAY101021AY201021GA1021+999991091GE19MSL   +99999+99999GF102991999999999999999999MA1999990097521MD1310101+9990MW1011REMSYN06001047 41687 20903 10040 21049 39752 40127 53010 70100 82300=
0226010470999992013050518004+69000+023033FM-12+030799999V0201801N003019999999N065000199+00281-00461101361ADDAY101021AY201021GA1021+999991061GA2991+999991021GE19MSL   +99999+99999GF104991999999999999999999KA1120M+00521MA1999990097601MD1210071+9990MW1021REMSYN07001047 31687 41803 10028 21046 39760 40136 52007 70200 82408 333 10052=
0187010470999992013050600004+69000+023033FM-12+030799999V0201801N003019999999N060000199-00021-00331101311ADDAY121021AY221021GA1081+999991061GE19MSL   +99999+99999GF108991999999999999999999MA1999990097521MD1710081+9990MW1021REMSYN06001047 41586 81803 11002 21033 39752 40131 57008 70222 885//=
0239010470999992013050606004+69000+023033FM-12+030799999V0201401N005019999999N065000199+00291-00301100971ADDAJ100253100250094AY121021AY211021GA1051+999991031GE19MSL   +99999+99999GF105991999999999999999999IA1279KA1240N-00081MA1999990097221MD1810131+9990MW1021REMSYN07601047 41787 51405 10029 21030 39722 40097 58013 70221 85040 333 21008 43025=
0187010470999992013050609004+69000+023033FM-12+030799999V0201801N007019999999N065000199+00521-00101100791ADDAY121021AY221021GA1081+999991041GE19MSL   +99999+99999GF108991999999999999999999MA1999990097081MD1510111+9990MW1021REMSYN06001047 41787 81807 10052 21010 39708 40079 55011 70222 8801/=
0187010470999992013050612004+69000+023033FM-12+030799999V0202201N007019999999N065000199+00641-00051100811ADDAY121021AY221021GA1061+999991031GE19MSL   +99999+99999GF106991999999999999999999MA1999990097121MD1310031+9990MW1011REMSYN06001047 41787 62207 10064 21005 39712 40081 53003 70122 86070=
0187010470999992013050615004+69000+023033FM-12+030799999V0202201N007019999999N065000199+00801+00031100861ADDAY121021AY221021GA1051+999991031GE19MSL   +99999+99999GF105991999999999999999999MA1999990097181MD1310071+9990MW1021REMSYN06001047 41787 52207 10080 20003 39718 40086 53007 70222 85070=
0210010470999992013050618004+69000+023033FM-12+030799999V0202201N007019999999N065000199+00651-00051100871ADDAY121021AY221021GA1081+999991031GE19MSL   +99999+99999GF108991999999999999999999KA1120M+00851MA1999990097171MD1900011+9990MW1021REMSYN07001047 31787 82207 10065 21005 39717 40087 50001 70222 8807/ 333 10085=
0187010470999992013050700004+69000+023033FM-12+030799999V0202201N005019999999N065000199+00261-00031100751ADDAY121021AY221021GA1081+999991031GE19MSL   +99999+99999GF108991999999999999999999MA1999990097011MD1610111+9990MW1021REMSYN06001047 41787 82205 10026 21003 39701 40075 56011 70222 8807/=
0239010470999992013050706004+69000+023033FM-12+030799999V0201401N005019999999N065000199+00471-00261100561ADDAJ100253100250094AY121021AY221021GA1071+999991041GE19MSL   +99999+99999GF107991999999999999999999IA1279KA1240N+00061MA1999990096861MD1710061+9990MW1021REMSYN07601047 41787 71405 10047 21026 39686 40056 57006 70222 87010 333 20006 43025=
0187010470999992013050709004+69000+023033FM-12+030799999V0202201N007019999999N065000199+00581-00181100491ADDAY121021AY221021GA1061+999991031GE19MSL   +99999+99999GF106991999999999999999999MA1999990096811MD1710061+9990MW1021REMSYN06001047 41787 62207 10058 21018 39681 40049 57006 70222 86070=
0206010470999992013050712004+69000+023033FM-12+030799999V0202201N007019999999N065000199+00741-00151100501ADDAY121021AY221021GA1999+999991021GE19MSL   +99999+99999GF105991999999999999999999MA1999990096831MD1210011+9990MW1021REMSYN06001047 41987 52207 10074 21015 39683 40050 52001 70222 80008=EQDQ01    003SCCGA1
0187010470999992013050715004+69000+023033FM-12+030799999V0202201N007019999999N065000199+00621-00241100611ADDAY121021AY221021GA1021+999991081GE19MSL   +99999+99999GF102991999999999999999999MA1999990096921MD1310101+9990MW1011REMSYN06001047 41687 22207 10062 21024 39692 40061 53010 70122 82100=
0226010470999992013050718004+69000+023033FM-12+030799999V0202701N007019999999N065000199+00521-00261100761ADDAY101021AY201021GA1031+999991061GA2991+999991031GE19MSL   +99999+99999GF104991999999999999999999KA1120M+00751MA1999990097061MD1310131+9990MW1021REMSYN07001047 31687 42707 10052 21026 39706 40076 53013 70200 83440 333 10075=
0187010470999992013050800004+69000+023033FM-12+030799999V0202701N007019999999N060000199+00101-00441101251ADDAY121021AY221021GA1061+999991061GE19MSL   +99999+99999GF106991999999999999999999MA1999990097471MD1310261+9990MW1021REMSYN06001047 41586 62707 10010 21044 39747 40125 53026 70222 86500=
0239010470999992013050806004+69000+023033FM-12+030799999V0203201N003019999999N065000199+00161-00421101781ADDAJ100253100250094AY121021AY211021GA1041+999991061GE19MSL   +99999+99999GF104991999999999999999999IA1279KA1240N+00051MA1999990097981MD1310231+9990MW1021REMSYN07601047 41587 43203 10016 21042 39798 40178 53023 70221 84400 333 20005 43025=
0187010470999992013050809004+69000+023033FM-12+030799999V0202701N005019999999N065000199+00291-00451102041ADDAY101021AY201021GA1031+999991081GE19MSL   +99999+99999GF103991999999999999999999MA1999990098261MD1110251+9990MW1021REMSYN06001047 41687 32705 10029 21045 39826 40204 51025 70200 83100=
0203010470999992013050812004+69000+023033FM-12+030799999V0202701N007019999999N065000199+00341-00401102141ADDAY121021AY221021GA1021+999991061GA2991+999991031GE19MSL   +99999+99999GF107991999999999999999999MA1999990098361MD1310101+9990MW1031REMSYN06001047 41587 72707 10034 21040 39836 40214 53010 70322 82570=
0203010470999992013050815004+69000+023033FM-12+030799999V0202701N007019999999N065000199+00351-00401102131ADDAY121021AY221021GA1021+999991091GA2991+999991021GE19MSL   +99999+99999GF105991999999999999999999MA1999990098361MD1510001+9990MW1021REMSYN06001047 41687 52707 10035 21040 39836 40213 55000 70222 82308=
0226010470999992013050818004+69000+023033FM-12+030799999V0203201N005019999999N065000199+00191-00401102221ADDAY121021AY221021GA1041+999991091GA2991+999991021GE19MSL   +99999+99999GF106991999999999999999999KA1120M+00421MA1999990098421MD1310061+9990MW1021REMSYN07001047 31587 63205 10019 21040 39842 40222 53006 70222 84308 333 10042=
0187010470999992013050900004+69000+023033FM-12+030799999V0202201N003019999999N060000199-00261-00631102341ADDAY121021AY201021GA1021+999991061GE19MSL   +99999+99999GF102991999999999999999999MA1999990098511MD1900021+9990MW1021REMSYN06001047 41686 22203 11026 21063 39851 40234 50002 70220 82400=
0239010470999992013050906004+69000+023033FM-12+030799999V0202201N003019999999N065000199+00111-00601102301ADDAJ100233100230094AY121021AY201021GA1041+999991031GE19MSL   +99999+99999GF104991999999999999999999IA1249KA1240N-00411MA1999990098481MD1710011+9990MW1021REMSYN07601047 41787 42203 10011 21060 39848 40230 57001 70220 84040 333 21041 44023=
0187010470999992013050909004+69000+023033FM-12+030799999V0201401N005019999999N065000199+00361-00531102231ADDAY111021AY211021GA1041+999991081GE19MSL   +99999+99999GF104991999999999999999999MA1999990098451MD1710031+9990MW1021REMSYN06001047 41687 41405 10036 21053 39845 40223 57003 70211 84100=
0187010470999992013050912004+69000+023033FM-12+030799999V0201401N005019999999N065000199+00241-00641102141ADDAY121021AY221021GA1071+999991061GE19MSL   +99999+99999GF107991999999999999999999MA1999990098351MD1710091+9990MW1031REMSYN06001047 41687 71405 10024 21064 39835 40214 57009 70322 87500=
0187010470999992013050915004+69000+023033FM-12+030799999V0201401N005019999999N065000199+00281-00601102011ADDAY121021AY221021GA1081+999991061GE19MSL   +99999+99999GF108991999999999999999999MA1999990098221MD1710111+9990MW1021REMSYN06001047 41587 81405 10028 21060 39822 40201 57011 70222 885//=
0210010470999992013050918004+69000+023033FM-12+030799999V0201401N005019999999N065000199+00191-00551101901ADDAY121021AY221021GA1081+999991061GE19MSL   +99999+99999GF108991999999999999999999KA1120M+00381MA1999990098111MD1710121+9990MW1021REMSYN07001047 31587 81405 10019 21055 39811 40190 57012 70222 885// 333 10038=
0187010470999992013051000004+69000+023033FM-12+030799999V0209999C999999999999N060000199+00111-00471101741ADDAY121021AY221021GA1081+999991061GE19MSL   +99999+99999GF108991999999999999999999MA1999990097951MD1710121+9990MW1021REMSYN06001047 41586 80000 10011 21047 39795 40174 57012 70222 885//=
0239010470999992013051006004+69000+023033FM-12+030799999V0200501N001019999999N065000199+00131-00451101551ADDAJ100203100200094AY121021AY221021GA1081+999991051GE19MSL   +99999+99999GF108991999999999999999999IA1249KA1240N+00101MA1999990097771MD1710051+9990MW1021REMSYN07601047 41687 80501 10013 21045 39777 40155 57005 70222 8802/ 333 20010 44020=
0187010470999992013051009004+69000+023033FM-12+030799999V0201801N005019999999N060000199+00481-00271101441ADDAY121021AY221021GA1081+999991061GE19MSL   +99999+99999GF108991999999999999999999MA1999990097711MD1710061+9990MW1021REMSYN06001047 41586 81805 10048 21027 39771 40144 57006 70222 885//=
0203010470999992013051012004+69000+023033FM-12+030799999V0201401N005019999999N060000199+00501-00191101411ADDAY121021AY221021GA1051+999991061GA2991+999991051GE19MSL   +99999+99999GF108991999999999999999999MA1999990097671MD1810031+9990MW1021REMSYN06001047 41586 81405 10050 21019 39767 40141 58003 70222 8552/=
0187010470999992013051015004+69000+023033FM-12+030799999V0201601N005019999999N060000199+00551-00211101291ADDAY121021AY221021GA1061+999991061GE19MSL   +99999+99999GF106991999999999999999999MA1999990097571MD1810131+9990MW1021REMSYN06001047 41586 61605 10055 21021 39757 40129 58013 70222 86500=
0210010470999992013051018004+69000+023033FM-12+030799999V0201601N001019999999N060000199+00511-00181101181ADDAY121021AY221021GA1081+999991061GE19MSL   +99999+99999GF108991999999999999999999KA1120M+00561MA1999990097461MD1710111+9990MW1021REMSYN07001047 31586 81601 10051 21018 39746 40118 57011 70222 885// 333 10056=
0187010470999992013051100004+69000+023033FM-12+030799999V0201801N001019999999N060000199+00201-00211101111ADDAY121021AY221021GA1081+999991061GE19MSL   +99999+99999GF108991999999999999999999MA1999990097351MD1710081+9990MW1021REMSYN06001047 41686 81801 10020 21021 39735 40111 57008 70222 885//=
0255010470999992013051106004+69000+023033FM-12+030799999V0201401N005019999999N065000199+00481-00041100911ADDAJ100153100150094AY121021AY221021GA1021+999991081GA2991+999991021GE19MSL   +99999+99999GF106991999999999999999999IA1259KA1240N-00031MA1999990097201MD1710091+9990MW1021REMSYN07601047 41587 61405 10048 21004 39720 40091 57009 70222 82208 333 21003 41015=
0203010470999992013051109004+69000+023033FM-12+030799999V0201401N005019999999N060000199+00511-00091100881ADDAY121021AY221021GA1011+999991081GA2991+999991031GE19MSL   +99999+99999GF106991999999999999999999MA1999990097171MD1710031+9990MW1021REMSYN06001047 41686 61405 10051 21009 39717 40088 57003 70222 81130=
0203010470999992013051112004+69000+023033FM-12+030799999V0201401N005019999999N060000199+00441-00241100791ADDAY121021AY221021GA1031+999991061GA2991+999991051GE19MSL   +99999+99999GF108991999999999999999999MA1999990097071MD1710091+9990MW1021REMSYN06001047 41586 81405 10044 21024 39707 40079 57009 70222 8352/=
0187010470999992013051115004+69000+023033FM-12+030799999V0201801N005019999999N060000199+00321-00121100731ADDAY121021AY221021GA1081+999991061GE19MSL   +99999+99999GF108991999999999999999999MA1999990097001MD1710081+9990MW1021REMSYN06001047 41586 81805 10032 21012 39700 40073 57008 70222 885//=
0227010470999992013051118004+69000+023033FM-12+030799999V0201801N003019999999N040000199+00211+00021100721ADDAA112000131AY161021AY221021GA1081+999991051GE19MSL   +99999+99999GF108991999999999999999999KA1120M+00551MA1999990096971MD1710041+9990MW1611REMSYN07601047 11582 81803 10021 20002 39697 40072 57004 69912 76162 8802/ 333 10055=
0203010470999992013051200004+69000+023033FM-12+030799999V0209999C999999999999N004000199+00061-00021100711ADDAY171021AY261021GA1061+999991071GA2991+999991051GE19MSL   +99999+99999GF108991999999999999999999MA1999990096961MD1410001+9990MW1101REMSYN06001047 41440 80000 10006 21002 39696 40071 54000 71076 8672/=
0289010470999992013051206004+69000+023033FM-12+030799999V0203601N005019999999N060000199+00321-00331100861ADDAA112000831AA224000931AJ100133100130094AY171021AY261021GA1041+999991061GA2991+999991051GE19MSL   +99999+99999GF108991999999999999999999IA1259KA1240N+00061MA1999990097121MD1310091+9990MW1021REMSYN08801047 11586 83605 10032 21033 39712 40086 53009 69982 70276 8452/ 333 20006 41013 70009=
0203010470999992013051209004+69000+023033FM-12+030799999V0200501N005019999999N060000199+00541-00131100981ADDAY121021AY221021GA1051+999991061GA2991+999991031GE19MSL   +99999+99999GF107991999999999999999999MA1999990097271MD1210141+9990MW1021REMSYN06001047 41586 70505 10054 21013 39727 40098 52014 70222 85530=
0203010470999992013051212004+69000+023033FM-12+030799999V0200901N005019999999N060000199+00521-00171101111ADDAY121021AY221021GA1051+999991061GA2991+999991051GE19MSL   +99999+99999GF108991999999999999999999MA1999990097401MD1210131+9990MW1021REMSYN06001047 41586 80905 10052 21017 39740 40111 52013 70222 8552/=
0187010470999992013051215004+69000+023033FM-12+030799999V0200901N005019999999N060000199+00521-00171101191ADDAY121021AY221021GA1071+999991061GE19MSL   +99999+99999GF107991999999999999999999MA1999990097471MD1110081+9990MW1021REMSYN06001047 41586 70905 10052 21017 39747 40119 51008 70222 87500=
0226010470999992013051218004+69000+023033FM-12+030799999V0200901N003019999999N060000199+00401-00111101301ADDAY121021AY221021GA1041+999991061GA2991+999991051GE19MSL   +99999+99999GF108991999999999999999999KA1120M+00651MA1999990097561MD1210091+9990MW1021REMSYN07001047 31586 80903 10040 21011 39756 40130 52009 70222 8452/ 333 10065=
0203010470999992013051300004+69000+023033FM-12+030799999V0200901N003019999999N050000199+00161+00011101441ADDAY161021AY221021GA1051+999991071GA2991+999991051GE19MSL   +99999+99999GF108991999999999999999999MA1999990097671MD1210021+9990MW1021REMSYN06001047 41484 80903 10016 20001 39767 40144 52002 70262 8572/=
0278010470999992013051306004+69000+023033FM-12+030799999V0200901N005019999999N005000199+00201+00041101411ADDAA112000231AA224000231AJ100123100120094AY171021AY261021GA1081+999991051GE19MSL   +99999+99999GF108991999999999999999999IA1259KA1240N+00161MA1999990097631MW1681REMSYN08801047 11550 80905 10020 20004 39763 40141 54001 69922 76876 8802/ 333 20016 41012 70002=EQDQ014     3APCTEN
0187010470999992013051309004+69000+023033FM-12+030799999V0200901N005019999999N004000199+00191+00031101411ADDAY171021AY271021GA1081+999991051GE19MSL   +99999+99999GF108991999999999999999999MA1999990097631MD1410001+9990MW1711REMSYN06001047 41540 80905 10019 20003 39763 40141 54000 77177 8802/=
0187010470999992013051312004+69000+023033FM-12+030799999V0200901N005019999999N003000199+00181+00031101311ADDAY171021AY271021GA1081+999991051GE19MSL   +99999+99999GF108991999999999999999999MA1999990097531MD1710101+9990MW1711REMSYN06001047 41530 80905 10018 20003 39753 40131 57010 77177 8802/=
0187010470999992013051315004+69000+023033FM-12+030799999V0201401N005019999999N005000199+00211-00031101241ADDAY171021AY271021GA1081+999991051GE19MSL   +99999+99999GF108991999999999999999999MA1999990097471MD1610061+9990MW1681REMSYN06001047 41550 81405 10021 21003 39747 40124 56006 76877 8802/=
0227010470999992013051318004+69000+023033FM-12+030799999V0201401N005019999999N003000199+00141+00011101191ADDAA112006031AY171021AY271021GA1081+999991051GE19MSL   +99999+99999GF108991999999999999999999KA1120M+00251MA1999990097421MD1710061+9990MW1691REMSYN07601047 11530 81405 10014 20001 39742 40119 57006 60062 76977 8802/ 333 10025=
0203010470999992013051400004+69000+023033FM-12+030799999V0209999C999999999999N010000199+00151+00021101061ADDAY171021AY261021GA1061+999991071GA2991+999991051GE19MSL   +99999+99999GF108991999999999999999999MA1999990097301MD1710031+9990MW1511REMSYN06001047 41460 80000 10015 20002 39730 40106 57003 75176 8672/=
0273010470999992013051406004+69000+023033FM-12+030799999V0209999C999999999999N003000199+00221+00131101161ADDAA112005031AA224010731AJ100103100100094AY171021AY251021GA1081+999991071GE19MSL   +99999+99999GF108991999999999999999999IA1259KA1240N+00131MA1999990097401MD1210071+9990MW1511REMSYN08801047 11430 80000 10022 20013 39740 40116 52007 60052 75175 886// 333 20013 41010 70107=
0187010470999992013051409004+69000+023033FM-12+030799999V0200901N003019999999N050000199+00291+00201101231ADDAY151021AY221021GA1081+999991071GE19MSL   +99999+99999GF108991999999999999999999MA1999990097471MD1210081+9990MW1021REMSYN06001047 41384 80903 10029 20020 39747 40123 52008 70252 886//=
0203010470999992013051412004+69000+023033FM-12+030799999V0201401N003019999999N050000199+00241+00151101301ADDAY161021AY221021GA1061+999991071GA2991+999991051GE19MSL   +99999+99999GF108991999999999999999999MA1999990097531MD1210071+9990MW1211REMSYN06001047 41484 81403 10024 20015 39753 40130 52007 72162 8672/=
0203010470999992013051415004+69000+023033FM-12+030799999V0201401N005019999999N050000199+00281+00191101321ADDAY161021AY221021GA1061+999991071GA2991+999991051GE19MSL   +99999+99999GF108991999999999999999999MA1999990097571MD1210021+9990MW1211REMSYN06001047 41484 81405 10028 20019 39757 40132 52002 72162 8672/=
0243010470999992013051418004+69000+023033FM-12+030799999V0201401N003019999999N030000199+00261+00171101271ADDAA112003031AY161021AY221021GA1061+999991071GA2991+999991051GE19MSL   +99999+99999GF108991999999999999999999KA1120M+00261MA1999990097521MD1710051+9990MW1601REMSYN07601047 11480 81403 10026 20017 39752 40127 57005 60032 76062 8672/ 333 10026=
0203010470999992013051500004+69000+023033FM-12+030799999V0200901N003019999999N050000199+00241+00091101051ADDAY161021AY251021GA1061+999991071GA2991+999991051GE19MSL   +99999+99999GF108991999999999999999999MA1999990097301MD1710141+9990MW1211REMSYN06001047 41484 80903 10024 20009 39730 40105 57014 72165 8672/=
0273010470999992013051506004+69000+023033FM-12+030799999V0201401N005019999999N007000199+00191+00041100651ADDAA112006031AA224008731AJ100083100080094AY171021AY261021GA1081+999991051GE19MSL   +99999+99999GF108991999999999999999999IA1259KA1240N+00151MA1999990096911MD1710171+9990MW1681REMSYN08801047 11557 81405 10019 20004 39691 40065 57017 60062 76876 8802/ 333 20015 41008 70087=
0203010470999992013051509004+69000+023033FM-12+030799999V0201601N005019999999N050000199+00321+00191100541ADDAY171021AY221021GA1061+999991071GA2991+999991051GE19MSL   +99999+99999GF108991999999999999999999MA1999990096821MD1710091+9990MW1021REMSYN06001047 41484 81605 10032 20019 39682 40054 57009 70272 8672/=
0203010470999992013051512004+69000+023033FM-12+030799999V0201601N007019999999N060000199+00601+00081100531ADDAY121021AY221021GA1041+999991091GA2991+999991031GE19MSL   +99999+99999GF106991999999999999999999MA1999990096851MD1900041+9990MW1011REMSYN06001047 41486 61607 10060 20008 39685 40053 50004 70122 84390=
0187010470999992013051515004+69000+023033FM-12+030799999V0201601N007019999999N060000199+00601-00071100541ADDAY121021AY221021GA1071+999991061GE19MSL   +99999+99999GF107991999999999999999999MA1999990096861MD1310011+9990MW1031REMSYN06001047 41486 71607 10060 21007 39686 40054 53001 70322 87500=
0227010470999992013051518004+69000+023033FM-12+030799999V0201801N005019999999N060000199+00511+00071100651ADDAA112000831AY121021AY221021GA1071+999991061GE19MSL   +99999+99999GF107991999999999999999999KA1120M+00701MA1999990096951MD1310091+9990MW1021REMSYN07601047 11486 71805 10051 20007 39695 40065 53009 69982 70222 87500 333 10070=
0187010470999992013051600004+69000+023033FM-12+030799999V0201801N003019999999N060000199-00081-00151101221ADDAY121021AY221021GA1051+999991031GE19MSL   +99999+99999GF105991999999999999999999MA1999990097431MD1210271+9990MW1021REMSYN06001047 41886 51803 11008 21015 39743 40122 52027 70222 85030=
0239010470999992013051606004+69000+023033FM-12+030799999V0201801N003019999999N065000199+00701-00041101671ADDAJ100053100050094AY121021AY201021GA1031+999991031GE19MSL   +99999+99999GF103991999999999999999999IA1259KA1240N-00091MA1999990097961MD1110251+9990MW1021REMSYN07601047 41887 31803 10070 21004 39796 40167 51025 70220 83040 333 21009 41005=
0206010470999992013051609004+69000+023033FM-12+030799999V0201801N005019999999N065000199+00831-00021101801ADDAY101021AY201021GA1999+999991001GE19MSL   +99999+99999GF101991999999999999999999MA1999990098101MD1210151+9990MW1021REMSYN06001047 41987 11805 10083 21002 39810 40180 52015 70200 80001=EQDQ01    003SCCGA1
0206010470999992013051612004+69000+023033FM-12+030799999V0201401N005019999999N065000199+01081+00141101851ADDAY101021AY201021GA1999+999991001GE19MSL   +99999+99999GF102991999999999999999999MA1999990098171MD1110081+9990MW1021REMSYN06001047 41987 21405 10108 20014 39817 40185 51008 70200 80002=EQDQ01    003SCCGA1
0206010470999992013051615004+69000+023033FM-12+030799999V0201401N005019999999N065000199+01321+00191101821ADDAY101021AY201021GA1999+999991001GE19MSL   +99999+99999GF104991999999999999999999MA1999990098171MD1410001+9990MW1031REMSYN06001047 41987 41405 10132 20019 39817 40182 54000 70300 80002=EQDQ01    003SCCGA1
0229010470999992013051618004+69000+023033FM-12+030799999V0202201N005019999999N065000199+01121+00031101891ADDAY121021AY221021GA1999+999991021GE19MSL   +99999+99999GF106991999999999999999999KA1120M+01401MA1999990098221MD1310041+9990MW1021REMSYN07001047 31987 62205 10112 20003 39822 40189 53004 70222 80008 333 10140=EQDQ01    003SCCGA1
0187010470999992013051700004+69000+023033FM-12+030799999V0209999C999999999999N065000199+00261-00081102271ADDAY111021AY211021GA1041+999991031GE19MSL   +99999+99999GF104991999999999999999999MA1999990098471MD1110131+9990MW1021REMSYN06001047 41787 40000 10026 21008 39847 40227 51013 70211 84070=
0258010470999992013051706004+69000+023033FM-12+030799999V0201401N005019999999N065000199+00921+00011102231ADDAJ100033100030094AY121021AY211021GA1999+999991001GE19MSL   +99999+99999GF105991999999999999999999IA1259KA1240N+00181MA1999990098521MD1410001+9990MW1021REMSYN07601047 41987 51405 10092 20001 39852 40223 54000 70221 80001 333 20018 41003=EQDQ01    003SCCGA1
0206010470999992013051709004+69000+023033FM-12+030799999V0201601N007019999999N065000199+01221+00151102161ADDAY121021AY221021GA1999+999991021GE19MSL   +99999+99999GF105991999999999999999999MA1999990098501MD1810031+9990MW1021REMSYN06001047 41987 51607 10122 20015 39850 40216 58003 70222 80008=EQDQ01    003SCCGA1
0206010470999992013051712004+69000+023033FM-12+030799999V0201601N007019999999N065000199+01521+00371102111ADDAY121021AY221021GA1999+999991021GE19MSL   +99999+99999GF106991999999999999999999MA1999990098481MD1810011+9990MW1021REMSYN06001047 41987 61607 10152 20037 39848 40211 58001 70222 80008=EQDQ01    003SCCGA1
0206010470999992013051715004+69000+023033FM-12+030799999V0202701N003019999999N065000199+01731+00361102001ADDAY121021AY221021GA1999+999991021GE19MSL   +99999+99999GF106991999999999999999999MA1999990098411MD1710081+9990MW1021REMSYN06001047 41987 62703 10173 20036 39841 40200 57008 70222 80008=EQDQ01    003SCCGA1
0229010470999992013051718004+69000+023033FM-12+030799999V0201801N003019999999N065000199+01441+00201102011ADDAY121021AY221021GA1999+999991021GE19MSL   +99999+99999GF106991999999999999999999KA1120M+01761MA1999990098371MD1710031+9990MW1021REMSYN07001047 31987 61803 10144 20020 39837 40201 57003 70222 80008 333 10176=EQDQ01    003SCCGA1
0187010470999992013051800004+69000+023033FM-12+030799999V0201601N003019999999N065000199+00281-00141102151ADDAY121021AY221021GA1081+999991031GE19MSL   +99999+99999GF108991999999999999999999MA1999990098371MD1310011+9990MW1021REMSYN06001047 41787 81603 10028 21014 39837 40215 53001 70222 8807/=
0239010470999992013051806004+69000+023033FM-12+030799999V0201601N001019999999N065000199+00951+00171102001ADDAJ199999999999999AY121021AY221021GA1071+999991031GE19MSL   +99999+99999GF107991999999999999999999IA1259KA1240N+00191MA1999990098311MD1210011+9990MW1021REMSYN07601047 41787 71601 10095 20017 39831 40200 52001 70222 87080 333 20019 41998=
0187010470999992013051809004+69000+023033FM-12+030799999V0202701N003019999999N065000199+01321+00361102011ADDAY121021AY221021GA1071+999991031GE19MSL   +99999+99999GF107991999999999999999999MA1999990098361MD1310051+9990MW1021REMSYN06001047 41887 72703 10132 20036 39836 40201 53005 70222 87080=
0187010470999992013051812004+69000+023033FM-12+030799999V0203201N003019999999N060000199+01121+00201102131ADDAY161021AY221021GA1081+999991051GE19MSL   +99999+99999GF108991999999999999999999MA1999990098461MD1310111+9990MW1211REMSYN06001047 41686 83203 10112 20020 39846 40213 53011 72162 8802/=
0187010470999992013051815004+69000+023033FM-12+030799999V0209999C999999999999N030000199+00881+00521102221ADDAY161021AY221021GA1081+999991051GE19MSL   +99999+99999GF108991999999999999999999MA1999990098511MD1900051+9990MW1611REMSYN06001047 41680 80000 10088 20052 39851 40222 50005 76162 8802/=
0227010470999992013051818004+69000+023033FM-12+030799999V0203201N005019999999N060000199+00681+00321102291ADDAA112002031AY161021AY221021GA1061+999991031GE19MSL   +99999+99999GF106991999999999999999999KA1120M+01381MA1999990098551MD1310041+9990MW1021REMSYN07601047 11786 63205 10068 20032 39855 40229 53004 60022 70262 86070 333 10138=
0203010470999992013051900004+69000+023033FM-12+030799999V0203601N007019999999N060000199+00391+00241102601ADDAY121021AY221021GA1051+999991061GA2991+999991051GE19MSL   +99999+99999GF108991999999999999999999MA1999990098811MD1310131+9990MW1021REMSYN06001047 41586 83607 10039 20024 39881 40260 53013 70222 8552/=
0239010470999992013051906004+69000+023033FM-12+030799999V0203601N007019999999N065000199+00461-00121102731ADDAJ199999999999999AY121021AY221021GA1061+999991061GE19MSL   +99999+99999GF106991999999999999999999IA1259KA1240N+00281MA1999990098951MD1210061+9990MW1021REMSYN07601047 41587 63607 10046 21012 39895 40273 52006 70222 86500 333 20028 41998=
0187010470999992013051909004+69000+023033FM-12+030799999V0200501N005019999999N060000199+00701-00071102721ADDAY121021AY221021GA1081+999991061GE19MSL   +99999+99999GF108991999999999999999999MA1999990098971MD1210031+9990MW1021REMSYN06001047 41586 80505 10070 21007 39897 40272 52003 70222 885//=
0187010470999992013051912004+69000+023033FM-12+030799999V0200901N005019999999N060000199+00741-00031102741ADDAY121021AY221021GA1061+999991061GE19MSL   +99999+99999GF106991999999999999999999MA1999990098981MD1210021+9990MW1011REMSYN06001047 41586 60905 10074 21003 39898 40274 52002 70122 86500=
0203010470999992013051915004+69000+023033FM-12+030799999V0201401N005019999999N060000199+00741-00031102701ADDAY121021AY221021GA1031+999991061GA2991+999991001GE19MSL   +99999+99999GF104991999999999999999999MA1999990098961MD1710021+9990MW1011REMSYN06001047 41586 41405 10074 21003 39896 40270 57002 70122 83501=
0229010470999992013051918004+69000+023033FM-12+030799999V0200901N005019999999N060000199+00691-00051102661ADDAY101021AY201021GA1999+999991021GE19MSL   +99999+99999GF102991999999999999999999KA1120M+00851MA1999990098911MD1710041+9990MW1021REMSYN07001047 31986 20905 10069 21005 39891 40266 57004 70200 80008 333 10085=EQDQ01    003SCCGA1
0187010470999992013052000004+69000+023033FM-12+030799999V0209999C999999999999N055000199-00151-00221102791ADDAY101021AY201021GA1051+999991031GE19MSL   +99999+99999GF105991999999999999999999MA1999990098951MD1900011+9990MW1031REMSYN06001047 41785 50000 11015 21022 39895 40279 50001 70300 85070=
0239010470999992013052006004+69000+023033FM-12+030799999V0201401N005019999999N065000199+00421-00021102571ADDAJ199999999999999AY121021AY201021GA1081+999991031GE19MSL   +99999+99999GF108991999999999999999999IA1259KA1240N-00151MA1999990098781MD1810091+9990MW1021REMSYN07601047 41787 81405 10042 21002 39878 40257 58009 70220 8807/ 333 21015 41998=
0187010470999992013052009004+69000+023033FM-12+030799999V0201401N005019999999N065000199+00641+00111102451ADDAY121021AY221021GA1081+999991031GE19MSL   +99999+99999GF108991999999999999999999MA1999990098701MD1710081+9990MW1021REMSYN06001047 41787 81405 10064 20011 39870 40245 57008 70222 8807/=
0187010470999992013052012004+69000+023033FM-12+030799999V0201801N005019999999N065000199+00781+00031102331ADDAY121021AY221021GA1081+999991031GE19MSL   +99999+99999GF108991999999999999999999MA1999990098601MD1810101+9990MW1021REMSYN06001047 41787 81805 10078 20003 39860 40233 58010 70222 8807/=
0187010470999992013052015004+69000+023033FM-12+030799999V0201801N005019999999N060000199+00891+00111102181ADDAY121021AY221021GA1081+999991031GE19MSL   +99999+99999GF108991999999999999999999MA1999990098471MD1710131+9990MW1021REMSYN06001047 41786 81805 10089 20011 39847 40218 57013 70222 8807/=
0210010470999992013052018004+69000+023033FM-12+030799999V0201801N003019999999N060000199+00861+00111102031ADDAY121021AY221021GA1081+999991031GE19MSL   +99999+99999GF108991999999999999999999KA1120M+00961MA1999990098321MD1710131+9990MW1021REMSYN07001047 31786 81803 10086 20011 39832 40203 57013 70222 8807/ 333 10096=
0187010470999992013052100004+69000+023033FM-12+030799999V0201801N003019999999N060000199+00541+00191101901ADDAY121021AY221021GA1081+999991061GE19MSL   +99999+99999GF108991999999999999999999MA1999990098161MD1710111+9990MW1021REMSYN06001047 41586 81803 10054 20019 39816 40190 57011 70222 885//=
0239010470999992013052106004+69000+023033FM-12+030799999V0201801N005019999999N065000199+00781+00351101591ADDAJ199999999999999AY121021AY221021GA1081+999991061GE19MSL   +99999+99999GF108991999999999999999999IA1259KA1240N+00541MA1999990097881MD1710151+9990MW1021REMSYN07601047 41587 81805 10078 20035 39788 40159 57015 70222 885// 333 20054 41998=
0203010470999992013052109004+69000+023033FM-12+030799999V0201601N010019999999N065000199+01381+00571101391ADDAY121021AY221021GA1021+999991061GA2991+999991031GE19MSL   +99999+99999GF103991999999999999999999MA1999990097771MD1710121+9990MW1011REMSYN06001047 41587 31610 10138 20057 39777 40139 57012 70122 82580=
0203010470999992013052112004+69000+023033FM-12+030799999V0201601N010019999999N065000199+01741+00801101241ADDAY101021AY201021GA1011+999991081GA2991+999991031GE19MSL   +99999+99999GF103991999999999999999999MA1999990097671MD1710101+9990MW1021REMSYN06001047 41687 31610 10174 20080 39767 40124 57010 70200 81180=
0187010470999992013052115004+69000+023033FM-12+030799999V0201601N010019999999N065000199+01801+00831101111ADDAY101021AY201021GA1021+999991031GE19MSL   +99999+99999GF102991999999999999999999MA1999990097561MD1710111+9990MW1021REMSYN06001047 41887 21610 10180 20083 39756 40111 57011 70200 82080=
0210010470999992013052118004+69000+023033FM-12+030799999V0201601N007019999999N065000199+01581+00681101091ADDAY101021AY201021GA1051+999991031GE19MSL   +99999+99999GF105991999999999999999999KA1120M+01851MA1999990097511MD1710051+9990MW1031REMSYN07001047 31887 51607 10158 20068 39751 40109 57005 70300 85090 333 10185=
0203010470999992013052200004+69000+023033FM-12+030799999V0201801N003019999999N060000199+00901+00731101291ADDAY181021AY221021GA1051+999991091GA2991+999991051GE19MSL   +99999+99999GF108991999999999999999999MA1999990097621MD1210051+9990MW1251REMSYN06001047 41486 81803 10090 20073 39762 40129 52005 72582 8592/=
0273010470999992013052206004+69000+023033FM-12+030799999V0201801N005019999999N065000199+01081+00361101311ADDAA112000131AA224000131AJ199999999999999AY181021AY221021GA1061+999991031GE19MSL   +99999+99999GF106991999999999999999999IA1259KA1240N+00841MA1999990097661MD1210021+9990MW1021REMSYN08801047 11687 61805 10108 20036 39766 40131 52002 69912 70282 86090 333 20084 41998 70001=
0187010470999992013052209004+69000+023033FM-12+030799999V0201601N010019999999N065000199+01661+00701101271ADDAY111021AY211021GA1031+999991031GE19MSL   +99999+99999GF103991999999999999999999MA1999990097681MD1210031+9990MW1021REMSYN06001047 41887 31610 10166 20070 39768 40127 52003 70211 83040=
0206010470999992013052212004+69000+023033FM-12+030799999V0201601N010019999999N065000199+01791+00341101251ADDAY111021AY211021GA1021+999991031GE19MSL   +99999+99999GF102991999999999999999999MA1999990097681MD1790029+9990MW1021REMSYN06001047 41887 21610 10179 20034 39768 40125 54001 70211 82040=EQDQ01.1    3APC3  
0206010470999992013052215004+69000+023033FM-12+030799999V0201601N007019999999N065000199+01901+00401101211ADDAY111021AY211021GA1999+999991001GE19MSL   +99999+99999GF101991999999999999999999MA1999990097661MD1710041+9990MW1021REMSYN06001047 41987 11607 10190 20040 39766 40121 57004 70211 80001=EQDQ01    003SCCGA1
0140010470999992013052218004+69000+023033FM-12+030799999V0201401N005019999999N065000199+01721+00351101221ADDAY101021AY201021KA1120M+01951MA1999990097651MD1410001+9990MW1021REMSYN06401047 31987 01405 10172 20035 39765 40122 54000 70200 333 10195=
0117010470999992013052300004+69000+023033FM-12+030799999V0201801N005019999999N060000199+00381-00061101631ADDAY101021AY201021MA1999990097871MD1210121+9990MW1021REMSYN05401047 41986 01805 10038 21006 39787 40163 52012 70200=
0140010470999992013052306004+69000+023033FM-12+030799999V0201801N005019999999N060000199+01271+00311101591ADDAY101021AY201021KA1240N+00351MA1999990097951MD1410001+9990MW1021REMSYN06401047 41986 01805 10127 20031 39795 40159 54000 70200 333 20035=
0136010470999992013052309004+69000+023033FM-12+030799999V0201801N005019999999N060000199+01581+00481101541ADDAY101021AY201021MA1999990097931MD1790059+9990MW1021REMSYN05401047 41986 01805 10158 20048 39793 40154 54001 70200=EQDQ01.1    3APC3  
0117010470999992013052312004+69000+023033FM-12+030799999V0201801N005019999999N060000199+01691+00491101421ADDAY101021AY201021MA1999990097831MD1810091+9990MW1021REMSYN05401047 41986 01805 10169 20049 39783 40142 58009 70200=
0117010470999992013052315004+69000+023033FM-12+030799999V0201801N005019999999N060000199+01731+00401101321ADDAY101021AY201021MA1999990097751MD1710081+9990MW1021REMSYN05401047 41986 01805 10173 20040 39775 40132 57008 70200=
0117010470999992013052318004+69000+023033FM-12+030799999V0201801N005019999999N065000199+01601+00171101271ADDAY101021AY201021MA1999990097681MD1710061+9990MW1021REMSYN05401047 41987 01805 10160 20017 39768 40127 57006 70200=
0117010470999992013052400004+69000+023033FM-12+030799999V0201801N003019999999N060000199+00341-00011101451ADDAY101021AY201021MA1999990097701MD1710021+9990MW1021REMSYN05401047 41986 01803 10034 21001 39770 40145 57002 70200=
0140010470999992013052406004+69000+023033FM-12+030799999V0201801N005019999999N060000199+01271+00281101181ADDAY101021AY201021KA1240N+00321MA1999990097561MD1710091+9990MW1021REMSYN06401047 41986 01805 10127 20028 39756 40118 57009 70200 333 20032=
0187010470999992013052409004+69000+023033FM-12+030799999V0201401N005019999999N060000199+01581+00331101021ADDAY101021AY201021GA1011+999991081GE19MSL   +99999+99999GF101991999999999999999999MA1999990097431MD1710111+9990MW1021REMSYN06001047 41686 11405 10158 20033 39743 40102 57011 70200 81100=
0187010470999992013052412004+69000+023033FM-12+030799999V0202701N005019999999N060000199+01661+00371100921ADDAY101021AY201021GA1021+999991081GE19MSL   +99999+99999GF102991999999999999999999MA1999990097361MD1710091+9990MW1021REMSYN06001047 41686 22705 10166 20037 39736 40092 57009 70200 82100=
0187010470999992013052415004+69000+023033FM-12+030799999V0202701N005019999999N060000199+01701+00371100821ADDAY101021AY201021GA1031+999991081GE19MSL   +99999+99999GF103991999999999999999999MA1999990097261MD1710101+9990MW1031REMSYN06001047 41686 32705 10170 20037 39726 40082 57010 70300 83100=
0210010470999992013052418004+69000+023033FM-12+030799999V0202701N003019999999N060000199+01641+00281100791ADDAY101021AY201021GA1021+999991081GE19MSL   +99999+99999GF102991999999999999999999KA1120M+01751MA1999990097221MD1710041+9990MW1011REMSYN07001047 31686 22703 10164 20028 39722 40079 57004 70100 82100 333 10175=
0187010470999992013052500004+69000+023033FM-12+030799999V0209999C999999999999N060000199+00241-00021101001ADDAY101021AY201021GA1031+999991031GE19MSL   +99999+99999GF103991999999999999999999MA1999990097251MD1210021+9990MW1021REMSYN06001047 41886 30000 10024 21002 39725 40100 52002 70200 83080=
0226010470999992013052506004+69000+023033FM-12+030799999V0203601N007019999999N060000199+00961+00361101061ADDAY121021AY201021GA1051+999991061GA2991+999991051GE19MSL   +99999+99999GF107991999999999999999999KA1240N+00151MA1999990097401MD1310131+9990MW1021REMSYN07001047 41686 73607 10096 20036 39740 40106 53013 70220 85520 333 20015=
0187010470999992013052509004+69000+023033FM-12+030799999V0203601N007019999999N060000199+00961+00271101391ADDAY121021AY221021GA1071+999991071GE19MSL   +99999+99999GF107991999999999999999999MA1999990097721MD1310281+9990MW1021REMSYN06001047 41586 73607 10096 20027 39772 40139 53028 70222 87700=
0187010470999992013052512004+69000+023033FM-12+030799999V0209999C999999999999N060000199+00901+00121101581ADDAY121021AY221021GA1071+999991081GE19MSL   +99999+99999GF107991999999999999999999MA1999990097901MD1310311+9990MW1021REMSYN06001047 41586 7//// 10090 20012 39790 40158 53031 70222 87200=
0187010470999992013052515004+69000+023033FM-12+030799999V0200501N007019999999N060000199+00881+00101101761ADDAY121021AY221021GA1051+999991061GE19MSL   +99999+99999GF105991999999999999999999MA1999990098071MD1110171+9990MW1011REMSYN06001047 41586 50507 10088 20010 39807 40176 51017 70122 85500=
0210010470999992013052518004+69000+023033FM-12+030799999V0203601N007019999999N060000199+00601-00141102041ADDAY121021AY221021GA1041+999991061GE19MSL   +99999+99999GF104991999999999999999999KA1120M+01181MA1999990098301MD1310211+9990MW1011REMSYN07001047 31586 43607 10060 21014 39830 40204 53021 70122 84500 333 10118=
0203010470999992013052600004+69000+023033FM-12+030799999V0200501N003019999999N060000199-00041-00111102311ADDAY111021AY211021GA1011+999991061GA2991+999991031GE19MSL   +99999+99999GF102991999999999999999999MA1999990098481MD1210101+9990MW1021REMSYN06001047 41686 20503 11004 21011 39848 40231 52010 70211 81440=
0210010470999992013052606004+69000+023033FM-12+030799999V0200501N001019999999N060000199+00481-00121102251ADDAY121021AY201021GA1071+999991071GE19MSL   +99999+99999GF107991999999999999999999KA1240N-00111MA1999990098481MD1900001+9990MW1021REMSYN07001047 41586 70501 10048 21012 39848 40225 50000 70220 87700 333 21011=
0203010470999992013052612004+69000+023033FM-12+030799999V0201801N005019999999N060000199+01061+00121101971ADDAY121021AY221021GA1021+999991081GA2991+999991021GE19MSL   +99999+99999GF106991999999999999999999MA1999990098281MD1710131+9990MW1021REMSYN06001047 41686 61805 10106 20012 39828 40197 57013 70222 82108=
0206010470999992013052615004+69000+023033FM-12+030799999V0201801N003019999999N065000199+01341+00261101741ADDAY121021AY221021GA1999+999991021GE19MSL   +99999+99999GF106991999999999999999999MA1999990098111MD1710181+9990MW1021REMSYN06001047 41987 61803 10134 20026 39811 40174 57018 70222 80008=EQDQ01    003SCCGA1
0210010470999992013052618004+69000+023033FM-12+030799999V0201401N003019999999N065000199+01251+00181101661ADDAY121021AY221021GA1061+999991031GE19MSL   +99999+99999GF106991999999999999999999KA1120M+01401MA1999990098021MD1710091+9990MW1021REMSYN07001047 31887 61403 10125 20018 39802 40166 57009 70222 86070 333 10140=
0203010470999992013052700004+69000+023033FM-12+030799999V0201401N003019999999N065000199+00751+00051101751ADDAY121021AY221021GA1031+999991061GA2991+999991031GE19MSL   +99999+99999GF108991999999999999999999MA1999990098031MD1900021+9990MW1021REMSYN06001047 41587 81403 10075 20005 39803 40175 50002 70222 8357/=
0229010470999992013052706004+69000+023033FM-12+030799999V0201401N007019999999N065000199+01371+00401101651ADDAY121021AY201021GA1999+999991001GE19MSL   +99999+99999GF106991999999999999999999KA1240N+00501MA1999990098021MD1710011+9990MW1021REMSYN07001047 41987 61407 10137 20040 39802 40165 57001 70220 80001 333 20050=EQDQ01    003SCCGA1
0203010470999992013052709004+69000+023033FM-12+030799999V0201801N010019999999N065000199+01881+00531101551ADDAY101021AY201021GA1011+999991081GA2991+999991001GE19MSL   +99999+99999GF102991999999999999999999MA1999990097981MD1710031+9990MW1021REMSYN06001047 41687 21810 10188 20053 39798 40155 57003 70200 81101=
0203010470999992013052712004+69000+023033FM-12+030799999V0201801N007019999999N065000199+02001+00601101541ADDAY101021AY201021GA1011+999991081GA2991+999991001GE19MSL   +99999+99999GF103991999999999999999999MA1999990097981MD1410001+9990MW1031REMSYN06001047 41687 31807 10200 20060 39798 40154 54000 70300 81101=
0203010470999992013052715004+69000+023033FM-12+030799999V0201801N007019999999N065000199+02141+00611101531ADDAY101021AY201021GA1021+999991081GA2991+999991021GE19MSL   +99999+99999GF105991999999999999999999MA1999990098001MD1710011+9990MW1031REMSYN06001047 41687 51807 10214 20061 39800 40153 57001 70300 82208=
0242010470999992013052718004+69000+023033FM-12+030799999V0202201N005019999999N065000199+02081+00601101571ADDAY111021AY211021GA1031+999991081GA2991+999991031GA3991+999991001GE19MSL   +99999+99999GF105991999999999999999999KA1120M+02141MA1999990098021MD1210031+9990MW1021REMSYN07001047 31587 52205 10208 20060 39802 40157 52003 70211 83241 333 10214=
0203010470999992013052800004+69000+023033FM-12+030799999V0201401N003019999999N065000199+01041+00411101961ADDAY111021AY211021GA1051+999991061GA2991+999991031GE19MSL   +99999+99999GF106991999999999999999999MA1999990098271MD1210111+9990MW1021REMSYN06001047 41587 61403 10104 20041 39827 40196 52011 70211 85530=
0210010470999992013052806004+69000+023033FM-12+030799999V0201401N003019999999N065000199+01731+00821101931ADDAY111021AY211021GA1061+999991031GE19MSL   +99999+99999GF106991999999999999999999KA1240N+00901MA1999990098331MD1710011+9990MW1021REMSYN07001047 41787 61403 10173 20082 39833 40193 57001 70211 86080 333 20090=
0203010470999992013052809004+69000+023033FM-12+030799999V0202201N003019999999N060000199+01881+00881101931ADDAY121021AY221021GA1041+999991081GA2991+999991021GE19MSL   +99999+99999GF106991999999999999999999MA1999990098361MD1210031+9990MW1021REMSYN06001047 41686 62203 10188 20088 39836 40193 52003 70222 84208=
0203010470999992013052812004+69000+023033FM-12+030799999V0201601N007019999999N060000199+02101+00861101931ADDAY121021AY221021GA1041+999991081GA2991+999991021GE19MSL   +99999+99999GF106991999999999999999999MA1999990098371MD1210011+9990MW1021REMSYN06001047 41686 61607 10210 20086 39837 40193 52001 70222 84208=
0203010470999992013052815004+69000+023033FM-12+030799999V0203601N003019999999N060000199+02321+00921101871ADDAY121021AY221021GA1031+999991081GA2991+999991021GE19MSL   +99999+99999GF105991999999999999999999MA1999990098351MD1710031+9990MW1021REMSYN06001047 41686 53603 10232 20092 39835 40187 57003 70222 83208=
0229010470999992013052818004+69000+023033FM-12+030799999V0200501N003019999999N060000199+02141+00831101901ADDAY121021AY221021GA1081+999991031GE19MSL   +99999+99999GF108991999999999999999999KA1120M+02321MA1999990098361MD1290039+9990MW1021REMSYN07001047 31886 80503 10214 20083 39836 40190 54001 70222 8807/ 333 10232=EQDQ01.1    3APC3  
0187010470999992013052900004+69000+023033FM-12+030799999V0209999C999999999999N060000199+01001+00731102211ADDAY121021AY221021GA1051+999991031GE19MSL   +99999+99999GF105991999999999999999999MA1999990098521MD1210051+9990MW1011REMSYN06001047 41886 50000 10100 20073 39852 40221 52005 70122 85070=
0210010470999992013052906004+69000+023033FM-12+030799999V0209999C999999999999N010000199+01681+00851102081ADDAY121021AY211021GA1021+999991031GE19MSL   +99999+99999GF102991999999999999999999KA1240N+00871MA1999990098471MD1710051+9990MW1021REMSYN07001047 41860 20000 10168 20085 39847 40208 57005 70221 82030 333 20087=
0187010470999992013052909004+69000+023033FM-12+030799999V0201801N007019999999N060000199+02181+00831101931ADDAY111021AY211021GA1041+999991081GE19MSL   +99999+99999GF104991999999999999999999MA1999990098381MD1710081+9990MW1021REMSYN06001047 41686 41807 10218 20083 39838 40193 57008 70211 84100=
0187010470999992013052912004+69000+023033FM-12+030799999V0203201N007019999999N060000199+01861+01091101941ADDAY181021AY221021GA1061+999991091GE19MSL   +99999+99999GF106991999999999999999999MA1999990098361MD1510041+9990MW1251REMSYN06001047 41686 63207 10186 20109 39836 40194 55004 72582 86300=
0203010470999992013052915004+69000+023033FM-12+030799999V0202201N005019999999N060000199+02141+00961101811ADDAY181021AY221021GA1041+999991091GA2991+999991031GE19MSL   +99999+99999GF106991999999999999999999MA1999990098271MD1710091+9990MW1021REMSYN06001047 41686 62205 10214 20096 39827 40181 57009 70282 84390=
0243010470999992013052918004+69000+023033FM-12+030799999V0202201N005019999999N060000199+02141+00961101801ADDAA112000021AY181021AY221021GA1021+999991081GA2991+999991031GE19MSL   +99999+99999GF105991999999999999999999KA1120M+02401MA1999990098261MD1510011+9990MW1021REMSYN07601047 11686 52205 10214 20096 39826 40180 55001 69902 70282 82290 333 10240=
0203010470999992013053000004+69000+023033FM-12+030799999V0200501N001019999999N050000199+01201+00651101981ADDAY121021AY221021GA1021+999991081GA2991+999991031GE19MSL   +99999+99999GF104991999999999999999999MA1999990098321MD1210041+9990MW1011REMSYN06001047 41684 40501 10120 20065 39832 40198 52004 70122 82260=
0210010470999992013053006004+69000+023033FM-12+030799999V0209999C999999999999N060000199+01901+00981101821ADDAY121021AY201021GA1011+999991081GE19MSL   +99999+99999GF101991999999999999999999KA1240N+01161MA1999990098251MD1710041+9990MW1021REMSYN07001047 41686 10000 10190 20098 39825 40182 57004 70220 81100 333 20116=
0187010470999992013053009004+69000+023033FM-12+030799999V0202701N005019999999N055000199+02421+01011101701ADDAY101021AY201021GA1031+999991081GE19MSL   +99999+99999GF103991999999999999999999MA1999990098201MD1210051+9990MW1031REMSYN06001047 41685 32705 10242 20101 39820 40170 52005 70300 83100=
0187010470999992013053012004+69000+023033FM-12+030799999V0201401N007019999999N055000199+02601+01021101621ADDAY101021AY201021GA1031+999991081GE19MSL   +99999+99999GF103991999999999999999999MA1999990098131MD1710061+9990MW1021REMSYN06001047 41685 31407 10260 20102 39813 40162 57006 70200 83100=
0187010470999992013053015004+69000+023033FM-12+030799999V0202201N005019999999N055000199+02681+00961101561ADDAY101021AY201021GA1021+999991081GE19MSL   +99999+99999GF102991999999999999999999MA1999990098081MD1710051+9990MW1021REMSYN06001047 41685 22205 10268 20096 39808 40156 57005 70200 82100=
0210010470999992013053018004+69000+023033FM-12+030799999V0202201N005019999999N055000199+02561+00901101531ADDAY101021AY201021GA1021+999991081GE19MSL   +99999+99999GF102991999999999999999999KA1120M+02721MA1999990098051MD1710041+9990MW1021REMSYN07001047 31685 22205 10256 20090 39805 40153 57004 70200 82100 333 10272=
0187010470999992013053100004+69000+023033FM-12+030799999V0209999C999999999999N050000199+00881+00731101881ADDAY101021AY201021GA1021+999991081GE19MSL   +99999+99999GF102991999999999999999999MA1999990098171MD1210051+9990MW1021REMSYN06001047 41684 20000 10088 20073 39817 40188 52005 70200 82100=
0140010470999992013053106004+69000+023033FM-12+030799999V0209999C999999999999N060000199+02191+00941101621ADDAY101021AY201021KA1240N+00781MA1999990098081MD1710071+9990MW1021REMSYN06401047 41986 00000 10219 20094 39808 40162 57007 70200 333 20078=
0187010470999992013053109004+69000+023033FM-12+030799999V0201801N005019999999N055000199+02581+00881101551ADDAY101021AY201021GA1011+999991081GE19MSL   +99999+99999GF101991999999999999999999MA1999990098071MD1710031+9990MW1021REMSYN06001047 41685 11805 10258 20088 39807 40155 57003 70200 81100=
0187010470999992013053112004+69000+023033FM-12+030799999V0201801N005019999999N055000199+02661+00861101491ADDAY101021AY201021GA1031+999991081GE19MSL   +99999+99999GF103991999999999999999999MA1999990098021MD1710051+9990MW1031REMSYN06001047 41685 31805 10266 20086 39802 40149 57005 70300 83100=
0187010470999992013053115004+69000+023033FM-12+030799999V0201401N005019999999N055000199+02751+00791101431ADDAY101021AY201021GA1031+999991081GE19MSL   +99999+99999GF103991999999999999999999MA1999990097971MD1710051+9990MW1021REMSYN06001047 41685 31405 10275 20079 39797 40143 57005 70200 83100=
0226010470999992013053118004+69000+023033FM-12+030799999V0209999C999999999999N055000199+02541+00841101431ADDAY101021AY201021GA1031+999991061GA2991+999991031GE19MSL   +99999+99999GF104991999999999999999999KA1120M+02801MA1999990097951MD1710021+9990MW1021REMSYN07001047 31685 40000 10254 20084 39795 40143 57002 70200 83440 333 10280=
0187010470999992013060100004+69000+023033FM-12+030799999V0209999C999999999999N060000199+01051+00791101791ADDAY111021AY211021GA1051+999991031GE19MSL   +99999+99999GF105991999999999999999999MA1999990098121MD1210081+9990MW1021REMSYN06001047 41886 50000 10105 20079 39812 40179 52008 70211 85030=
0210010470999992013060106004+69000+023033FM-12+030799999V0209999C999999999999N060000199+02071+00961101651ADDAY111021AY211021GA1011+999991031GE19MSL   +99999+99999GF101991999999999999999999KA1240N+00981MA1999990098111MD1810051+9990MW1021REMSYN07001047 41886 10000 10207 20096 39811 40165 58005 70211 81080 333 20098=
0203010470999992013060109004+69000+023033FM-12+030799999V0201801N005019999999N060000199+02481+01071101591ADDAY111021AY201021GA1021+999991091GA2991+999991031GE19MSL   +99999+99999GF103991999999999999999999MA1999990098101MD1510011+9990MW1021REMSYN06001047 41586 31805 10248 20107 39810 40159 55001 70210 82340=
0203010470999992013060112004+69000+023033FM-12+030799999V0202201N005019999999N060000199+02521+01031101551ADDAY121021AY221021GA1041+999991091GA2991+999991031GE19MSL   +99999+99999GF106991999999999999999999MA1999990098061MD1710051+9990MW1031REMSYN06001047 41586 62205 10252 20103 39806 40155 57005 70322 84390=
0203010470999992013060115004+69000+023033FM-12+030799999V0203201N003019999999N060000199+02581+01041101441ADDAY191021AY221021GA1041+999991091GA2991+999991031GE19MSL   +99999+99999GF105991999999999999999999MA1999990097961MD1710101+9990MW1021REMSYN06001047 41586 53203 10258 20104 39796 40144 57010 70292 84390=
0226010470999992013060118004+69000+023033FM-12+030799999V0201801N003019999999N060000199+02341+00901101481ADDAY121021AY221021GA1031+999991081GA2991+999991031GE19MSL   +99999+99999GF106991999999999999999999KA1120M+02681MA1999990097971MD1310021+9990MW1021REMSYN07001047 31686 61803 10234 20090 39797 40148 53002 70222 83290 333 10268=
0208010470999992013060200004+69000+023033FM-12+030799999V0201601N003019999999N055000199+01051+00961101751ADDAY121021AY201021GA1999+999991001GE19MSL   +99999+99999GF103991999999999999999999MA1999990098071MW1021REMSYN06001047 41985 31603 10105 20096 39807 40175 54001 70220 80002=EQDQ014     3APCTENQ02    003SCCGA1
0226010470999992013060206004+69000+023033FM-12+030799999V0201601N005019999999N010000199+01421+01141101741ADDAY161021AY221021GA1041+999991061GA2991+999991051GE19MSL   +99999+99999GF108991999999999999999999KA1240N+01001MA1999990098121MD1900031+9990MW1621REMSYN07001047 41560 81605 10142 20114 39812 40174 50003 76262 8452/ 333 20100=
0203010470999992013060209004+69000+023033FM-12+030799999V0201601N005019999999N006000199+01431+01271101671ADDAY161021AY221021GA1061+999991071GA2991+999991051GE19MSL   +99999+99999GF108991999999999999999999MA1999990098051MD1610081+9990MW1621REMSYN06001047 41556 81605 10143 20127 39805 40167 56008 76262 8672/=
0203010470999992013060212004+69000+023033FM-12+030799999V0201401N005019999999N020000199+01481+01321101591ADDAY161021AY261021GA1041+999991071GA2991+999991051GE19MSL   +99999+99999GF108991999999999999999999MA1999990097971MD1710071+9990MW1611REMSYN06001047 41470 81405 10148 20132 39797 40159 57007 76166 8472/=
0203010470999992013060215004+69000+023033FM-12+030799999V0201801N007019999999N060000199+01681+01171101491ADDAY161021AY221021GA1041+999991061GA2991+999991031GE19MSL   +99999+99999GF107991999999999999999999MA1999990097911MD1710071+9990MW1021REMSYN06001047 41586 71807 10168 20117 39791 40149 57007 70262 84590=
0243010470999992013060218004+69000+023033FM-12+030799999V0201801N003019999999N060000199+01711+01261101491ADDAA112009031AY161021AY221021GA1031+999991091GA2991+999991031GE19MSL   +99999+99999GF105991999999999999999999KA1120M+01751MA1999990097911MD1900001+9990MW1011REMSYN07601047 11586 51803 10171 20126 39791 40149 50000 60092 70162 83390 333 10175=
0187010470999992013060300004+69000+023033FM-12+030799999V0209999C999999999999N000800199+01121+00981101641ADDAY141021AY201021GA1011+999991061GE19MSL   +99999+99999GF101991999999999999999999MA1999990097971MD1210021+9990MW1461REMSYN06001047 41608 10000 10112 20098 39797 40164 52002 74640 81400=
0210010470999992013060306004+69000+023033FM-12+030799999V0209999C999999999999N005000199+01411+01271101591ADDAY141021AY221021GA1081+999991071GE19MSL   +99999+99999GF108991999999999999999999KA1240N+01041MA1999990097971MD1900011+9990MW1101REMSYN07001047 41450 80000 10141 20127 39797 40159 50001 71042 886// 333 20104=
0187010470999992013060309004+69000+023033FM-12+030799999V0201801N005019999999N030000199+01951+01181101431ADDAY121021AY221021GA1071+999991091GE19MSL   +99999+99999GF107991999999999999999999MA1999990097871MD1810091+9990MW1051REMSYN06001047 41580 71805 10195 20118 39787 40143 58009 70522 87300=
0187010470999992013060312004+69000+023033FM-12+030799999V0201401N005019999999N040000199+02201+01171101281ADDAY121021AY221021GA1051+999991081GE19MSL   +99999+99999GF105991999999999999999999MA1999990097771MD1710111+9990MW1051REMSYN06001047 41682 51405 10220 20117 39777 40128 57011 70522 85200=
0187010470999992013060315004+69000+023033FM-12+030799999V0202201N005019999999N005000199+01501+01121101471ADDAY191021AY261021GA1081+999991051GE19MSL   +99999+99999GF108991999999999999999999MA1999990097871MD1310101+9990MW1631REMSYN06001047 41550 82205 10150 20112 39787 40147 53010 76396 8802/=
0243010470999992013060318004+69000+023033FM-12+030799999V0203201N010019999999N030000199+01181+00941101601ADDAA112004031AY181021AY261021GA1051+999991091GA2991+999991051GE19MSL   +99999+99999GF108991999999999999999999KA1120M+02301MA1999990097951MD1310091+9990MW1801REMSYN07601047 11480 83210 10118 20094 39795 40160 53009 60042 78086 8592/ 333 10230=
0203010470999992013060400004+69000+023033FM-12+030799999V0203201N010019999999N060000199+00631+00381102231ADDAY181021AY221021GA1041+999991061GA2991+999991051GE19MSL   +99999+99999GF108991999999999999999999MA1999990098481MD1110231+9990MW1021REMSYN06001047 41486 83210 10063 20038 39848 40223 51023 70282 8452/=
0244010470999992013060406004+69000+023033FM-12+030799999V0203201N010019999999N060000199+00661+00231102631ADDAA112002031AA224005331AY181021AY221021GA1081+999991071GE19MSL   +99999+99999GF108991999999999999999999KA1240N+00591MA1999990098871MD1310211+9990MW1021REMSYN08201047 11586 83210 10066 20023 39887 40263 53021 60022 70282 887// 333 20059 70053=
0187010470999992013060409004+69000+023033FM-12+030799999V0203201N010019999999N060000199+00731+00301102831ADDAY181021AY221021GA1081+999991071GE19MSL   +99999+99999GF108991999999999999999999MA1999990099071MD1210181+9990MW1021REMSYN06001047 41586 83210 10073 20030 39907 40283 52018 70282 887//=
0187010470999992013060412004+69000+023033FM-12+030799999V0203401N010019999999N060000199+00861+00241102951ADDAY121021AY221021GA1081+999991061GE19MSL   +99999+99999GF108991999999999999999999MA1999990099211MD1210121+9990MW1021REMSYN06001047 41486 83410 10086 20024 39921 40295 52012 70222 885//=
0187010470999992013060415004+69000+023033FM-12+030799999V0203601N007019999999N060000199+00921+00141103071ADDAY121021AY221021GA1081+999991061GE19MSL   +99999+99999GF108991999999999999999999MA1999990099331MD1110131+9990MW1021REMSYN06001047 41486 83607 10092 20014 39933 40307 51013 70222 885//=
0227010470999992013060418004+69000+023033FM-12+030799999V0203601N007019999999N060000199+00821+00121103221ADDAA112000231AY121021AY221021GA1071+999991061GE19MSL   +99999+99999GF107991999999999999999999KA1120M+00961MA1999990099471MD1210121+9990MW1021REMSYN07601047 11486 73607 10082 20012 39947 40322 52012 69922 70222 87500 333 10096=
0187010470999992013060500004+69000+023033FM-12+030799999V0200501N005019999999N060000199+00601-00011103401ADDAY121021AY221021GA1081+999991061GE19MSL   +99999+99999GF108991999999999999999999MA1999990099611MD1210051+9990MW1021REMSYN06001047 41586 80505 10060 21001 39961 40340 52005 70222 885//=
0210010470999992013060506004+69000+023033FM-12+030799999V0200501N001019999999N065000199+00601-00011103381ADDAY121021AY221021GA1081+999991061GE19MSL   +99999+99999GF108991999999999999999999KA1240N+00551MA1999990099581MD1710031+9990MW1021REMSYN07001047 41587 80501 10060 21001 39958 40338 57003 70222 885// 333 20055=
0206010470999992013060509004+69000+023033FM-12+030799999V0200501N001019999999N065000199+01011+00151103211ADDAY121021AY201021GA1999+999991021GE19MSL   +99999+99999GF102991999999999999999999MA1999990099471MD1710101+9990MW1011REMSYN06001047 41987 20501 10101 20015 39947 40321 57010 70120 80008=EQDQ01    003SCCGA1
0206010470999992013060512004+69000+023033FM-12+030799999V0201401N005019999999N065000199+01351+00271103011ADDAY101021AY201021GA1999+999991001GE19MSL   +99999+99999GF102991999999999999999999MA1999990099321MD1710151+9990MW1021REMSYN06001047 41987 21405 10135 20027 39932 40301 57015 70200 80001=EQDQ01    003SCCGA1
0206010470999992013060515004+69000+023033FM-12+030799999V0201801N005019999999N060000199+01561+00401102861ADDAY101021AY201021GA1999+999991001GE19MSL   +99999+99999GF102991999999999999999999MA1999990099211MD1710121+9990MW1021REMSYN06001047 41986 21805 10156 20040 39921 40286 57012 70200 80001=EQDQ01    003SCCGA1
0140010470999992013060518004+69000+023033FM-12+030799999V0201801N003019999999N060000199+01601+00351102761ADDAY101021AY201021KA1120M+01651MA1999990099121MD1710091+9990MW1021REMSYN06401047 31986 01803 10160 20035 39912 40276 57009 70200 333 10165=
0208010470999992013060600004+69000+023033FM-12+030799999V0209999C999999999999N060000199+00581+00311102901ADDAY101021AY201021GA1999+999991001GE19MSL   +99999+99999GF102991999999999999999999MA1999990099121MW1021REMSYN06001047 41986 20000 10058 20031 39912 40290 54001 70200 80001=EQDQ014     3APCTENQ02    003SCCGA1
0210010470999992013060606004+69000+023033FM-12+030799999V0201801N003019999999N065000199+01491+00671102611ADDAY111021AY201021GA1021+999991081GE19MSL   +99999+99999GF102991999999999999999999KA1240N+00521MA1999990098961MD1710131+9990MW1021REMSYN07001047 41787 21803 10149 20067 39896 40261 57013 70210 82100 333 20052=
0117010470999992013060609004+69000+023033FM-12+030799999V0201801N005019999999N065000199+01801+00771102441ADDAY101021AY201021MA1999990098831MD1710121+9990MW1021REMSYN05401047 41987 01805 10180 20077 39883 40244 57012 70200=
0187010470999992013060612004+69000+023033FM-12+030799999V0201801N005019999999N060000199+02141+00901102251ADDAY101021AY201021GA1011+999991081GE19MSL   +99999+99999GF101991999999999999999999MA1999990098701MD1710151+9990MW1021REMSYN06001047 41686 11805 10214 20090 39870 40225 57015 70200 81100=
0187010470999992013060615004+69000+023033FM-12+030799999V0201801N005019999999N060000199+02161+00951102111ADDAY101021AY201021GA1031+999991081GE19MSL   +99999+99999GF103991999999999999999999MA1999990098561MD1710131+9990MW1031REMSYN06001047 41686 31805 10216 20095 39856 40211 57013 70300 83100=
0210010470999992013060618004+69000+023033FM-12+030799999V0201401N003019999999N060000199+02041+00841102011ADDAY101021AY201021GA1011+999991081GE19MSL   +99999+99999GF101991999999999999999999KA1120M+02161MA1999990098451MD1710121+9990MW1011REMSYN07001047 31686 11403 10204 20084 39845 40201 57012 70100 81100 333 10216=
0187010470999992013060700004+69000+023033FM-12+030799999V0201801N001019999999N050000199+01101+00551102111ADDAY101021AY201021GA1021+999991061GE19MSL   +99999+99999GF102991999999999999999999MA1999990098421MD1900011+9990MW1021REMSYN06001047 41684 21801 10110 20055 39842 40211 50001 70200 82400=
0210010470999992013060706004+69000+023033FM-12+030799999V0201401N005019999999N060000199+01821+00981101691ADDAY101021AY201021GA1021+999991031GE19MSL   +99999+99999GF102991999999999999999999KA1240N+01031MA1999990098121MD1710181+9990MW1021REMSYN07001047 41786 21405 10182 20098 39812 40169 57018 70200 82040 333 20103=
0187010470999992013060709004+69000+023033FM-12+030799999V0201801N005019999999N060000199+02081+01091101551ADDAY101021AY201021GA1051+999991081GE19MSL   +99999+99999GF105991999999999999999999MA1999990098011MD1710101+9990MW1031REMSYN06001047 41686 51805 10208 20109 39801 40155 57010 70300 85200=
0187010470999992013060712004+69000+023033FM-12+030799999V0201601N005019999999N060000199+01801+01041101421ADDAY191021AY221021GA1061+999991091GE19MSL   +99999+99999GF106991999999999999999999MA1999990097851MD1810161+9990MW1171REMSYN06001047 41486 61605 10180 20104 39785 40142 58016 71792 86900=
0187010470999992013060715004+69000+023033FM-12+030799999V0201601N003019999999N060000199+01401+01061101531ADDAY191021AY281021GA1081+999991091GE19MSL   +99999+99999GF108991999999999999999999MA1999990097911MD1310061+9990MW1291REMSYN06001047 41486 81603 10140 20106 39791 40153 53006 72998 889//=
0243010470999992013060718004+69000+023033FM-12+030799999V0201601N005019999999N030000199+01351+01171101471ADDAA112002031AY191021AY281021GA1041+999991061GA2991+999991051GE19MSL   +99999+99999GF108991999999999999999999KA1120M+02221MA1999990097851MD1810071+9990MW1611REMSYN07601047 11480 81605 10135 20117 39785 40147 58007 60022 76198 8452/ 333 10222=
0203010470999992013060800004+69000+023033FM-12+030799999V0201801N001019999999N060000199+01111+00951101371ADDAY181021AY221021GA1051+999991091GA2991+999991031GE19MSL   +99999+99999GF106991999999999999999999MA1999990097721MD1810081+9990MW1251REMSYN06001047 41486 61801 10111 20095 39772 40137 58008 72582 85940=
0260010470999992013060806004+69000+023033FM-12+030799999V0209999C999999999999N060000199+01361+00691101181ADDAA112000331AA224002131AY181021AY221021GA1021+999991081GA2991+999991031GE19MSL   +99999+99999GF106991999999999999999999KA1240N+01001MA1999990097571MD1710071+9990MW1021REMSYN08201047 11586 6//// 10136 20069 39757 40118 57007 69932 70282 82290 333 20100 70021=
0187010470999992013060809004+69000+023033FM-12+030799999V0209999C999999999999N060000199+01621+00641101081ADDAY121021AY221021GA1061+999991081GE19MSL   +99999+99999GF106991999999999999999999MA1999990097501MD1710071+9990MW1021REMSYN06001047 41586 60000 10162 20064 39750 40108 57007 70222 86800=
0187010470999992013060812004+69000+023033FM-12+030799999V0203601N003019999999N060000199+01761+00741100911ADDAY121021AY221021GA1061+999991091GE19MSL   +99999+99999GF106991999999999999999999MA1999990097361MD1810141+9990MW1021REMSYN06001047 41586 63603 10176 20074 39736 40091 58014 70222 86300=
0203010470999992013060815004+69000+023033FM-12+030799999V0200501N003019999999N060000199+01861+00711100771ADDAY121021AY221021GA1041+999991091GA2991+999991031GE19MSL   +99999+99999GF105991999999999999999999MA1999990097221MD1710131+9990MW1011REMSYN06001047 41586 50503 10186 20071 39722 40077 57013 70122 84340=
0226010470999992013060818004+69000+023033FM-12+030799999V0200501N007019999999N060000199+01501+00661100871ADDAY121021AY221021GA1041+999991061GA2991+999991031GE19MSL   +99999+99999GF106991999999999999999999KA1120M+01941MA1999990097281MD1210061+9990MW1021REMSYN07001047 31586 60507 10150 20066 39728 40087 52006 70222 84440 333 10194=
0187010470999992013060900004+69000+023033FM-12+030799999V0209999C999999999999N060000199+00921+00681100981ADDAY121021AY221021GA1041+999991031GE19MSL   +99999+99999GF104991999999999999999999MA1999990097321MD1900031+9990MW1021REMSYN06001047 41786 40000 10092 20068 39732 40098 50003 70222 84070=
0226010470999992013060906004+69000+023033FM-12+030799999V0203601N003019999999N065000199+01301+00681100931ADDAY121021AY211021GA1021+999991031GA2991+999991001GE19MSL   +99999+99999GF105991999999999999999999KA1240N+00921MA1999990097321MD1710021+9990MW1021REMSYN07001047 41787 53603 10130 20068 39732 40093 57002 70221 82071 333 20092=
0203010470999992013060909004+69000+023033FM-12+030799999V0209999C999999999999N020000199+01801+00681100751ADDAY121021AY221021GA1041+999991081GA2991+999991031GE19MSL   +99999+99999GF106991999999999999999999MA1999990097211MD1710101+9990MW1021REMSYN06001047 41570 6//// 10180 20068 39721 40075 57010 70222 84290=
0203010470999992013060912004+69000+023033FM-12+030799999V0202201N005019999999N060000199+01571+00671100761ADDAY121021AY221021GA1031+999991081GA2991+999991031GE19MSL   +99999+99999GF107991999999999999999999MA1999990097181MD1810021+9990MW1021REMSYN06001047 41586 72205 10157 20067 39718 40076 58002 70222 83290=
0203010470999992013060915004+69000+023033FM-12+030799999V0209999C999999999999N060000199+01721+00641100671ADDAY121021AY221021GA1021+999991081GA2991+999991031GE19MSL   +99999+99999GF107991999999999999999999MA1999990097121MD1710061+9990MW1021REMSYN06001047 41586 70000 10172 20064 39712 40067 57006 70222 82290=
0226010470999992013060918004+69000+023033FM-12+030799999V0200501N003019999999N060000199+01661+00641100611ADDAY121021AY221021GA1021+999991091GA2991+999991031GE19MSL   +99999+99999GF106991999999999999999999KA1120M+01881MA1999990097061MD1610071+9990MW1021REMSYN07001047 31586 60503 10166 20064 39706 40061 56007 70222 82390 333 10188=
0203010470999992013061000004+69000+023033FM-12+030799999V0203401N003019999999N040000199+00921+00761100841ADDAY161021AY221021GA1041+999991071GA2991+999991051GE19MSL   +99999+99999GF108991999999999999999999MA1999990097181MD1900051+9990MW1611REMSYN06001047 41482 83403 10092 20076 39718 40084 50005 76162 8472/=
0260010470999992013061006004+69000+023033FM-12+030799999V0203401N005019999999N060000199+00841+00671100891ADDAA112005031AA224005331AY161021AY221021GA1061+999991071GA2991+999991051GE19MSL   +99999+99999GF108991999999999999999999KA1240N+00841MA1999990097221MD1210041+9990MW1021REMSYN08201047 11586 83405 10084 20067 39722 40089 52004 60052 70262 8672/ 333 20084 70053=
0187010470999992013061009004+69000+023033FM-12+030799999V0203601N007019999999N060000199+00881+00521100941ADDAY121021AY221021GA1081+999991061GE19MSL   +99999+99999GF108991999999999999999999MA1999990097271MD1210051+9990MW1021REMSYN06001047 41586 83607 10088 20052 39727 40094 52005 70222 885//=
0187010470999992013061012004+69000+023033FM-12+030799999V0200501N007019999999N055000199+00801+00441100981ADDAY121021AY221021GA1081+999991061GE19MSL   +99999+99999GF108991999999999999999999MA1999990097311MD1210031+9990MW1021REMSYN06001047 41485 80507 10080 20044 39731 40098 52003 70222 885//=
0187010470999992013061015004+69000+023033FM-12+030799999V0203601N007019999999N060000199+00761+00401101041ADDAY121021AY221021GA1081+999991061GE19MSL   +99999+99999GF108991999999999999999999MA1999990097361MD1210051+9990MW1021REMSYN06001047 41486 83607 10076 20040 39736 40104 52005 70222 885//=
0210010470999992013061018004+69000+023033FM-12+030799999V0203401N007019999999N060000199+00741+00081101041ADDAY121021AY221021GA1071+999991061GE19MSL   +99999+99999GF107991999999999999999999KA1120M+00881MA1999990097361MD1410001+9990MW1011REMSYN07001047 31486 73407 10074 20008 39736 40104 54000 70122 87500 333 10088=
0203010470999992013061100004+69000+023033FM-12+030799999V0203401N003019999999N060000199+00301-00131101161ADDAY121021AY221021GA1031+999991061GA2991+999991031GE19MSL   +99999+99999GF107991999999999999999999MA1999990097411MD1710021+9990MW1021REMSYN06001047 41586 73403 10030 21013 39741 40116 57002 70222 83570=
0244010470999992013061106004+69000+023033FM-12+030799999V0203401N007019999999N060000199+00541+00061101131ADDAA112000231AA224000231AY181021AY221021GA1081+999991071GE19MSL   +99999+99999GF108991999999999999999999KA1240N+00291MA1999990097421MD1310031+9990MW1021REMSYN08201047 11586 83407 10054 20006 39742 40113 53003 69922 70282 887// 333 20029 70002=
0187010470999992013061109004+69000+023033FM-12+030799999V0203201N007019999999N060000199+00741-00181101161ADDAY121021AY221021GA1071+999991061GE19MSL   +99999+99999GF107991999999999999999999MA1999990097471MD1210041+9990MW1021REMSYN06001047 41586 73207 10074 21018 39747 40116 52004 70222 87500=
0187010470999992013061112004+69000+023033FM-12+030799999V0203401N007019999999N060000199+00681-00211101221ADDAY121021AY221021GA1081+999991061GE19MSL   +99999+99999GF108991999999999999999999MA1999990097521MD1310051+9990MW1021REMSYN06001047 41586 83407 10068 21021 39752 40122 53005 70222 885//=
0187010470999992013061115004+69000+023033FM-12+030799999V0203601N007019999999N060000199+00641+00151101311ADDAY121021AY221021GA1081+999991061GE19MSL   +99999+99999GF108991999999999999999999MA1999990097601MD1210071+9990MW1021REMSYN06001047 41486 83607 10064 20015 39760 40131 52007 70222 885//=
0227010470999992013061118004+69000+023033FM-12+030799999V0203601N007019999999N060000199+00441+00041101421ADDAA112000331AY181021AY221021GA1081+999991091GE19MSL   +99999+99999GF108991999999999999999999KA1120M+00841MA1999990097671MD1110091+9990MW1251REMSYN07601047 11486 83607 10044 20004 39767 40142 51009 69932 72582 889// 333 10084=
0187010470999992013061200004+69000+023033FM-12+030799999V0203601N003019999999N060000199+00221+00091101621ADDAY181021AY221021GA1081+999991061GE19MSL   +99999+99999GF108991999999999999999999MA1999990097851MD1210051+9990MW1021REMSYN06001047 41586 83603 10022 20009 39785 40162 52005 70282 885//=
0244010470999992013061206004+69000+023033FM-12+030799999V0209999C999999999999N060000199+00391-00181101731ADDAA112000531AA224000831AY181021AY221021GA1081+999991061GE19MSL   +99999+99999GF108991999999999999999999KA1240N+00201MA1999990097971MD1210091+9990MW1021REMSYN08201047 11586 80000 10039 21018 39797 40173 52009 69952 70282 885// 333 20020 70008=
0187010470999992013061209004+69000+023033FM-12+030799999V0203201N005019999999N060000199+00561-00271101771ADDAY121021AY221021GA1081+999991061GE19MSL   +99999+99999GF108991999999999999999999MA1999990098031MD1210071+9990MW1021REMSYN06001047 41486 83205 10056 21027 39803 40177 52007 70222 885//=
0187010470999992013061212004+69000+023033FM-12+030799999V0203201N005019999999N060000199+00781-00141101751ADDAY121021AY221021GA1081+999991071GE19MSL   +99999+99999GF108991999999999999999999MA1999990098051MD1510011+9990MW1021REMSYN06001047 41486 83205 10078 21014 39805 40175 55001 70222 887//=
0203010470999992013061215004+69000+023033FM-12+030799999V0203201N005019999999N065000199+00851-00081101731ADDAY121021AY221021GA1041+999991081GA2991+999991031GE19MSL   +99999+99999GF107991999999999999999999MA1999990098031MD1710011+9990MW1021REMSYN06001047 41587 73205 10085 21008 39803 40173 57001 70222 84270=
0210010470999992013061218004+69000+023033FM-12+030799999V0200501N005019999999N065000199+00801-00051101721ADDAY121021AY221021GA1061+999991061GE19MSL   +99999+99999GF106991999999999999999999KA1120M+00901MA1999990098021MD1710011+9990MW1011REMSYN07001047 31587 60505 10080 21005 39802 40172 57001 70122 86500 333 10090=
0187010470999992013061300004+69000+023033FM-12+030799999V0200501N001019999999N010000199+00041-00031101751ADDAY121021AY221021GA1041+999991031GE19MSL   +99999+99999GF104991999999999999999999MA1999990097961MD1710061+9990MW1101REMSYN06001047 41760 40501 10004 21003 39796 40175 57006 71022 84070=
0226010470999992013061306004+69000+023033FM-12+030799999V0200501N005019999999N060000199+01001+00141101251ADDAY121021AY221021GA1021+999991081GA2991+999991021GE19MSL   +99999+99999GF105991999999999999999999KA1240N+00021MA1999990097581MD1710221+9990MW1021REMSYN07001047 41686 50505 10100 20014 39758 40125 57022 70222 82108 333 20002=
0203010470999992013061309004+69000+023033FM-12+030799999V0202201N007019999999N060000199+01381+00241100971ADDAY111021AY211021GA1041+999991081GA2991+999991001GE19MSL   +99999+99999GF105991999999999999999999MA1999990097371MD1710211+9990MW1021REMSYN06001047 41686 52207 10138 20024 39737 40097 57021 70211 84101=
0187010470999992013061312004+69000+023033FM-12+030799999V0202201N007019999999N060000199+01641+00311100731ADDAY111021AY211021GA1051+999991081GE19MSL   +99999+99999GF105991999999999999999999MA1999990097171MD1810211+9990MW1021REMSYN06001047 41686 52207 10164 20031 39717 40073 58021 70211 85200=
0203010470999992013061315004+69000+023033FM-12+030799999V0202201N007019999999N060000199+01621+00641100561ADDAY181021AY221021GA1061+999991091GA2991+999991001GE19MSL   +99999+99999GF106991999999999999999999MA1999990097001MD1610171+9990MW1251REMSYN06001047 41586 62207 10162 20064 39700 40056 56017 72582 86301=
0243010470999992013061318004+69000+023033FM-12+030799999V0200501N007019999999N050000199+01241+00281100571ADDAA112000131AY181021AY221021GA1051+999991091GA2991+999991001GE19MSL   +99999+99999GF106991999999999999999999KA1120M+01781MA1999990096971MD1510021+9990MW1801REMSYN07601047 11584 60507 10124 20028 39697 40057 55002 69912 78082 85301 333 10178=
0187010470999992013061400004+69000+023033FM-12+030799999V0209999C999999999999N060000199+00681+00401100551ADDAY181021AY221021GA1041+999991061GE19MSL   +99999+99999GF104991999999999999999999MA1999990096871MD1610091+9990MW1011REMSYN06001047 41686 40000 10068 20040 39687 40055 56009 70182 84400=
0244010470999992013061406004+69000+023033FM-12+030799999V0209999C999999999999N065000199+01281+00501100231ADDAA112000231AA224000331AY181021AY221021GA1051+999991031GE19MSL   +99999+99999GF105991999999999999999999KA1240N+00621MA1999990096631MD1810131+9990MW1021REMSYN08201047 11787 50000 10128 20050 39663 40023 58013 69922 70282 85080 333 20062 70003=
0203010470999992013061409004+69000+023033FM-12+030799999V0201801N005019999999N065000199+01651+00491100001ADDAY121021AY221021GA1031+999991081GA2991+999991021GE19MSL   +99999+99999GF105991999999999999999999MA1999990096471MD1710161+9990MW1021REMSYN06001047 41687 51805 10165 20049 39647 40000 57016 70222 83108=
0203010470999992013061412004+69000+023033FM-12+030799999V0201601N005019999999N060000199+01741+00471099851ADDAY121021AY221021GA1051+999991081GA2991+999991001GE19MSL   +99999+99999GF105991999999999999999999MA1999990096321MD1710141+9990MW1021REMSYN06001047 41686 51605 10174 20047 39632 49985 57014 70222 85101=
0187010470999992013061415004+69000+023033FM-12+030799999V0201601N001019999999N060000199+01561+00521099781ADDAY121021AY221021GA1061+999991091GE19MSL   +99999+99999GF106991999999999999999999MA1999990096231MD1710111+9990MW1031REMSYN06001047 41586 61601 10156 20052 39623 49978 57011 70322 86300=
0226010470999992013061418004+69000+023033FM-12+030799999V0209999C999999999999N060000199+01481+00591099641ADDAY121021AY221021GA1021+999991081GA2991+999991031GE19MSL   +99999+99999GF106991999999999999999999KA1120M+01821MA1999990096101MD1710131+9990MW1021REMSYN07001047 31686 60000 10148 20059 39610 49964 57013 70222 82290 333 10182=
0203010470999992013061500004+69000+023033FM-12+030799999V0203201N005019999999N060000199+00981+00621099551ADDAY121021AY221021GA1021+999991061GA2991+999991031GE19MSL   +99999+99999GF105991999999999999999999MA1999990095951MD1510021+9990MW1021REMSYN06001047 41586 53205 10098 20062 39595 49955 55002 70222 82470=
0226010470999992013061506004+69000+023033FM-12+030799999V0203201N005019999999N065000199+01081+00621099681ADDAY121021AY221021GA1021+999991081GA2991+999991031GE19MSL   +99999+99999GF107991999999999999999999KA1240N+00941MA1999990096081MD1310101+9990MW1021REMSYN07001047 41587 73205 10108 20062 39608 49968 53010 70222 82270 333 20094=
0187010470999992013061509004+69000+023033FM-12+030799999V0203601N005019999999N065000199+01101+00641099911ADDAY121021AY221021GA1081+999991061GE19MSL   +99999+99999GF108991999999999999999999MA1999990096311MD1210211+9990MW1021REMSYN06001047 41487 83605 10110 20064 39631 49991 52021 70222 885//=
0187010470999992013061512004+69000+023033FM-12+030799999V0203601N005019999999N065000199+01241+00601100071ADDAY121021AY221021GA1081+999991061GE19MSL   +99999+99999GF108991999999999999999999MA1999990096471MD1210171+9990MW1021REMSYN06001047 41487 83605 10124 20060 39647 40007 52017 70222 885//=
0187010470999992013061515004+69000+023033FM-12+030799999V0203601N005019999999N065000199+01121+00491100261ADDAY121021AY221021GA1071+999991061GE19MSL   +99999+99999GF107991999999999999999999MA1999990096651MD1310171+9990MW1021REMSYN06001047 41487 73605 10112 20049 39665 40026 53017 70222 87500=
0210010470999992013061518004+69000+023033FM-12+030799999V0203601N005019999999N065000199+01001+00281100401ADDAY121021AY221021GA1061+999991061GE19MSL   +99999+99999GF106991999999999999999999KA1120M+01321MA1999990096771MD1310121+9990MW1011REMSYN07001047 31487 63605 10100 20028 39677 40040 53012 70122 86500 333 10132=
0203010470999992013061600004+69000+023033FM-12+030799999V0209999C999999999999N060000199+00421+00271100641ADDAY111021AY211021GA1031+999991061GA2991+999991031GE19MSL   +99999+99999GF105991999999999999999999MA1999990096921MD1210061+9990MW1021REMSYN06001047 41586 50000 10042 20027 39692 40064 52006 70211 83570=
0210010470999992013061606004+69000+023033FM-12+030799999V0209999C999999999999N060000199+00891+00231100541ADDAY121021AY211021GA1071+999991061GE19MSL   +99999+99999GF107991999999999999999999KA1240N+00421MA1999990096881MD1710011+9990MW1021REMSYN07001047 41586 70000 10089 20023 39688 40054 57001 70221 87500 333 20042=
0187010470999992013061609004+69000+023033FM-12+030799999V0201401N005019999999N060000199+01121+00251100471ADDAY121021AY221021GA1081+999991061GE19MSL   +99999+99999GF108991999999999999999999MA1999990096861MD1510021+9990MW1021REMSYN06001047 41586 81405 10112 20025 39686 40047 55002 70222 885//=
0187010470999992013061612004+69000+023033FM-12+030799999V0201401N003019999999N065000199+01281+00351100411ADDAY121021AY221021GA1071+999991061GE19MSL   +99999+99999GF107991999999999999999999MA1999990096821MD1710041+9990MW1021REMSYN06001047 41587 71403 10128 20035 39682 40041 57004 70222 87500=
0187010470999992013061615004+69000+023033FM-12+030799999V0203201N005019999999N030000199+01161+00831100491ADDAY181021AY221021GA1081+999991091GE19MSL   +99999+99999GF108991999999999999999999MA1999990096871MD1310051+9990MW1801REMSYN06001047 41480 83205 10116 20083 39687 40049 53005 78082 889//=
0227010470999992013061618004+69000+023033FM-12+030799999V0203601N007019999999N060000199+00911+00491100561ADDAA112000531AY181021AY221021GA1081+999991061GE19MSL   +99999+99999GF108991999999999999999999KA1120M+01351MA1999990096921MD1210041+9990MW1021REMSYN07601047 11586 83607 10091 20049 39692 40056 52004 69952 70282 885// 333 10135=
0203010470999992013061700004+69000+023033FM-12+030799999V0203601N005019999999N060000199+00681+00251100711ADDAY121021AY221021GA1051+999991061GA2991+999991051GE19MSL   +99999+99999GF108991999999999999999999MA1999990097021MD1210011+9990MW1021REMSYN06001047 41586 83605 10068 20025 39702 40071 52001 70222 8552/=
0244010470999992013061706004+69000+023033FM-12+030799999V0200501N005019999999N060000199+00601+00351100841ADDAA112001031AA224001931AY161021AY221021GA1081+999991061GE19MSL   +99999+99999GF108991999999999999999999KA1240N+00601MA1999990097151MD1210031+9990MW1021REMSYN08201047 11586 80505 10060 20035 39715 40084 52003 60012 70262 885// 333 20060 70019=
0203010470999992013061709004+69000+023033FM-12+030799999V0200501N005019999999N025000199+00881+00401100861ADDAY161021AY221021GA1061+999991071GA2991+999991051GE19MSL   +99999+99999GF108991999999999999999999MA1999990097201MD1210051+9990MW1601REMSYN06001047 41575 80505 10088 20040 39720 40086 52005 76062 8672/=
0203010470999992013061712004+69000+023033FM-12+030799999V0200501N007019999999N060000199+01041+00411100861ADDAY161021AY221021GA1041+999991061GA2991+999991051GE19MSL   +99999+99999GF108991999999999999999999MA1999990097221MD1900021+9990MW1021REMSYN06001047 41586 80507 10104 20041 39722 40086 50002 70262 8452/=
0203010470999992013061715004+69000+023033FM-12+030799999V0200501N005019999999N060000199+01111+00341100891ADDAY161021AY221021GA1031+999991061GA2991+999991051GE19MSL   +99999+99999GF108991999999999999999999MA1999990097261MD1210041+9990MW1021REMSYN06001047 41586 80505 10111 20034 39726 40089 52004 70262 8352/=
0227010470999992013061718004+69000+023033FM-12+030799999V0200901N005019999999N025000199+00861+00501101011ADDAA112000631AY161021AY221021GA1081+999991051GE19MSL   +99999+99999GF108991999999999999999999KA1120M+01151MA1999990097331MD1210081+9990MW1611REMSYN07601047 11575 80905 10086 20050 39733 40101 52008 69962 76162 8802/ 333 10115=
0203010470999992013061800004+69000+023033FM-12+030799999V0200501N005019999999N020000199+00701+00551101171ADDAY161021AY221021GA1041+999991071GA2991+999991051GE19MSL   +99999+99999GF108991999999999999999999MA1999990097471MD1210081+9990MW1631REMSYN06001047 41470 80505 10070 20055 39747 40117 52008 76362 8472/=
0260010470999992013061806004+69000+023033FM-12+030799999V0200501N005019999999N060000199+00611+00291101281ADDAA112005031AA224005131AY161021AY221021GA1051+999991071GA2991+999991051GE19MSL   +99999+99999GF108991999999999999999999KA1240N+00611MA1999990097571MD1210051+9990MW1021REMSYN08201047 11586 80505 10061 20029 39757 40128 52005 60052 70262 8572/ 333 20061 70051=
0203010470999992013061809004+69000+023033FM-12+030799999V0200501N007019999999N060000199+00981+00201101291ADDAY121021AY221021GA1021+999991061GA2991+999991051GE19MSL   +99999+99999GF106991999999999999999999MA1999990097621MD1210051+9990MW1011REMSYN06001047 41586 60507 10098 20020 39762 40129 52005 70122 82520=
0203010470999992013061812004+69000+023033FM-12+030799999V0200501N005019999999N060000199+01261+00191101291ADDAY121021AY221021GA1031+999991061GA2991+999991051GE19MSL   +99999+99999GF106991999999999999999999MA1999990097661MD1310041+9990MW1021REMSYN06001047 41586 60505 10126 20019 39766 40129 53004 70222 83520=
0203010470999992013061815004+69000+023033FM-12+030799999V0200501N005019999999N060000199+01311+00241101351ADDAY121021AY221021GA1051+999991061GA2991+999991041GE19MSL   +99999+99999GF107991999999999999999999MA1999990097721MD1210071+9990MW1021REMSYN06001047 41586 70505 10131 20024 39772 40135 52007 70222 85510=
0226010470999992013061818004+69000+023033FM-12+030799999V0203601N005019999999N060000199+01181+00381101501ADDAY121021AY221021GA1051+999991091GA2991+999991041GE19MSL   +99999+99999GF107991999999999999999999KA1120M+01421MA1999990097861MD1310131+9990MW1021REMSYN07001047 31586 73605 10118 20038 39786 40150 53013 70222 85310 333 10142=
0187010470999992013061900004+69000+023033FM-12+030799999V0203601N003019999999N060000199+00821+00531101751ADDAY121021AY221021GA1081+999991061GE19MSL   +99999+99999GF108991999999999999999999MA1999990098051MD1210061+9990MW1021REMSYN06001047 41586 83603 10082 20053 39805 40175 52006 70222 885//=
0243010470999992013061906004+69000+023033FM-12+030799999V0209999C999999999999N060000199+01141+00491101771ADDAA124000091AY121021AY221021GA1021+999991081GA2991+999991021GE19MSL   +99999+99999GF106991999999999999999999KA1240N+00781MA1999990098111MD1710031+9990MW1021REMSYN07601047 31686 60000 10114 20049 39811 40177 57003 70222 82208 333 20078 70000=
0203010470999992013061909004+69000+023033FM-12+030799999V0209999C999999999999N060000199+01341+00321101711ADDAY121021AY221021GA1041+999991081GA2991+999991031GE19MSL   +99999+99999GF106991999999999999999999MA1999990098071MD1710031+9990MW1021REMSYN06001047 41686 60000 10134 20032 39807 40171 57003 70222 84230=
0203010470999992013061912004+69000+023033FM-12+030799999V0201401N005019999999N065000199+01451+00361101601ADDAY121021AY221021GA1051+999991081GA2991+999991001GE19MSL   +99999+99999GF106991999999999999999999MA1999990097981MD1710091+9990MW1021REMSYN06001047 41687 61405 10145 20036 39798 40160 57009 70222 85802=
0203010470999992013061915004+69000+023033FM-12+030799999V0201601N005019999999N065000199+01561+00401101531ADDAY121021AY221021GA1051+999991081GA2991+999991001GE19MSL   +99999+99999GF106991999999999999999999MA1999990097921MD1710071+9990MW1021REMSYN06001047 41687 61605 10156 20040 39792 40153 57007 70222 85802=
0226010470999992013061918004+69000+023033FM-12+030799999V0201601N005019999999N065000199+01511+00481101501ADDAY121021AY221021GA1041+999991081GA2991+999991021GE19MSL   +99999+99999GF106991999999999999999999KA1120M+01681MA1999990097901MD1710031+9990MW1021REMSYN07001047 31687 61605 10151 20048 39790 40150 57003 70222 84208 333 10168=
0203010470999992013062000004+69000+023033FM-12+030799999V0201601N003019999999N060000199+01021+00811101541ADDAY111021AY211021GA1021+999991061GA2991+999991031GE19MSL   +99999+99999GF105991999999999999999999MA1999990097871MD1710031+9990MW1021REMSYN06001047 41686 51603 10102 20081 39787 40154 57003 70211 82470=
0210010470999992013062006004+69000+023033FM-12+030799999V0201401N007019999999N060000199+01461+00721101321ADDAY121021AY211021GA1061+999991031GE19MSL   +99999+99999GF106991999999999999999999KA1240N+01031MA1999990097721MD1710071+9990MW1021REMSYN07001047 41786 61407 10146 20072 39772 40132 57007 70221 86070 333 20103=
0203010470999992013062009004+69000+023033FM-12+030799999V0201601N007019999999N065000199+01401+00661101261ADDAY121021AY221021GA1051+999991061GA2991+999991051GE19MSL   +99999+99999GF108991999999999999999999MA1999990097651MD1810061+9990MW1021REMSYN06001047 41587 81607 10140 20066 39765 40126 58006 70222 8552/=
0203010470999992013062012004+69000+023033FM-12+030799999V0201601N007019999999N055000199+01221+00941101291ADDAY161021AY221021GA1051+999991061GA2991+999991051GE19MSL   +99999+99999GF108991999999999999999999MA1999990097661MD1900011+9990MW1211REMSYN06001047 41485 81607 10122 20094 39766 40129 50001 72162 8552/=
0203010470999992013062015004+69000+023033FM-12+030799999V0201801N010019999999N060000199+01461+00721101271ADDAY161021AY221021GA1041+999991061GA2991+999991051GE19MSL   +99999+99999GF108991999999999999999999MA1999990097671MD1510001+9990MW1021REMSYN06001047 41486 81810 10146 20072 39767 40127 55000 70262 8452/=
0243010470999992013062018004+69000+023033FM-12+030799999V0201801N007019999999N060000199+01301+00641101331ADDAA112001031AY121021AY221021GA1031+999991061GA2991+999991051GE19MSL   +99999+99999GF108991999999999999999999KA1120M+01501MA1999990097711MD1310041+9990MW1021REMSYN07601047 11486 81807 10130 20064 39771 40133 53004 60012 70222 8352/ 333 10150=
0203010470999992013062100004+69000+023033FM-12+030799999V0201401N005019999999N060000199+01021+00811101581ADDAY161021AY221021GA1051+999991061GA2991+999991051GE19MSL   +99999+99999GF108991999999999999999999MA1999990097911MD1210081+9990MW1021REMSYN06001047 41586 81405 10102 20081 39791 40158 52008 70262 8552/=
0244010470999992013062106004+69000+023033FM-12+030799999V0201401N005019999999N060000199+01201+00831101641ADDAA112000131AA224001131AY161021AY221021GA1081+999991071GE19MSL   +99999+99999GF108991999999999999999999KA1240N+00981MA1999990097981MD1210041+9990MW1021REMSYN08201047 11586 81405 10120 20083 39798 40164 52004 69912 70262 887// 333 20098 70011=
0203010470999992013062109004+69000+023033FM-12+030799999V0201401N007019999999N060000199+01441+00771101601ADDAY121021AY221021GA1041+999991081GA2991+999991031GE19MSL   +99999+99999GF106991999999999999999999MA1999990097971MD1810011+9990MW1021REMSYN06001047 41586 61407 10144 20077 39797 40160 58001 70222 84230=
0219010470999992013062112004+69000+023033FM-12+030799999V0202201N007019999999N060000199+01721+00731101461ADDAY121021AY221021GA1041+999991081GA2991+999991031GA3991+999991001GE19MSL   +99999+99999GF106991999999999999999999MA1999990097871MD1810091+9990MW1021REMSYN06001047 41586 62207 10172 20073 39787 40146 58009 70222 84231=
0187010470999992013062115004+69000+023033FM-12+030799999V0201801N007019999999N060000199+01681+00691101411ADDAY121021AY221021GA1071+999991081GE19MSL   +99999+99999GF107991999999999999999999MA1999990097821MD1710051+9990MW1031REMSYN06001047 41586 71807 10168 20069 39782 40141 57005 70322 87800=
0226010470999992013062118004+69000+023033FM-12+030799999V0201801N007019999999N060000199+01601+00701101381ADDAY121021AY221021GA1021+999991061GA2991+999991051GE19MSL   +99999+99999GF107991999999999999999999KA1120M+01801MA1999990097781MD1710041+9990MW1021REMSYN07001047 31586 71807 10160 20070 39778 40138 57004 70222 82520 333 10180=
0203010470999992013062200004+69000+023033FM-12+030799999V0201601N007019999999N060000199+01281+00911101291ADDAY121021AY221021GA1031+999991061GA2991+999991031GE19MSL   +99999+99999GF108991999999999999999999MA1999990097671MD1710101+9990MW1021REMSYN06001047 41686 81607 10128 20091 39767 40129 57010 70222 8357/=
0226010470999992013062206004+69000+023033FM-12+030799999V0201601N007019999999N060000199+01381+00731101021ADDAY121021AY221021GA1041+999991061GA2991+999991031GE19MSL   +99999+99999GF108991999999999999999999KA1240N+01261MA1999990097421MD1710151+9990MW1021REMSYN07001047 41686 81607 10138 20073 39742 40102 57015 70222 8457/ 333 20126=
0203010470999992013062209004+69000+023033FM-12+030799999V0201601N007019999999N060000199+01671+00761100881ADDAY121021AY221021GA1021+999991081GA2991+999991031GE19MSL   +99999+99999GF107991999999999999999999MA1999990097321MD1710091+9990MW1021REMSYN06001047 41686 71607 10167 20076 39732 40088 57009 70222 82170=
0203010470999992013062212004+69000+023033FM-12+030799999V0201601N005019999999N060000199+01721+00891100691ADDAY121021AY221021GA1041+999991061GA2991+999991031GE19MSL   +99999+99999GF108991999999999999999999MA1999990097131MD1710191+9990MW1021REMSYN06001047 41586 81605 10172 20089 39713 40069 57019 70222 8457/=
0187010470999992013062215004+69000+023033FM-12+030799999V0201601N005019999999N050000199+01581+01201100501ADDAY181021AY221021GA1081+999991091GE19MSL   +99999+99999GF108991999999999999999999MA1999990096931MD1510191+9990MW1251REMSYN06001047 41484 81605 10158 20120 39693 40050 55019 72582 889//=
0243010470999992013062218004+69000+023033FM-12+030799999V0201801N007019999999N055000199+01551+01401100311ADDAA112002031AY181021AY261021GA1061+999991061GA2991+999991051GE19MSL   +99999+99999GF108991999999999999999999KA1120M+01981MA1999990096751MD1710191+9990MW1211REMSYN07601047 11485 81807 10155 20140 39675 40031 57019 60022 72186 8652/ 333 10198=
0187010470999992013062300004+69000+023033FM-12+030799999V0201801N007019999999N050000199+01461+01311100111ADDAY181021AY221021GA1061+999991091GE19MSL   +99999+99999GF106991999999999999999999MA1999990096551MD1710101+9990MW1021REMSYN06001047 41484 61807 10146 20131 39655 40011 57010 70282 86300=
0244010470999992013062306004+69000+023033FM-12+030799999V0201801N007019999999N060000199+01541+01381100161ADDAA112000231AA224002231AY181021AY221021GA1081+999991071GE19MSL   +99999+99999GF108991999999999999999999KA1240N+01451MA1999990096611MD1310081+9990MW1021REMSYN08201047 11586 81807 10154 20138 39661 40016 53008 69922 70282 887// 333 20145 70022=
0203010470999992013062309004+69000+023033FM-12+030799999V0201801N010019999999N050000199+01821+01261100241ADDAY121021AY221021GA1041+999991091GA2991+999991031GE19MSL   +99999+99999GF106991999999999999999999MA1999990096721MD1310111+9990MW1021REMSYN06001047 41484 61810 10182 20126 39672 40024 53011 70222 84390=
0203010470999992013062312004+69000+023033FM-12+030799999V0201801N007019999999N050000199+01801+01181100371ADDAY121021AY221021GA1051+999991061GA2991+999991051GE19MSL   +99999+99999GF107991999999999999999999MA1999990096831MD1310121+9990MW1021REMSYN06001047 41484 71807 10180 20118 39683 40037 53012 70222 85520=
0187010470999992013062315004+69000+023033FM-12+030799999V0201801N007019999999N050000199+01751+01201100501ADDAY121021AY221021GA1081+999991061GE19MSL   +99999+99999GF108991999999999999999999MA1999990096961MD1210121+9990MW1021REMSYN06001047 41484 81807 10175 20120 39696 40050 52012 70222 885//=
0226010470999992013062318004+69000+023033FM-12+030799999V0201801N005019999999N030000199+01521+01341100651ADDAY121021AY221021GA1051+999991061GA2991+999991051GE19MSL   +99999+99999GF108991999999999999999999KA1120M+01941MA1999990097071MD1210121+9990MW1021REMSYN07001047 31480 81805 10152 20134 39707 40065 52012 70222 8552/ 333 10194=
0187010470999992013062400004+69000+023033FM-12+030799999V0201601N007019999999N050000199+01561+01401100781ADDAY121021AY221021GA1061+999991091GE19MSL   +99999+99999GF106991999999999999999999MA1999990097211MD1210061+9990MW1021REMSYN06001047 41484 61607 10156 20140 39721 40078 52006 70222 86300=
0210010470999992013062406004+69000+023033FM-12+030799999V0201601N005019999999N060000199+01751+01241101011ADDAY121021AY221021GA1071+999991091GE19MSL   +99999+99999GF107991999999999999999999KA1240N+01471MA1999990097451MD1210101+9990MW1021REMSYN07001047 41586 71605 10175 20124 39745 40101 52010 70222 87300 333 20147=
0187010470999992013062409004+69000+023033FM-12+030799999V0201601N005019999999N060000199+02181+01211101001ADDAY121021AY221021GA1051+999991081GE19MSL   +99999+99999GF105991999999999999999999MA1999990097481MD1110041+9990MW1021REMSYN06001047 41686 51605 10218 20121 39748 40100 51004 70222 85200=
0203010470999992013062412004+69000+023033FM-12+030799999V0201601N005019999999N060000199+02221+01191101011ADDAY181021AY221021GA1051+999991091GA2991+999991031GE19MSL   +99999+99999GF106991999999999999999999MA1999990097511MD1310011+9990MW1021REMSYN06001047 41486 61605 10222 20119 39751 40101 53001 70282 85350=
0203010470999992013062415004+69000+023033FM-12+030799999V0201801N007019999999N050000199+02321+01281100921ADDAY121021AY221021GA1041+999991091GA2991+999991031GE19MSL   +99999+99999GF106991999999999999999999MA1999990097421MD1710071+9990MW1021REMSYN06001047 41584 61807 10232 20128 39742 40092 57007 70222 84340=
0227010470999992013062418004+69000+023033FM-12+030799999V0202201N005019999999N050000199+01721+01371101061ADDAA112000131AY181021AY221021GA1071+999991091GE19MSL   +99999+99999GF107991999999999999999999KA1120M+02451MA1999990097501MD1900051+9990MW1251REMSYN07601047 11584 72205 10172 20137 39750 40106 50005 69912 72582 87300 333 10245=
0203010470999992013062500004+69000+023033FM-12+030799999V0201601N005019999999N050000199+01421+01321101161ADDAY181021AY221021GA1031+999991061GA2991+999991031GE19MSL   +99999+99999GF106991999999999999999999MA1999990097561MD1410001+9990MW1021REMSYN06001047 41584 61605 10142 20132 39756 40116 54000 70282 83470=
0260010470999992013062506004+69000+023033FM-12+030799999V0201601N007019999999N060000199+01771+01101101171ADDAA112003031AA224003331AY181021AY221021GA1021+999991081GA2991+999991011GE19MSL   +99999+99999GF104991999999999999999999KA1240N+01341MA1999990097611MD1210041+9990MW1021REMSYN08201047 11586 41607 10177 20110 39761 40117 52004 60032 70282 82209 333 20134 70033=
0203010470999992013062509004+69000+023033FM-12+030799999V0201801N007019999999N060000199+02121+01131101131ADDAY121021AY221021GA1041+999991081GA2991+999991031GE19MSL   +99999+99999GF106991999999999999999999MA1999990097611MD1900001+9990MW1031REMSYN06001047 41686 61807 10212 20113 39761 40113 50000 70322 84240=
0203010470999992013062512004+69000+023033FM-12+030799999V0201401N003019999999N060000199+01721+01251101201ADDAY181021AY221021GA1051+999991091GA2991+999991031GE19MSL   +99999+99999GF107991999999999999999999MA1999990097621MD1900011+9990MW1251REMSYN06001047 41586 71403 10172 20125 39762 40120 50001 72582 85990=
0219010470999992013062515004+69000+023033FM-12+030799999V0201601N007019999999N060000199+02181+01241101071ADDAY121021AY221021GA1041+999991081GA2991+999991031GA3991+999991021GE19MSL   +99999+99999GF106991999999999999999999MA1999990097561MD1710061+9990MW1021REMSYN06001047 41586 61607 10218 20124 39756 40107 57006 70222 84298=
0243010470999992013062518004+69000+023033FM-12+030799999V0203201N005019999999N060000199+01801+00961101221ADDAA112000131AY181021AY221021GA1041+999991091GA2991+999991031GE19MSL   +99999+99999GF106991999999999999999999KA1120M+02201MA1999990097661MD1310091+9990MW1251REMSYN07601047 11586 63205 10180 20096 39766 40122 53009 69912 72582 84390 333 10220=
0187010470999992013062600004+69000+023033FM-12+030799999V0201401N005019999999N060000199+00901+00811101771ADDAY121021AY221021GA1031+999991061GE19MSL   +99999+99999GF103991999999999999999999MA1999990098071MD1210161+9990MW1011REMSYN06001047 41686 31405 10090 20081 39807 40177 52016 70122 83400=
0210010470999992013062606004+69000+023033FM-12+030799999V0203201N005019999999N060000199+01351+00471102161ADDAY121021AY201021GA1061+999991061GE19MSL   +99999+99999GF106991999999999999999999KA1240N+00881MA1999990098511MD1210241+9990MW1021REMSYN07001047 41586 63205 10135 20047 39851 40216 52024 70220 86400 333 20088=
0203010470999992013062609004+69000+023033FM-12+030799999V0203401N007019999999N060000199+01441+00501102411ADDAY121021AY221021GA1051+999991091GA2991+999991031GE19MSL   +99999+99999GF106991999999999999999999MA1999990098771MD1210251+9990MW1021REMSYN06001047 41586 63407 10144 20050 39877 40241 52025 70222 85340=
0187010470999992013062612004+69000+023033FM-12+030799999V0203601N007019999999N060000199+01421+00531102591ADDAY121021AY221021GA1061+999991091GE19MSL   +99999+99999GF106991999999999999999999MA1999990098931MD1210171+9990MW1021REMSYN06001047 41586 63607 10142 20053 39893 40259 52017 70222 86300=
0203010470999992013062615004+69000+023033FM-12+030799999V0203601N001019999999N060000199+01441+00501102681ADDAY121021AY221021GA1041+999991061GA2991+999991021GE19MSL   +99999+99999GF106991999999999999999999MA1999990099021MD1110101+9990MW1011REMSYN06001047 41586 63601 10144 20050 39902 40268 51010 70122 84408=
0226010470999992013062618004+69000+023033FM-12+030799999V0200501N003019999999N060000199+01341+00461102791ADDAY121021AY221021GA1031+999991061GA2991+999991021GE19MSL   +99999+99999GF106991999999999999999999KA1120M+01541MA1999990099121MD1210091+9990MW1021REMSYN07001047 31586 60503 10134 20046 39912 40279 52009 70222 83408 333 10154=
0187010470999992013062700004+69000+023033FM-12+030799999V0209999C999999999999N060000199+00681+00411103021ADDAY121021AY221021GA1071+999991031GE19MSL   +99999+99999GF107991999999999999999999MA1999990099261MD1210061+9990MW1021REMSYN06001047 41786 70000 10068 20041 39926 40302 52006 70222 87070=
0210010470999992013062706004+69000+023033FM-12+030799999V0209999C999999999999N060000199+01141+00511102811ADDAY121021AY221021GA1071+999991031GE19MSL   +99999+99999GF107991999999999999999999KA1240N+00681MA1999990099111MD1810081+9990MW1021REMSYN07001047 41786 70000 10114 20051 39911 40281 58008 70222 87050 333 20068=
0187010470999992013062709004+69000+023033FM-12+030799999V0200901N003019999999N060000199+01281+00481102651ADDAY121021AY221021GA1081+999991031GE19MSL   +99999+99999GF108991999999999999999999MA1999990098971MD1610121+9990MW1021REMSYN06001047 41886 80903 10128 20048 39897 40265 56012 70222 8807/=
0187010470999992013062712004+69000+023033FM-12+030799999V0201401N003019999999N060000199+01281+00551102591ADDAY121021AY221021GA1081+999991031GE19MSL   +99999+99999GF108991999999999999999999MA1999990098921MD1710061+9990MW1021REMSYN06001047 41886 81403 10128 20055 39892 40259 57006 70222 8807/=
0187010470999992013062715004+69000+023033FM-12+030799999V0201401N005019999999N060000199+01121+00751102451ADDAY161021AY221021GA1081+999991051GE19MSL   +99999+99999GF108991999999999999999999MA1999990098761MD1810151+9990MW1211REMSYN06001047 41586 81405 10112 20075 39876 40245 58015 72162 8802/=
0227010470999992013062718004+69000+023033FM-12+030799999V0200501N003019999999N060000199+01081+00821102371ADDAA112000131AY161021AY221021GA1081+999991061GE19MSL   +99999+99999GF108991999999999999999999KA1120M+01321MA1999990098671MD1710091+9990MW1021REMSYN07601047 11486 80503 10108 20082 39867 40237 57009 69912 70262 885// 333 10132=
0203010470999992013062800004+69000+023033FM-12+030799999V0209999C999999999999N050000199+01041+00881102161ADDAY121021AY221021GA1051+999991061GA2991+999991051GE19MSL   +99999+99999GF108991999999999999999999MA1999990098471MD1610131+9990MW1021REMSYN06001047 41484 80000 10104 20088 39847 40216 56013 70222 8552/=
0226010470999992013062806004+69000+023033FM-12+030799999V0209999C999999999999N060000199+01261+01171101791ADDAY121021AY221021GA1031+999991061GA2991+999991051GE19MSL   +99999+99999GF108991999999999999999999KA1240N+01011MA1999990098151MD1710171+9990MW1021REMSYN07001047 41586 80000 10126 20117 39815 40179 57017 70222 8352/ 333 20101=
0187010470999992013062809004+69000+023033FM-12+030799999V0201601N003019999999N050000199+01441+01061101611ADDAY121021AY221021GA1081+999991061GE19MSL   +99999+99999GF108991999999999999999999MA1999990097981MD1610141+9990MW1021REMSYN06001047 41584 81603 10144 20106 39798 40161 56014 70222 885//=
0203010470999992013062812004+69000+023033FM-12+030799999V0201801N005019999999N015000199+01481+01211101501ADDAY161021AY251021GA1061+999991071GA2991+999991051GE19MSL   +99999+99999GF108991999999999999999999MA1999990097881MD1710101+9990MW1581REMSYN06001047 41465 81805 10148 20121 39788 40150 57010 75865 8672/=
0203010470999992013062815004+69000+023033FM-12+030799999V0201801N005019999999N007000199+01561+01291101351ADDAY161021AY251021GA1051+999991071GA2991+999991051GE19MSL   +99999+99999GF108991999999999999999999MA1999990097761MD1710131+9990MW1501REMSYN06001047 41457 81805 10156 20129 39776 40135 57013 75065 8572/=
0243010470999992013062818004+69000+023033FM-12+030799999V0201801N005019999999N030000199+01561+01411101241ADDAA112000131AY151021AY221021GA1051+999991071GA2991+999991051GE19MSL   +99999+99999GF108991999999999999999999KA1120M+01561MA1999990097651MD1610111+9990MW1201REMSYN07601047 11480 81805 10156 20141 39765 40124 56011 69912 72052 8572/ 333 10156=
0203010470999992013062900004+69000+023033FM-12+030799999V0201601N007019999999N030000199+01601+01451101241ADDAY151021AY221021GA1041+999991091GA2991+999991001GE19MSL   +99999+99999GF106991999999999999999999MA1999990097661MD1410001+9990MW1011REMSYN06001047 41480 61607 10160 20145 39766 40124 54000 70152 84301=
0244010470999992013062906004+69000+023033FM-12+030799999V0201601N007019999999N005000199+01431+01271101351ADDAA112000131AA224000231AY151021AY221021GA1081+999991051GE19MSL   +99999+99999GF108991999999999999999999KA1240N+01431MA1999990097731MD1210031+9990MW1521REMSYN08201047 11650 81607 10143 20127 39773 40135 52003 69912 75252 8802/ 333 20143 70002=
0187010470999992013062909004+69000+023033FM-12+030799999V0201801N007019999999N050000199+01481+01231101451ADDAY151021AY221021GA1081+999991061GE19MSL   +99999+99999GF108991999999999999999999MA1999990097831MD1110111+9990MW1021REMSYN06001047 41484 81807 10148 20123 39783 40145 51011 70252 885//=
0187010470999992013062912004+69000+023033FM-12+030799999V0201801N007019999999N050000199+01581+01141101451ADDAY121021AY221021GA1081+999991061GE19MSL   +99999+99999GF108991999999999999999999MA1999990097861MD1900021+9990MW1021REMSYN06001047 41484 81807 10158 20114 39786 40145 50002 70222 885//=
0203010470999992013062915004+69000+023033FM-12+030799999V0201601N007019999999N050000199+02111+01061101211ADDAY121021AY221021GA1041+999991081GA2991+999991001GE19MSL   +99999+99999GF106991999999999999999999MA1999990097681MD1610161+9990MW1021REMSYN06001047 41684 61607 10211 20106 39768 40121 56016 70222 84101=
0243010470999992013062918004+69000+023033FM-12+030799999V0201601N005019999999N055000199+02101+00991101141ADDAA112000021AY121021AY221021GA1021+999991081GA2991+999991001GE19MSL   +99999+99999GF104991999999999999999999KA1120M+02181MA1999990097621MD1710061+9990MW1011REMSYN07601047 11685 41605 10210 20099 39762 40114 57006 69902 70122 82101 333 10218=
0187010470999992013063000004+69000+023033FM-12+030799999V0209999C999999999999N050000199+01281+01101101241ADDAY111021AY211021GA1061+999991031GE19MSL   +99999+99999GF106991999999999999999999MA1999990097621MD1710051+9990MW1031REMSYN06001047 41884 60000 10128 20110 39762 40124 57005 70311 86070=
0226010470999992013063006004+69000+023033FM-12+030799999V0209999C999999999999N060000199+01661+01171101061ADDAY121021AY211021GA1021+999991061GA2991+999991031GE19MSL   +99999+99999GF108991999999999999999999KA1240N+01241MA1999990097481MD1610091+9990MW1021REMSYN07001047 41686 80000 10166 20117 39748 40106 56009 70221 8257/ 333 20124=
0187010470999992013063009004+69000+023033FM-12+030799999V0203601N003019999999N050000199+01701+01311100981ADDAY161021AY221021GA1081+999991051GE19MSL   +99999+99999GF108991999999999999999999MA1999990097421MD1810071+9990MW1021REMSYN06001047 41684 83603 10170 20131 39742 40098 58007 70262 8802/=
0203010470999992013063012004+69000+023033FM-12+030799999V0203601N003019999999N050000199+01781+01271100931ADDAY181021AY221021GA1041+999991091GA2991+999991051GE19MSL   +99999+99999GF108991999999999999999999MA1999990097371MD1610071+9990MW1251REMSYN06001047 41584 83603 10178 20127 39737 40093 56007 72582 8432/=
0187010470999992013063015004+69000+023033FM-12+030799999V0203601N003019999999N020000199+01701+01521100921ADDAY161021AY221021GA1081+999991051GE19MSL   +99999+99999GF108991999999999999999999MA1999990097361MD1710011+9990MW1611REMSYN06001047 41570 83603 10170 20152 39736 40092 57001 76162 8802/=
0243010470999992013063018004+69000+023033FM-12+030799999V0203201N005019999999N050000199+01441+01261100961ADDAA112003031AY161021AY221021GA1051+999991061GA2991+999991051GE19MSL   +99999+99999GF108991999999999999999999KA1120M+01821MA1999990097371MD1900021+9990MW1021REMSYN07601047 11484 83205 10144 20126 39737 40096 50002 60032 70262 8552/ 333 10182=
0187010470999992013070100004+69000+023033FM-12+030799999V0203201N005019999999N050000199+01181+00971101151ADDAY121021AY221021GA1031+999991061GE19MSL   +99999+99999GF103991999999999999999999MA1999990097521MD1310021+9990MW1011REMSYN06001047 41584 33205 10118 20097 39752 40115 53002 70122 83500=
0210010470999992013070106004+69000+023033FM-12+030799999V0200501N003019999999N060000199+01391+01011101111ADDAY121021AY221021GA1071+999991061GE19MSL   +99999+99999GF107991999999999999999999KA1240N+01121MA1999990097511MD1810021+9990MW1021REMSYN07001047 41586 70503 10139 20101 39751 40111 58002 70222 87500 333 20112=
0203010470999992013070109004+69000+023033FM-12+030799999V0200901N005019999999N060000199+01601+01121101101ADDAY121021AY221021GA1061+999991061GA2991+999991031GE19MSL   +99999+99999GF107991999999999999999999MA1999990097521MD1900011+9990MW1021REMSYN06001047 41586 70905 10160 20112 39752 40110 50001 70222 86540=
0203010470999992013070112004+69000+023033FM-12+030799999V0200901N005019999999N060000199+01781+01201100951ADDAY121021AY221021GA1051+999991061GA2991+999991051GE19MSL   +99999+99999GF108991999999999999999999MA1999990097401MD1810121+9990MW1021REMSYN06001047 41586 80905 10178 20120 39740 40095 58012 70222 8552/=
0203010470999992013070115004+69000+023033FM-12+030799999V0200901N005019999999N060000199+01961+01211100851ADDAY121021AY221021GA1051+999991061GA2991+999991051GE19MSL   +99999+99999GF108991999999999999999999MA1999990097321MD1710081+9990MW1021REMSYN06001047 41586 80905 10196 20121 39732 40085 57008 70222 8552/=
0226010470999992013070118004+69000+023033FM-12+030799999V0200901N005019999999N060000199+01781+01291100761ADDAY121021AY221021GA1041+999991061GA2991+999991051GE19MSL   +99999+99999GF108991999999999999999999KA1120M+02021MA1999990097221MD1710111+9990MW1021REMSYN07001047 31586 80905 10178 20129 39722 40076 57011 70222 8452/ 333 10202=
0203010470999992013070200004+69000+023033FM-12+030799999V0200501N005019999999N020000199+01581+01431100541ADDAY161021AY221021GA1061+999991071GA2991+999991051GE19MSL   +99999+99999GF108991999999999999999999MA1999990096971MD1710191+9990MW1611REMSYN06001047 41470 80505 10158 20143 39697 40054 57019 76162 8672/=
0244010470999992013070206004+69000+023033FM-12+030799999V0201401N005019999999N050000199+01851+01381100251ADDAA112005032AA224004532AY161021AY221021GA1071+999991081GE19MSL   +99999+99999GF107991999999999999999999KA1240N+01581MA1999990096721MD1710111+9990MW1021REMSYN08201047 11584 71405 10185 20138 39672 40025 57011 60052 70262 87800 333 20158 70045=
0203010470999992013070209004+69000+023033FM-12+030799999V0201401N003019999999N050000199+01921+01401100191ADDAY121021AY221021GA1041+999991061GA2991+999991051GE19MSL   +99999+99999GF108991999999999999999999MA1999990096671MD1810051+9990MW1021REMSYN06001047 41584 81403 10192 20140 39667 40019 58005 70222 8452/=
0187010470999992013070212004+69000+023033FM-12+030799999V0201401N007019999999N050000199+01841+01451100141ADDAY181021AY221021GA1081+999991091GE19MSL   +99999+99999GF108991999999999999999999MA1999990096621MD1510061+9990MW1251REMSYN06001047 41484 81407 10184 20145 39662 40014 55006 72582 889//=
0187010470999992013070215004+69000+023033FM-12+030799999V0201801N007019999999N060000199+01581+01101100341ADDAY181021AY221021GA1081+999991091GE19MSL   +99999+99999GF108991999999999999999999MA1999990096781MD1210171+9990MW1021REMSYN06001047 41486 81807 10158 20110 39678 40034 52017 70282 883//=
0243010470999992013070218004+69000+023033FM-12+030799999V0201401N005019999999N060000199+01521+01141100311ADDAA112005031AY181021AY221021GA1041+999991091GA2991+999991031GE19MSL   +99999+99999GF106991999999999999999999KA1120M+01981MA1999990096751MD1810041+9990MW1251REMSYN07601047 11586 61405 10152 20114 39675 40031 58004 60052 72582 84390 333 10198=
0203010470999992013070300004+69000+023033FM-12+030799999V0201801N003019999999N030000199+01181+01041100361ADDAY181021AY221021GA1041+999991091GA2991+999991031GE19MSL   +99999+99999GF106991999999999999999999MA1999990096761MD1510041+9990MW1021REMSYN06001047 41580 61803 10118 20104 39676 40036 55004 70282 84350=
0187010470999992013070306004+69000+023033FM-12+030799999V0201801N005019999999N060000199+01651+00821100811ADDAY121021AY221021GA1071+999991071GE19MSL   +99999+99999GF107991999999999999999999MA1999990097251MD1210181+9990MW1021REMSYN06001047 41586 71805 10165 20082 39725 40081 52018 70222 87700=
0203010470999992013070312004+69000+023033FM-12+030799999V0201801N007019999999N060000199+01801+00881100881ADDAY121021AY221021GA1051+999991091GA2991+999991031GE19MSL   +99999+99999GF106991999999999999999999MA1999990097321MD1110101+9990MW1021REMSYN06001047 41586 61807 10180 20088 39732 40088 51010 70222 85340=
0187010470999992013070315004+69000+023033FM-12+030799999V0201801N007019999999N060000199+01721+00811100951ADDAY121021AY221021GA1061+999991081GE19MSL   +99999+99999GF106991999999999999999999MA1999990097381MD1210061+9990MW1021REMSYN06001047 41686 61807 10172 20081 39738 40095 52006 70222 86800=
0243010470999992013070318004+69000+023033FM-12+030799999V0201801N005019999999N040000199+01521+00871100961ADDAA112000021AY181021AY221021GA1051+999991091GA2991+999991031GE19MSL   +99999+99999GF106991999999999999999999KA1120M+01851MA1999990097371MD1410001+9990MW1801REMSYN07601047 11582 61805 10152 20087 39737 40096 54000 69902 78082 85340 333 10185=
0203010470999992013070400004+69000+023033FM-12+030799999V0201801N003019999999N060000199+01241+01001100971ADDAY181021AY221021GA1031+999991061GA2991+999991031GE19MSL   +99999+99999GF105991999999999999999999MA1999990097351MD1710031+9990MW1021REMSYN06001047 41586 51803 10124 20100 39735 40097 57003 70282 83470=
0203010470999992013070409004+69000+023033FM-12+030799999V0201801N007019999999N060000199+01711+00951100961ADDAY121021AY221021GA1031+999991091GA2991+999991031GE19MSL   +99999+99999GF105991999999999999999999MA1999990097401MD1210051+9990MW1011REMSYN06001047 41586 51807 10171 20095 39740 40096 52005 70122 83340=
0203010470999992013070412004+69000+023033FM-12+030799999V0209999C999999999999N060000199+01761+01211100961ADDAY181021AY221021GA1041+999991091GA2991+999991001GE19MSL   +99999+99999GF105991999999999999999999MA1999990097411MD1900011+9990MW1021REMSYN06001047 41586 50000 10176 20121 39741 40096 50001 70282 84301=
0203010470999992013070415004+69000+023033FM-12+030799999V0201801N003019999999N060000199+02101+00801101001ADDAY181021AY221021GA1051+999991091GA2991+999991001GE19MSL   +99999+99999GF106991999999999999999999MA1999990097471MD1210061+9990MW1021REMSYN06001047 41586 61803 10210 20080 39747 40100 52006 70282 85301=
0243010470999992013070418004+69000+023033FM-12+030799999V0201801N001019999999N060000199+01721+00891101121ADDAA112005031AY181021AY221021GA1041+999991091GA2991+999991031GE19MSL   +99999+99999GF107991999999999999999999KA1120M+02151MA1999990097561MD1210081+9990MW1021REMSYN07601047 11586 71801 10172 20089 39756 40112 52008 60052 70282 84370 333 10215=
0187010470999992013070500004+69000+023033FM-12+030799999V0201801N001019999999N040000199+01121+00961101341ADDAY121021AY221021GA1021+999991031GE19MSL   +99999+99999GF102991999999999999999999MA1999990097681MD1900041+9990MW1011REMSYN06001047 41882 21801 10112 20096 39768 40134 50004 70122 82070=
0226010470999992013070506004+69000+023033FM-12+030799999V0201801N005019999999N050000199+01441+01101101241ADDAY121021AY221021GA1031+999991061GA2991+999991031GE19MSL   +99999+99999GF107991999999999999999999KA1240N+01121MA1999990097631MD1710041+9990MW1021REMSYN07001047 41584 71805 10144 20110 39763 40124 57004 70222 83470 333 20112=
0187010470999992013070509004+69000+023033FM-12+030799999V0201801N007019999999N050000199+01621+01051101191ADDAY121021AY221021GA1071+999991061GE19MSL   +99999+99999GF107991999999999999999999MA1999990097611MD1810031+9990MW1021REMSYN06001047 41584 71807 10162 20105 39761 40119 58003 70222 87500=
0203010470999992013070512004+69000+023033FM-12+030799999V0201801N007019999999N040000199+01881+01061101101ADDAY121021AY221021GA1041+999991081GA2991+999991031GE19MSL   +99999+99999GF108991999999999999999999MA1999990097561MD1810021+9990MW1021REMSYN06001047 41582 81807 10188 20106 39756 40110 58002 70222 8429/=
0206010470999992013070515004+69000+023033FM-12+030799999V0201801N007019999999N050000199+01801+01061101131ADDAY121021AY221021GA1071+999991081GE19MSL   +99999+99999GF107991999999999999999999MA1999990097571MD1290039+9990MW1021REMSYN06001047 41584 71807 10180 20106 39757 40113 54001 70222 87800=EQDQ01.1    3APC3  
0243010470999992013070518004+69000+023033FM-12+030799999V0202201N005019999999N030000199+01751+01181101121ADDAA112000131AY181021AY221021GA1051+999991091GA2991+999991051GE19MSL   +99999+99999GF108991999999999999999999KA1120M+01961MA1999990097561MD1510011+9990MW1801REMSYN07601047 11580 82205 10175 20118 39756 40112 55001 69912 78082 8592/ 333 10196=
0187010470999992013070600004+69000+023033FM-12+030799999V0202701N005019999999N002000199+01161+01021101501ADDAY161021AY251021GA1081+999991051GE19MSL   +99999+99999GF108991999999999999999999MA1999990097851MD1310201+9990MW1591REMSYN06001047 41520 82705 10116 20102 39785 40150 53020 75965 8802/=
0260010470999992013070606004+69000+023033FM-12+030799999V0200501N003019999999N050000199+01181+01021101661ADDAA112003032AA224002732AY161021AY251021GA1061+999991061GA2991+999991051GE19MSL   +99999+99999GF108991999999999999999999KA1240N+01121MA1999990098011MD1310131+9990MW1021REMSYN08201047 11584 80503 10118 20102 39801 40166 53013 60032 70265 8652/ 333 20112 70027=
0187010470999992013070609004+69000+023033FM-12+030799999V0202701N003019999999N060000199+01481+00921101851ADDAY121021AY221021GA1041+999991091GE19MSL   +99999+99999GF104991999999999999999999MA1999990098221MD1210121+9990MW1011REMSYN06001047 41586 42703 10148 20092 39822 40185 52012 70122 84300=
0187010470999992013070612004+69000+023033FM-12+030799999V0202701N003019999999N060000199+01681+00771101881ADDAY121021AY211021GA1061+999991081GE19MSL   +99999+99999GF106991999999999999999999MA1999990098271MD1210061+9990MW1021REMSYN06001047 41586 62703 10168 20077 39827 40188 52006 70221 86800=
0187010470999992013070615004+69000+023033FM-12+030799999V0203201N005019999999N060000199+01881+00701101981ADDAY121021AY221021GA1051+999991081GE19MSL   +99999+99999GF105991999999999999999999MA1999990098401MD1210111+9990MW1011REMSYN06001047 41586 53205 10188 20070 39840 40198 52011 70122 85800=
0226010470999992013070618004+69000+023033FM-12+030799999V0203201N005019999999N060000199+01801+00681102051ADDAY121021AY221021GA1031+999991061GA2991+999991031GE19MSL   +99999+99999GF104991999999999999999999KA1120M+01901MA1999990098461MD1210071+9990MW1011REMSYN07001047 31586 43205 10180 20068 39846 40205 52007 70122 83440 333 10190=
0187010470999992013070700004+69000+023033FM-12+030799999V0202201N003019999999N060000199+00861+00711102181ADDAY111021AY211021GA1051+999991031GE19MSL   +99999+99999GF105991999999999999999999MA1999990098471MD1810031+9990MW1031REMSYN06001047 41886 52203 10086 20071 39847 40218 58003 70311 85070=
0229010470999992013070706004+69000+023033FM-12+030799999V0201801N007019999999N060000199+01621+00721101811ADDAY121021AY211021GA1999+999991021GE19MSL   +99999+99999GF106991999999999999999999KA1240N+00851MA1999990098211MD1810151+9990MW1021REMSYN07001047 41986 61807 10162 20072 39821 40181 58015 70221 80008 333 20085=EQDQ01    003SCCGA1
0187010470999992013070709004+69000+023033FM-12+030799999V0201801N007019999999N015000199+01791+00821101661ADDAY161021AY221021GA1081+999991051GE19MSL   +99999+99999GF108991999999999999999999MA1999990098071MD1610131+9990MW1601REMSYN06001047 41665 81807 10179 20082 39807 40166 56013 76062 8802/=
0203010470999992013070712004+69000+023033FM-12+030799999V0201801N007019999999N060000199+01861+00941101481ADDAY161021AY221021GA1021+999991081GA2991+999991031GE19MSL   +99999+99999GF106991999999999999999999MA1999990097921MD1810161+9990MW1011REMSYN06001047 41686 61807 10186 20094 39792 40148 58016 70162 82290=
0203010470999992013070715004+69000+023033FM-12+030799999V0202201N007019999999N060000199+01901+00951101331ADDAY121021AY221021GA1031+999991081GA2991+999991031GE19MSL   +99999+99999GF107991999999999999999999MA1999990097771MD1710141+9990MW1031REMSYN06001047 41686 72207 10190 20095 39777 40133 57014 70322 83290=
0259010470999992013070718004+69000+023033FM-12+030799999V0202201N005019999999N060000199+01421+00941101301ADDAA112000131AY191021AY281021GA1041+999991081GA2991+999991031GA3991+999991021GE19MSL   +99999+99999GF107991999999999999999999KA1120M+01951MA1999990097681MD1810091+9990MW1021REMSYN07601047 11686 72205 10142 20094 39768 40130 58009 69912 70298 84298 333 10195=
0187010470999992013070800004+69000+023033FM-12+030799999V0202201N005019999999N065000199+00881+00281101381ADDAY111021AY211021GA1031+999991031GE19MSL   +99999+99999GF103991999999999999999999MA1999990097701MD1810031+9990MW1031REMSYN06001047 41787 32205 10088 20028 39770 40138 58003 70311 83070=
0226010470999992013070806004+69000+023033FM-12+030799999V0203201N007019999999N060000199+01211+00391101411ADDAY121021AY211021GA1031+999991081GA2991+999991031GE19MSL   +99999+99999GF104991999999999999999999KA1240N+00801MA1999990097771MD1310061+9990MW1021REMSYN07001047 41686 43207 10121 20039 39777 40141 53006 70221 83140 333 20080=
0203010470999992013070809004+69000+023033FM-12+030799999V0202701N007019999999N060000199+01321+00441101561ADDAY111021AY211021GA1051+999991081GA2991+999991021GE19MSL   +99999+99999GF106991999999999999999999MA1999990097921MD1110161+9990MW1021REMSYN06001047 41686 62707 10132 20044 39792 40156 51016 70211 85208=
0203010470999992013070812004+69000+023033FM-12+030799999V0203201N007019999999N065000199+01341+00401101631ADDAY121021AY221021GA1041+999991081GA2991+999991021GE19MSL   +99999+99999GF106991999999999999999999MA1999990098001MD1110071+9990MW1021REMSYN06001047 41687 63207 10134 20040 39800 40163 51007 70222 84208=
0219010470999992013070815004+69000+023033FM-12+030799999V0202701N007019999999N065000199+01421+00451101711ADDAY121021AY221021GA1041+999991081GA2991+999991031GA3991+999991021GE19MSL   +99999+99999GF106991999999999999999999MA1999990098081MD1900091+9990MW1021REMSYN06001047 41687 62707 10142 20045 39808 40171 50009 70222 84298=
0226010470999992013070818004+69000+023033FM-12+030799999V0202701N007019999999N065000199+01341+00381101761ADDAY121021AY221021GA1021+999991061GA2991+999991031GE19MSL   +99999+99999GF104991999999999999999999KA1120M+01451MA1999990098121MD1900041+9990MW1011REMSYN07001047 31687 42707 10134 20038 39812 40176 50004 70122 82470 333 10145=
0187010470999992013070900004+69000+023033FM-12+030799999V0201801N005019999999N065000199+00601+00321101821ADDAY121021AY221021GA1081+999991031GE19MSL   +99999+99999GF108991999999999999999999MA1999990098081MD1810091+9990MW1021REMSYN06001047 41787 81805 10060 20032 39808 40182 58009 70222 8807/=
0244010470999992013070906004+69000+023033FM-12+030799999V0201801N005019999999N010000199+00791+00501101221ADDAA112000331AA224000331AY161021AY221021GA1081+999991051GE19MSL   +99999+99999GF108991999999999999999999KA1240N+00551MA1999990097531MD1710311+9990MW1631REMSYN08201047 11660 81805 10079 20050 39753 40122 57031 69932 76362 8802/ 333 20055 70003=
0187010470999992013070909004+69000+023033FM-12+030799999V0201801N007019999999N050000199+00881+00441100831ADDAY161021AY221021GA1081+999991081GE19MSL   +99999+99999GF108991999999999999999999MA1999990097171MD1610351+9990MW1211REMSYN06001047 41584 81807 10088 20044 39717 40083 56035 72162 888//=
0187010470999992013070912004+69000+023033FM-12+030799999V0201801N007019999999N060000199+01021+00641100621ADDAY121021AY221021GA1081+999991061GE19MSL   +99999+99999GF108991999999999999999999MA1999990096981MD1710191+9990MW1021REMSYN06001047 41586 81807 10102 20064 39698 40062 57019 70222 885//=
0203010470999992013070915004+69000+023033FM-12+030799999V0202201N005019999999N030000199+01241+00771100491ADDAY161021AY221021GA1051+999991061GA2991+999991051GE19MSL   +99999+99999GF108991999999999999999999MA1999990096881MD1510101+9990MW1611REMSYN06001047 41580 82205 10124 20077 39688 40049 55010 76162 8552/=
0243010470999992013070918004+69000+023033FM-12+030799999V0203201N005019999999N020000199+00921+00751100701ADDAA112003031AY161021AY261021GA1041+999991061GA2991+999991051GE19MSL   +99999+99999GF108991999999999999999999KA1120M+01261MA1999990097051MD1310161+9990MW1631REMSYN07601047 11470 83205 10092 20075 39705 40070 53016 60032 76366 8452/ 333 10126=
0187010470999992013071000004+69000+023033FM-12+030799999V0203201N005019999999N060000199+00721+00361101021ADDAY161021AY221021GA1051+999991061GE19MSL   +99999+99999GF105991999999999999999999MA1999990097321MD1210151+9990MW1011REMSYN06001047 41686 53205 10072 20036 39732 40102 52015 70162 85500=
0244010470999992013071006004+69000+023033FM-12+030799999V0203201N005019999999N040000199+00901+00461101201ADDAA112000631AA224003631AY181021AY261021GA1071+999991091GE19MSL   +99999+99999GF107991999999999999999999KA1240N+00641MA1999990097521MD1210081+9990MW1251REMSYN08201047 11482 73205 10090 20046 39752 40120 52008 69962 72586 87900 333 20064 70036=
0203010470999992013071009004+69000+023033FM-12+030799999V0203401N005019999999N060000199+01181+00311101201ADDAY121021AY221021GA1051+999991061GA2991+999991021GE19MSL   +99999+99999GF106991999999999999999999MA1999990097571MD1900041+9990MW1021REMSYN06001047 41586 63405 10118 20031 39757 40120 50004 70222 85508=
0187010470999992013071012004+69000+023033FM-12+030799999V0202701N007019999999N060000199+01301+00341101131ADDAY121021AY221021GA1061+999991061GE19MSL   +99999+99999GF106991999999999999999999MA1999990097511MD1710051+9990MW1021REMSYN06001047 41586 62707 10130 20034 39751 40113 57005 70222 86500=
0203010470999992013071015004+69000+023033FM-12+030799999V0202701N007019999999N065000199+01481+00361101031ADDAY121021AY221021GA1041+999991061GA2991+999991021GE19MSL   +99999+99999GF105991999999999999999999MA1999990097431MD1710081+9990MW1011REMSYN06001047 41587 52707 10148 20036 39743 40103 57008 70122 84508=
0226010470999992013071018004+69000+023033FM-12+030799999V0203201N005019999999N065000199+01201+00221100981ADDAY121021AY221021GA1041+999991061GA2991+999991031GE19MSL   +99999+99999GF107991999999999999999999KA1120M+01501MA1999990097361MD1710081+9990MW1031REMSYN07001047 31587 73205 10120 20022 39736 40098 57008 70322 84570 333 10150=
0203010470999992013071100004+69000+023033FM-12+030799999V0203201N005019999999N060000199+00881+00261100961ADDAY121021AY221021GA1021+999991061GA2991+999991031GE19MSL   +99999+99999GF106991999999999999999999MA1999990097301MD1710011+9990MW1021REMSYN06001047 41586 63205 10088 20026 39730 40096 57001 70222 82570=
0226010470999992013071106004+69000+023033FM-12+030799999V0203201N005019999999N060000199+00981+00331101031ADDAY121021AY221021GA1041+999991061GA2991+999991031GE19MSL   +99999+99999GF107991999999999999999999KA1240N+00831MA1999990097371MD1310031+9990MW1021REMSYN07001047 41586 73205 10098 20033 39737 40103 53003 70222 84540 333 20083=
0203010470999992013071109004+69000+023033FM-12+030799999V0203201N005019999999N060000199+01091+00301101031ADDAY121021AY221021GA1041+999991081GA2991+999991031GE19MSL   +99999+99999GF107991999999999999999999MA1999990097381MD1410001+9990MW1021REMSYN06001047 41586 73205 10109 20030 39738 40103 54000 70222 84290=
0203010470999992013071112004+69000+023033FM-12+030799999V0203201N005019999999N065000199+01251+00291100991ADDAY121021AY221021GA1061+999991091GA2991+999991031GE19MSL   +99999+99999GF107991999999999999999999MA1999990097371MD1510021+9990MW1021REMSYN06001047 41587 73205 10125 20029 39737 40099 55002 70222 86340=
0187010470999992013071115004+69000+023033FM-12+030799999V0202701N007019999999N065000199+01341+00381101011ADDAY121021AY221021GA1061+999991091GE19MSL   +99999+99999GF106991999999999999999999MA1999990097401MD1210041+9990MW1021REMSYN06001047 41587 62707 10134 20038 39740 40101 52004 70222 86300=
0210010470999992013071118004+69000+023033FM-12+030799999V0203201N007019999999N065000199+01151+00091101171ADDAY121021AY221021GA1041+999991061GE19MSL   +99999+99999GF104991999999999999999999KA1120M+01401MA1999990097521MD1310121+9990MW1011REMSYN07001047 31687 43207 10115 20009 39752 40117 53012 70122 84400 333 10140=
0203010470999992013071200004+69000+023033FM-12+030799999V0203201N003019999999N060000199+00551+00131101451ADDAY121021AY221021GA1041+999991061GA2991+999991031GE19MSL   +99999+99999GF106991999999999999999999MA1999990097721MD1210111+9990MW1021REMSYN06001047 41586 63203 10055 20013 39772 40145 52011 70222 84470=
0210010470999992013071206004+69000+023033FM-12+030799999V0203201N005019999999N010000199+00851+00101101561ADDAY121021AY221021GA1051+999991061GE19MSL   +99999+99999GF105991999999999999999999KA1240N+00501MA1999990097871MD1210061+9990MW1021REMSYN07001047 41560 53205 10085 20010 39787 40156 52006 70222 85400 333 20050=
0187010470999992013071209004+69000+023033FM-12+030799999V0203201N005019999999N065000199+01051+00141101581ADDAY121021AY221021GA1061+999991091GE19MSL   +99999+99999GF106991999999999999999999MA1999990097921MD1310051+9990MW1021REMSYN06001047 41587 63205 10105 20014 39792 40158 53005 70222 86300=
0187010470999992013071212004+69000+023033FM-12+030799999V0203401N005019999999N065000199+01221+00241101601ADDAY121021AY221021GA1061+999991091GE19MSL   +99999+99999GF106991999999999999999999MA1999990097961MD1310041+9990MW1021REMSYN06001047 41587 63405 10122 20024 39796 40160 53004 70222 86300=
0187010470999992013071215004+69000+023033FM-12+030799999V0203601N005019999999N065000199+01461+00371101551ADDAY121021AY221021GA1041+999991081GE19MSL   +99999+99999GF104991999999999999999999MA1999990097931MD1710021+9990MW1011REMSYN06001047 41687 43605 10146 20037 39793 40155 57002 70122 84100=
0229010470999992013071218004+69000+023033FM-12+030799999V0203601N005019999999N065000199+01321+00271101571ADDAY101021AY201021GA1999+999991001GE19MSL   +99999+99999GF102991999999999999999999KA1120M+01521MA1999990097931MD1410001+9990MW1021REMSYN07001047 31987 23605 10132 20027 39793 40157 54000 70200 80001 333 10152=EQDQ01    003SCCGA1
0187010470999992013071300004+69000+023033FM-12+030799999V0209999C999999999999N030000199+00381+00341101681ADDAY111021AY211021GA1051+999991031GE19MSL   +99999+99999GF105991999999999999999999MA1999990097921MD1810021+9990MW1031REMSYN06001047 41780 50000 10038 20034 39792 40168 58002 70311 85070=
0210010470999992013071306004+69000+023033FM-12+030799999V0209999C999999999999N050000199+00971+00351101321ADDAY121021AY211021GA1081+999991031GE19MSL   +99999+99999GF108991999999999999999999KA1240N+00361MA1999990097661MD1710161+9990MW1021REMSYN07001047 41784 80000 10097 20035 39766 40132 57016 70221 8807/ 333 20036=
0203010470999992013071309004+69000+023033FM-12+030799999V0201401N003019999999N050000199+01121+00591101171ADDAY121021AY221021GA1041+999991061GA2991+999991051GE19MSL   +99999+99999GF108991999999999999999999MA1999990097521MD1710131+9990MW1021REMSYN06001047 41584 81403 10112 20059 39752 40117 57013 70222 8452/=
0203010470999992013071312004+69000+023033FM-12+030799999V0201401N005019999999N055000199+01321+00771101011ADDAY121021AY221021GA1041+999991061GA2991+999991051GE19MSL   +99999+99999GF108991999999999999999999MA1999990097401MD1810141+9990MW1021REMSYN06001047 41585 81405 10132 20077 39740 40101 58014 70222 8452/=
0203010470999992013071315004+69000+023033FM-12+030799999V0201401N005019999999N040000199+01341+01081100811ADDAY161021AY221021GA1031+999991061GA2991+999991051GE19MSL   +99999+99999GF108991999999999999999999MA1999990097211MD1710181+9990MW1601REMSYN06001047 41582 81405 10134 20108 39721 40081 57018 76062 8352/=
0226010470999992013071318004+69000+023033FM-12+030799999V0201401N005019999999N050000199+01481+01021100651ADDAY161021AY221021GA1041+999991061GA2991+999991051GE19MSL   +99999+99999GF108991999999999999999999KA1120M+01501MA1999990097071MD1710161+9990MW1021REMSYN07001047 41584 81405 10148 20102 39707 40065 57016 70262 8452/ 333 10150=
0203010470999992013071400004+69000+023033FM-12+030799999V0201401N003019999999N004000199+01261+01101100321ADDAY161021AY221021GA1021+999991061GA2991+999991051GE19MSL   +99999+99999GF108991999999999999999999MA1999990096721MD1810201+9990MW1631REMSYN06001047 41540 81403 10126 20110 39672 40032 58020 76362 8252/=
0243010470999992013071406004+69000+023033FM-12+030799999V0203201N010019999999N020000199+00601+00321100351ADDAA112031031AY161021AY221021GA1041+999991061GA2991+999991051GE19MSL   +99999+99999GF108991999999999999999999KA1240N+00601MA1999990096671MD1310201+9990MW1631REMSYN07601047 11570 83210 10060 20032 39667 40035 53020 60312 76362 8452/ 333 20060=
0219010470999992013071409004+69000+023033FM-12+030799999V0203201N007019999999N020000199+00721+00361100541ADDAY161021AY261021GA1061+999991071GA2991+999991051GA3991+999991021GE19MSL   +99999+99999GF108991999999999999999999MA1999990096871MD1310171+9990MW1611REMSYN06001047 41570 83207 10072 20036 39687 40054 53017 76166 86726=
0187010470999992013071412004+69000+023033FM-12+030799999V0203201N007019999999N050000199+01201+00331100461ADDAY161021AY221021GA1061+999991091GE19MSL   +99999+99999GF106991999999999999999999MA1999990096861MD1900001+9990MW1011REMSYN06001047 41584 63207 10120 20033 39686 40046 50000 70162 86300=
0206010470999992013071415004+69000+023033FM-12+030799999V0203201N007019999999N060000199+01321+00511100441ADDAY121021AY221021GA1061+999991091GE19MSL   +99999+99999GF106991999999999999999999MA1999990096851MD1790029+9990MW1021REMSYN06001047 41586 63207 10132 20051 39685 40044 54001 70222 86300=EQDQ01.1    3APC3  
0243010470999992013071418004+69000+023033FM-12+030799999V0201801N001019999999N060000199+01241+00261100401ADDAA112007031AY121021AY221021GA1041+999991061GA2991+999991031GE19MSL   +99999+99999GF105991999999999999999999KA1120M+01351MA1999990096801MD1710051+9990MW1011REMSYN07601047 11586 51801 10124 20026 39680 40040 57005 60072 70122 84460 333 10135=
0203010470999992013071500004+69000+023033FM-12+030799999V0201801N001019999999N000000199+00281+00151100441ADDAY141021AY211021GA1011+999991061GA2991+999991031GE19MSL   +99999+99999GF104991999999999999999999MA1999990096721MD1710051+9990MW1461REMSYN06001047 41500 41801 10028 20015 39672 40044 57005 74641 81470=
0210010470999992013071506004+69000+023033FM-12+030799999V0201801N003019999999N050000199+01121+00401100101ADDAY141021AY221021GA1071+999991031GE19MSL   +99999+99999GF107991999999999999999999KA1240N+00221MA1999990096501MD1710111+9990MW1021REMSYN07001047 41884 71803 10112 20040 39650 40010 57011 70242 87050 333 20022=
0203010470999992013071509004+69000+023033FM-12+030799999V0201801N005019999999N060000199+01561+00401099931ADDAY121021AY221021GA1061+999991081GA2991+999991001GE19MSL   +99999+99999GF107991999999999999999999MA1999990096381MD1610101+9990MW1021REMSYN06001047 41586 71805 10156 20040 39638 49993 56010 70222 86201=
0219010470999992013071512004+69000+023033FM-12+030799999V0202201N005019999999N060000199+01621+00461099821ADDAY121021AY221021GA1041+999991081GA2991+999991031GA3991+999991021GE19MSL   +99999+99999GF107991999999999999999999MA1999990096281MD1710111+9990MW1021REMSYN06001047 41586 72205 10162 20046 39628 49982 57011 70222 84298=
0203010470999992013071515004+69000+023033FM-12+030799999V0201801N005019999999N060000199+01581+00601099761ADDAY181021AY221021GA1041+999991091GA2991+999991031GE19MSL   +99999+99999GF106991999999999999999999MA1999990096221MD1810061+9990MW1021REMSYN06001047 41586 61805 10158 20060 39622 49976 58006 70282 84390=
0243010470999992013071518004+69000+023033FM-12+030799999V0203601N003019999999N060000199+01281+00811099811ADDAA112000831AY181021AY221021GA1051+999991091GA2991+999991031GE19MSL   +99999+99999GF106991999999999999999999KA1120M+01651MA1999990096231MD1900021+9990MW1251REMSYN07601047 11586 63603 10128 20081 39623 49981 50002 69982 72582 85340 333 10165=
0203010470999992013071600004+69000+023033FM-12+030799999V0209999C999999999999N060000199+00941+00781099881ADDAY161021AY221021GA1041+999991061GA2991+999991051GE19MSL   +99999+99999GF108991999999999999999999MA1999990096261MD1210031+9990MW1211REMSYN06001047 41586 80000 10094 20078 39626 49988 52003 72162 8452/=
0244010470999992013071606004+69000+023033FM-12+030799999V0203601N003019999999N060000199+01151+00871099971ADDAA112000631AA224001431AY161021AY221021GA1081+999991071GE19MSL   +99999+99999GF108991999999999999999999KA1240N+00741MA1999990096371MD1310101+9990MW1021REMSYN08201047 11586 83603 10115 20087 39637 49997 53010 69962 70262 887// 333 20074 70014=
0203010470999992013071609004+69000+023033FM-12+030799999V0203601N010019999999N060000199+01341+00671100071ADDAY121021AY221021GA1051+999991091GA2991+999991031GE19MSL   +99999+99999GF107991999999999999999999MA1999990096501MD1210121+9990MW1021REMSYN06001047 41586 73610 10134 20067 39650 40007 52012 70222 85390=
0187010470999992013071612004+69000+023033FM-12+030799999V0203601N010019999999N040000199+01301+00681100271ADDAY181021AY221021GA1071+999991091GE19MSL   +99999+99999GF107991999999999999999999MA1999990096671MD1310191+9990MW1801REMSYN06001047 41582 73610 10130 20068 39667 40027 53019 78082 87300=
0187010470999992013071615004+69000+023033FM-12+030799999V0203601N007019999999N060000199+01281+00481100541ADDAY181021AY221021GA1071+999991081GE19MSL   +99999+99999GF107991999999999999999999MA1999990096931MD1110251+9990MW1021REMSYN06001047 41586 73607 10128 20048 39693 40054 51025 70282 87800=
0227010470999992013071618004+69000+023033FM-12+030799999V0203601N007019999999N060000199+01121+00331100781ADDAA112000131AY181021AY221021GA1061+999991061GE19MSL   +99999+99999GF106991999999999999999999KA1120M+01501MA1999990097151MD1210211+9990MW1021REMSYN07601047 11586 63607 10112 20033 39715 40078 52021 69912 70282 86500 333 10150=
0203010470999992013071700004+69000+023033FM-12+030799999V0203201N005019999999N060000199+00741+00381101051ADDAY121021AY221021GA1051+999991061GA2991+999991031GE19MSL   +99999+99999GF107991999999999999999999MA1999990097371MD1210091+9990MW1021REMSYN06001047 41586 73205 10074 20038 39737 40105 52009 70222 85570=
0210010470999992013071706004+69000+023033FM-12+030799999V0203201N005019999999N060000199+00891+00351101151ADDAY121021AY221021GA1071+999991091GE19MSL   +99999+99999GF107991999999999999999999KA1240N+00681MA1999990097471MD1210071+9990MW1021REMSYN07001047 41586 73205 10089 20035 39747 40115 52007 70222 87900 333 20068=
0187010470999992013071709004+69000+023033FM-12+030799999V0200501N005019999999N065000199+01121+00331101151ADDAY121021AY221021GA1061+999991061GE19MSL   +99999+99999GF106991999999999999999999MA1999990097511MD1210031+9990MW1021REMSYN06001047 41587 60505 10112 20033 39751 40115 52003 70222 86500=
0206010470999992013071712004+69000+023033FM-12+030799999V0200501N005019999999N065000199+01261+00301101141ADDAY121021AY221021GA1071+999991061GE19MSL   +99999+99999GF107991999999999999999999MA1999990097521MD1790019+9990MW1031REMSYN06001047 41587 70505 10126 20030 39752 40114 54001 70322 87500=EQDQ01.1    3APC3  
0187010470999992013071715004+69000+023033FM-12+030799999V0209999C999999999999N065000199+01261+00281101101ADDAY121021AY221021GA1071+999991061GE19MSL   +99999+99999GF107991999999999999999999MA1999990097471MD1810041+9990MW1021REMSYN06001047 41587 70000 10126 20028 39747 40110 58004 70222 87500=
0210010470999992013071718004+69000+023033FM-12+030799999V0201401N005019999999N065000199+01201+00331101081ADDAY121021AY221021GA1061+999991061GE19MSL   +99999+99999GF106991999999999999999999KA1120M+01351MA1999990097451MD1710041+9990MW1021REMSYN07001047 31587 61405 10120 20033 39745 40108 57004 70222 86500 333 10135=
0187010470999992013071800004+69000+023033FM-12+030799999V0201401N001019999999N060000199+00521+00391101061ADDAY121021AY221021GA1051+999991031GE19MSL   +99999+99999GF105991999999999999999999MA1999990097351MD1710061+9990MW1021REMSYN06001047 41886 51401 10052 20039 39735 40106 57006 70222 85030=
0210010470999992013071806004+69000+023033FM-12+030799999V0201401N005019999999N065000199+01321+00511100751ADDAY121021AY221021GA1061+999991031GE19MSL   +99999+99999GF106991999999999999999999KA1240N+00501MA1999990097151MD1710131+9990MW1021REMSYN07001047 41787 61405 10132 20051 39715 40075 57013 70222 86090 333 20050=
0203010470999992013071809004+69000+023033FM-12+030799999V0201801N007019999999N060000199+01461+00461100631ADDAY121021AY221021GA1051+999991091GA2991+999991031GE19MSL   +99999+99999GF106991999999999999999999MA1999990097051MD1710101+9990MW1021REMSYN06001047 41586 61807 10146 20046 39705 40063 57010 70222 85390=
0187010470999992013071812004+69000+023033FM-12+030799999V0201401N003019999999N030000199+01241+00791100631ADDAY181021AY221021GA1081+999991091GE19MSL   +99999+99999GF108991999999999999999999MA1999990097021MD1510031+9990MW1801REMSYN06001047 41580 81403 10124 20079 39702 40063 55003 78082 889//=
0203010470999992013071815004+69000+023033FM-12+030799999V0201801N005019999999N060000199+01151+00871100601ADDAY181021AY221021GA1041+999991061GA2991+999991051GE19MSL   +99999+99999GF108991999999999999999999MA1999990096971MD1810041+9990MW1021REMSYN06001047 41486 81805 10115 20087 39697 40060 58004 70282 8452/=
0243010470999992013071818004+69000+023033FM-12+030799999V0203601N001019999999N050000199+01061+00901100651ADDAA112003031AY181021AY221021GA1061+999991091GA2991+999991031GE19MSL   +99999+99999GF107991999999999999999999KA1120M+01641MA1999990097021MD1110041+9990MW1251REMSYN07601047 11484 73601 10106 20090 39702 40065 51004 60032 72582 86950 333 10164=
0203010470999992013071900004+69000+023033FM-12+030799999V0203401N003019999999N060000199+00841+00601100851ADDAY121021AY221021GA1051+999991061GA2991+999991051GE19MSL   +99999+99999GF108991999999999999999999MA1999990097181MD1110071+9990MW1021REMSYN06001047 41586 83403 10084 20060 39718 40085 51007 70222 8552/=
0244010470999992013071906004+69000+023033FM-12+030799999V0203401N005019999999N060000199+01061+00561100941ADDAA112000531AA224003331AY181021AY221021GA1081+999991071GE19MSL   +99999+99999GF108991999999999999999999KA1240N+00831MA1999990097301MD1210031+9990MW1021REMSYN08201047 11586 83405 10106 20056 39730 40094 52003 69952 70282 887// 333 20083 70033=
0187010470999992013071909004+69000+023033FM-12+030799999V0203401N005019999999N060000199+01101+00471101061ADDAY121021AY221021GA1081+999991071GE19MSL   +99999+99999GF108991999999999999999999MA1999990097421MD1210101+9990MW1021REMSYN06001047 41586 83405 10110 20047 39742 40106 52010 70222 887//=
0203010470999992013071912004+69000+023033FM-12+030799999V0203401N005019999999N065000199+01181+00551101101ADDAY121021AY221021GA1061+999991061GA2991+999991051GE19MSL   +99999+99999GF108991999999999999999999MA1999990097471MD1210061+9990MW1021REMSYN06001047 41587 83405 10118 20055 39747 40110 52006 70222 8652/=
0203010470999992013071915004+69000+023033FM-12+030799999V0203401N005019999999N065000199+01141+00351101151ADDAY121021AY221021GA1061+999991061GA2991+999991051GE19MSL   +99999+99999GF108991999999999999999999MA1999990097511MD1210031+9990MW1021REMSYN06001047 41587 83405 10114 20035 39751 40115 52003 70222 8652/=
0226010470999992013071918004+69000+023033FM-12+030799999V0203201N005019999999N065000199+00921+00301101221ADDAY121021AY221021GA1051+999991061GA2991+999991051GE19MSL   +99999+99999GF108991999999999999999999KA1120M+01241MA1999990097551MD1210051+9990MW1021REMSYN07001047 31587 83205 10092 20030 39755 40122 52005 70222 8552/ 333 10124=
0187010470999992013072000004+69000+023033FM-12+030799999V0209999C999999999999N060000199+00711+00511101241ADDAY121021AY221021GA1081+999991061GE19MSL   +99999+99999GF108991999999999999999999MA1999990097551MD1710031+9990MW1021REMSYN06001047 41586 80000 10071 20051 39755 40124 57003 70222 885//=
0210010470999992013072006004+69000+023033FM-12+030799999V0209999C999999999999N060000199+00851+00491101121ADDAY121021AY221021GA1081+999991061GE19MSL   +99999+99999GF108991999999999999999999KA1240N+00691MA1999990097451MD1710091+9990MW1021REMSYN07001047 41586 80000 10085 20049 39745 40112 57009 70222 885// 333 20069=
0203010470999992013072009004+69000+023033FM-12+030799999V0201801N005019999999N060000199+01121+00401100981ADDAY121021AY221021GA1041+999991061GA2991+999991031GE19MSL   +99999+99999GF107991999999999999999999MA1999990097351MD1710101+9990MW1021REMSYN06001047 41586 71805 10112 20040 39735 40098 57010 70222 84570=
0203010470999992013072012004+69000+023033FM-12+030799999V0202201N005019999999N065000199+01421+00421100781ADDAY121021AY221021GA1041+999991061GA2991+999991031GE19MSL   +99999+99999GF106991999999999999999999MA1999990097181MD1710151+9990MW1021REMSYN06001047 41587 62205 10142 20042 39718 40078 57015 70222 84530=
0187010470999992013072015004+69000+023033FM-12+030799999V0202201N005019999999N065000199+01421+00481100711ADDAY121021AY221021GA1081+999991061GE19MSL   +99999+99999GF108991999999999999999999MA1999990097121MD1710071+9990MW1021REMSYN06001047 41587 82205 10142 20048 39712 40071 57007 70222 885//=
0243010470999992013072018004+69000+023033FM-12+030799999V0202201N005019999999N040000199+01111+00501100741ADDAA112000131AY161021AY221021GA1041+999991061GA2991+999991051GE19MSL   +99999+99999GF108991999999999999999999KA1120M+01451MA1999990097111MD1710011+9990MW1611REMSYN07601047 11582 82205 10111 20050 39711 40074 57001 69912 76162 8452/ 333 10145=
0203010470999992013072100004+69000+023033FM-12+030799999V0202201N005019999999N060000199+00951+00791100771ADDAY161021AY221021GA1051+999991061GA2991+999991051GE19MSL   +99999+99999GF108991999999999999999999MA1999990097121MD1210021+9990MW1021REMSYN06001047 41486 82205 10095 20079 39712 40077 52002 70262 8552/=
0244010470999992013072106004+69000+023033FM-12+030799999V0203201N005019999999N060000199+01181+00811100881ADDAA112002031AA224002531AY161021AY221021GA1071+999991091GE19MSL   +99999+99999GF107991999999999999999999KA1240N+00811MA1999990097261MD1210081+9990MW1021REMSYN08201047 11486 73205 10118 20081 39726 40088 52008 60022 70262 87900 333 20081 70025=
0203010470999992013072109004+69000+023033FM-12+030799999V0203201N005019999999N060000199+01271+00631101081ADDAY181021AY221021GA1061+999991091GA2991+999991031GE19MSL   +99999+99999GF107991999999999999999999MA1999990097461MD1310191+9990MW1251REMSYN06001047 41486 73205 10127 20063 39746 40108 53019 72582 86940=
0203010470999992013072112004+69000+023033FM-12+030799999V0203401N010019999999N060000199+01351+00541101241ADDAY121021AY221021GA1041+999991091GA2991+999991031GE19MSL   +99999+99999GF106991999999999999999999MA1999990097621MD1210171+9990MW1021REMSYN06001047 41586 63410 10135 20054 39762 40124 52017 70222 84390=
0187010470999992013072115004+69000+023033FM-12+030799999V0203201N007019999999N060000199+01141+00371101471ADDAY121021AY221021GA1081+999991061GE19MSL   +99999+99999GF108991999999999999999999MA1999990097821MD1210191+9990MW1021REMSYN06001047 41586 83207 10114 20037 39782 40147 52019 70222 885//=
0243010470999992013072118004+69000+023033FM-12+030799999V0203201N007019999999N060000199+00981+00361101751ADDAA112000131AY121021AY221021GA1051+999991061GA2991+999991051GE19MSL   +99999+99999GF108991999999999999999999KA1120M+01401MA1999990098071MD1210251+9990MW1021REMSYN07601047 11586 83207 10098 20036 39807 40175 52025 69912 70222 8552/ 333 10140=
0203010470999992013072200004+69000+023033FM-12+030799999V0203201N005019999999N060000199+00651+00371102181ADDAY121021AY221021GA1031+999991061GA2991+999991031GE19MSL   +99999+99999GF106991999999999999999999MA1999990098431MD1310171+9990MW1011REMSYN06001047 41586 63205 10065 20037 39843 40218 53017 70122 83570=
0210010470999992013072206004+69000+023033FM-12+030799999V0203201N005019999999N060000199+01021+00301102391ADDAY121021AY221021GA1061+999991061GE19MSL   +99999+99999GF106991999999999999999999KA1240N+00451MA1999990098681MD1210141+9990MW1021REMSYN07001047 41586 63205 10102 20030 39868 40239 52014 70222 86400 333 20045=
0187010470999992013072209004+69000+023033FM-12+030799999V0203201N005019999999N060000199+01131+00341102471ADDAY121021AY221021GA1081+999991061GE19MSL   +99999+99999GF108991999999999999999999MA1999990098771MD1210091+9990MW1021REMSYN06001047 41586 83205 10113 20034 39877 40247 52009 70222 885//=
0187010470999992013072212004+69000+023033FM-12+030799999V0200501N005019999999N060000199+01191+00321102581ADDAY121021AY221021GA1081+999991061GE19MSL   +99999+99999GF108991999999999999999999MA1999990098901MD1210131+9990MW1021REMSYN06001047 41586 80505 10119 20032 39890 40258 52013 70222 885//=
0187010470999992013072215004+69000+023033FM-12+030799999V0203601N005019999999N065000199+01261+00331102601ADDAY121021AY221021GA1071+999991061GE19MSL   +99999+99999GF107991999999999999999999MA1999990098921MD1210031+9990MW1011REMSYN06001047 41587 73605 10126 20033 39892 40260 52003 70122 87500=
0210010470999992013072218004+69000+023033FM-12+030799999V0200501N005019999999N065000199+01181+00311102661ADDAY121021AY221021GA1041+999991061GE19MSL   +99999+99999GF104991999999999999999999KA1120M+01281MA1999990098971MD1210041+9990MW1011REMSYN07001047 31587 40505 10118 20031 39897 40266 52004 70122 84500 333 10128=
0143010470999992013072300004+69000+023033FM-12+030799999V0209999C99999000001CN000000199+00101+00031102911ADDAY141021AY221021GF109991999999999999999999MA1999990099071MD1900031+9990MW1471REMSYN05401047 41/00 90000 10010 20003 39907 40291 50003 74742=
0229010470999992013072306004+69000+023033FM-12+030799999V0200501N001019999999N060000199+01051+00401102671ADDAY141021AY211021GA1999+999991001GE19MSL   +99999+99999GF101991999999999999999999KA1240N+00101MA1999990098971MD1710091+9990MW1021REMSYN07001047 41986 10501 10105 20040 39897 40267 57009 70241 80001 333 20010=EQDQ01    003SCCGA1
0206010470999992013072309004+69000+023033FM-12+030799999V0203601N001019999999N060000199+01511+00531102531ADDAY101021AY201021GA1999+999991001GE19MSL   +99999+99999GF101991999999999999999999MA1999990098881MD1810081+9990MW1021REMSYN06001047 41986 13601 10151 20053 39888 40253 58008 70200 80001=EQDQ01    003SCCGA1
0187010470999992013072312004+69000+023033FM-12+030799999V0201401N003019999999N060000199+01761+00591102461ADDAY101021AY201021GA1011+999991081GE19MSL   +99999+99999GF101991999999999999999999MA1999990098851MD1710041+9990MW1021REMSYN06001047 41686 11403 10176 20059 39885 40246 57004 70200 81100=
0117010470999992013072315004+69000+023033FM-12+030799999V0201801N003019999999N060000199+02051+00681102331ADDAY101021AY201021MA1999990098761MD1610091+9990MW1021REMSYN05401047 41986 01803 10205 20068 39876 40233 56009 70200=
0140010470999992013072318004+69000+023033FM-12+030799999V0200901N003019999999N060000199+01951+00821102291ADDAY101021AY201021KA1120M+02121MA1999990098711MD1710061+9990MW1021REMSYN06401047 31986 00903 10195 20082 39871 40229 57006 70200 333 10212=
0117010470999992013072400004+69000+023033FM-12+030799999V0209999C999999999999N050000199+00661+00511102631ADDAY101021AY201021MA1999990098871MD1110111+9990MW1111REMSYN05401047 41984 00000 10066 20051 39887 40263 51011 71100=
0140010470999992013072406004+69000+023033FM-12+030799999V0209999C999999999999N050000199+01441+00701102381ADDAY101021AY201021KA1240N+00541MA1999990098731MD1710091+9990MW1021REMSYN06401047 41984 00000 10144 20070 39873 40238 57009 70200 333 20054=
0117010470999992013072409004+69000+023033FM-12+030799999V0201801N003019999999N060000199+02011+00811102221ADDAY101021AY201021MA1999990098651MD1710081+9990MW1021REMSYN05401047 41986 01803 10201 20081 39865 40222 57008 70200=
0117010470999992013072412004+69000+023033FM-12+030799999V0201801N003019999999N060000199+02231+00911102061ADDAY101021AY201021MA1999990098521MD1710141+9990MW1021REMSYN05401047 41986 01803 10223 20091 39852 40206 57014 70200=
0117010470999992013072415004+69000+023033FM-12+030799999V0201801N003019999999N060000199+02331+00971101951ADDAY101021AY201021MA1999990098421MD1710091+9990MW1021REMSYN05401047 41986 01803 10233 20097 39842 40195 57009 70200=
0226010470999992013072418004+69000+023033FM-12+030799999V0201801N003019999999N060000199+02241+00921101861ADDAY101021AY201021GA1011+999991081GA2991+999991001GE19MSL   +99999+99999GF103991999999999999999999KA1120M+02351MA1999990098321MD1710101+9990MW1031REMSYN07001047 31686 31803 10224 20092 39832 40186 57010 70300 81104 333 10235=
0187010470999992013072500004+69000+023033FM-12+030799999V0201801N001019999999N000800199+00761+00621102101ADDAY141021AY201021GA1041+999991031GE19MSL   +99999+99999GF104991999999999999999999MA1999990098371MD1210011+9990MW1461REMSYN06001047 41808 41801 10076 20062 39837 40210 52001 74640 84070=
0226010470999992013072506004+69000+023033FM-12+030799999V0209999C999999999999N060000199+01361+00931101841ADDAY141021AY211021GA1041+999991031GA2991+999991001GE19MSL   +99999+99999GF105991999999999999999999KA1240N+00621MA1999990098211MD1710131+9990MW1021REMSYN07001047 41786 50000 10136 20093 39821 40184 57013 70241 84074 333 20062=
0219010470999992013072509004+69000+023033FM-12+030799999V0202201N005019999999N060000199+02261+00941101541ADDAY111021AY211021GA1021+999991081GA2991+999991031GA3991+999991021GE19MSL   +99999+99999GF105991999999999999999999MA1999990098021MD1710161+9990MW1031REMSYN06001047 41686 52205 10226 20094 39802 40154 57016 70311 82298=
0219010470999992013072512004+69000+023033FM-12+030799999V0202701N005019999999N040000199+02281+01061101461ADDAY191021AY281021GA1031+999991091GA2991+999991031GA3991+999991021GE19MSL   +99999+99999GF106991999999999999999999MA1999990097951MD1510071+9990MW1951REMSYN06001047 41582 62705 10228 20106 39795 40146 55007 79598 83398=
0203010470999992013072515004+69000+023033FM-12+030799999V0201801N007019999999N060000199+02161+01131101401ADDAY191021AY281021GA1031+999991091GA2991+999991031GE19MSL   +99999+99999GF105991999999999999999999MA1999990097871MD1510071+9990MW1021REMSYN06001047 41586 51807 10216 20113 39787 40140 55007 70298 83390=
0243010470999992013072518004+69000+023033FM-12+030799999V0201801N005019999999N060000199+02041+01111101451ADDAA112001031AY191021AY281021GA1041+999991091GA2991+999991031GE19MSL   +99999+99999GF105991999999999999999999KA1120M+02401MA1999990097911MD1310031+9990MW1011REMSYN07601047 11586 51805 10204 20111 39791 40145 53003 60012 70198 84340 333 10240=
0187010470999992013072600004+69000+023033FM-12+030799999V0209999C999999999999N060000199+01081+00911101661ADDAY191021AY281021GA1031+999991031GE19MSL   +99999+99999GF103991999999999999999999MA1999990098001MD1110091+9990MW1021REMSYN06001047 41886 30000 10108 20091 39800 40166 51009 70298 83090=
0244010470999992013072606004+69000+023033FM-12+030799999V0200501N005019999999N040000199+01081+00941101691ADDAA112002031AA224003431AY191021AY281021GA1081+999991051GE19MSL   +99999+99999GF108991999999999999999999KA1240N+00961MA1999990098021MD1710021+9990MW1021REMSYN08201047 11782 80505 10108 20094 39802 40169 57002 60022 70298 8802/ 333 20096 70034=
0187010470999992013072612004+69000+023033FM-12+030799999V0200501N005019999999N060000199+01621+00891101551ADDAY111021AY211021GA1041+999991081GE19MSL   +99999+99999GF104991999999999999999999MA1999990097961MD1710061+9990MW1021REMSYN06001047 41686 40505 10162 20089 39796 40155 57006 70211 84100=
0203010470999992013072615004+69000+023033FM-12+030799999V0200501N005019999999N060000199+01781+00971101441ADDAY101021AY201021GA1021+999991081GA2991+999991001GE19MSL   +99999+99999GF103991999999999999999999MA1999990097871MD1810091+9990MW1021REMSYN06001047 41686 30505 10178 20097 39787 40144 58009 70200 82101=
0210010470999992013072618004+69000+023033FM-12+030799999V0200501N005019999999N060000199+01721+00961101391ADDAY101021AY201021GA1021+999991091GE19MSL   +99999+99999GF102991999999999999999999KA1120M+01821MA1999990097821MD1610051+9990MW1021REMSYN07001047 31686 20505 10172 20096 39782 40139 56005 70200 82300 333 10182=
0203010470999992013072700004+69000+023033FM-12+030799999V0209999C999999999999N010000199+00941+00801101451ADDAY101021AY201021GA1031+999991031GA2991+999991001GE19MSL   +99999+99999GF103991999999999999999999MA1999990097771MD1810061+9990MW1101REMSYN06001047 41860 30000 10094 20080 39777 40145 58006 71000 83082=
0210010470999992013072706004+69000+023033FM-12+030799999V0203201N001019999999N050000199+01321+01021101311ADDAY111021AY201021GA1061+999991031GE19MSL   +99999+99999GF106991999999999999999999KA1240N+00731MA1999990097681MD1710071+9990MW1021REMSYN07001047 41884 63201 10132 20102 39768 40131 57007 70210 86080 333 20073=
0187010470999992013072709004+69000+023033FM-12+030799999V0201401N005019999999N060000199+01941+01091101131ADDAY111021AY211021GA1031+999991081GE19MSL   +99999+99999GF103991999999999999999999MA1999990097581MD1810101+9990MW1021REMSYN06001047 41686 31405 10194 20109 39758 40113 58010 70211 83200=
0187010470999992013072715004+69000+023033FM-12+030799999V0201801N007019999999N060000199+02441+01201100861ADDAY111021AY211021GA1051+999991081GE19MSL   +99999+99999GF105991999999999999999999MA1999990097381MD1710101+9990MW1021REMSYN06001047 41686 51807 10244 20120 39738 40086 57010 70211 85200=
0226010470999992013072718004+69000+023033FM-12+030799999V0201801N003019999999N060000199+02351+01021100871ADDAY111021AY211021GA1041+999991091GA2991+999991031GE19MSL   +99999+99999GF104991999999999999999999KA1120M+02471MA1999990097381MD1410001+9990MW1021REMSYN07001047 41586 41803 10235 20102 39738 40087 54000 70211 84340 333 10247=
0187010470999992013072800004+69000+023033FM-12+030799999V0209999C999999999999N025000199+01101+00941101221ADDAY121021AY211021GA1051+999991081GE19MSL   +99999+99999GF105991999999999999999999MA1999990097571MD1210081+9990MW1021REMSYN06001047 41675 50000 10110 20094 39757 40122 52008 70221 85800=
0210010470999992013072806004+69000+023033FM-12+030799999V0201401N005019999999N050000199+01791+01121101181ADDAY111021AY211021GA1021+999991031GE19MSL   +99999+99999GF102991999999999999999999KA1240N+01071MA1999990097621MD1110061+9990MW1021REMSYN07001047 41884 21405 10179 20112 39762 40118 51006 70211 82080 333 20107=
0203010470999992013072809004+69000+023033FM-12+030799999V0201801N005019999999N060000199+02191+01191101141ADDAY101021AY201021GA1011+999991081GA2991+999991031GE19MSL   +99999+99999GF102991999999999999999999MA1999990097621MD1210011+9990MW1021REMSYN06001047 41686 21805 10219 20119 39762 40114 52001 70200 81240=
0187010470999992013072812004+69000+023033FM-12+030799999V0201801N007019999999N060000199+02461+01291101081ADDAY111021AY201021GA1051+999991081GE19MSL   +99999+99999GF105991999999999999999999MA1999990097601MD1710031+9990MW1021REMSYN06001047 41586 51807 10246 20129 39760 40108 57003 70210 85200=
0203010470999992013072815004+69000+023033FM-12+030799999V0201801N007019999999N060000199+02501+01231101031ADDAY121021AY221021GA1041+999991081GA2991+999991021GE19MSL   +99999+99999GF106991999999999999999999MA1999990097561MD1710041+9990MW1021REMSYN06001047 41686 61807 10250 20123 39756 40103 57004 70222 84208=
0227010470999992013072818004+69000+023033FM-12+030799999V0201801N003019999999N007000199+01521+01251101471ADDAA112003031AY191021AY281021GA1081+999991091GE19MSL   +99999+99999GF108991999999999999999999KA1120M+02601MA1999990097871MD1310311+9990MW1951REMSYN07601047 11457 81803 10152 20125 39787 40147 53031 60032 79598 889// 333 10260=
0187010470999992013072900004+69000+023033FM-12+030799999V0201801N005019999999N040000199+01461+01161101411ADDAY191021AY281021GA1081+999991091GE19MSL   +99999+99999GF108991999999999999999999MA1999990097801MD1510001+9990MW1021REMSYN06001047 41482 81805 10146 20116 39780 40141 55000 70298 889//=
0244010470999992013072906004+69000+023033FM-12+030799999V0201801N003019999999N050000199+01601+01441101281ADDAA112006031AA224008531AY191021AY281021GA1071+999991071GE19MSL   +99999+99999GF107991999999999999999999KA1240N+01361MA1999990097701MD1710071+9990MW1021REMSYN08201047 11584 71803 10160 20144 39770 40128 57007 60062 70298 87700 333 20136 70085=
0203010470999992013072909004+69000+023033FM-12+030799999V0201601N007019999999N040000199+01811+01341101221ADDAY121021AY221021GA1061+999991061GA2991+999991031GE19MSL   +99999+99999GF107991999999999999999999MA1999990097661MD1710041+9990MW1051REMSYN06001047 41582 71607 10181 20134 39766 40122 57004 70522 86550=
0203010470999992013072912004+69000+023033FM-12+030799999V0201601N007019999999N050000199+01951+01451101151ADDAY121021AY221021GA1051+999991091GA2991+999991031GE19MSL   +99999+99999GF107991999999999999999999MA1999990097611MD1710041+9990MW1051REMSYN06001047 41584 71607 10195 20145 39761 40115 57004 70522 85350=
0203010470999992013072915004+69000+023033FM-12+030799999V0201801N007019999999N050000199+02401+01071100951ADDAY181021AY221021GA1031+999991091GA2991+999991031GE19MSL   +99999+99999GF105991999999999999999999MA1999990097471MD1610151+9990MW1051REMSYN06001047 41584 51807 10240 20107 39747 40095 56015 70582 83390=
0262010470999992013072918004+69000+023033FM-12+030799999V0201801N010019999999N055000199+02081+01121101031ADDAA112000091AY181021AY221021GA1011+999991081GA2991+999991021GE19MSL   +99999+99999GF105991999999999999999999KA1120M+02401MA1999990097511MD1210041+9990MW1021REMSYN07601047 11685 51810 10208 20112 39751 40103 52004 69902 70282 81108 333 10240=EQDQ01  00002PRCP12
0203010470999992013073000004+69000+023033FM-12+030799999V0202201N003019999999N005000199+01471+01311101111ADDAY161021AY251021GA1061+999991071GA2991+999991051GE19MSL   +99999+99999GF108991999999999999999999MA1999990097521MD1610081+9990MW1511REMSYN06001047 41450 82203 10147 20131 39752 40111 56008 75165 8672/=
0244010470999992013073006004+69000+023033FM-12+030799999V0201401N005019999999N050000199+01781+01561101141ADDAA112002032AA224001532AY161021AY251021GA1071+999991071GE19MSL   +99999+99999GF107991999999999999999999KA1240N+01461MA1999990097571MD1310081+9990MW1021REMSYN08201047 11484 71405 10178 20156 39757 40114 53008 60022 70265 87700 333 20146 70015=
0203010470999992013073009004+69000+023033FM-12+030799999V0209999C999999999999N055000199+01981+01161101171ADDAY121021AY221021GA1051+999991091GA2991+999991031GE19MSL   +99999+99999GF106991999999999999999999MA1999990097621MD1900041+9990MW1011REMSYN06001047 41485 60000 10198 20116 39762 40117 50004 70122 85340=
0203010470999992013073012004+69000+023033FM-12+030799999V0202201N003019999999N055000199+02081+00911101131ADDAY121021AY221021GA1041+999991081GA2991+999991031GE19MSL   +99999+99999GF105991999999999999999999MA1999990097611MD1810031+9990MW1021REMSYN06001047 41585 52203 10208 20091 39761 40113 58003 70222 84240=
0203010470999992013073015004+69000+023033FM-12+030799999V0201401N005019999999N055000199+02221+01191101031ADDAY121021AY221021GA1031+999991081GA2991+999991021GE19MSL   +99999+99999GF105991999999999999999999MA1999990097521MD1810081+9990MW1011REMSYN06001047 41585 51405 10222 20119 39752 40103 58008 70122 83208=
0226010470999992013073018004+69000+023033FM-12+030799999V0201401N005019999999N055000199+02021+01191101051ADDAY121021AY221021GA1041+999991091GA2991+999991021GE19MSL   +99999+99999GF106991999999999999999999KA1120M+02261MA1999990097521MD1510021+9990MW1031REMSYN07001047 31585 61405 10202 20119 39752 40105 55002 70322 84308 333 10226=
0203010470999992013073100004+69000+023033FM-12+030799999V0209999C999999999999N030000199+01581+01421101091ADDAY151021AY221021GA1061+999991071GA2991+999991051GE19MSL   +99999+99999GF108991999999999999999999MA1999990097511MD1810031+9990MW1511REMSYN06001047 41480 80000 10158 20142 39751 40109 58003 75152 8672/=
0244010470999992013073106004+69000+023033FM-12+030799999V0201401N003019999999N060000199+01531+01261100891ADDAA112000131AA224000131AY151021AY221021GA1081+999991031GE19MSL   +99999+99999GF108991999999999999999999KA1240N+01531MA1999990097311MD1810081+9990MW1021REMSYN08201047 11886 81403 10153 20126 39731 40089 58008 69912 70252 8807/ 333 20153 70001=
0187010470999992013073109004+69000+023033FM-12+030799999V0201401N005019999999N060000199+01881+01041100641ADDAY121021AY221021GA1071+999991031GE19MSL   +99999+99999GF107991999999999999999999MA1999990097111MD1710201+9990MW1021REMSYN06001047 41786 71405 10188 20104 39711 40064 57020 70222 87070=
0187010470999992013073112004+69000+023033FM-12+030799999V0201401N010019999999N060000199+02191+01041100391ADDAY121021AY221021GA1081+999991031GE19MSL   +99999+99999GF108991999999999999999999MA1999990096911MD1810191+9990MW1021REMSYN06001047 41786 81410 10219 20104 39691 40039 58019 70222 8807/=
0187010470999992013073115004+69000+023033FM-12+030799999V0201601N010019999999N065000199+02011+01001100361ADDAY121021AY221021GA1081+999991031GE19MSL   +99999+99999GF108991999999999999999999MA1999990096861MD1710061+9990MW1021REMSYN06001047 41787 81610 10201 20100 39686 40036 57006 70222 8807/=
0243010470999992013073118004+69000+023033FM-12+030799999V0201401N010019999999N003000199+01551+01391100481ADDAA112000131AY151021AY221021GA1061+999991071GA2991+999991051GE19MSL   +99999+99999GF108991999999999999999999KA1120M+02201MA1999990096921MD1310061+9990MW1511REMSYN07601047 11430 81410 10155 20139 39692 40048 53006 69912 75152 8672/ 333 10220=
0260010470999992013080106004+69000+023033FM-12+030799999V0201401N005019999999N060000199+01501+01231100821ADDAA112000131AA224000231AY151021AY221021GA1071+999991061GA2991+999991051GE19MSL   +99999+99999GF108991999999999999999999KA1240N+01391MA1999990097231MD1310121+9990MW1021REMSYN08201047 11586 81405 10150 20123 39723 40082 53012 69912 70252 8752/ 333 20139 70002=
0187010470999992013080109004+69000+023033FM-12+030799999V0201401N005019999999N040000199+01511+01221100941ADDAY121021AY221021GA1081+999991061GE19MSL   +99999+99999GF108991999999999999999999MA1999990097361MD1310101+9990MW1021REMSYN06001047 41482 81405 10151 20122 39736 40094 53010 70222 885//=
0187010470999992013080112004+69000+023033FM-12+030799999V0201401N005019999999N050000199+01601+01221101021ADDAY121021AY221021GA1081+999991061GE19MSL   +99999+99999GF108991999999999999999999MA1999990097431MD1110071+9990MW1021REMSYN06001047 41484 81405 10160 20122 39743 40102 51007 70222 885//=
0187010470999992013080115004+69000+023033FM-12+030799999V0201401N005019999999N055000199+01731+01181101021ADDAY121021AY221021GA1081+999991051GE19MSL   +99999+99999GF108991999999999999999999MA1999990097461MD1210031+9990MW1021REMSYN06001047 41585 81405 10173 20118 39746 40102 52003 70222 8802/=
0210010470999992013080118004+69000+023033FM-12+030799999V0201401N005019999999N055000199+01681+01211101091ADDAY121021AY221021GA1081+999991051GE19MSL   +99999+99999GF108991999999999999999999KA1120M+01741MA1999990097521MD1210061+9990MW1021REMSYN07001047 31585 81405 10168 20121 39752 40109 52006 70222 8802/ 333 10174=
0187010470999992013080200004+69000+023033FM-12+030799999V0200501N003019999999N055000199+01381+01241101341ADDAY161021AY221021GA1081+999991051GE19MSL   +99999+99999GF108991999999999999999999MA1999990097721MD1210121+9990MW1021REMSYN06001047 41585 80503 10138 20124 39772 40134 52012 70262 8802/=
0260010470999992013080206004+69000+023033FM-12+030799999V0200501N003019999999N050000199+01261+01121101531ADDAA112000931AA224000931AY161021AY221021GA1041+999991061GA2991+999991051GE19MSL   +99999+99999GF108991999999999999999999KA1240N+01261MA1999990097881MD1110071+9990MW1021REMSYN08201047 11584 80503 10126 20112 39788 40153 51007 69992 70262 8452/ 333 20126 70009=
0187010470999992013080209004+69000+023033FM-12+030799999V0203601N005019999999N050000199+01401+01121101591ADDAY121021AY221021GA1081+999991061GE19MSL   +99999+99999GF108991999999999999999999MA1999990097971MD1210081+9990MW1021REMSYN06001047 41584 83605 10140 20112 39797 40159 52008 70222 885//=
0187010470999992013080212004+69000+023033FM-12+030799999V0200501N005019999999N060000199+01421+01081101651ADDAY121021AY221021GA1081+999991061GE19MSL   +99999+99999GF108991999999999999999999MA1999990098021MD1210071+9990MW1021REMSYN06001047 41486 80505 10142 20108 39802 40165 52007 70222 885//=
0187010470999992013080215004+69000+023033FM-12+030799999V0200501N005019999999N060000199+01481+01041101621ADDAY121021AY221021GA1081+999991061GE19MSL   +99999+99999GF108991999999999999999999MA1999990098011MD1810011+9990MW1021REMSYN06001047 41486 80505 10148 20104 39801 40162 58001 70222 885//=
0210010470999992013080218004+69000+023033FM-12+030799999V0200501N005019999999N055000199+01421+01041101661ADDAY121021AY221021GA1081+999991061GE19MSL   +99999+99999GF108991999999999999999999KA1120M+01521MA1999990098031MD1310021+9990MW1021REMSYN07001047 31485 80505 10142 20104 39803 40166 53002 70222 885// 333 10152=
0187010470999992013080300004+69000+023033FM-12+030799999V0200501N003019999999N060000199+01261+01101101721ADDAY161021AY221021GA1081+999991051GE19MSL   +99999+99999GF108991999999999999999999MA1999990098071MD1210021+9990MW1211REMSYN06001047 41586 80503 10126 20110 39807 40172 52002 72162 8802/=
0244010470999992013080306004+69000+023033FM-12+030799999V0200501N003019999999N060000199+01361+01221101621ADDAA112000431AA224000431AY161021AY221021GA1081+999991051GE19MSL   +99999+99999GF108991999999999999999999KA1240N+01251MA1999990097981MD1710041+9990MW1021REMSYN08201047 11586 80503 10136 20122 39798 40162 57004 69942 70262 8802/ 333 20125 70004=
0187010470999992013080309004+69000+023033FM-12+030799999V0209999C999999999999N050000199+01531+01261101581ADDAY121021AY221021GA1081+999991081GE19MSL   +99999+99999GF108991999999999999999999MA1999990097971MD1810011+9990MW1021REMSYN06001047 41584 80000 10153 20126 39797 40158 58001 70222 888//=
0187010470999992013080312004+69000+023033FM-12+030799999V0201801N005019999999N060000199+01821+01201101461ADDAY121021AY221021GA1061+999991061GE19MSL   +99999+99999GF106991999999999999999999MA1999990097901MD1710081+9990MW1021REMSYN06001047 41586 61805 10182 20120 39790 40146 57008 70222 86500=
0203010470999992013080315004+69000+023033FM-12+030799999V0201601N005019999999N060000199+01911+01241101381ADDAY121021AY221021GA1041+999991061GA2991+999991021GE19MSL   +99999+99999GF106991999999999999999999MA1999990097821MD1810061+9990MW1021REMSYN06001047 41586 61605 10191 20124 39782 40138 58006 70222 84508=
0210010470999992013080318004+69000+023033FM-12+030799999V0201801N003019999999N060000199+01841+01261101291ADDAY121021AY221021GA1061+999991031GE19MSL   +99999+99999GF106991999999999999999999KA1120M+02001MA1999990097721MD1810101+9990MW1021REMSYN07001047 31886 61803 10184 20126 39772 40129 58010 70222 86070 333 10200=
0187010470999992013080400004+69000+023033FM-12+030799999V0201801N003019999999N060000199+01401+01241101251ADDAY121021AY221021GA1081+999991031GE19MSL   +99999+99999GF108991999999999999999999MA1999990097631MD1710061+9990MW1021REMSYN06001047 41886 81803 10140 20124 39763 40125 57006 70222 8807/=
0226010470999992013080406004+69000+023033FM-12+030799999V0201801N005019999999N050000199+01731+01481101101ADDAY121021AY221021GA1041+999991061GA2991+999991051GE19MSL   +99999+99999GF108991999999999999999999KA1240N+01391MA1999990097531MD1210021+9990MW1021REMSYN07001047 41684 81805 10173 20148 39753 40110 52002 70222 8452/ 333 20139=
0187010470999992013080409004+69000+023033FM-12+030799999V0201601N005019999999N060000199+01821+01311101131ADDAY121021AY221021GA1081+999991031GE19MSL   +99999+99999GF108991999999999999999999MA1999990097571MD1210041+9990MW1021REMSYN06001047 41886 81605 10182 20131 39757 40113 52004 70222 8807/=
0187010470999992013080412004+69000+023033FM-12+030799999V0201601N007019999999N060000199+02021+01321101111ADDAY121021AY221021GA1081+999991031GE19MSL   +99999+99999GF108991999999999999999999MA1999990097571MD1900001+9990MW1021REMSYN06001047 41886 81607 10202 20132 39757 40111 50000 70222 8807/=
0203010470999992013080415004+69000+023033FM-12+030799999V0201801N007019999999N060000199+02221+01361101121ADDAY121021AY221021GA1021+999991081GA2991+999991031GE19MSL   +99999+99999GF106991999999999999999999MA1999990097611MD1210021+9990MW1021REMSYN06001047 41686 61807 10222 20136 39761 40112 52002 70222 82290=
0226010470999992013080418004+69000+023033FM-12+030799999V0203201N007019999999N060000199+01851+01181101341ADDAY121021AY221021GA1041+999991061GA2991+999991031GE19MSL   +99999+99999GF106991999999999999999999KA1120M+02301MA1999990097771MD1310171+9990MW1011REMSYN07001047 31686 63207 10185 20118 39777 40134 53017 70122 84490 333 10230=
0203010470999992013080500004+69000+023033FM-12+030799999V0203401N005019999999N030000199+01041+00951101611ADDAY121021AY221021GA1031+999991061GA2991+999991031GE19MSL   +99999+99999GF105991999999999999999999MA1999990097931MD1900031+9990MW1021REMSYN06001047 41680 53405 10104 20095 39793 40161 50003 70222 83470=
0210010470999992013080506004+69000+023033FM-12+030799999V0203601N005019999999N040000199+01281+01121101381ADDAY121021AY221021GA1081+999991051GE19MSL   +99999+99999GF108991999999999999999999KA1240N+01001MA1999990097751MD1710091+9990MW1021REMSYN07001047 41682 83605 10128 20112 39775 40138 57009 70222 8802/ 333 20100=
0187010470999992013080509004+69000+023033FM-12+030799999V0203601N005019999999N060000199+01681+01211101171ADDAY121021AY221021GA1071+999991061GE19MSL   +99999+99999GF107991999999999999999999MA1999990097601MD1610131+9990MW1021REMSYN06001047 41586 73605 10168 20121 39760 40117 56013 70222 87500=
0187010470999992013080512004+69000+023033FM-12+030799999V0201801N007019999999N060000199+01781+01111101151ADDAY191021AY281021GA1071+999991081GE19MSL   +99999+99999GF107991999999999999999999MA1999990097581MD1510011+9990MW1021REMSYN06001047 41586 71807 10178 20111 39758 40115 55001 70298 87800=
0187010470999992013080515004+69000+023033FM-12+030799999V0201801N005019999999N060000199+01871+01181101121ADDAY121021AY221021GA1051+999991091GE19MSL   +99999+99999GF105991999999999999999999MA1999990097571MD1810021+9990MW1011REMSYN06001047 41586 51805 10187 20118 39757 40112 58002 70122 85300=
0243010470999992013080518004+69000+023033FM-12+030799999V0201801N003019999999N040000199+01571+01111101271ADDAA112000131AY181021AY221021GA1051+999991091GA2991+999991031GE19MSL   +99999+99999GF106991999999999999999999KA1120M+01961MA1999990097671MD1900111+9990MW1801REMSYN07601047 11582 61803 10157 20111 39767 40127 50011 69912 78082 85350 333 10196=
0187010470999992013080600004+69000+023033FM-12+030799999V0209999C999999999999N000200199+00871+00731101611ADDAY141021AY201021GA1021+999991031GE19MSL   +99999+99999GF102991999999999999999999MA1999990097921MD1210091+9990MW1461REMSYN06001047 41802 20000 10087 20073 39792 40161 52009 74640 82040=
0210010470999992013080606004+69000+023033FM-12+030799999V0209999C999999999999N060000199+01421+00901101551ADDAY141021AY201021GA1011+999991031GE19MSL   +99999+99999GF101991999999999999999999KA1240N+00671MA1999990097921MD1710031+9990MW1021REMSYN07001047 41886 10000 10142 20090 39792 40155 57003 70240 81040 333 20067=
0195010470999992013080609004+69000+023033FM-12+030799999V0201801N005019999999N065000199+01821+00981101421ADDAY101021GA1041+999991081GA2991+999991021GE19MSL   +99999+99999GF105991999999999999999999MA1999990097861MD1710071+9990MW1031REMSYN06001047 41687 51805 10182 20098 39786 40142 57007 703/0 84208=
0203010470999992013080612004+69000+023033FM-12+030799999V0201801N005019999999N065000199+02051+00911101251ADDAY121021AY221021GA1051+999991081GA2991+999991021GE19MSL   +99999+99999GF106991999999999999999999MA1999990097721MD1710141+9990MW1021REMSYN06001047 41687 61805 10205 20091 39772 40125 57014 70222 85208=
0219010470999992013080615004+69000+023033FM-12+030799999V0201801N007019999999N065000199+02121+00881101151ADDAY121021AY221021GA1041+999991091GA2991+999991031GA3991+999991021GE19MSL   +99999+99999GF106991999999999999999999MA1999990097621MD1710091+9990MW1021REMSYN06001047 41587 61807 10212 20088 39762 40115 57009 70222 84398=
0210010470999992013080618004+69000+023033FM-12+030799999V0201801N001019999999N065000199+01801+01041101131ADDAY121021AY221021GA1081+999991061GE19MSL   +99999+99999GF108991999999999999999999KA1120M+02241MA1999990097571MD1810061+9990MW1021REMSYN07001047 31587 81801 10180 20104 39757 40113 58006 70222 885// 333 10224=
0203010470999992013080700004+69000+023033FM-12+030799999V0201801N003019999999N040000199+01501+01101101091ADDAY161021AY221021GA1051+999991061GA2991+999991051GE19MSL   +99999+99999GF108991999999999999999999MA1999990097501MD1710041+9990MW1611REMSYN06001047 41582 81803 10150 20110 39750 40109 57004 76162 8552/=
0260010470999992013080706004+69000+023033FM-12+030799999V0201801N007019999999N060000199+01641+01201101011ADDAA112000131AA224000131AY161021AY221021GA1021+999991061GA2991+999991031GE19MSL   +99999+99999GF108991999999999999999999KA1240N+01431MA1999990097431MD1510011+9990MW1021REMSYN08201047 11686 81807 10164 20120 39743 40101 55001 69912 70262 8257/ 333 20143 70001=
0203010470999992013080709004+69000+023033FM-12+030799999V0201801N010019999999N060000199+01921+01251100931ADDAY121021AY221021GA1031+999991081GA2991+999991031GE19MSL   +99999+99999GF106991999999999999999999MA1999990097401MD1510041+9990MW1021REMSYN06001047 41686 61810 10192 20125 39740 40093 55004 70222 83290=
0187010470999992013080712004+69000+023033FM-12+030799999V0201801N007019999999N060000199+02011+01161100881ADDAY121021AY221021GA1071+999991091GE19MSL   +99999+99999GF107991999999999999999999MA1999990097361MD1510041+9990MW1031REMSYN06001047 41586 71807 10201 20116 39736 40088 55004 70322 87300=
0187010470999992013080715004+69000+023033FM-12+030799999V0201801N007019999999N010000199+01621+01351100961ADDAY181021AY221021GA1081+999991091GE19MSL   +99999+99999GF108991999999999999999999MA1999990097381MD1210031+9990MW1811REMSYN06001047 41460 81807 10162 20135 39738 40096 52003 78182 889//=
0227010470999992013080718004+69000+023033FM-12+030799999V0201801N005019999999N050000199+01531+01371100971ADDAA112001031AY181021AY221021GA1081+999991091GE19MSL   +99999+99999GF108991999999999999999999KA1120M+02181MA1999990097381MD1900001+9990MW1021REMSYN07601047 11584 81805 10153 20137 39738 40097 50000 60012 70282 889// 333 10218=
0203010470999992013080800004+69000+023033FM-12+030799999V0209999C999999999999N008000199+01101+00941101301ADDAY181021AY261021GA1041+999991071GA2991+999991051GE19MSL   +99999+99999GF108991999999999999999999MA1999990097651MD1110131+9990MW1511REMSYN06001047 41458 80000 10110 20094 39765 40130 51013 75186 8472/=
0260010470999992013080806004+69000+023033FM-12+030799999V0203601N005019999999N060000199+01201+00731101371ADDAA112000931AA224001931AY181021AY261021GA1041+999991061GA2991+999991051GE19MSL   +99999+99999GF108991999999999999999999KA1240N+01011MA1999990097721MD1310021+9990MW1021REMSYN08201047 11586 83605 10120 20073 39772 40137 53002 69992 70286 8452/ 333 20101 70019=
0187010470999992013080809004+69000+023033FM-12+030799999V0203601N003019999999N060000199+01411+00601101351ADDAY121021AY221021GA1061+999991091GE19MSL   +99999+99999GF106991999999999999999999MA1999990097731MD1210021+9990MW1021REMSYN06001047 41486 63603 10141 20060 39773 40135 52002 70222 86300=
0187010470999992013080812004+69000+023033FM-12+030799999V0203201N003019999999N060000199+01541+00591101301ADDAY121021AY221021GA1061+999991091GE19MSL   +99999+99999GF106991999999999999999999MA1999990097711MD1710031+9990MW1021REMSYN06001047 41486 63203 10154 20059 39771 40130 57003 70222 86300=
0187010470999992013080815004+69000+023033FM-12+030799999V0203201N003019999999N060000199+01771+00661101231ADDAY121021AY221021GA1041+999991091GE19MSL   +99999+99999GF104991999999999999999999MA1999990097671MD1710041+9990MW1011REMSYN06001047 41586 43203 10177 20066 39767 40123 57004 70122 84300=
0226010470999992013080818004+69000+023033FM-12+030799999V0203201N005019999999N060000199+01261+00621101381ADDAY121021AY221021GA1041+999991091GA2991+999991001GE19MSL   +99999+99999GF106991999999999999999999KA1120M+01801MA1999990097751MD1310081+9990MW1031REMSYN07001047 31586 63205 10126 20062 39775 40138 53008 70322 84303 333 10180=
0187010470999992013080900004+69000+023033FM-12+030799999V0200501N003019999999N050000199+00601+00511101661ADDAY121021AY221021GA1041+999991061GE19MSL   +99999+99999GF104991999999999999999999MA1999990097931MD1210071+9990MW1111REMSYN06001047 41584 40503 10060 20051 39793 40166 52007 71122 84500=
0210010470999992013080906004+69000+023033FM-12+030799999V0209999C999999999999N060000199+01051+00261101541ADDAY121021AY221021GA1061+999991061GE19MSL   +99999+99999GF106991999999999999999999KA1240N+00341MA1999990097871MD1710051+9990MW1021REMSYN07001047 41586 60000 10105 20026 39787 40154 57005 70222 86400 333 20034=
0187010470999992013080909004+69000+023033FM-12+030799999V0201801N005019999999N065000199+01141+00421101451ADDAY121021AY221021GA1071+999991061GE19MSL   +99999+99999GF107991999999999999999999MA1999990097801MD1710081+9990MW1031REMSYN06001047 41587 71805 10114 20042 39780 40145 57008 70322 87500=
0187010470999992013080912004+69000+023033FM-12+030799999V0201801N003019999999N065000199+01361+00281101321ADDAY121021AY221021GA1051+999991081GE19MSL   +99999+99999GF105991999999999999999999MA1999990097701MD1710101+9990MW1011REMSYN06001047 41687 51803 10136 20028 39770 40132 57010 70122 85100=
0203010470999992013080915004+69000+023033FM-12+030799999V0203201N005019999999N065000199+01601+00351101221ADDAY111021AY211021GA1041+999991091GA2991+999991001GE19MSL   +99999+99999GF105991999999999999999999MA1999990097631MD1710061+9990MW1021REMSYN06001047 41587 53205 10160 20035 39763 40122 57006 70211 84301=
0226010470999992013080918004+69000+023033FM-12+030799999V0200501N005019999999N065000199+01401+00321101291ADDAY121021AY221021GA1041+999991091GA2991+999991031GE19MSL   +99999+99999GF105991999999999999999999KA1120M+01601MA1999990097671MD1210051+9990MW1021REMSYN07001047 31587 50505 10140 20032 39767 40129 52005 70222 84340 333 10160=
0117010470999992013081000004+69000+023033FM-12+030799999V0209999C999999999999N000100199+00201+00111101651ADDAY141021AY211021MA1999990097871MD1210071+9990MW1461REMSYN05401047 41901 00000 10020 20011 39787 40165 52007 74641=
0210010470999992013081006004+69000+023033FM-12+030799999V0209999C999999999999N050000199+00601+00511101651ADDAY141021AY221021GA1081+999991061GE19MSL   +99999+99999GF108991999999999999999999KA1240N+00131MA1999990097921MD1210011+9990MW1021REMSYN07001047 41584 80000 10060 20051 39792 40165 52001 70242 885// 333 20013=
0187010470999992013081009004+69000+023033FM-12+030799999V0200501N003019999999N060000199+01061+00341101591ADDAY121021AY221021GA1071+999991061GE19MSL   +99999+99999GF107991999999999999999999MA1999990097921MD1900001+9990MW1021REMSYN06001047 41586 70503 10106 20034 39792 40159 50000 70222 87500=
0187010470999992013081012004+69000+023033FM-12+030799999V0200501N003019999999N060000199+01361+00281101511ADDAY121021AY221021GA1051+999991081GE19MSL   +99999+99999GF105991999999999999999999MA1999990097881MD1710031+9990MW1021REMSYN06001047 41686 50503 10136 20028 39788 40151 57003 70222 85100=
0187010470999992013081015004+69000+023033FM-12+030799999V0209999C999999999999N060000199+01511+00361101421ADDAY111021AY211021GA1031+999991081GE19MSL   +99999+99999GF103991999999999999999999MA1999990097821MD1710081+9990MW1011REMSYN06001047 41686 30000 10151 20036 39782 40142 57008 70111 83100=
0210010470999992013081018004+69000+023033FM-12+030799999V0201401N003019999999N060000199+01481+00481101401ADDAY121021AY211021GA1021+999991081GE19MSL   +99999+99999GF102991999999999999999999KA1120M+01611MA1999990097801MD1710031+9990MW1021REMSYN07001047 41686 21403 10148 20048 39780 40140 57003 70221 82100 333 10161=
0063010470999992013081100004+69000+023033FM-12+030799999V020999999999999999999999999999+99999+99999999999REMSYN05401047 41X00 90000 10020 20007 39768 40146 58006 74740=
0210010470999992013081106004+69000+023033FM-12+030799999V0209999C999999999999N060000199+00841+00601101191ADDAY141021AY201021GA1051+999991081GE19MSL   +99999+99999GF105991999999999999999999KA1240N+00121MA1999990097511MD1710101+9990MW1021REMSYN07001047 41686 50000 10084 20060 39751 40119 57010 70240 85800 333 20012=
0203010470999992013081109004+69000+023033FM-12+030799999V0201801N005019999999N060000199+01511+00611100941ADDAY121021AY221021GA1031+999991091GA2991+999991031GE19MSL   +99999+99999GF105991999999999999999999MA1999990097361MD1710131+9990MW1021REMSYN06001047 41586 51805 10151 20061 39736 40094 57013 70222 83350=
0203010470999992013081112004+69000+023033FM-12+030799999V0201401N007019999999N060000199+01761+00651100791ADDAY121021AY221021GA1031+999991091GA2991+999991031GE19MSL   +99999+99999GF104991999999999999999999MA1999990097231MD1810121+9990MW1011REMSYN06001047 41586 41407 10176 20065 39723 40079 58012 70122 83350=
0203010470999992013081115004+69000+023033FM-12+030799999V0201801N007019999999N060000199+01761+00591100661ADDAY111021AY211021GA1051+999991091GA2991+999991031GE19MSL   +99999+99999GF106991999999999999999999MA1999990097121MD1710121+9990MW1031REMSYN06001047 41586 61807 10176 20059 39712 40066 57012 70311 85340=
0226010470999992013081118004+69000+023033FM-12+030799999V0202201N003019999999N060000199+01501+00681100631ADDAY121021AY221021GA1041+999991061GA2991+999991031GE19MSL   +99999+99999GF105991999999999999999999KA1120M+01881MA1999990097061MD1710081+9990MW1011REMSYN07001047 31586 52203 10150 20068 39706 40063 57008 70122 84440 333 10188=
0187010470999992013081200004+69000+023033FM-12+030799999V0201801N001019999999N000500199+00421+00291100701ADDAY141021AY221021GA1051+999991031GE19MSL   +99999+99999GF105991999999999999999999MA1999990096981MD1710061+9990MW1461REMSYN06001047 41805 51801 10042 20029 39698 40070 57006 74642 85070=
0210010470999992013081206004+69000+023033FM-12+030799999V0201801N001019999999N060000199+00981+00021100441ADDAY141021AY221021GA1071+999991061GE19MSL   +99999+99999GF107991999999999999999999KA1240N+00421MA1999990096811MD1710101+9990MW1021REMSYN07001047 41586 71801 10098 20002 39681 40044 57010 70242 87500 333 20042=
0187010470999992013081209004+69000+023033FM-12+030799999V0201801N001019999999N060000199+01551+00831100281ADDAY121021AY221021GA1071+999991081GE19MSL   +99999+99999GF107991999999999999999999MA1999990096721MD1710091+9990MW1021REMSYN06001047 41586 71801 10155 20083 39672 40028 57009 70222 87800=
0187010470999992013081212004+69000+023033FM-12+030799999V0201801N005019999999N060000199+01601+00701100171ADDAY121021AY211021GA1071+999991081GE19MSL   +99999+99999GF107991999999999999999999MA1999990096621MD1510111+9990MW1021REMSYN06001047 41586 71805 10160 20070 39662 40017 55011 70221 87800=
0187010470999992013081215004+69000+023033FM-12+030799999V0201601N005019999999N055000199+01311+00761100261ADDAY181021AY221021GA1071+999991091GE19MSL   +99999+99999GF107991999999999999999999MA1999990096671MD1310061+9990MW1251REMSYN06001047 41585 71605 10131 20076 39667 40026 53006 72582 87300=
0243010470999992013081218004+69000+023033FM-12+030799999V0201801N001019999999N065000199+01321+00981100231ADDAA112000131AY181021AY221021GA1031+999991061GA2991+999991031GE19MSL   +99999+99999GF107991999999999999999999KA1120M+01841MA1999990096651MD1810031+9990MW1021REMSYN07601047 11587 71801 10132 20098 39665 40023 58003 69912 70282 83470 333 10184=
0143010470999992013081300004+69000+023033FM-12+030799999V0201801N00101000001CN000000199+00641+00501100391ADDAY141021AY221021GF109991999999999999999999MA1999990096721MD1510011+9990MW1471REMSYN05401047 41/00 91801 10064 20050 39672 40039 55001 74742=
0210010470999992013081306004+69000+023033FM-12+030799999V0209999C999999999999N025000199+00981+00891100401ADDAY141021AY221021GA1081+999991071GE19MSL   +99999+99999GF108991999999999999999999KA1240N+00551MA1999990096771MD1210021+9990MW1021REMSYN07001047 41475 80000 10098 20089 39677 40040 52002 70242 886// 333 20055=
0203010470999992013081309004+69000+023033FM-12+030799999V0201801N003019999999N060000199+01381+00731100431ADDAY121021AY221021GA1041+999991091GA2991+999991031GE19MSL   +99999+99999GF106991999999999999999999MA1999990096851MD1110071+9990MW1021REMSYN06001047 41586 61803 10138 20073 39685 40043 51007 70222 84390=
0187010470999992013081312004+69000+023033FM-12+030799999V0203201N005019999999N060000199+01681+00691100401ADDAY121021AY221021GA1071+999991081GE19MSL   +99999+99999GF107991999999999999999999MA1999990096861MD1210011+9990MW1021REMSYN06001047 41586 73205 10168 20069 39686 40040 52001 70222 87800=
0187010470999992013081315004+69000+023033FM-12+030799999V0203201N003019999999N060000199+01491+00601100531ADDAY121021AY221021GA1071+999991081GE19MSL   +99999+99999GF107991999999999999999999MA1999990096961MD1310101+9990MW1021REMSYN06001047 41586 73203 10149 20060 39696 40053 53010 70222 87800=
0210010470999992013081318004+69000+023033FM-12+030799999V0203601N005019999999N060000199+01281+00501100741ADDAY121021AY221021GA1071+999991061GE19MSL   +99999+99999GF107991999999999999999999KA1120M+01681MA1999990097131MD1310171+9990MW1021REMSYN07001047 31486 73605 10128 20050 39713 40074 53017 70222 87500 333 10168=
0187010470999992013081400004+69000+023033FM-12+030799999V0200501N003019999999N060000199+00911+00621101041ADDAY161021AY221021GA1081+999991061GE19MSL   +99999+99999GF108991999999999999999999MA1999990097371MD1210081+9990MW1021REMSYN06001047 41486 80503 10091 20062 39737 40104 52008 70262 885//=
0244010470999992013081406004+69000+023033FM-12+030799999V0203601N005019999999N015000199+00871+00701101281ADDAA112000531AA224000531AY161021AY221021GA1081+999991051GE19MSL   +99999+99999GF108991999999999999999999KA1240N+00871MA1999990097601MD1210121+9990MW1621REMSYN08201047 11565 83605 10087 20070 39760 40128 52012 69952 76262 8802/ 333 20087 70005=
0203010470999992013081409004+69000+023033FM-12+030799999V0200501N005019999999N004000199+00981+00811101341ADDAY161021AY251021GA1061+999991071GA2991+999991051GE19MSL   +99999+99999GF108991999999999999999999MA1999990097671MD1210081+9990MW1511REMSYN06001047 41440 80505 10098 20081 39767 40134 52008 75165 8672/=
0187010470999992013081412004+69000+023033FM-12+030799999V0200501N005019999999N060000199+01041+00731101351ADDAY161021AY251021GA1081+999991061GE19MSL   +99999+99999GF108991999999999999999999MA1999990097681MD1900011+9990MW1021REMSYN06001047 41486 80505 10104 20073 39768 40135 50001 70265 885//=
0187010470999992013081415004+69000+023033FM-12+030799999V0200501N005019999999N060000199+01151+00841101351ADDAY121021AY221021GA1081+999991061GE19MSL   +99999+99999GF108991999999999999999999MA1999990097711MD1900011+9990MW1021REMSYN06001047 41486 80505 10115 20084 39771 40135 50001 70222 885//=
0227010470999992013081418004+69000+023033FM-12+030799999V0200501N005019999999N040000199+01171+00861101361ADDAA112000531AY121021AY221021GA1071+999991061GE19MSL   +99999+99999GF107991999999999999999999KA1120M+01171MA1999990097721MD1210021+9990MW1021REMSYN07601047 11482 70505 10117 20086 39772 40136 52002 69952 70222 87500 333 10117=
0187010470999992013081500004+69000+023033FM-12+030799999V0203201N005019999999N040000199+00981+00821101331ADDAY121021AY221021GA1081+999991061GE19MSL   +99999+99999GF108991999999999999999999MA1999990097671MD1610061+9990MW1021REMSYN06001047 41582 83205 10098 20082 39767 40133 56006 70222 885//=
0260010470999992013081506004+69000+023033FM-12+030799999V0203201N005019999999N020000199+00991+00781101361ADDAA112000131AA224000631AY161021AY221021GA1061+999991061GA2991+999991051GE19MSL   +99999+99999GF108991999999999999999999KA1240N+00951MA1999990097701MD1210021+9990MW1601REMSYN08201047 11570 83205 10099 20078 39770 40136 52002 69912 76062 8652/ 333 20095 70006=
0187010470999992013081509004+69000+023033FM-12+030799999V0203201N007019999999N060000199+01141+00771101351ADDAY161021AY221021GA1081+999991071GE19MSL   +99999+99999GF108991999999999999999999MA1999990097711MD1210011+9990MW1021REMSYN06001047 41486 83207 10114 20077 39771 40135 52001 70262 887//=
0187010470999992013081512004+69000+023033FM-12+030799999V0203201N007019999999N060000199+01291+00901101361ADDAY121021AY221021GA1081+999991071GE19MSL   +99999+99999GF108991999999999999999999MA1999990097721MD1210011+9990MW1021REMSYN06001047 41586 83207 10129 20090 39772 40136 52001 70222 887//=
0187010470999992013081515004+69000+023033FM-12+030799999V0203201N005019999999N040000199+01501+00851101321ADDAY121021AY221021GA1071+999991061GE19MSL   +99999+99999GF107991999999999999999999MA1999990097721MD1410001+9990MW1021REMSYN06001047 41582 73205 10150 20085 39772 40132 54000 70222 87500=
0243010470999992013081518004+69000+023033FM-12+030799999V0203401N005019999999N050000199+01321+00951101371ADDAA112000131AY121021AY221021GA1031+999991061GA2991+999991031GE19MSL   +99999+99999GF107991999999999999999999KA1120M+01521MA1999990097751MD1210031+9990MW1021REMSYN07601047 11584 73405 10132 20095 39775 40137 52003 69912 70222 83570 333 10152=
0143010470999992013081600004+69000+023033FM-12+030799999V0209999C99999000001CN000000199+00341+00251101631ADDAY141021AY221021GF109991999999999999999999MA1999990097871MD1210051+9990MW1471REMSYN05401047 41/00 90000 10034 20025 39787 40163 52005 74742=
0210010470999992013081606004+69000+023033FM-12+030799999V0209999C999999999999N025000199+00771+00681101621ADDAY141021AY221021GA1081+999991071GE19MSL   +99999+99999GF108991999999999999999999KA1240N+00191MA1999990097921MD1410001+9990MW1021REMSYN07001047 41475 80000 10077 20068 39792 40162 54000 70242 886// 333 20019=
0187010470999992013081609004+69000+023033FM-12+030799999V0200501N001019999999N050000199+01011+00751101551ADDAY121021AY221021GA1081+999991061GE19MSL   +99999+99999GF108991999999999999999999MA1999990097871MD1710031+9990MW1021REMSYN06001047 41484 80501 10101 20075 39787 40155 57003 70222 885//=
0187010470999992013081612004+69000+023033FM-12+030799999V0201601N003019999999N055000199+01161+00711101491ADDAY121021AY221021GA1081+999991061GE19MSL   +99999+99999GF108991999999999999999999MA1999990097831MD1710051+9990MW1021REMSYN06001047 41485 81603 10116 20071 39783 40149 57005 70222 885//=
0187010470999992013081615004+69000+023033FM-12+030799999V0201801N005019999999N050000199+01221+00691101431ADDAY121021AY221021GA1081+999991061GE19MSL   +99999+99999GF108991999999999999999999MA1999990097781MD1710061+9990MW1021REMSYN06001047 41484 81805 10122 20069 39778 40143 57006 70222 885//=
0210010470999992013081618004+69000+023033FM-12+030799999V0201401N005019999999N030000199+01211+00741101351ADDAY121021AY221021GA1081+999991061GE19MSL   +99999+99999GF108991999999999999999999KA1120M+01251MA1999990097711MD1710071+9990MW1021REMSYN07001047 31480 81405 10121 20074 39771 40135 57007 70222 885// 333 10125=
0187010470999992013081700004+69000+023033FM-12+030799999V0202701N005019999999N050000199+00881+00731101271ADDAY121021AY221021GA1071+999991061GE19MSL   +99999+99999GF107991999999999999999999MA1999990097601MD1810101+9990MW1011REMSYN06001047 41584 72705 10088 20073 39760 40127 58010 70122 87500=
0226010470999992013081706004+69000+023033FM-12+030799999V0201801N005019999999N050000199+01131+00871100961ADDAY121021AY221021GA1061+999991061GA2991+999991051GE19MSL   +99999+99999GF108991999999999999999999KA1240N+00881MA1999990097321MD1710141+9990MW1021REMSYN07001047 41584 81805 10113 20087 39732 40096 57014 70222 8652/ 333 20088=
0187010470999992013081709004+69000+023033FM-12+030799999V0201401N007019999999N050000199+01281+00911100761ADDAY121021AY221021GA1081+999991061GE19MSL   +99999+99999GF108991999999999999999999MA1999990097151MD1810171+9990MW1021REMSYN06001047 41484 81407 10128 20091 39715 40076 58017 70222 885//=
0187010470999992013081712004+69000+023033FM-12+030799999V0201401N007019999999N050000199+01371+00831100571ADDAY121021AY221021GA1081+999991061GE19MSL   +99999+99999GF108991999999999999999999MA1999990096971MD1710181+9990MW1021REMSYN06001047 41484 81407 10137 20083 39697 40057 57018 70222 885//=
0187010470999992013081715004+69000+023033FM-12+030799999V0201401N005019999999N005000199+01301+01121100381ADDAY161021AY221021GA1081+999991051GE19MSL   +99999+99999GF108991999999999999999999MA1999990096781MD1710191+9990MW1631REMSYN06001047 41550 81405 10130 20112 39678 40038 57019 76362 8802/=
0243010470999992013081718004+69000+023033FM-12+030799999V0201601N007019999999N003000199+01321+01161100181ADDAA112009031AY161021AY261021GA1041+999991071GA2991+999991051GE19MSL   +99999+99999GF108991999999999999999999KA1120M+01371MA1999990096601MD1810181+9990MW1651REMSYN07601047 11430 81607 10132 20116 39660 40018 58018 60092 76566 8472/ 333 10137=
0203010470999992013081800004+69000+023033FM-12+030799999V0203201N005019999999N006000199+01281+01121100091ADDAY161021AY261021GA1051+999991071GA2991+999991051GE19MSL   +99999+99999GF108991999999999999999999MA1999990096511MD1310031+9990MW1631REMSYN06001047 41456 83205 10128 20112 39651 40009 53003 76366 8572/=
0244010470999992013081806004+69000+023033FM-12+030799999V0203201N003019999999N060000199+01281+01021100411ADDAA112006031AA224014931AY161021AY221021GA1071+999991071GE19MSL   +99999+99999GF107991999999999999999999KA1240N+01071MA1999990096821MD1210141+9990MW1021REMSYN08201047 11586 73203 10128 20102 39682 40041 52014 60062 70262 87700 333 20107 70149=
0203010470999992013081809004+69000+023033FM-12+030799999V0209999C999999999999N060000199+01401+00921100461ADDAY121021AY221021GA1051+999991091GA2991+999991031GE19MSL   +99999+99999GF106991999999999999999999MA1999990096871MD1210051+9990MW1011REMSYN06001047 41486 60000 10140 20092 39687 40046 52005 70122 85350=
0203010470999992013081812004+69000+023033FM-12+030799999V0201801N007019999999N060000199+01681+00721100321ADDAY121021AY221021GA1041+999991091GA2991+999991001GE19MSL   +99999+99999GF105991999999999999999999MA1999990096771MD1710101+9990MW1011REMSYN06001047 41486 51807 10168 20072 39677 40032 57010 70122 84301=
0203010470999992013081815004+69000+023033FM-12+030799999V0201401N007019999999N060000199+01761+00761100231ADDAY121021AY221021GA1041+999991061GA2991+999991001GE19MSL   +99999+99999GF106991999999999999999999MA1999990096701MD1710091+9990MW1031REMSYN06001047 41586 61407 10176 20076 39670 40023 57009 70322 84404=
0242010470999992013081818004+69000+023033FM-12+030799999V0201401N005019999999N060000199+01481+01041100221ADDAY121021AY221021GA1021+999991061GA2991+999991031GA3991+999991001GE19MSL   +99999+99999GF104991999999999999999999KA1120M+01801MA1999990096661MD1710041+9990MW1011REMSYN07001047 31586 41405 10148 20104 39666 40022 57004 70122 82444 333 10180=
0187010470999992013081900004+69000+023033FM-12+030799999V0201801N005019999999N060000199+01351+01071100121ADDAY121021AY201021GA1081+999991061GE19MSL   +99999+99999GF108991999999999999999999MA1999990096551MD1810081+9990MW1021REMSYN06001047 41486 81805 10135 20107 39655 40012 58008 70220 885//=
0210010470999992013081906004+69000+023033FM-12+030799999V0201801N005019999999N060000199+01451+01171100011ADDAY121021AY201021GA1081+999991061GE19MSL   +99999+99999GF108991999999999999999999KA1240N+01321MA1999990096451MD1710031+9990MW1021REMSYN07001047 41486 81805 10145 20117 39645 40001 57003 70220 885// 333 20132=
0203010470999992013081909004+69000+023033FM-12+030799999V0201401N007019999999N050000199+01441+01301099971ADDAY161021AY221021GA1061+999991071GA2991+999991051GE19MSL   +99999+99999GF108991999999999999999999MA1999990096411MD1710041+9990MW1211REMSYN06001047 41484 81407 10144 20130 39641 49997 57004 72162 8672/=
0203010470999992013081912004+69000+023033FM-12+030799999V0201401N007019999999N060000199+01661+01411099921ADDAY181021AY221021GA1051+999991091GA2991+999991031GE19MSL   +99999+99999GF106991999999999999999999MA1999990096381MD1710021+9990MW1251REMSYN06001047 41486 61407 10166 20141 39638 49992 57002 72582 85330=
0187010470999992013081915004+69000+023033FM-12+030799999V0202701N005019999999N004000199+01381+00931100091ADDAY181021AY221021GA1081+999991091GE19MSL   +99999+99999GF108991999999999999999999MA1999990096521MD1310131+9990MW1811REMSYN06001047 41440 82705 10138 20093 39652 40009 53013 78182 889//=
0259010470999992013081918004+69000+023033FM-12+030799999V0203201N005019999999N060000199+01411+01011100291ADDAA112007031AY191021AY281021GA1031+999991091GA2991+999991031GA3991+999991021GE19MSL   +99999+99999GF106991999999999999999999KA1120M+01701MA1999990096721MD1310211+9990MW1011REMSYN07601047 11486 63205 10141 20101 39672 40029 53021 60072 70198 83398 333 10170=
0203010470999992013082000004+69000+023033FM-12+030799999V0201801N001019999999N000800199+00571+00481100891ADDAY141021AY221021GA1011+999991061GA2991+999991031GE19MSL   +99999+99999GF104991999999999999999999MA1999990097181MD1210221+9990MW1461REMSYN06001047 41508 41801 10057 20048 39718 40089 52022 74642 81470=
0140010470999992013082006004+69000+023033FM-12+030799999V0209999C999999999999N050000199+00801+00711101081ADDAY141021AY221021KA1240N+00261MA1999990097401MD1210051+9990MW1021REMSYN06401047 41984 00000 10080 20071 39740 40108 52005 70242 333 20026=
0219010470999992013082009004+69000+023033FM-12+030799999V0201801N007019999999N060000199+01581+00601100931ADDAY101021AY201021GA1011+999991081GA2991+999991031GA3991+999991021GE19MSL   +99999+99999GF104991999999999999999999MA1999990097361MD1710031+9990MW1031REMSYN06001047 41686 41807 10158 20060 39736 40093 57003 70300 81145=
0203010470999992013082012004+69000+023033FM-12+030799999V0201801N007019999999N060000199+01741+00631100921ADDAY111021AY201021GA1021+999991061GA2991+999991031GE19MSL   +99999+99999GF105991999999999999999999MA1999990097361MD1510011+9990MW1021REMSYN06001047 41686 51807 10174 20063 39736 40092 55001 70210 82440=
0203010470999992013082015004+69000+023033FM-12+030799999V0201801N010019999999N060000199+01721+00611100901ADDAY121021AY221021GA1051+999991081GA2991+999991001GE19MSL   +99999+99999GF106991999999999999999999MA1999990097331MD1510021+9990MW1021REMSYN06001047 41686 61810 10172 20061 39733 40090 55002 70222 85201=
0226010470999992013082018004+69000+023033FM-12+030799999V0201801N001019999999N060000199+01401+00591100931ADDAY121021AY221021GA1041+999991091GA2991+999991031GE19MSL   +99999+99999GF107991999999999999999999KA1120M+01801MA1999990097321MD1710021+9990MW1031REMSYN07001047 31586 71801 10140 20059 39732 40093 57002 70322 84370 333 10180=
0117010470999992013082100004+69000+023033FM-12+030799999V0201801N003019999999N060000199+00541+00391101061ADDAY121021AY201021MA1999990097351MD1900001+9990MW1011REMSYN05401047 41986 01803 10054 20039 39735 40106 50000 70120=
0229010470999992013082106004+69000+023033FM-12+030799999V0201801N003019999999N060000199+00881+00501100931ADDAY121021AY201021GA1999+999991021GE19MSL   +99999+99999GF103991999999999999999999KA1240N+00301MA1999990097271MD1810061+9990MW1021REMSYN07001047 41986 31803 10088 20050 39727 40093 58006 70220 80008 333 20030=EQDQ01    003SCCGA1
0203010470999992013082109004+69000+023033FM-12+030799999V0201801N007019999999N060000199+01361+00401100791ADDAY101021AY201021GA1011+999991081GA2991+999991031GE19MSL   +99999+99999GF102991999999999999999999MA1999990097181MD1810061+9990MW1021REMSYN06001047 41686 21807 10136 20040 39718 40079 58006 70200 81140=
0187010470999992013082112004+69000+023033FM-12+030799999V0201801N007019999999N060000199+01521+00271100701ADDAY101021AY201021GA1051+999991081GE19MSL   +99999+99999GF105991999999999999999999MA1999990097121MD1710061+9990MW1031REMSYN06001047 41686 51807 10152 20027 39712 40070 57006 70300 85200=
0203010470999992013082115004+69000+023033FM-12+030799999V0201401N005019999999N060000199+01441+00441100701ADDAY181021AY221021GA1051+999991091GA2991+999991031GE19MSL   +99999+99999GF106991999999999999999999MA1999990097121MD1900011+9990MW1021REMSYN06001047 41586 61405 10144 20044 39712 40070 50001 70282 85350=
0278010470999992013082118004+69000+023033FM-12+030799999V0201401N003019999999N060000199+01081+00381100781ADDAA112000091AY181021AY221021GA1031+999991091GA2991+999991031GA3991+999991001GE19MSL   +99999+99999GF105991999999999999999999KA1120M+01651MA1999990097151MD1900031+9990MW1011REMSYN07601047 11586 51403 10108 20038 39715 40078 50003 69902 70182 83331 333 10165=EQDQ01  00002PRCP12
0203010470999992013082200004+69000+023033FM-12+030799999V0201801N003019999999N060000199+00601+00451100791ADDAY111021AY211021GA1021+999991061GA2991+999991031GE19MSL   +99999+99999GF106991999999999999999999MA1999990097101MD1210011+9990MW1031REMSYN06001047 41586 61803 10060 20045 39710 40079 52001 70311 82570=
0260010470999992013082206004+69000+023033FM-12+030799999V0209999C999999999999N000000199+00791+00501100961ADDAA112001031AA224001331AY161021AY221021GA1041+999991061GA2991+999991051GE19MSL   +99999+99999GF107991999999999999999999KA1240N+00481MA1999990097281MD1310101+9990MW1601REMSYN08201047 11500 7//// 10079 20050 39728 40096 53010 60012 76062 84520 333 20048 70013=
0187010470999992013082209004+69000+023033FM-12+030799999V0203201N005019999999N060000199+01031+00311101121ADDAY161021AY221021GA1071+999991081GE19MSL   +99999+99999GF107991999999999999999999MA1999990097471MD1210191+9990MW1021REMSYN06001047 41586 73205 10103 20031 39747 40112 52019 70262 87800=
0187010470999992013082212004+69000+023033FM-12+030799999V0203201N005019999999N060000199+01311+00291101281ADDAY121021AY211021GA1061+999991081GE19MSL   +99999+99999GF106991999999999999999999MA1999990097661MD1210181+9990MW1021REMSYN06001047 41586 63205 10131 20029 39766 40128 52018 70221 86200=
0203010470999992013082215004+69000+023033FM-12+030799999V0203201N005019999999N060000199+01021+00161101521ADDAY181021AY221021GA1041+999991061GA2991+999991031GE19MSL   +99999+99999GF108991999999999999999999MA1999990097851MD1310191+9990MW1021REMSYN06001047 41586 83205 10102 20016 39785 40152 53019 70282 8457/=
0187010470999992013082300004+69000+023033FM-12+030799999V0202201N003019999999N060000199+00321+00131102031ADDAY121021AY221021GA1061+999991031GE19MSL   +99999+99999GF106991999999999999999999MA1999990098261MD1210091+9990MW1021REMSYN06001047 41886 62203 10032 20013 39826 40203 52009 70222 86070=
0244010470999992013082306004+69000+023033FM-12+030799999V0201401N005019999999N025000199+00681+00481101991ADDAA112000431AA224000531AY161021AY221021GA1081+999991051GE19MSL   +99999+99999GF108991999999999999999999KA1240N+00211MA1999990098261MD1510021+9990MW1601REMSYN08201047 11575 81405 10068 20048 39826 40199 55002 69942 76062 8802/ 333 20021 70005=
0187010470999992013082309004+69000+023033FM-12+030799999V0201801N005019999999N060000199+00981+00721101951ADDAY161021AY221021GA1081+999991051GE19MSL   +99999+99999GF108991999999999999999999MA1999990098261MD1210011+9990MW1021REMSYN06001047 41586 81805 10098 20072 39826 40195 52001 70262 8802/=
0203010470999992013082312004+69000+023033FM-12+030799999V0203201N005019999999N060000199+01541+00641101941ADDAY121021AY221021GA1071+999991061GA2991+999991051GE19MSL   +99999+99999GF108991999999999999999999MA1999990098321MD1310061+9990MW1021REMSYN06001047 41586 83205 10154 20064 39832 40194 53006 70222 8752/=
0203010470999992013082315004+69000+023033FM-12+030799999V0203201N003019999999N060000199+00501-00231102181ADDAY121021AY221021GA1031+999991061GA2991+999991031GE19MSL   +99999+99999GF107991999999999999999999MA1999990098421MD1210101+9990MW1291REMSYN06001047 41586 73203 10050 21023 39842 40218 52010 72922 83440=
0243010470999992013082318004+69000+023033FM-12+030799999V0203201N003019999999N060000199+01271+00631102081ADDAA112000531AY161021AY221021GA1021+999991061GA2991+999991031GE19MSL   +99999+99999GF108991999999999999999999KA1120M+01561MA1999990098421MD1210021+9990MW1021REMSYN07601047 11586 83203 10127 20063 39842 40208 52002 69952 70262 8247/ 333 10156=
0203010470999992013082400004+69000+023033FM-12+030799999V0202201N005019999999N060000199+00911+00711102041ADDAY121021AY221021GA1031+999991061GA2991+999991031GE19MSL   +99999+99999GF105991999999999999999999MA1999990098331MD1810051+9990MW1011REMSYN06001047 41586 52205 10091 20071 39833 40204 58005 70122 83570=
0210010470999992013082406004+69000+023033FM-12+030799999V0202201N005019999999N060000199+00981+00671101961ADDAY121021AY211021GA1041+999991031GE19MSL   +99999+99999GF104991999999999999999999KA1240N+00751MA1999990098271MD1410001+9990MW1021REMSYN07001047 41686 42205 10098 20067 39827 40196 54000 70221 84040 333 20075=
0187010470999992013082409004+69000+023033FM-12+030799999V0200501N005019999999N060000199+01691+00611101861ADDAY111021AY211021GA1051+999991031GE19MSL   +99999+99999GF105991999999999999999999MA1999990098271MD1410001+9990MW1021REMSYN06001047 41886 50505 10169 20061 39827 40186 54000 70211 85040=
0203010470999992013082412004+69000+023033FM-12+030799999V0203201N007019999999N060000199+01801+00681101881ADDAY121021AY221021GA1021+999991081GA2991+999991021GE19MSL   +99999+99999GF104991999999999999999999MA1999990098301MD1210031+9990MW1011REMSYN06001047 41686 43207 10180 20068 39830 40188 52003 70122 82108=
0187010470999992013082415004+69000+023033FM-12+030799999V0203201N005019999999N060000199+01721+00551101961ADDAY111021AY211021GA1041+999991031GE19MSL   +99999+99999GF104991999999999999999999MA1999990098371MD1210071+9990MW1021REMSYN06001047 41886 43205 10172 20055 39837 40196 52007 70211 84070=
0226010470999992013082418004+69000+023033FM-12+030799999V0209999C999999999999N065000199+01481+00591102061ADDAY121021AY211021GA1031+999991061GA2991+999991031GE19MSL   +99999+99999GF106991999999999999999999KA1120M+01851MA1999990098421MD1210071+9990MW1021REMSYN07001047 41687 60000 10148 20059 39842 40206 52007 70221 83440 333 10185=
0187010470999992013082500004+69000+023033FM-12+030799999V0209999C999999999999N060000199+01021+00761102271ADDAY121021AY221021GA1081+999991061GE19MSL   +99999+99999GF108991999999999999999999MA1999990098571MD1210061+9990MW1021REMSYN06001047 41486 80000 10102 20076 39857 40227 52006 70222 885//=
0226010470999992013082506004+69000+023033FM-12+030799999V0209999C999999999999N030000199+01071+00911102341ADDAY121021AY221021GA1041+999991061GA2991+999991051GE19MSL   +99999+99999GF108991999999999999999999KA1240N+00811MA1999990098651MD1210041+9990MW1021REMSYN07001047 41580 80000 10107 20091 39865 40234 52004 70222 8452/ 333 20081=
0187010470999992013082509004+69000+023033FM-12+030799999V0209999C999999999999N050000199+01621+00961102271ADDAY121021AY221021GA1081+999991031GE19MSL   +99999+99999GF108991999999999999999999MA1999990098651MD1410001+9990MW1021REMSYN06001047 41884 80000 10162 20096 39865 40227 54000 70222 8807/=
0187010470999992013082512004+69000+023033FM-12+030799999V0200501N001019999999N040000199+01761+00931102231ADDAY121021AY221021GA1081+999991031GE19MSL   +99999+99999GF108991999999999999999999MA1999990098621MD1710031+9990MW1051REMSYN06001047 41882 80501 10176 20093 39862 40223 57003 70522 8807/=
0203010470999992013082515004+69000+023033FM-12+030799999V0209999C999999999999N025000199+01811+00891102151ADDAY121021AY221021GA1051+999991031GA2991+999991001GE19MSL   +99999+99999GF106991999999999999999999MA1999990098561MD1710081+9990MW1051REMSYN06001047 41875 60000 10181 20089 39856 40215 57008 70522 85071=
0226010470999992013082518004+69000+023033FM-12+030799999V0201401N001019999999N030000199+01421+01041102131ADDAY121021AY221021GA1021+999991061GA2991+999991041GE19MSL   +99999+99999GF106991999999999999999999KA1120M+01901MA1999990098481MD1710061+9990MW1011REMSYN07001047 31580 61401 10142 20104 39848 40213 57006 70122 82410 333 10190=
0187010470999992013082600004+69000+023033FM-12+030799999V0201801N005019999999N030000199+00861+00721101991ADDAY111021AY211021GA1041+999991031GE19MSL   +99999+99999GF104991999999999999999999MA1999990098281MD1810131+9990MW1021REMSYN06001047 41880 41805 10086 20072 39828 40199 58013 70211 84070=
0229010470999992013082606004+69000+023033FM-12+030799999V0201801N005019999999N060000199+01201+00901101531ADDAY121021AY211021GA1999+999991021GE19MSL   +99999+99999GF105991999999999999999999KA1240N+00731MA1999990097881MD1810241+9990MW1021REMSYN07001047 41986 51805 10120 20090 39788 40153 58024 70221 80008 333 20073=EQDQ01    003SCCGA1
0187010470999992013082609004+69000+023033FM-12+030799999V0201801N007019999999N060000199+01601+00851101261ADDAY121021AY221021GA1081+999991031GE19MSL   +99999+99999GF108991999999999999999999MA1999990097671MD1610201+9990MW1021REMSYN06001047 41886 81807 10160 20085 39767 40126 56020 70222 8807/=
0187010470999992013082612004+69000+023033FM-12+030799999V0201801N007019999999N030000199+01541+01001101171ADDAY161021AY221021GA1081+999991051GE19MSL   +99999+99999GF108991999999999999999999MA1999990097571MD1510111+9990MW1601REMSYN06001047 41580 81807 10154 20100 39757 40117 55011 76062 8802/=
0203010470999992013082615004+69000+023033FM-12+030799999V0201801N007019999999N050000199+01481+01101101011ADDAY161021AY221021GA1041+999991061GA2991+999991051GE19MSL   +99999+99999GF108991999999999999999999MA1999990097421MD1810151+9990MW1211REMSYN06001047 41484 81807 10148 20110 39742 40101 58015 72162 8452/=
0227010470999992013082618004+69000+023033FM-12+030799999V0201601N005019999999N060000199+01481+00921100941ADDAA112001031AY161021AY221021GA1071+999991031GE19MSL   +99999+99999GF107991999999999999999999KA1120M+01651MA1999990097351MD1810071+9990MW1021REMSYN07601047 11786 71605 10148 20092 39735 40094 58007 60012 70262 87070 333 10165=
0203010470999992013082700004+69000+023033FM-12+030799999V0201801N005019999999N060000199+01121+00661100951ADDAY121021AY221021GA1041+999991061GA2991+999991031GE19MSL   +99999+99999GF108991999999999999999999MA1999990097321MD1810031+9990MW1021REMSYN06001047 41486 81805 10112 20066 39732 40095 58003 70222 8457/=
0226010470999992013082706004+69000+023033FM-12+030799999V0201801N005019999999N060000199+01241+00871100681ADDAY121021AY221021GA1031+999991061GA2991+999991031GE19MSL   +99999+99999GF108991999999999999999999KA1240N+01001MA1999990097071MD1610131+9990MW1021REMSYN07001047 41586 81805 10124 20087 39707 40068 56013 70222 8357/ 333 20100=
0203010470999992013082709004+69000+023033FM-12+030799999V0202201N005019999999N060000199+01541+00891100651ADDAY121021AY221021GA1021+999991061GA2991+999991031GE19MSL   +99999+99999GF107991999999999999999999MA1999990097071MD1210011+9990MW1021REMSYN06001047 41586 72205 10154 20089 39707 40065 52001 70222 82570=
0203010470999992013082712004+69000+023033FM-12+030799999V0202701N005019999999N060000199+01751+00841100761ADDAY121021AY221021GA1051+999991081GA2991+999991031GE19MSL   +99999+99999GF106991999999999999999999MA1999990097211MD1210131+9990MW1021REMSYN06001047 41586 62705 10175 20084 39721 40076 52013 70222 85830=
0203010470999992013082715004+69000+023033FM-12+030799999V0202701N005019999999N060000199+01701+00791100851ADDAY121021AY221021GA1031+999991061GA2991+999991031GE19MSL   +99999+99999GF107991999999999999999999MA1999990097281MD1210081+9990MW1021REMSYN06001047 41586 72705 10170 20079 39728 40085 52008 70222 83570=
0226010470999992013082718004+69000+023033FM-12+030799999V0209999C999999999999N060000199+01451+00971100891ADDAY121021AY221021GA1051+999991061GA2991+999991031GE19MSL   +99999+99999GF107991999999999999999999KA1120M+01861MA1999990097301MD1210011+9990MW1021REMSYN07001047 31586 70000 10145 20097 39730 40089 52001 70222 85570 333 10186=
0203010470999992013082800004+69000+023033FM-12+030799999V0200501N001019999999N060000199+01041+00881100631ADDAY161021AY221021GA1051+999991061GA2991+999991051GE19MSL   +99999+99999GF107991999999999999999999MA1999990097001MD1810181+9990MW1021REMSYN06001047 41586 70501 10104 20088 39700 40063 58018 70262 85520=
0260010470999992013082806004+69000+023033FM-12+030799999V0200501N005019999999N060000199+01301+00981100251ADDAA112000131AA224000131AY161021AY221021GA1051+999991061GA2991+999991051GE19MSL   +99999+99999GF108991999999999999999999KA1240N+00961MA1999990096671MD1510101+9990MW1021REMSYN08201047 11586 80505 10130 20098 39667 40025 55010 69912 70262 8552/ 333 20096 70001=
0187010470999992013082809004+69000+023033FM-12+030799999V0202201N005019999999N030000199+01301+01021100231ADDAY181021AY221021GA1081+999991091GE19MSL   +99999+99999GF108991999999999999999999MA1999990096651MD1510021+9990MW1801REMSYN06001047 41480 82205 10130 20102 39665 40023 55002 78082 889//=
0203010470999992013082812004+69000+023033FM-12+030799999V0202201N005019999999N060000199+01301+00661100301ADDAY181021AY221021GA1031+999991091GA2991+999991051GE19MSL   +99999+99999GF107991999999999999999999MA1999990096711MD1210051+9990MW1021REMSYN06001047 41486 72205 10130 20066 39671 40030 52005 70282 83320=
0187010470999992013082815004+69000+023033FM-12+030799999V0202701N005019999999N060000199+01501+00321100321ADDAY121021AY221021GA1041+999991081GE19MSL   +99999+99999GF104991999999999999999999MA1999990096761MD1110061+9990MW1011REMSYN06001047 41686 42705 10150 20032 39676 40032 51006 70122 84100=
0227010470999992013082818004+69000+023033FM-12+030799999V0203201N005019999999N060000199+01021+00161100551ADDAA112000331AY101021AY201021GA1031+999991031GE19MSL   +99999+99999GF103991999999999999999999KA1120M+01521MA1999990096921MD1210151+9990MW1011REMSYN07601047 11886 33205 10102 20016 39692 40055 52015 69932 70100 83070 333 10152=
0187010470999992013082900004+69000+023033FM-12+030799999V0202201N005019999999N060000199+00461+00201100691ADDAY101021AY201021GA1041+999991031GE19MSL   +99999+99999GF104991999999999999999999MA1999990096971MD1410001+9990MW1021REMSYN06001047 41886 42205 10046 20020 39697 40069 54000 70200 84070=
0226010470999992013082906004+69000+023033FM-12+030799999V0202201N005019999999N010000199+00921+00341100561ADDAY121021AY201021GA1041+999991061GA2991+999991031GE19MSL   +99999+99999GF106991999999999999999999KA1240N+00361MA1999990096921MD1810021+9990MW1021REMSYN07001047 41660 62205 10092 20034 39692 40056 58002 70220 84470 333 20036=
0203010470999992013082909004+69000+023033FM-12+030799999V0202701N005019999999N060000199+01141+00511100571ADDAY121021AY221021GA1031+999991061GA2991+999991031GE19MSL   +99999+99999GF105991999999999999999999MA1999990096951MD1210021+9990MW1011REMSYN06001047 41586 52705 10114 20051 39695 40057 52002 70122 83570=
0203010470999992013082912004+69000+023033FM-12+030799999V0202701N007019999999N065000199+01241+00281100571ADDAY121021AY221021GA1041+999991061GA2991+999991031GE19MSL   +99999+99999GF107991999999999999999999MA1999990096971MD1900031+9990MW1031REMSYN06001047 41587 72707 10124 20028 39697 40057 50003 70322 84570=
0203010470999992013082915004+69000+023033FM-12+030799999V0202701N005019999999N065000199+01201+00251100601ADDAY121021AY221021GA1021+999991061GA2991+999991031GE19MSL   +99999+99999GF104991999999999999999999MA1999990096981MD1210021+9990MW1011REMSYN06001047 41587 42705 10120 20025 39698 40060 52002 70122 82570=
0243010470999992013082918004+69000+023033FM-12+030799999V0202701N005019999999N060000199+01041+00251100711ADDAA112000021AY181021AY221021GA1041+999991091GA2991+999991031GE19MSL   +99999+99999GF105991999999999999999999KA1120M+01361MA1999990097071MD1310081+9990MW1251REMSYN07601047 11586 52705 10104 20025 39707 40071 53008 69902 72582 84340 333 10136=
0187010470999992013083000004+69000+023033FM-12+030799999V0202201N003019999999N060000199+00381+00181100981ADDAY111021AY211021GA1021+999991061GE19MSL   +99999+99999GF102991999999999999999999MA1999990097251MD1210121+9990MW1021REMSYN06001047 41586 22203 10038 20018 39725 40098 52012 70211 82400=
0210010470999992013083006004+69000+023033FM-12+030799999V0203201N003019999999N060000199+00731+00241101121ADDAY111021AY211021GA1041+999991061GE19MSL   +99999+99999GF104991999999999999999999KA1240N+00181MA1999990097421MD1210081+9990MW1021REMSYN07001047 41586 43203 10073 20024 39742 40112 52008 70211 84400 333 20018=
0203010470999992013083009004+69000+023033FM-12+030799999V0203201N005019999999N065000199+01161+00291101221ADDAY121021AY221021GA1031+999991061GA2991+999991031GE19MSL   +99999+99999GF106991999999999999999999MA1999990097571MD1110161+9990MW1031REMSYN06001047 41587 63205 10116 20029 39757 40122 51016 70322 83570=
0203010470999992013083012004+69000+023033FM-12+030799999V0202701N003019999999N065000199+01101+00231101321ADDAY121021AY221021GA1021+999991061GA2991+999991031GE19MSL   +99999+99999GF107991999999999999999999MA1999990097671MD1210111+9990MW1021REMSYN06001047 41587 72703 10110 20023 39767 40132 52011 70222 82570=
0187010470999992013083015004+69000+023033FM-12+030799999V0202701N003019999999N065000199+01311+00241101301ADDAY121021AY211021GA1061+999991061GE19MSL   +99999+99999GF106991999999999999999999MA1999990097671MD1510011+9990MW1021REMSYN06001047 41587 62703 10131 20024 39767 40130 55001 70221 86500=
0210010470999992013083018004+69000+023033FM-12+030799999V0202701N005019999999N065000199+00861+00111101401ADDAY121021AY211021GA1051+999991031GE19MSL   +99999+99999GF105991999999999999999999KA1120M+01311MA1999990097721MD1210041+9990MW1021REMSYN07001047 41887 52705 10086 20011 39772 40140 52004 70221 85070 333 10131=
0187010470999992013083100004+69000+023033FM-12+030799999V0203201N001019999999N000900199+00061-00021101471ADDAY141021AY211021GA1041+999991031GE19MSL   +99999+99999GF104991999999999999999999MA1999990097681MD1710061+9990MW1461REMSYN06001047 41809 43201 10006 21002 39768 40147 57006 74641 84070=
0166010470999992013083106004+69000+023033FM-12+030799999V0209999C99999000301CN000100199+00021-00051101361ADDAY141021AY211021GF109991999999999999999999KA1240N-00101MA1999990097571MD1710081+9990MW1451REMSYN06401047 41/01 90000 10002 21005 39757 40136 57008 74541 333 21010=
0187010470999992013083109004+69000+023033FM-12+030799999V0200501N003019999999N060000199+00901+00441101061ADDAY141021AY221021GA1081+999991041GE19MSL   +99999+99999GF108991999999999999999999MA1999990097401MD1710181+9990MW1021REMSYN06001047 41886 80503 10090 20044 39740 40106 57018 70242 8801/=
0203010470999992013083112004+69000+023033FM-12+030799999V0201801N005019999999N065000199+01501+00521100841ADDAY121021AY221021GA1031+999991081GA2991+999991021GE19MSL   +99999+99999GF107991999999999999999999MA1999990097261MD1710141+9990MW1021REMSYN06001047 41687 71805 10150 20052 39726 40084 57014 70222 83108=
0187010470999992013083115004+69000+023033FM-12+030799999V0201801N005019999999N065000199+01521+00571100781ADDAY121021AY221021GA1071+999991061GE19MSL   +99999+99999GF107991999999999999999999MA1999990097201MD1710061+9990MW1021REMSYN06001047 41487 71805 10152 20057 39720 40078 57006 70222 87500=
0226010470999992013083118004+69000+023033FM-12+030799999V0209999C999999999999N065000199+01211+00571100811ADDAY121021AY221021GA1031+999991061GA2991+999991031GE19MSL   +99999+99999GF107991999999999999999999KA1120M+01581MA1999990097181MD1710011+9990MW1021REMSYN07001047 31487 70000 10121 20057 39718 40081 57001 70222 83570 333 10158=
0187010470999992013090100004+69000+023033FM-12+030799999V0209999C999999999999N000800199+00161+00071101041ADDAY141021AY221021GA1061+999991031GE19MSL   +99999+99999GF106991999999999999999999MA1999990097271MD1210051+9990MW1461REMSYN06001047 41808 60000 10016 20007 39727 40104 52005 74642 86070=
0215010470999992013090106004+69000+023033FM-12+030799999V0209999C999999999999N007000199+00361+00271101031ADDAY141021AY221021GA1071+999991031GE19MSL   +99999+99999GF107991999999999999999999KA1240N+00121MA1999990097301MW1101REMSYN07001047 41857 70000 10036 20027 39730 40103 54001 71042 87070 333 20012=EQDQ014     3APCTEN
0187010470999992013090109004+69000+023033FM-12+030799999V0200501N003019999999N025000199+00771+00681100971ADDAY121021AY221021GA1081+999991051GE19MSL   +99999+99999GF108991999999999999999999MA1999990097281MD1710011+9990MW1021REMSYN06001047 41675 80503 10077 20068 39728 40097 57001 70222 8802/=
0187010470999992013090112004+69000+023033FM-12+030799999V0200501N003019999999N060000199+01081+00691100871ADDAY121021AY221021GA1081+999991061GE19MSL   +99999+99999GF108991999999999999999999MA1999990097231MD1710051+9990MW1021REMSYN06001047 41486 80503 10108 20069 39723 40087 57005 70222 885//=
0203010470999992013090115004+69000+023033FM-12+030799999V0200501N003019999999N060000199+01301+00661100741ADDAY121021AY221021GA1061+999991091GA2991+999991031GE19MSL   +99999+99999GF107991999999999999999999MA1999990097131MD1710091+9990MW1021REMSYN06001047 41486 70503 10130 20066 39713 40074 57009 70222 86340=
0210010470999992013090118004+69000+023033FM-12+030799999V0200501N001019999999N050000199+01101+00731100801ADDAY121021AY221021GA1081+999991061GE19MSL   +99999+99999GF108991999999999999999999KA1120M+01351MA1999990097171MD1310031+9990MW1021REMSYN07001047 31484 80501 10110 20073 39717 40080 53003 70222 885// 333 10135=
0187010470999992013090200004+69000+023033FM-12+030799999V0200901N003019999999N020000199+00921+00781100841ADDAY161021AY251021GA1081+999991051GE19MSL   +99999+99999GF108991999999999999999999MA1999990097181MD1210011+9990MW1581REMSYN06001047 41470 80903 10092 20078 39718 40084 52001 75865 8802/=
0244010470999992013090206004+69000+023033FM-12+030799999V0200901N003019999999N025000199+00861+00721100921ADDAA112003031AA224003431AY161021AY251021GA1081+999991051GE19MSL   +99999+99999GF108991999999999999999999KA1240N+00861MA1999990097261MD1310061+9990MW1021REMSYN08201047 11575 80903 10086 20072 39726 40092 53006 60032 70265 8802/ 333 20086 70034=
0187010470999992013090209004+69000+023033FM-12+030799999V0200901N003019999999N010000199+00951+00791101021ADDAY121021AY221021GA1081+999991071GE19MSL   +99999+99999GF108991999999999999999999MA1999990097361MD1210091+9990MW1101REMSYN06001047 41360 80903 10095 20079 39736 40102 52009 71022 886//=
0187010470999992013090212004+69000+023033FM-12+030799999V0200901N003019999999N010000199+01061+00731101091ADDAY121021AY221021GA1081+999991071GE19MSL   +99999+99999GF108991999999999999999999MA1999990097451MD1210091+9990MW1101REMSYN06001047 41360 80903 10106 20073 39745 40109 52009 71022 886//=
0187010470999992013090215004+69000+023033FM-12+030799999V0200501N003019999999N030000199+01141+00671101131ADDAY121021AY221021GA1081+999991061GE19MSL   +99999+99999GF108991999999999999999999MA1999990097481MD1210051+9990MW1021REMSYN06001047 41480 80503 10114 20067 39748 40113 52005 70222 885//=
0210010470999992013090218004+69000+023033FM-12+030799999V0200901N003019999999N030000199+01041+00581101211ADDAY121021AY221021GA1081+999991061GE19MSL   +99999+99999GF108991999999999999999999KA1120M+01151MA1999990097561MD1310061+9990MW1021REMSYN07001047 31480 80903 10104 20058 39756 40121 53006 70222 885// 333 10115=
0187010470999992013090300004+69000+023033FM-12+030799999V0201401N001019999999N008000199+00481+00351101421ADDAY141021AY221021GA1081+999991061GE19MSL   +99999+99999GF108991999999999999999999MA1999990097681MD1900051+9990MW1101REMSYN06001047 41458 81401 10048 20035 39768 40142 50005 71042 885//=
0226010470999992013090306004+69000+023033FM-12+030799999V0209999C999999999999N020000199+00601+00461101441ADDAY141021AY221021GA1991+999991031GA2061+999991061GE19MSL   +99999+99999GF108991990990999999991991KA1240N+00371MA1999990097721MD1310031+9990MW1021REMSYN07001047 41570 80000 10060 20046 39772 40144 53003 70242 8657/ 333 20037=
0203010470999992013090309004+69000+023033FM-12+030799999V0201401N003019999999N030000199+01151+00871101381ADDAY121021AY221021GA1991+999991031GA2061+999991061GE19MSL   +99999+99999GF107991990990999999991991MA1999990097731MD1210021+9990MW1021REMSYN06001047 41480 71403 10115 20087 39773 40138 52002 70222 86530=
0203010470999992013090312004+69000+023033FM-12+030799999V0201401N005019999999N030000199+01491+00751101351ADDAY121021AY221021GA1991+999991031GA2021+999991061GE19MSL   +99999+99999GF106991990990999999991991MA1999990097751MD1210021+9990MW1021REMSYN06001047 41680 61405 10149 20075 39775 40135 52002 70222 82530=
0187010470999992013090315004+69000+023033FM-12+030799999V0201601N007019999999N050000199+01551+00651101311ADDAY121021AY221021GA1061+999991081GE19MSL   +99999+99999GF106991061990999999991991MA1999990097721MD1710041+9990MW1011REMSYN06001047 41684 61607 10155 20065 39772 40131 57004 70122 86800=
0226010470999992013090318004+69000+023033FM-12+030799999V0201601N005019999999N050000199+01281+00641101401ADDAY121021AY221021GA1991+999991031GA2021+999991061GE19MSL   +99999+99999GF107991990990999999991991KA1120M+01651MA1999990097771MD1310051+9990MW1021REMSYN07001047 31584 71605 10128 20064 39777 40140 53005 70222 82570 333 10165=
0187010470999992013090400004+69000+023033FM-12+030799999V0200501N001019999999N050000199+00901+00751101731ADDAY121021AY221021GA1081+999991051GE19MSL   +99999+99999GF108991081990999999991991MA1999990098031MD1210131+9990MW1021REMSYN06001047 41584 80501 10090 20075 39803 40173 52013 70222 8802/=
0226010470999992013090406004+69000+023033FM-12+030799999V0200501N003019999999N055000199+00921+00561101821ADDAY121021AY221021GA1991+999991051GA2061+999991061GE19MSL   +99999+99999GF108991990990999999991991KA1240N+00811MA1999990098121MD1210021+9990MW1021REMSYN07001047 41585 80503 10092 20056 39812 40182 52002 70222 8652/ 333 20081=
0203010470999992013090409004+69000+023033FM-12+030799999V0200501N005019999999N060000199+01001+00541101821ADDAY121021AY221021GA1991+999991051GA2031+999991061GE19MSL   +99999+99999GF108991990990999999991991MA1999990098131MD1900011+9990MW1021REMSYN06001047 41486 80505 10100 20054 39813 40182 50001 70222 8352/=
0203010470999992013090412004+69000+023033FM-12+030799999V0200901N001019999999N055000199+01261+00601101831ADDAY121021AY221021GA1991+999991031GA2041+999991061GE19MSL   +99999+99999GF107991990990999999991991MA1999990098171MD1900041+9990MW1011REMSYN06001047 41485 70901 10126 20060 39817 40183 50004 70122 84530=
0203010470999992013090415004+69000+023033FM-12+030799999V0201401N003019999999N060000199+01451+00391101781ADDAY121021AY221021GA1991+999991031GA2031+999991061GE19MSL   +99999+99999GF106991990990999999991991MA1999990098161MD1710011+9990MW1021REMSYN06001047 41686 61403 10145 20039 39816 40178 57001 70222 83440=
0210010470999992013090418004+69000+023033FM-12+030799999V0209999C999999999999N060000199+00971+00471101811ADDAY121021AY201021GA1031+999991061GE19MSL   +99999+99999GF103991031990999999991991KA1120M+01461MA1999990098121MD1510031+9990MW1011REMSYN07001047 41686 30000 10097 20047 39812 40181 55003 70120 83400 333 10146=
0187010470999992013090500004+69000+023033FM-12+030799999V0201601N005019999999N030000199+00841+00481101631ADDAY161021AY221021GA1081+999991051GE19MSL   +99999+99999GF108991081990999999991991MA1999990097931MD1610131+9990MW1611REMSYN06001047 41580 81605 10084 20048 39793 40163 56013 76162 8802/=
0243010470999992013090506004+69000+023033FM-12+030799999V0201801N005019999999N060000199+00991+00851101501ADDAA112000931AY161021AY221021GA1991+999991051GA2061+999991061GE19MSL   +99999+99999GF107991990990999999991991KA1240N+00611MA1999990097821MD1710011+9990MW1021REMSYN07601047 11586 71805 10099 20085 39782 40150 57001 69992 70262 86520 333 20061=
0187010470999992013090509004+69000+023033FM-12+030799999V0201801N005019999999N060000199+01401+00861101411ADDAY121021AY221021GA1061+999991031GE19MSL   +99999+99999GF106991061990999999991991MA1999990097801MD1810031+9990MW1021REMSYN06001047 41886 61805 10140 20086 39780 40141 58003 70222 86070=
0203010470999992013090512004+69000+023033FM-12+030799999V0201801N007019999999N060000199+01801+00961101261ADDAY121021AY221021GA1991+999991031GA2021+999991081GE19MSL   +99999+99999GF106991990990999999991991MA1999990097701MD1710111+9990MW1021REMSYN06001047 41686 61807 10180 20096 39770 40126 57011 70222 82190=
0187010470999992013090515004+69000+023033FM-12+030799999V0201801N007019999999N060000199+01941+00931101111ADDAY121021AY221021GA1071+999991081GE19MSL   +99999+99999GF107991071990999999991991MA1999990097571MD1710141+9990MW1021REMSYN06001047 41586 71807 10194 20093 39757 40111 57014 70222 87800=
0226010470999992013090518004+69000+023033FM-12+030799999V0201801N003019999999N060000199+01511+00861101181ADDAY121021AY221021GA1991+999991031GA2061+999991091GE19MSL   +99999+99999GF107991990990999999991991KA1120M+02001MA1999990097581MD1310021+9990MW1021REMSYN07001047 41486 71803 10151 20086 39758 40118 53002 70222 86940 333 10200=
0187010470999992013090600004+69000+023033FM-12+030799999V0201801N005019999999N060000199+01111+00951101331ADDAY121021AY221021GA1051+999991031GE19MSL   +99999+99999GF105991051990999999991991MA1999990097671MD1310091+9990MW1011REMSYN06001047 41886 51805 10111 20095 39767 40133 53009 70122 85070=
0226010470999992013090606004+69000+023033FM-12+030799999V0201801N005019999999N060000199+01101+00731101461ADDAY121021AY221021GA1991+999991031GA2031+999991061GE19MSL   +99999+99999GF108991990990999999991991KA1240N+00971MA1999990097811MD1210061+9990MW1021REMSYN07001047 41686 81805 10110 20073 39781 40146 52006 70222 8347/ 333 20097=
0187010470999992013090609004+69000+023033FM-12+030799999V0201401N007019999999N060000199+01471+00971101451ADDAY121021AY221021GA1051+999991031GE19MSL   +99999+99999GF105991051990999999991991MA1999990097831MD1900031+9990MW1011REMSYN06001047 41886 51407 10147 20097 39783 40145 50003 70122 85070=
0203010470999992013090612004+69000+023033FM-12+030799999V0201801N010019999999N060000199+01541+00891101321ADDAY121021AY221021GA1991+999991051GA2051+999991061GE19MSL   +99999+99999GF108991990990999999991991MA1999990097721MD1710111+9990MW1021REMSYN06001047 41586 81810 10154 20089 39772 40132 57011 70222 8552/=
0187010470999992013090615004+69000+023033FM-12+030799999V0201801N007019999999N060000199+01441+00941101201ADDAY121021AY221021GA1081+999991061GE19MSL   +99999+99999GF108991081990999999991991MA1999990097601MD1610131+9990MW1021REMSYN06001047 41486 81807 10144 20094 39760 40120 56013 70222 885//=
0210010470999992013090618004+69000+023033FM-12+030799999V0201801N005019999999N060000199+01341+00971101171ADDAY121021AY221021GA1081+999991061GE19MSL   +99999+99999GF108991081990999999991991KA1120M+01701MA1999990097561MD1510041+9990MW1021REMSYN07001047 31486 81805 10134 20097 39756 40117 55004 70222 885// 333 10170=
0187010470999992013090700004+69000+023033FM-12+030799999V0201801N005019999999N040000199+01241+01001100781ADDAY161021AY221021GA1081+999991051GE19MSL   +99999+99999GF108991081990999999991991MA1999990097171MD1610221+9990MW1611REMSYN06001047 41582 81805 10124 20100 39717 40078 56022 76162 8802/=
0244010470999992013090706004+69000+023033FM-12+030799999V0209999C999999999999N060000199+01001+00351101301ADDAA112000631AA224000631AY161021AY221021GA1031+999991061GE19MSL   +99999+99999GF103991031990999999991991KA1240N+00741MA1999990097631MD1310271+9990MW1021REMSYN08201047 11586 30000 10100 20035 39763 40130 53027 69962 70262 83400 333 20074 70006=
0203010470999992013090709004+69000+023033FM-12+030799999V0203201N007019999999N060000199+01211+00411101561ADDAY101021AY201021GA1991+999991031GA2021+999991091GE19MSL   +99999+99999GF103991990990999999991991MA1999990097921MD1310251+9990MW1021REMSYN06001047 41586 33207 10121 20041 39792 40156 53025 70200 82340=
0187010470999992013090712004+69000+023033FM-12+030799999V0203201N007019999999N060000199+01341+00291101841ADDAY101021AY201021GA1041+999991061GE19MSL   +99999+99999GF104991041990999999991991MA1999990098201MD1210281+9990MW1031REMSYN06001047 41586 43207 10134 20029 39820 40184 52028 70300 84500=
0187010470999992013090715004+69000+023033FM-12+030799999V0209999C999999999999N020000199+01211+00261101971ADDAY111021AY201021GA1051+999991061GE19MSL   +99999+99999GF105991051990999999991991MA1999990098311MD1210131+9990MW1021REMSYN06001047 41570 50000 10121 20026 39831 40197 52013 70210 85400=
0210010470999992013090718004+69000+023033FM-12+030799999V0209999C999999999999N060000199+00961+00251102121ADDAY121021AY201021GA1071+999991031GE19MSL   +99999+99999GF107991071990999999991991KA1120M+01401MA1999990098421MD1210101+9990MW1021REMSYN07001047 41686 70000 10096 20025 39842 40212 52010 70220 87070 333 10140=
0187010470999992013090800004+69000+023033FM-12+030799999V0202201N005019999999N060000199+00841+00351102321ADDAY121021AY221021GA1081+999991051GE19MSL   +99999+99999GF108991081990999999991991MA1999990098601MD1310041+9990MW1021REMSYN06001047 41586 82205 10084 20035 39860 40232 53004 70222 8802/=
0210010470999992013090806004+69000+023033FM-12+030799999V0201401N005019999999N060000199+00801+00371102371ADDAY121021AY221021GA1071+999991031GE19MSL   +99999+99999GF107991071990999999991991KA1240N+00761MA1999990098651MD1110061+9990MW1021REMSYN07001047 41786 71405 10080 20037 39865 40237 51006 70222 87070 333 20076=
0187010470999992013090809004+69000+023033FM-12+030799999V0201801N005019999999N060000199+01161+00291102371ADDAY121021AY221021GA1061+999991031GE19MSL   +99999+99999GF106991061990999999991991MA1999990098681MD1900021+9990MW1021REMSYN06001047 41886 61805 10116 20029 39868 40237 50002 70222 86070=
0187010470999992013090812004+69000+023033FM-12+030799999V0201801N005019999999N065000199+01661+00371102261ADDAY121021AY201021GA1041+999991031GE19MSL   +99999+99999GF104991041990999999991991MA1999990098651MD1710051+9990MW1011REMSYN06001047 41887 41805 10166 20037 39865 40226 57005 70120 84070=
0206010470999992013090815004+69000+023033FM-12+030799999V0201801N005019999999N065000199+01781+00571102181ADDAY101021AY201021GA1999+999991001GE19MSL   +99999+99999GF103991001990999999991991MA1999990098581MD1510061+9990MW1021REMSYN06001047 41987 31805 10178 20057 39858 40218 55006 70200 80001=EQDQ01    003SCCGA1
0229010470999992013090818004+69000+023033FM-12+030799999V0209999C999999999999N065000199+00811+00151102361ADDAY121021AY201021GA1999+999991001GE19MSL   +99999+99999GF102991001990999999991991KA1120M+01801MA1999990098631MD1210051+9990MW1021REMSYN07001047 41987 20000 10081 20015 39863 40236 52005 70220 80001 333 10180=EQDQ01    003SCCGA1
0063010470999992013090900004+69000+023033FM-12+030799999V020999999999999999999999999999+99999+99999999999REMSYN05401047 41X00 90000 10012 20003 39871 40253 54001 74740=
0210010470999992013091006004+69000+023033FM-12+030799999V0209999C999999999999N060000199+01251+01091101691ADDAY121021AY201021GA1081+999991061GE19MSL   +99999+99999GF108991081990999999991991KA1240N+01101MA1999990098051MD1710041+9990MW1021REMSYN07001047 41586 80000 10125 20109 39805 40169 57004 70220 885// 333 20110=
0187010470999992013091009004+69000+023033FM-12+030799999V0201801N005019999999N055000199+01361+01041101621ADDAY121021AY221021GA1081+999991061GE19MSL   +99999+99999GF108991081990999999991991MA1999990097981MD1710061+9990MW1021REMSYN06001047 41485 81805 10136 20104 39798 40162 57006 70222 885//=
0187010470999992013091012004+69000+023033FM-12+030799999V0201801N007019999999N055000199+01641+00981101501ADDAY121021AY221021GA1051+999991061GE19MSL   +99999+99999GF105991051990999999991991MA1999990097911MD1710091+9990MW1011REMSYN06001047 41485 51807 10164 20098 39791 40150 57009 70122 85500=
0187010470999992013091015004+69000+023033FM-12+030799999V0201801N007019999999N060000199+01761+00851101371ADDAY121021AY211021GA1041+999991081GE19MSL   +99999+99999GF104991041990999999991991MA1999990097801MD1710111+9990MW1021REMSYN06001047 41486 41807 10176 20085 39780 40137 57011 70221 84200=
0226010470999992013091018004+69000+023033FM-12+030799999V0201801N005019999999N065000199+01331+00841101361ADDAY121021AY211021GA1991+999991031GA2031+999991061GE19MSL   +99999+99999GF106991990990999999991991KA1120M+01761MA1999990097731MD1710061+9990MW1021REMSYN07001047 41587 61805 10133 20084 39773 40136 57006 70221 83470 333 10176=
0187010470999992013091100004+69000+023033FM-12+030799999V0201601N005019999999N050000199+00721+00631101241ADDAY111021AY211021GA1041+999991061GE19MSL   +99999+99999GF104991041990999999991991MA1999990097551MD1810121+9990MW1021REMSYN06001047 41584 41605 10072 20063 39755 40124 58012 70211 84500=
0210010470999992013091106004+69000+023033FM-12+030799999V0201601N005019999999N055000199+01181+00921100981ADDAY121021AY211021GA1081+999991071GE19MSL   +99999+99999GF108991081990999999991991KA1240N+00721MA1999990097351MD1710061+9990MW1021REMSYN07001047 41585 81605 10118 20092 39735 40098 57006 70221 887// 333 20072=
0203010470999992013091109004+69000+023033FM-12+030799999V0202701N005019999999N040000199+01221+00751101011ADDAY161021AY221021GA1991+999991051GA2051+999991061GE19MSL   +99999+99999GF108991990990999999991991MA1999990097381MD1310051+9990MW1611REMSYN06001047 41482 82705 10122 20075 39738 40101 53005 76162 8552/=
0203010470999992013091112004+69000+023033FM-12+030799999V0202201N003019999999N025000199+01001+00841101141ADDAY161021AY261021GA1991+999991051GA2051+999991071GE19MSL   +99999+99999GF108991990990999999991991MA1999990097481MD1210101+9990MW1611REMSYN06001047 41475 82203 10100 20084 39748 40114 52010 76166 8572/=
0187010470999992013091115004+69000+023033FM-12+030799999V0202201N003019999999N050000199+01101+00581101121ADDAY161021AY221021GA1061+999991061GE19MSL   +99999+99999GF106991061990999999991991MA1999990097471MD1410001+9990MW1011REMSYN06001047 41484 62203 10110 20058 39747 40112 54000 70162 86500=
0243010470999992013091118004+69000+023033FM-12+030799999V0202201N001019999999N050000199+00861+00721101211ADDAA112002031AY181021AY261021GA1991+999991031GA2051+999991091GE19MSL   +99999+99999GF106991990990999999991991KA1120M+01381MA1999990097531MD1210061+9990MW1251REMSYN07601047 11484 62201 10086 20072 39753 40121 52006 60022 72586 85350 333 10138=
0117010470999992013091200004+69000+023033FM-12+030799999V0201801N003019999999N000500199+00241+00151101471ADDAY141021AY201021MA1999990097711MD1210121+9990MW1461REMSYN05401047 41905 01803 10024 20015 39771 40147 52012 74640=
0226010470999992013091206004+69000+023033FM-12+030799999V0209999C999999999999N005000199+00151+00061101641ADDAY141021AY201021GA1991+999991001GA2021+999991031GE19MSL   +99999+99999GF103991990990999999991991KA1240N-00051MA1999990097861MD1210081+9990MW1101REMSYN07001047 41850 30000 10015 20006 39786 40164 52008 71040 82071 333 21005=
0203010470999992013091209004+69000+023033FM-12+030799999V0201401N003019999999N060000199+00991+00471101551ADDAY121021AY211021GA1991+999991021GA2031+999991061GE19MSL   +99999+99999GF106991990990999999991991MA1999990097871MD1210031+9990MW1021REMSYN06001047 41686 61403 10099 20047 39787 40155 52003 70221 83408=
0203010470999992013091212004+69000+023033FM-12+030799999V0201801N005019999999N060000199+01191+00241101511ADDAY121021AY221021GA1991+999991031GA2041+999991061GE19MSL   +99999+99999GF107991990990999999991991MA1999990097871MD1710021+9990MW1021REMSYN06001047 41586 71805 10119 20024 39787 40151 57002 70222 84440=
0203010470999992013091215004+69000+023033FM-12+030799999V0201801N005019999999N060000199+01301+00341101451ADDAY121021AY211021GA1991+999991031GA2011+999991061GE19MSL   +99999+99999GF105991990990999999991991MA1999990097821MD1810041+9990MW1021REMSYN06001047 41686 51805 10130 20034 39782 40145 58004 70221 81440=
0140010470999992013091218004+69000+023033FM-12+030799999V0209999C999999999999N060000199+00711+00181101511ADDAY101021AY201021KA1120M+01301MA1999990097811MD1510021+9990MW1011REMSYN06401047 31986 00000 10071 20018 39781 40151 55002 70100 333 10130=
0187010470999992013091300004+69000+023033FM-12+030799999V0201801N005019999999N060000199+00801+00651101371ADDAY121021AY201021GA1081+999991061GE19MSL   +99999+99999GF108991081990999999991991MA1999990097671MD1810121+9990MW1021REMSYN06001047 41486 81805 10080 20065 39767 40137 58012 70220 885//=
0226010470999992013091306004+69000+023033FM-12+030799999V0201801N005019999999N040000199+00771+00621101311ADDAY121021AY201021GA1991+999991051GA2061+999991061GE19MSL   +99999+99999GF108991990990999999991991KA1240N+00431MA1999990097621MD1710021+9990MW1021REMSYN07001047 41582 81805 10077 20062 39762 40131 57002 70220 8652/ 333 20043=
0203010470999992013091309004+69000+023033FM-12+030799999V0202201N007019999999N050000199+01021+00561101251ADDAY121021AY221021GA1991+999991031GA2061+999991061GE19MSL   +99999+99999GF107991990990999999991991MA1999990097581MD1810021+9990MW1021REMSYN06001047 41484 72207 10102 20056 39758 40125 58002 70222 86530=
0203010470999992013091315004+69000+023033FM-12+030799999V0201801N007019999999N050000199+01321+00891101121ADDAY121021AY221021GA1991+999991031GA2041+999991061GE19MSL   +99999+99999GF106991990990999999991991MA1999990097511MD1810031+9990MW1011REMSYN06001047 41484 61807 10132 20089 39751 40112 58003 70122 84570=
0226010470999992013091318004+69000+023033FM-12+030799999V0201801N005019999999N050000199+01101+00941101231ADDAY121021AY221021GA1991+999991031GA2031+999991061GE19MSL   +99999+99999GF105991990990999999991991KA1120M+01321MA1999990097581MD1310071+9990MW1011REMSYN07001047 31484 51805 10110 20094 39758 40123 53007 70122 83570 333 10132=
0187010470999992013091400004+69000+023033FM-12+030799999V0201801N003019999999N050000199+00701+00611101451ADDAY121021AY221021GA1071+999991061GE19MSL   +99999+99999GF107991071990999999991991MA1999990097751MD1900071+9990MW1031REMSYN06001047 41484 71803 10070 20061 39775 40145 50007 70322 87500=
0226010470999992013091406004+69000+023033FM-12+030799999V0209999C999999999999N020000199+00801+00711101491ADDAY121021AY221021GA1991+999991051GA2031+999991061GE19MSL   +99999+99999GF108991990990999999991991KA1240N+00501MA1999990097801MD1210031+9990MW1021REMSYN07001047 41570 80000 10080 20071 39780 40149 52003 70222 8352/ 333 20050=
0206010470999992013091409004+69000+023033FM-12+030799999V0201801N001019999999N030000199+01001+00911101461ADDAY121021AY221021GA1081+999991091GE19MSL   +99999+99999GF108991081990999999991991MA1999990097781MD1790039+9990MW1021REMSYN06001047 41480 81801 10100 20091 39778 40146 54001 70222 889//=EQDQ01.1    3APC3  
0219010470999992013091412004+69000+023033FM-12+030799999V0202201N007019999999N050000199+01441+00651101331ADDAY121021AY221021GA1041+999991081GA2991+999991021GA3991+999991031GE19MSL   +99999+99999GF107991041990999999991991MA1999990097721MD1710071+9990MW1021REMSYN06001047 41584 72207 10144 20065 39772 40133 57007 70222 84298=
0203010470999992013091415004+69000+023033FM-12+030799999V0201401N005019999999N050000199+01361+00551101211ADDAY121021AY221021GA1991+999991031GA2031+999991061GE19MSL   +99999+99999GF107991990990999999991991MA1999990097601MD1810121+9990MW1021REMSYN06001047 41584 71405 10136 20055 39760 40121 58012 70222 83570=
0226010470999992013091418004+69000+023033FM-12+030799999V0201601N007019999999N050000199+01241+00601101081ADDAY121021AY221021GA1991+999991031GA2031+999991061GE19MSL   +99999+99999GF107991990990999999991991KA1120M+01451MA1999990097461MD1810171+9990MW1021REMSYN07001047 31584 71607 10124 20060 39746 40108 58017 70222 83570 333 10145=
0203010470999992013091500004+69000+023033FM-12+030799999V0201801N007019999999N050000199+01071+00791100831ADDAY121021AY221021GA1991+999991051GA2041+999991061GE19MSL   +99999+99999GF108991990990999999991991MA1999990097201MD1710121+9990MW1021REMSYN06001047 41484 81807 10107 20079 39720 40083 57012 70222 8452/=
0260010470999992013091506004+69000+023033FM-12+030799999V0201801N007019999999N020000199+01291+01111100701ADDAA112000131AA224000131AY161021AY221021GA1991+999991051GA2061+999991071GE19MSL   +99999+99999GF108991990990999999991991KA1240N+01061MA1999990097101MD1710031+9990MW1601REMSYN08201047 11470 81807 10129 20111 39710 40070 57003 69912 76062 8672/ 333 20106 70001=
0203010470999992013091509004+69000+023033FM-12+030799999V0201801N007019999999N030000199+01281+01101100701ADDAY161021AY221021GA1991+999991051GA2061+999991071GE19MSL   +99999+99999GF108991990990999999991991MA1999990097101MD1410001+9990MW1021REMSYN06001047 41480 81807 10128 20110 39710 40070 54000 70262 8672/=
0219010470999992013091512004+69000+023033FM-12+030799999V0201801N010019999999N050000199+01481+00921100661ADDAY121021AY221021GA1041+999991091GA2991+999991021GA3991+999991031GE19MSL   +99999+99999GF107991041990999999991991MA1999990097071MD1710031+9990MW1021REMSYN06001047 41484 71810 10148 20092 39707 40066 57003 70222 84398=
0203010470999992013091515004+69000+023033FM-12+030799999V0201601N007019999999N050000199+01481+00741100661ADDAY121021AY221021GA1991+999991051GA2021+999991061GE19MSL   +99999+99999GF107991990990999999991991MA1999990097071MD1900001+9990MW1021REMSYN06001047 41584 71607 10148 20074 39707 40066 50000 70222 82520=
0210010470999992013091518004+69000+023033FM-12+030799999V0201601N007019999999N050000199+01361+00551100701ADDAY121021AY221021GA1081+999991051GE19MSL   +99999+99999GF108991081990999999991991KA1120M+01501MA1999990097111MD1310021+9990MW1021REMSYN07001047 31584 81607 10136 20055 39711 40070 53002 70222 8802/ 333 10150=
0226010470999992013091606004+69000+023033FM-12+030799999V0201401N005019999999N060000199+01011+00721100841ADDAY121021AY221021GA1991+999991051GA2061+999991061GE19MSL   +99999+99999GF107991990990999999991991KA1240N+00851MA1999990097201MD1310051+9990MW1021REMSYN07001047 41586 71405 10101 20072 39720 40084 53005 70222 86520 333 20085=
0203010470999992013091609004+69000+023033FM-12+030799999V0201401N007019999999N060000199+01201+00651100851ADDAY121021AY221021GA1991+999991031GA2021+999991081GE19MSL   +99999+99999GF106991990990999999991991MA1999990097221MD1210021+9990MW1021REMSYN06001047 41586 61407 10120 20065 39722 40085 52002 70222 82230=
0203010470999992013091612004+69000+023033FM-12+030799999V0201601N010019999999N060000199+01381+00441100771ADDAY121021AY221021GA1991+999991031GA2041+999991081GE19MSL   +99999+99999GF105991990990999999991991MA1999990097171MD1610051+9990MW1011REMSYN06001047 41586 51610 10138 20044 39717 40077 56005 70122 84230=
0203010470999992013091615004+69000+023033FM-12+030799999V0201601N007019999999N060000199+01341+00461100811ADDAY121021AY221021GA1991+999991031GA2041+999991091GE19MSL   +99999+99999GF106991990990999999991991MA1999990097211MD1310031+9990MW1031REMSYN06001047 41586 61607 10134 20046 39721 40081 53003 70322 84330=
0226010470999992013091618004+69000+023033FM-12+030799999V0201601N007019999999N060000199+01121+00491100921ADDAY121021AY221021GA1991+999991031GA2031+999991061GE19MSL   +99999+99999GF106991990990999999991991KA1120M+01461MA1999990097281MD1310081+9990MW1021REMSYN07001047 31586 61607 10112 20049 39728 40092 53008 70222 83570 333 10146=
0203010470999992013091700004+69000+023033FM-12+030799999V0209999C999999999999N060000199+00621+00481100971ADDAY181021AY221021GA1991+999991031GA2021+999991091GE19MSL   +99999+99999GF104991990990999999991991MA1999990097271MD1710061+9990MW1011REMSYN06001047 41586 40000 10062 20048 39727 40097 57006 70182 82350=
0260010470999992013091706004+69000+023033FM-12+030799999V0209999C999999999999N060000199+00881+00561100951ADDAA112000131AA224000131AY181021AY221021GA1991+999991031GA2041+999991061GE19MSL   +99999+99999GF107991990990999999991991KA1240N+00521MA1999990097281MD1310021+9990MW1021REMSYN08201047 11586 70000 10088 20056 39728 40095 53002 69912 70282 84470 333 20052 70001=
0206010470999992013091709004+69000+023033FM-12+030799999V0201401N005019999999N050000199+01021+00741100911ADDAY121021AY221021GA1081+999991061GE19MSL   +99999+99999GF108991081990999999991991MA1999990097271MD1790049+9990MW1021REMSYN06001047 41484 81405 10102 20074 39727 40091 54001 70222 885//=EQDQ01.1    3APC3  
0206010470999992013091712004+69000+023033FM-12+030799999V0201401N005019999999N050000199+01051+00791100921ADDAY121021AY221021GA1081+999991061GE19MSL   +99999+99999GF108991081990999999991991MA1999990097271MD1290019+9990MW1021REMSYN06001047 41484 81405 10105 20079 39727 40092 54001 70222 885//=EQDQ01.1    3APC3  
0187010470999992013091715004+69000+023033FM-12+030799999V0201401N005019999999N055000199+01101+00841100901ADDAY121021AY221021GA1081+999991061GE19MSL   +99999+99999GF108991081990999999991991MA1999990097271MD1710011+9990MW1021REMSYN06001047 41485 81405 10110 20084 39727 40090 57001 70222 885//=
0210010470999992013091718004+69000+023033FM-12+030799999V0209999C999999999999N055000199+00991+00821100981ADDAY121021AY221021GA1071+999991061GE19MSL   +99999+99999GF107991071990999999991991KA1120M+01131MA1999990097321MD1210071+9990MW1021REMSYN07001047 41485 70000 10099 20082 39732 40098 52007 70222 87500 333 10113=
0187010470999992013091800004+69000+023033FM-12+030799999V0201401N005019999999N055000199+01161+01001101051ADDAY121021AY221021GA1081+999991061GE19MSL   +99999+99999GF108991081990999999991991MA1999990097421MD1210051+9990MW1021REMSYN06001047 41485 81405 10116 20100 39742 40105 52005 70222 885//=
0243010470999992013091806004+69000+023033FM-12+030799999V0201401N005019999999N010000199+01011+00921101131ADDAA112000131AY161021AY221021GA1991+999991051GA2031+999991061GE19MSL   +99999+99999GF108991990990999999991991KA1240N+00771MA1999990097471MD1210011+9990MW1601REMSYN07601047 11460 81405 10101 20092 39747 40113 52001 69912 76062 8352/ 333 20077=
0187010470999992013091809004+69000+023033FM-12+030799999V0201401N007019999999N030000199+01201+01061101161ADDAY161021AY221021GA1081+999991061GE19MSL   +99999+99999GF108991081990999999991991MA1999990097521MD1110051+9990MW1021REMSYN06001047 41480 81407 10120 20106 39752 40116 51005 70262 885//=
0187010470999992013091812004+69000+023033FM-12+030799999V0201401N007019999999N040000199+01401+00941101081ADDAY121021AY221021GA1081+999991061GE19MSL   +99999+99999GF108991081990999999991991MA1999990097471MD1710041+9990MW1021REMSYN06001047 41482 81407 10140 20094 39747 40108 57004 70222 885//=
0187010470999992013091815004+69000+023033FM-12+030799999V0201401N007019999999N050000199+01481+00871101101ADDAY121021AY221021GA1081+999991061GE19MSL   +99999+99999GF108991081990999999991991MA1999990097511MD1210031+9990MW1021REMSYN06001047 41484 81407 10148 20087 39751 40110 52003 70222 885//=
0227010470999992013091818004+69000+023033FM-12+030799999V0201401N005019999999N050000199+01301+00771101231ADDAA112000131AY121021AY221021GA1041+999991061GE19MSL   +99999+99999GF104991041990999999991991KA1120M+01481MA1999990097611MD1210101+9990MW1011REMSYN07601047 11484 41405 10130 20077 39761 40123 52010 69912 70122 84500 333 10148=
0203010470999992013091900004+69000+023033FM-12+030799999V0201401N005019999999N050000199+01221+00891101331ADDAY111021AY211021GA1991+999991031GA2051+999991061GE19MSL   +99999+99999GF107991990990999999991991MA1999990097701MD1210021+9990MW1021REMSYN06001047 41484 71405 10122 20089 39770 40133 52002 70211 85530=
0210010470999992013091906004+69000+023033FM-12+030799999V0201401N005019999999N030000199+00991+00831101471ADDAY121021AY211021GA1081+999991061GE19MSL   +99999+99999GF108991081990999999991991KA1240N+00861MA1999990097801MD1210051+9990MW1021REMSYN07001047 41580 81405 10099 20083 39780 40147 52005 70221 885// 333 20086=
0187010470999992013091909004+69000+023033FM-12+030799999V0201401N005019999999N045000199+01101+00821101471ADDAY121021AY221021GA1081+999991061GE19MSL   +99999+99999GF108991081990999999991991MA1999990097821MD1210021+9990MW1021REMSYN06001047 41483 81405 10110 20082 39782 40147 52002 70222 885//=
0187010470999992013091912004+69000+023033FM-12+030799999V0201401N005019999999N010000199+01241+00851101431ADDAY121021AY221021GA1081+999991061GE19MSL   +99999+99999GF108991081990999999991991MA1999990097801MD1710031+9990MW1021REMSYN06001047 41460 81405 10124 20085 39780 40143 57003 70222 885//=
0187010470999992013091915004+69000+023033FM-12+030799999V0201801N007019999999N050000199+01201+00831101511ADDAY121021AY221021GA1081+999991061GE19MSL   +99999+99999GF108991081990999999991991MA1999990097871MD1310071+9990MW1021REMSYN06001047 41484 81807 10120 20083 39787 40151 53007 70222 885//=
0243010470999992013091918004+69000+023033FM-12+030799999V0201401N005019999999N020000199+01041+00901101561ADDAA112000131AY151021AY221021GA1991+999991051GA2061+999991071GE19MSL   +99999+99999GF108991990990999999991991KA1120M+01281MA1999990097901MD1210031+9990MW1511REMSYN07601047 11470 81405 10104 20090 39790 40156 52003 69912 75152 8672/ 333 10128=
0187010470999992013092000004+69000+023033FM-12+030799999V0201401N005019999999N050000199+01141+00981101511ADDAY151021AY221021GA1081+999991051GE19MSL   +99999+99999GF108991081990999999991991MA1999990097861MD1710031+9990MW1021REMSYN06001047 41584 81405 10114 20098 39786 40151 57003 70252 8802/=
0244010470999992013092006004+69000+023033FM-12+030799999V0201401N005019999999N030000199+01081+00801101531ADDAA112000131AA224000231AY151021AY221021GA1081+999991051GE19MSL   +99999+99999GF108991081990999999991991KA1240N+01031MA1999990097871MD1210021+9990MW1021REMSYN08201047 11580 81405 10108 20080 39787 40153 52002 69912 70252 8802/ 333 20103 70002=
0187010470999992013092012004+69000+023033FM-12+030799999V0201401N005019999999N050000199+01141+00611101571ADDAY121021AY221021GA1081+999991061GE19MSL   +99999+99999GF108991081990999999991991MA1999990097921MD1410001+9990MW1021REMSYN06001047 41484 81405 10114 20061 39792 40157 54000 70222 885//=
0187010470999992013092015004+69000+023033FM-12+030799999V0201401N001019999999N055000199+01141+00591101561ADDAY121021AY221021GA1081+999991061GE19MSL   +99999+99999GF108991081990999999991991MA1999990097911MD1710011+9990MW1021REMSYN06001047 41485 81401 10114 20059 39791 40156 57001 70222 885//=
0210010470999992013092018004+69000+023033FM-12+030799999V0201401N005019999999N055000199+01081+00541101581ADDAY121021AY221021GA1081+999991061GE19MSL   +99999+99999GF108991081990999999991991KA1120M+01161MA1999990097921MD1410001+9990MW1021REMSYN07001047 31485 81405 10108 20054 39792 40158 54000 70222 885// 333 10116=
0192010470999992013092100004+69000+023033FM-12+030799999V0201401N005019999999N055000199+01011+00751101571ADDAY121021AY221021GA1081+999991061GE19MSL   +99999+99999GF108991081990999999991991MA1999990097901MW1021REMSYN06001047 41485 81405 10101 20075 39790 40157 54001 70222 885//=EQDQ014     3APCTEN
0244010470999992013092106004+69000+023033FM-12+030799999V0201401N005019999999N010000199+00921+00761101501ADDAA112000131AA224000131AY151021AY221021GA1081+999991051GE19MSL   +99999+99999GF108991081990999999991991KA1240N+00921MA1999990097821MD1710041+9990MW1501REMSYN08201047 11560 81405 10092 20076 39782 40150 57004 69912 75052 8802/ 333 20092 70001=
0203010470999992013092109004+69000+023033FM-12+030799999V0201401N005019999999N050000199+00981+00601101451ADDAY151021AY221021GA1991+999991051GA2051+999991061GE19MSL   +99999+99999GF108991990990999999991991MA1999990097771MD1710031+9990MW1021REMSYN06001047 41484 81405 10098 20060 39777 40145 57003 70252 8552/=
0187010470999992013092112004+69000+023033FM-12+030799999V0201401N005019999999N060000199+00951+00491101391ADDAY121021AY221021GA1081+999991061GE19MSL   +99999+99999GF108991081990999999991991MA1999990097721MD1710071+9990MW1021REMSYN06001047 41486 81405 10095 20049 39772 40139 57007 70222 885//=
0187010470999992013092115004+69000+023033FM-12+030799999V0201401N005019999999N055000199+00901+00441101321ADDAY121021AY221021GA1081+999991061GE19MSL   +99999+99999GF108991081990999999991991MA1999990097651MD1710071+9990MW1021REMSYN06001047 41485 81405 10090 20044 39765 40132 57007 70222 885//=
0227010470999992013092118004+69000+023033FM-12+030799999V0201401N005019999999N055000199+00871+00411101231ADDAA112000021AY151021AY221021GA1081+999991061GE19MSL   +99999+99999GF108991081990999999991991KA1120M+00981MA1999990097561MD1710091+9990MW1021REMSYN07601047 11485 81405 10087 20041 39756 40123 57009 69902 70252 885// 333 10098=
0187010470999992013092200004+69000+023033FM-12+030799999V0201401N005019999999N060000199+00741+00451101031ADDAY121021AY221021GA1081+999991051GE19MSL   +99999+99999GF108991081990999999991991MA1999990097351MD1710091+9990MW1021REMSYN06001047 41586 81405 10074 20045 39735 40103 57009 70222 8802/=
0260010470999992013092206004+69000+023033FM-12+030799999V0201401N005019999999N060000199+00611+00381100861ADDAA112000131AA224000131AY161021AY221021GA1991+999991051GA2061+999991061GE19MSL   +99999+99999GF108991990990999999991991KA1240N+00611MA1999990097171MD1710081+9990MW1021REMSYN08201047 11486 81405 10061 20038 39717 40086 57008 69912 70262 8652/ 333 20061 70001=
0187010470999992013092209004+69000+023033FM-12+030799999V0201401N005019999999N060000199+00761+00171100801ADDAY121021AY221021GA1081+999991061GE19MSL   +99999+99999GF108991081990999999991991MA1999990097121MD1510031+9990MW1021REMSYN06001047 41486 81405 10076 20017 39712 40080 55003 70222 885//=
0222010470999992013092212004+69000+023033FM-12+030799999V0201401N005019999999N060000199+00781+00171100811ADDAY121021AY221021GA1991+999991001GA2051+999991061GE19MSL   +99999+99999GF106991990990999999991991MA1999990097131MD1290019+9990MW1011REMSYN06001047 41486 61405 10078 20017 39713 40081 54001 70122 85501=EQDQ01.1    3APC3  
0203010470999992013092215004+69000+023033FM-12+030799999V0201401N005019999999N060000199+00801+00101100841ADDAY121021AY221021GA1991+999991031GA2041+999991061GE19MSL   +99999+99999GF106991990990999999991991MA1999990097171MD1310031+9990MW1021REMSYN06001047 41486 61405 10080 20010 39717 40084 53003 70222 84470=
0226010470999992013092218004+69000+023033FM-12+030799999V0201401N003019999999N060000199+00321-00021101051ADDAY121021AY221021GA1991+999991031GA2021+999991061GE19MSL   +99999+99999GF103991990990999999991991KA1120M+00881MA1999990097311MD1210131+9990MW1011REMSYN07001047 31586 31403 10032 21002 39731 40105 52013 70122 82440 333 10088=
0187010470999992013092300004+69000+023033FM-12+030799999V0200501N005019999999N050000199+00461+00211101291ADDAY161021AY221021GA1081+999991051GE19MSL   +99999+99999GF108991081990999999991991MA1999990097561MD1210131+9990MW1021REMSYN06001047 41584 80505 10046 20021 39756 40129 52013 70262 8802/=
0260010470999992013092306004+69000+023033FM-12+030799999V0200501N003019999999N055000199+00471+00211101591ADDAA112000231AA224000231AY161021AY221021GA1991+999991051GA2061+999991071GE19MSL   +99999+99999GF108991990990999999991991KA1240N+00281MA1999990097851MD1310181+9990MW1021REMSYN08201047 11485 80503 10047 20021 39785 40159 53018 69922 70262 8672/ 333 20028 70002=
0187010470999992013092309004+69000+023033FM-12+030799999V0201401N007019999999N040000199+01061+00621101581ADDAY121021AY221021GA1081+999991061GE19MSL   +99999+99999GF108991081990999999991991MA1999990097921MD1210041+9990MW1021REMSYN06001047 41482 81407 10106 20062 39792 40158 52004 70222 885//=
0187010470999992013092312004+69000+023033FM-12+030799999V0200501N007019999999N060000199+00731-00041101781ADDAY121021AY221021GA1041+999991091GE19MSL   +99999+99999GF104991041990999999991991MA1999990098071MD1210081+9990MW1011REMSYN06001047 41586 40507 10073 21004 39807 40178 52008 70122 84300=
0187010470999992013092315004+69000+023033FM-12+030799999V0200501N007019999999N060000199+00601-00141101881ADDAY121021AY211021GA1051+999991091GE19MSL   +99999+99999GF105991051990999999991991MA1999990098151MD1310091+9990MW1021REMSYN06001047 41586 50507 10060 21014 39815 40188 53009 70221 85300=
0226010470999992013092318004+69000+023033FM-12+030799999V0203201N005019999999N060000199+00161-00101102101ADDAY121021AY221021GA1991+999991031GA2011+999991061GE19MSL   +99999+99999GF102991990990999999991991KA1120M+00751MA1999990098301MD1210141+9990MW1011REMSYN07001047 31586 23205 10016 21010 39830 40210 52014 70122 81440 333 10075=
0187010470999992013092400004+69000+023033FM-12+030799999V0200501N005019999999N060000199+00321+00081102231ADDAY121021AY201021GA1081+999991061GE19MSL   +99999+99999GF108991081990999999991991MA1999990098451MD1210071+9990MW1021REMSYN06001047 41486 80505 10032 20008 39845 40223 52007 70220 885//=
0210010470999992013092406004+69000+023033FM-12+030799999V0203601N003019999999N060000199+00251-00041102301ADDAY121021AY201021GA1081+999991031GE19MSL   +99999+99999GF108991081990999999991991KA1240N+00091MA1999990098511MD1210021+9990MW1021REMSYN07001047 41786 83603 10025 21004 39851 40230 52002 70220 8807/ 333 20009=
0187010470999992013092409004+69000+023033FM-12+030799999V0200501N007019999999N060000199+00461+00021102301ADDAY121021AY221021GA1081+999991061GE19MSL   +99999+99999GF108991081990999999991991MA1999990098521MD1210021+9990MW1021REMSYN06001047 41486 80507 10046 20002 39852 40230 52002 70222 885//=
0203010470999992013092412004+69000+023033FM-12+030799999V0203601N007019999999N060000199+00601-00091102221ADDAY121021AY221021GA1991+999991031GA2051+999991091GE19MSL   +99999+99999GF106991990990999999991991MA1999990098471MD1710051+9990MW1011REMSYN06001047 41486 63607 10060 21009 39847 40222 57005 70122 85330=
0203010470999992013092415004+69000+023033FM-12+030799999V0203601N007019999999N060000199+00521-00081102201ADDAY181021AY221021GA1991+999991031GA2031+999991091GE19MSL   +99999+99999GF106991990990999999991991MA1999990098451MD1710031+9990MW1021REMSYN06001047 41486 63607 10052 21008 39845 40220 57003 70282 83330=
0243010470999992013092418004+69000+023033FM-12+030799999V0203601N003019999999N060000199+00241-00051102251ADDAA112000131AY181021AY221021GA1991+999991031GA2031+999991061GE19MSL   +99999+99999GF105991990990999999991991KA1120M+00651MA1999990098461MD1210021+9990MW1011REMSYN07601047 11586 53603 10024 21005 39846 40225 52002 69912 70182 83470 333 10065=
0187010470999992013092500004+69000+023033FM-12+030799999V0203601N005019999999N060000199+00201-00041102261ADDAY121021AY201021GA1081+999991051GE19MSL   +99999+99999GF108991081990999999991991MA1999990098461MD1900001+9990MW1021REMSYN06001047 41586 83605 10020 21004 39846 40226 50000 70220 8802/=
0244010470999992013092506004+69000+023033FM-12+030799999V0203601N005019999999N010000199+00241+00111102181ADDAA112000331AA224000431AY161021AY221021GA1081+999991051GE19MSL   +99999+99999GF108991081990999999991991KA1240N+00161MA1999990098381MD1710031+9990MW1021REMSYN08201047 11560 83605 10024 20011 39838 40218 57003 69932 70262 8802/ 333 20016 70004=
0203010470999992013092509004+69000+023033FM-12+030799999V0200501N005019999999N060000199+00411-00031102121ADDAY121021AY221021GA1991+999991031GA2051+999991091GE19MSL   +99999+99999GF107991990990999999991991MA1999990098351MD1710041+9990MW1021REMSYN06001047 41486 70505 10041 21003 39835 40212 57004 70222 85330=
0187010470999992013092512004+69000+023033FM-12+030799999V0203601N007019999999N050000199+00401-00111102061ADDAY181021AY221021GA1061+999991091GE19MSL   +99999+99999GF106991061990999999991991MA1999990098281MD1710061+9990MW1261REMSYN06001047 41484 63607 10040 21011 39828 40206 57006 72682 86300=
0187010470999992013092515004+69000+023033FM-12+030799999V0203601N005019999999N060000199+00301-00211101991ADDAY181021AY221021GA1031+999991091GE19MSL   +99999+99999GF103991031990999999991991MA1999990098211MD1710081+9990MW1011REMSYN06001047 41486 33605 10030 21021 39821 40199 57008 70182 83300=
0243010470999992013092518004+69000+023033FM-12+030799999V0203601N005019999999N060000199+00101-00041101961ADDAA112000531AY181021AY221021GA1991+999991031GA2021+999991091GE19MSL   +99999+99999GF103991990990999999991991KA1120M+00521MA1999990098161MD1710051+9990MW1011REMSYN07601047 11486 33605 10010 21004 39816 40196 57005 69952 70182 82340 333 10052=
0187010470999992013092600004+69000+023033FM-12+030799999V0203601N005019999999N060000199-00021-00081101851ADDAY101021AY201021GA1021+999991031GE19MSL   +99999+99999GF102991021990999999991991MA1999990098051MD1810071+9990MW1021REMSYN06001047 41886 23605 11002 21008 39805 40185 58007 70200 82070=
0244010470999992013092606004+69000+023033FM-12+030799999V0203601N007019999999N025000199+00241+00091101631ADDAA112000331AA224000831AY171021AY261021GA1081+999991051GE19MSL   +99999+99999GF108991081990999999991991KA1240N-00091MA1999990097861MD1710091+9990MW1601REMSYN08201047 11575 83607 10024 20009 39786 40163 57009 69932 76076 8802/ 333 21009 70008=
0203010470999992013092609004+69000+023033FM-12+030799999V0203601N010019999999N030000199+00401+00251101541ADDAY161021AY261021GA1991+999991051GA2061+999991071GE19MSL   +99999+99999GF108991990990999999991991MA1999990097781MD1710061+9990MW1611REMSYN06001047 41480 83610 10040 20025 39778 40154 57006 76166 8672/=
0187010470999992013092612004+69000+023033FM-12+030799999V0203601N007019999999N020000199+00481+00351101551ADDAY161021AY261021GA1081+999991051GE19MSL   +99999+99999GF108991081990999999991991MA1999990097811MD1210021+9990MW1611REMSYN06001047 41570 83607 10048 20035 39781 40155 52002 76166 8802/=
0222010470999992013092615004+69000+023033FM-12+030799999V0203601N007019999999N020000199+00481+00331101541ADDAY161021AY261021GA1991+999991051GA2061+999991071GE19MSL   +99999+99999GF108991990990999999991991MA1999990097801MD1790019+9990MW1611REMSYN06001047 41470 83607 10048 20033 39780 40154 54001 76166 8672/=EQDQ01.1    3APC3  
0227010470999992013092618004+69000+023033FM-12+030799999V0200501N007019999999N010000199+00441+00351101541ADDAA112005031AY161021AY261021GA1081+999991051GE19MSL   +99999+99999GF108991081990999999991991KA1120M+00551MA1999990097801MD1410001+9990MW1631REMSYN07601047 11560 80507 10044 20035 39780 40154 54000 60052 76366 8802/ 333 10055=
0187010470999992013092700004+69000+023033FM-12+030799999V0203601N007019999999N060000199+00481+00221101641ADDAY161021AY221021GA1081+999991051GE19MSL   +99999+99999GF108991081990999999991991MA1999990097901MD1210041+9990MW1021REMSYN06001047 41586 83607 10048 20022 39790 40164 52004 70262 8802/=
0260010470999992013092706004+69000+023033FM-12+030799999V0203601N007019999999N060000199+00431-00091101781ADDAA112002031AA224006231AY161021AY221021GA1991+999991051GA2061+999991071GE19MSL   +99999+99999GF108991990990999999991991KA1240N+00421MA1999990098021MD1210101+9990MW1021REMSYN08201047 11486 83607 10043 21009 39802 40178 52010 60022 70262 8672/ 333 20042 70062=
0203010470999992013092709004+69000+023033FM-12+030799999V0203601N007019999999N060000199+00501-00061101941ADDAY121021AY221021GA1991+999991051GA2041+999991061GE19MSL   +99999+99999GF108991990990999999991991MA1999990098181MD1310091+9990MW1021REMSYN06001047 41486 83607 10050 21006 39818 40194 53009 70222 8452/=
0203010470999992013092712004+69000+023033FM-12+030799999V0203601N007019999999N050000199+00541+00171102041ADDAY121021AY221021GA1991+999991051GA2041+999991061GE19MSL   +99999+99999GF108991990990999999991991MA1999990098281MD1210101+9990MW1021REMSYN06001047 41484 83607 10054 20017 39828 40204 52010 70222 8452/=
0203010470999992013092715004+69000+023033FM-12+030799999V0200501N005019999999N050000199+00481+00001102131ADDAY161021AY221021GA1991+999991031GA2031+999991061GE19MSL   +99999+99999GF105991990990999999991991MA1999990098371MD1310071+9990MW1011REMSYN06001047 41484 50505 10048 20000 39837 40213 53007 70162 83570=
0227010470999992013092718004+69000+023033FM-12+030799999V0200501N003019999999N050000199+00381+00021102271ADDAA112000131AY161021AY221021GA1071+999991061GE19MSL   +99999+99999GF107991071990999999991991KA1120M+00581MA1999990098481MD1210131+9990MW1031REMSYN07601047 11484 70503 10038 20002 39848 40227 52013 69912 70362 87500 333 10058=
0244010470999992013092806004+69000+023033FM-12+030799999V0209999C999999999999N025000199+00321+00251102461ADDAA112000231AA224000331AY161021AY221021GA1081+999991051GE19MSL   +99999+99999GF108991081990999999991991KA1240N+00321MA1999990098671MD1210061+9990MW1021REMSYN08201047 11575 80000 10032 20025 39867 40246 52006 69922 70262 8802/ 333 20032 70003=
0222010470999992013092809004+69000+023033FM-12+030799999V0209999C999999999999N030000199+00451+00201102451ADDAY121021AY221021GA1991+999991051GA2041+999991061GE19MSL   +99999+99999GF108991990990999999991991MA1999990098671MD1790019+9990MW1021REMSYN06001047 41480 80000 10045 20020 39867 40245 54001 70222 8452/=EQDQ01.1    3APC3  
0203010470999992013092812004+69000+023033FM-12+030799999V0209999C999999999999N030000199+00581+00101102441ADDAY121021AY221021GA1991+999991051GA2051+999991061GE19MSL   +99999+99999GF108991990990999999991991MA1999990098671MD1410001+9990MW1021REMSYN06001047 41480 80000 10058 20010 39867 40244 54000 70222 8552/=
0206010470999992013092815004+69000+023033FM-12+030799999V0200901N003019999999N030000199+00611+00261102421ADDAY121021AY221021GA1081+999991061GE19MSL   +99999+99999GF108991081990999999991991MA1999990098671MD1790029+9990MW1021REMSYN06001047 41480 80903 10061 20026 39867 40242 54001 70222 885//=EQDQ01.1    3APC3  
0210010470999992013092818004+69000+023033FM-12+030799999V0200901N001019999999N050000199+00481+00171102491ADDAY121021AY221021GA1081+999991061GE19MSL   +99999+99999GF108991081990999999991991KA1120M+00651MA1999990098721MD1210051+9990MW1021REMSYN07001047 31484 80901 10048 20017 39872 40249 52005 70222 885// 333 10065=
0187010470999992013092900004+69000+023033FM-12+030799999V0201401N003019999999N050000199+00341+00031102561ADDAY121021AY221021GA1081+999991051GE19MSL   +99999+99999GF108991081990999999991991MA1999990098771MD1900041+9990MW1021REMSYN06001047 41584 81403 10034 20003 39877 40256 50004 70222 8802/=
0210010470999992013092906004+69000+023033FM-12+030799999V0201401N003019999999N060000199+00241-00331102621ADDAY121021AY221021GA1071+999991061GE19MSL   +99999+99999GF107991071990999999991991KA1240N+00241MA1999990098811MD1210031+9990MW1021REMSYN07001047 41586 71403 10024 21033 39881 40262 52003 70222 87500 333 20024=
0187010470999992013092909004+69000+023033FM-12+030799999V0201401N003019999999N060000199+00281-00311102641ADDAY121021AY221021GA1071+999991061GE19MSL   +99999+99999GF107991071990999999991991MA1999990098831MD1210031+9990MW1021REMSYN06001047 41486 71403 10028 21031 39883 40264 52003 70222 87500=
0187010470999992013092912004+69000+023033FM-12+030799999V0201801N005019999999N060000199+00341-00341102621ADDAY121021AY221021GA1071+999991061GE19MSL   +99999+99999GF107991071990999999991991MA1999990098821MD1710021+9990MW1021REMSYN06001047 41486 71805 10034 21034 39882 40262 57002 70222 87500=
0187010470999992013092915004+69000+023033FM-12+030799999V0201401N005019999999N060000199+00301-00381102611ADDAY121021AY221021GA1071+999991061GE19MSL   +99999+99999GF107991071990999999991991MA1999990098811MD1710021+9990MW1021REMSYN06001047 41486 71405 10030 21038 39881 40261 57002 70222 87500=
0210010470999992013092918004+69000+023033FM-12+030799999V0201401N003019999999N060000199+00221-00451102661ADDAY121021AY221021GA1081+999991061GE19MSL   +99999+99999GF108991081990999999991991KA1120M+00361MA1999990098851MD1210041+9990MW1021REMSYN07001047 31486 81403 10022 21045 39885 40266 52004 70222 885// 333 10036=
0187010470999992013093000004+69000+023033FM-12+030799999V0201801N001019999999N060000199+00101-00481102711ADDAY121021AY221021GA1081+999991061GE19MSL   +99999+99999GF108991081990999999991991MA1999990098871MD1410001+9990MW1021REMSYN06001047 41486 81801 10010 21048 39887 40271 54000 70222 885//=
0210010470999992013093006004+69000+023033FM-12+030799999V0209999C999999999999N060000199+00011-00431102691ADDAY121021AY221021GA1071+999991061GE19MSL   +99999+99999GF107991071990999999991991KA1240N-00031MA1999990098861MD1710021+9990MW1021REMSYN07001047 41586 70000 10001 21043 39886 40269 57002 70222 87500 333 21003=
0206010470999992013093009004+69000+023033FM-12+030799999V0201801N005019999999N060000199+00281-00461102651ADDAY121021AY221021GA1071+999991061GE19MSL   +99999+99999GF107991071990999999991991MA1999990098851MD1790049+9990MW1021REMSYN06001047 41586 71805 10028 21046 39885 40265 54001 70222 87500=EQDQ01.1    3APC3  
0187010470999992013093012004+69000+023033FM-12+030799999V0201801N007019999999N060000199+00351-00471102591ADDAY111021AY211021GA1051+999991061GE19MSL   +99999+99999GF105991051990999999991991MA1999990098801MD1710051+9990MW1031REMSYN06001047 41586 51807 10035 21047 39880 40259 57005 70311 85500=
0187010470999992013093015004+69000+023033FM-12+030799999V0201801N005019999999N060000199+00221-00491102541ADDAY111021AY211021GA1021+999991061GE19MSL   +99999+99999GF102991021990999999991991MA1999990098721MD1810071+9990MW1011REMSYN06001047 41586 21805 10022 21049 39872 40254 58007 70111 82500=
0229010470999992013093018004+69000+023033FM-12+030799999V0201601N005019999999N060000199+00101-00441102541ADDAY111021AY211021GA1051+999991031GE19MSL   +99999+99999GF105991051990999999991991KA1120M+00441MA1999990098721MD1410009+9990MW1031REMSYN07001047 31786 51605 10010 21044 39872 40254 54001 70311 85070 333 10044=EQDQ01.1    3APC3  
0187010470999992013100100004+69000+023033FM-12+030799999V0201401N005019999999N060000199+00081-00351102381ADDAY121021AY221021GA1081+999991051GE19MSL   +99999+99999GF108991081990999999991991MA1999990098571MD1810101+9990MW1021REMSYN06001047 41586 81405 10008 21035 39857 40238 58010 70222 8802/=
0210010470999992013100106004+69000+023033FM-12+030799999V0201401N005019999999N060000199+00111-00231102091ADDAY121021AY221021GA1081+999991051GE19MSL   +99999+99999GF108991081990999999991991KA1240N-00051MA1999990098281MD1710151+9990MW1021REMSYN07001047 41686 81405 10011 21023 39828 40209 57015 70222 8802/ 333 21005=
0203010470999992013100109004+69000+023033FM-12+030799999V0201801N007019999999N060000199+00221-00121101931ADDAY121021AY221021GA1991+999991051GA2051+999991061GE19MSL   +99999+99999GF108991990990999999991991MA1999990098151MD1710131+9990MW1021REMSYN06001047 41586 81807 10022 21012 39815 40193 57013 70222 8552/=
0203010470999992013100112004+69000+023033FM-12+030799999V0201801N007019999999N025000199+00221+00091101791ADDAY161021AY221021GA1991+999991051GA2061+999991071GE19MSL   +99999+99999GF108991990990999999991991MA1999990098011MD1810141+9990MW1611REMSYN06001047 41475 81807 10022 20009 39801 40179 58014 76162 8672/=
0203010470999992013100115004+69000+023033FM-12+030799999V0201801N005019999999N050000199+00251+00161101661ADDAY161021AY221021GA1991+999991051GA2061+999991071GE19MSL   +99999+99999GF108991990990999999991991MA1999990097881MD1610131+9990MW1211REMSYN06001047 41484 81805 10025 20016 39788 40166 56013 72162 8672/=
0243010470999992013100118004+69000+023033FM-12+030799999V0201801N005019999999N025000199+00321+00251101561ADDAA112004031AY161021AY221021GA1991+999991051GA2061+999991071GE19MSL   +99999+99999GF108991990990999999991991KA1120M+00321MA1999990097801MD1710091+9990MW1611REMSYN07601047 11475 81805 10032 20025 39780 40156 57009 60042 76162 8672/ 333 10032=
0187010470999992013100200004+69000+023033FM-12+030799999V0201601N007019999999N050000199+00561+00431101421ADDAY161021AY221021GA1081+999991051GE19MSL   +99999+99999GF108991081990999999991991MA1999990097701MD1410001+9990MW1021REMSYN06001047 41584 81607 10056 20043 39770 40142 54000 70262 8802/=
0244010470999992013100206004+69000+023033FM-12+030799999V0201401N005019999999N050000199+00661+00381101421ADDAA112000431AA224003931AY161021AY221021GA1081+999991051GE19MSL   +99999+99999GF108991081990999999991991KA1240N+00311MA1999990097711MD1410001+9990MW1021REMSYN08201047 11584 81405 10066 20038 39771 40142 54000 69942 70262 8802/ 333 20031 70039=
0203010470999992013100209004+69000+023033FM-12+030799999V0202201N005019999999N055000199+00801+00371101441ADDAY121021AY221021GA1991+999991051GA2021+999991061GE19MSL   +99999+99999GF108991990990999999991991MA1999990097751MD1210041+9990MW1021REMSYN06001047 41485 82205 10080 20037 39775 40144 52004 70222 8252/=
0203010470999992013100212004+69000+023033FM-12+030799999V0201801N007019999999N060000199+00901+00381101441ADDAY121021AY221021GA1991+999991051GA2031+999991061GE19MSL   +99999+99999GF108991990990999999991991MA1999990097761MD1210021+9990MW1021REMSYN06001047 41486 81807 10090 20038 39776 40144 52002 70222 8352/=
0203010470999992013100215004+69000+023033FM-12+030799999V0201801N005019999999N060000199+00861+00401101451ADDAY161021AY221021GA1991+999991051GA2041+999991061GE19MSL   +99999+99999GF108991990990999999991991MA1999990097771MD1510001+9990MW1021REMSYN06001047 41486 81805 10086 20040 39777 40145 55000 70262 8452/=
0243010470999992013100218004+69000+023033FM-12+030799999V0201801N005019999999N060000199+00821+00351101511ADDAA112000131AY161021AY221021GA1991+999991031GA2031+999991061GE19MSL   +99999+99999GF108991990990999999991991KA1120M+00941MA1999990097821MD1210051+9990MW1021REMSYN07601047 11586 81805 10082 20035 39782 40151 52005 69912 70262 8357/ 333 10094=
0187010470999992013100300004+69000+023033FM-12+030799999V0201801N007019999999N060000199+00551+00111101481ADDAY121021AY201021GA1021+999991031GE19MSL   +99999+99999GF102991021990999999991991MA1999990097761MD1810091+9990MW1021REMSYN06001047 41886 21807 10055 20011 39776 40148 58009 70220 82040=
0231010470999992013100306004+69000+023033FM-12+030799999V0201801N007019999999N060000199+00581+00231101511ADDAY121021AY201021GA1991+999991031GA2031+999991081GE19MSL   +99999+99999GF107991990990999999991991KA1240N+00391MA1999990097781MW1021REMSYN07001047 41586 71807 10058 20023 39778 40151 54001 70220 83270 333 20039=EQDQ014     3APCTEN
0187010470999992013100309004+69000+023033FM-12+030799999V0201801N005019999999N060000199+01001+00371101531ADDAY121021AY221021GA1081+999991031GE19MSL   +99999+99999GF108991081990999999991991MA1999990097861MD1110061+9990MW1021REMSYN06001047 41886 81805 10100 20037 39786 40153 51006 70222 8807/=
0203010470999992013100312004+69000+023033FM-12+030799999V0201801N005019999999N060000199+01021+00301101591ADDAY121021AY221021GA1991+999991031GA2031+999991061GE19MSL   +99999+99999GF108991990990999999991991MA1999990097921MD1210061+9990MW1021REMSYN06001047 41586 81805 10102 20030 39792 40159 52006 70222 8357/=
0203010470999992013100315004+69000+023033FM-12+030799999V0201801N005019999999N060000199+01001+00281101581ADDAY121021AY221021GA1991+999991031GA2041+999991061GE19MSL   +99999+99999GF108991990990999999991991MA1999990097911MD1710021+9990MW1021REMSYN06001047 41586 81805 10100 20028 39791 40158 57002 70222 8457/=
0226010470999992013100318004+69000+023033FM-12+030799999V0201801N005019999999N060000199+00821+00291101601ADDAY121021AY221021GA1991+999991031GA2041+999991061GE19MSL   +99999+99999GF108991990990999999991991KA1120M+01051MA1999990097911MD1410001+9990MW1021REMSYN07001047 31586 81805 10082 20029 39791 40160 54000 70222 8457/ 333 10105=
0117010470999992013100400004+69000+023033FM-12+030799999V0202201N005019999999N060000199+00321+00031101491ADDAY121021AY201021MA1999990097731MD1710121+9990MW1011REMSYN05401047 41986 02205 10032 20003 39773 40149 57012 70120=
0210010470999992013100406004+69000+023033FM-12+030799999V0209999C999999999999N060000199+00221+00071101271ADDAY121021AY201021GA1071+999991031GE19MSL   +99999+99999GF107991071990999999991991KA1240N+00221MA1999990097511MD1710121+9990MW1031REMSYN07001047 41886 70000 10022 20007 39751 40127 57012 70320 87070 333 20022=
0187010470999992013100409004+69000+023033FM-12+030799999V0201601N005019999999N060000199+00741+00211101071ADDAY111021AY211021GA1031+999991031GE19MSL   +99999+99999GF103991031990999999991991MA1999990097381MD1510121+9990MW1011REMSYN06001047 41886 31605 10074 20021 39738 40107 55012 70111 83070=
0203010470999992013100412004+69000+023033FM-12+030799999V0201801N005019999999N060000199+00981+00201100871ADDAY111021AY211021GA1991+999991031GA2061+999991061GE19MSL   +99999+99999GF108991990990999999991991MA1999990097221MD1610181+9990MW1021REMSYN06001047 41586 81805 10098 20020 39722 40087 56018 70211 8657/=
0203010470999992013100415004+69000+023033FM-12+030799999V0201801N005019999999N060000199+00621+00151100721ADDAY121021AY211021GA1991+999991051GA2051+999991061GE19MSL   +99999+99999GF108991990990999999991991MA1999990097021MD1610191+9990MW1291REMSYN06001047 41586 81805 10062 20015 39702 40072 56019 72921 8552/=
0210010470999992013100418004+69000+023033FM-12+030799999V0201801N005019999999N060000199+00441+00211100591ADDAY121021AY221021GA1081+999991051GE19MSL   +99999+99999GF108991081990999999991991KA1120M+01041MA1999990096871MD1810141+9990MW1021REMSYN07001047 31686 81805 10044 20021 39687 40059 58014 70222 8802/ 333 10104=
0187010470999992013100500004+69000+023033FM-12+030799999V0201801N005019999999N060000199+00421+00291100281ADDAY121021AY221021GA1081+999991051GE19MSL   +99999+99999GF108991081990999999991991MA1999990096571MD1810131+9990MW1021REMSYN06001047 41586 81805 10042 20029 39657 40028 58013 70222 8802/=
0244010470999992013100506004+69000+023033FM-12+030799999V0209999C999999999999N025000199+00421+00331100121ADDAA112000231AA224000231AY161021AY221021GA1081+999991051GE19MSL   +99999+99999GF108991081990999999991991KA1240N+00421MA1999990096421MD1710041+9990MW1601REMSYN08201047 11575 80000 10042 20033 39642 40012 57004 69922 76062 88/2/ 333 20042 70002=
0187010470999992013100509004+69000+023033FM-12+030799999V0201401N005019999999N050000199+00461+00371100021ADDAY161021AY221021GA1081+999991071GE19MSL   +99999+99999GF108991081990999999991991MA1999990096331MD1710081+9990MW1021REMSYN06001047 41384 81405 10046 20037 39633 40002 57008 70262 886//=
0187010470999992013100512004+69000+023033FM-12+030799999V0201801N005019999999N050000199+00501+00351099931ADDAY121021AY221021GA1081+999991061GE19MSL   +99999+99999GF108991081990999999991991MA1999990096261MD1810081+9990MW1021REMSYN06001047 41484 81805 10050 20035 39626 49993 58008 70222 885//=
0203010470999992013100515004+69000+023033FM-12+030799999V0201601N005019999999N030000199+00501+00331099851ADDAY161021AY221021GA1991+999991051GA2041+999991061GE19MSL   +99999+99999GF108991990990999999991991MA1999990096171MD1610091+9990MW1601REMSYN06001047 41480 81605 10050 20033 39617 49985 56009 76062 8452/=
0227010470999992013100518004+69000+023033FM-12+030799999V0201801N003019999999N020000199+00441+00351099711ADDAA112002031AY171021AY261021GA1081+999991051GE19MSL   +99999+99999GF108991081990999999991991KA1120M+00551MA1999990096031MD1710141+9990MW1681REMSYN07601047 11570 81803 10044 20035 39603 49971 57014 60022 76876 8802/ 333 10055=
0187010470999992013100600004+69000+023033FM-12+030799999V0201801N003019999999N020000199+00501+00431099681ADDAY171021AY261021GA1081+999991051GE19MSL   +99999+99999GF108991081990999999991991MA1999990096021MD1310071+9990MW1581REMSYN06001047 41570 81803 10050 20043 39602 49968 53007 75876 8802/=
0244010470999992013100606004+69000+023033FM-12+030799999V0209999C999999999999N060000199+00211+00021100021ADDAA112005031AA224006631AY171021AY261021GA1061+999991061GE19MSL   +99999+99999GF106991061990999999991991KA1240N+00121MA1999990096311MD1310111+9990MW1021REMSYN08201047 11586 60000 10021 20002 39631 40002 53011 60052 70276 86400 333 20012 70066=
0187010470999992013100609004+69000+023033FM-12+030799999V0202701N003019999999N060000199+00601-00011100041ADDAY121021AY221021GA1071+999991031GE19MSL   +99999+99999GF107991071990999999991991MA1999990096371MD1210071+9990MW1031REMSYN06001047 41886 72703 10060 21001 39637 40004 52007 70322 87070=
0187010470999992013100612004+69000+023033FM-12+030799999V0201801N005019999999N060000199+00761-00081099951ADDAY121021AY221021GA1051+999991031GE19MSL   +99999+99999GF105991051990999999991991MA1999990096311MD1810071+9990MW1011REMSYN06001047 41886 51805 10076 21008 39631 49995 58007 70122 85070=
0187010470999992013100615004+69000+023033FM-12+030799999V0209999C999999999999N060000199+00481-00041099881ADDAY121021AY221021GA1061+999991031GE19MSL   +99999+99999GF106991061990999999991991MA1999990096211MD1810121+9990MW1021REMSYN06001047 41886 60000 10048 21004 39621 49988 58012 70222 86070=
0210010470999992013100618004+69000+023033FM-12+030799999V0201801N003019999999N060000199+00171-00021099761ADDAY121021AY221021GA1041+999991031GE19MSL   +99999+99999GF104991041990999999991991KA1120M+00801MA1999990096051MD1710141+9990MW1011REMSYN07001047 31886 41803 10017 21002 39605 49976 57014 70122 84070 333 10080=
0181010470999992013100700004+69000+023033FM-12+030799999V0201801N003019999999N004000199+00081+00011099851ADDAY151021AY221021GA1081+999991051GE19MSL   +99999+99999GF108991081990999999991991MA1999990096121MD1310121+9990REMSYN06001047 41540 81803 10008 20001 39612 49985 53012 7//52 8802/=
0200010470999992013100706004+69000+023033FM-12+030799999V0209999C99999000001CN000000199+00171+00101100191ADDAA112000631AA224000631AY151021AY241021GF109991999999999999999999KA1240N-00091MA1999990096461MD1210231+9990MW1451REMSYN07601047 11/00 90000 10017 20010 39646 40019 52023 69962 74554 333 21009 70006=
0187010470999992013100709004+69000+023033FM-12+030799999V0201801N001019999999N050000199+00311+00241100471ADDAY141021AY221021GA1081+999991071GE19MSL   +99999+99999GF108991081990999999991991MA1999990096751MD1310241+9990MW1021REMSYN06001047 41384 81801 10031 20024 39675 40047 53024 70242 886//=
0203010470999992013100712004+69000+023033FM-12+030799999V0200901N001019999999N050000199+00541+00261100621ADDAY121021AY221021GA1991+999991031GA2021+999991061GE19MSL   +99999+99999GF107991990990999999991991MA1999990096921MD1310191+9990MW1021REMSYN06001047 41484 70901 10054 20026 39692 40062 53019 70222 82570=
0187010470999992013100715004+69000+023033FM-12+030799999V0201401N001019999999N060000199+00321+00081100791ADDAY121021AY221021GA1031+999991031GE19MSL   +99999+99999GF103991031990999999991991MA1999990097061MD1210131+9990MW1011REMSYN06001047 41886 31401 10032 20008 39706 40079 52013 70122 83070=
0210010470999992013100718004+69000+023033FM-12+030799999V0201801N003019999999N060000199-00081-00331100941ADDAY101021AY201021GA1031+999991031GE19MSL   +99999+99999GF103991031990999999991991KA1120M+00551MA1999990097171MD1110101+9990MW1021REMSYN07001047 31886 31803 11008 21033 39717 40094 51010 70200 83070 333 10055=
0117010470999992013100800004+69000+023033FM-12+030799999V0209999C999999999999N050000199-00201-00261101081ADDAY101021AY201021MA1999990097301MD1210051+9990MW1021REMSYN05401047 41984 00000 11020 21026 39730 40108 52005 70200=
0210010470999992013100806004+69000+023033FM-12+030799999V0209999C999999999999N060000199-00391-00451101041ADDAY121021AY201021GA1061+999991061GE19MSL   +99999+99999GF107991061990999999991991KA1240N-00391MA1999990097261MD1510011+9990MW1021REMSYN07001047 41586 70000 11039 21045 39726 40104 55001 70220 86500 333 21039=
0187010470999992013100809004+69000+023033FM-12+030799999V0201801N003019999999N060000199+00201+00041101031ADDAY121021AY221021GA1021+999991031GE19MSL   +99999+99999GF102991021990999999991991MA1999990097271MD1310021+9990MW1011REMSYN06001047 41886 21803 10020 20004 39727 40103 53002 70122 82070=
0203010470999992013100812004+69000+023033FM-12+030799999V0201801N003019999999N060000199+00611+00001101011ADDAY101021AY201021GA1991+999991021GA2021+999991081GE19MSL   +99999+99999GF104991990990999999991991MA1999990097311MD1210031+9990MW1031REMSYN06001047 41686 41803 10061 20000 39731 40101 52003 70300 82108=
0203010470999992013100815004+69000+023033FM-12+030799999V0209999C999999999999N060000199+00261-00251101051ADDAY121021AY211021GA1991+999991021GA2031+999991081GE19MSL   +99999+99999GF105991990990999999991991MA1999990097301MD1710011+9990MW1021REMSYN06001047 41686 50000 10026 21025 39730 40105 57001 70221 83108=
0210010470999992013100818004+69000+023033FM-12+030799999V0201601N003019999999N060000199-00201-00331101091ADDAY111021AY211021GA1021+999991031GE19MSL   +99999+99999GF102991021990999999991991KA1120M+00661MA1999990097311MD1210021+9990MW1011REMSYN07001047 31886 21603 11020 21033 39731 40109 52002 70111 82070 333 10066=
0187010470999992013100900004+69000+023033FM-12+030799999V0200501N003019999999N060000199-00381-00501100931ADDAY101021AY201021GA1051+999991031GE19MSL   +99999+99999GF105991051990999999991991MA1999990097151MD1710101+9990MW1031REMSYN06001047 41886 50503 11038 21050 39715 40093 57010 70300 85070=
0210010470999992013100906004+69000+023033FM-12+030799999V0209999C999999999999N060000199-00121-00191100531ADDAY121021AY201021GA1081+999991031GE19MSL   +99999+99999GF108991081990999999991991KA1240N-00411MA1999990096771MD1810191+9990MW1021REMSYN07001047 41886 80000 11012 21019 39677 40053 58019 70220 8807/ 333 21041=
0187010470999992013100909004+69000+023033FM-12+030799999V0201401N001019999999N060000199+00101+00011100351ADDAY121021AY221021GA1081+999991031GE19MSL   +99999+99999GF108991081990999999991991MA1999990096611MD1810161+9990MW1021REMSYN06001047 41886 81401 10010 20001 39661 40035 58016 70222 8807/=
0203010470999992013100912004+69000+023033FM-12+030799999V0201401N005019999999N020000199+00241-00021100151ADDAY151021AY221021GA1991+999991051GA2061+999991071GE19MSL   +99999+99999GF108991990990999999991991MA1999990096421MD1710201+9990MW1511REMSYN06001047 41470 81405 10024 21002 39642 40015 57020 75152 8672/=
0203010470999992013100915004+69000+023033FM-12+030799999V0201401N005019999999N015000199+00161+00011099911ADDAY161021AY251021GA1991+999991051GA2061+999991071GE19MSL   +99999+99999GF108991990990999999991991MA1999990096181MD1710231+9990MW1611REMSYN06001047 41465 81405 10016 20001 39618 49991 57023 76165 8672/=
0227010470999992013100918004+69000+023033FM-12+030799999V0200501N003019999999N008000199+00101+00011099681ADDAA112006031AY171021AY261021GA1081+999991051GE19MSL   +99999+99999GF108991081990999999991991KA1120M+00321MA1999990095971MD1710211+9990MW1711REMSYN07601047 11458 80503 10010 20001 39597 49968 57021 60062 77176 8802/ 333 10032=
0187010470999992013101000004+69000+023033FM-12+030799999V0203601N003019999999N020000199+00041-00041099621ADDAY171021AY271021GA1081+999991051GE19MSL   +99999+99999GF108991081990999999991991MA1999990095911MD1510001+9990MW1711REMSYN06001047 41570 83603 10004 21004 39591 49962 55000 77177 8802/=
0273010470999992013101006004+69000+023033FM-12+030799999V0203601N005019999999N060000199+00241-00021100011ADDAA112008031AA224013531AJ100043100040094AY171021AY221021GA1071+999991031GE19MSL   +99999+99999GF107991071990999999991991IA1279KA1240N+00041MA1999990096301MD1310291+9990MW1021REMSYN08801047 11886 73605 10024 21002 39630 40001 53029 60082 70272 87070 333 20004 43004 70135=
0203010470999992013101009004+69000+023033FM-12+030799999V0201801N003019999999N060000199+00301-00291100291ADDAY121021AY221021GA1991+999991031GA2011+999991061GE19MSL   +99999+99999GF102991990990999999991991MA1999990096571MD1310271+9990MW1011REMSYN06001047 41586 21803 10030 21029 39657 40029 53027 70122 81540=
0187010470999992013101015004+69000+023033FM-12+030799999V0201401N001019999999N065000199+00281-00311100701ADDAY111021AY201021GA1051+999991031GE19MSL   +99999+99999GF105991051990999999991991MA1999990096971MD1310131+9990MW1021REMSYN06001047 41887 51401 10028 21031 39697 40070 53013 70210 85070=
0210010470999992013101018004+69000+023033FM-12+030799999V0201801N005019999999N065000199+00221-00291100701ADDAY121021AY221021GA1081+999991031GE19MSL   +99999+99999GF108991081990999999991991KA1120M+00451MA1999990096961MD1810021+9990MW1021REMSYN07001047 31887 81805 10022 21029 39696 40070 58002 70222 8807/ 333 10045=
0187010470999992013101100004+69000+023033FM-12+030799999V0201801N007019999999N010000199+00201-00291100481ADDAY121021AY221021GA1081+999991031GE19MSL   +99999+99999GF108991081990999999991991MA1999990096751MD1710201+9990MW1021REMSYN06001047 41860 81807 10020 21029 39675 40048 57020 70222 8807/=
0239010470999992013101106004+69000+023033FM-12+030799999V0203201N003019999999N065000199+00281-00171100711ADDAJ100043100040094AY121021AY221021GA1061+999991031GE19MSL   +99999+99999GF106991061990999999991991IA1279KA1240N+00141MA1999990096971MD1310281+9990MW1021REMSYN07601047 41887 63203 10028 21017 39697 40071 53028 70222 86060 333 20014 43004=
0187010470999992013101109004+69000+023033FM-12+030799999V0200901N003019999999N065000199+00381-00211101121ADDAY111021AY211021GA1041+999991061GE19MSL   +99999+99999GF104991041990999999991991MA1999990097381MD1310381+9990MW1031REMSYN06001047 41587 40903 10038 21021 39738 40112 53038 70311 84500=
0187010470999992013101112004+69000+023033FM-12+030799999V0200901N005019999999N060000199+00321-00291101491ADDAY121021AY211021GA1071+999991091GE19MSL   +99999+99999GF107991071990999999991991MA1999990097731MD1210381+9990MW1031REMSYN06001047 41486 70905 10032 21029 39773 40149 52038 70321 87900=
0203010470999992013101115004+69000+023033FM-12+030799999V0209999C999999999999N060000199+00231-00361101771ADDAY121021AY221021GA1991+999991031GA2031+999991061GE19MSL   +99999+99999GF107991990990999999991991MA1999990097981MD1310251+9990MW1021REMSYN06001047 41586 70000 10023 21036 39798 40177 53025 70222 83470=
0210010470999992013101118004+69000+023033FM-12+030799999V0202201N001019999999N060000199+00121-00381101851ADDAY121021AY211021GA1081+999991031GE19MSL   +99999+99999GF108991081990999999991991KA1120M+00441MA1999990098061MD1900091+9990MW1021REMSYN07001047 41886 82201 10012 21038 39806 40185 50009 70221 8807/ 333 10044=
0187010470999992013101200004+69000+023033FM-12+030799999V0200901N001019999999N060000199+00001-00381101961ADDAY121021AY221021GA1081+999991051GE19MSL   +99999+99999GF108991081990999999991991MA1999990098161MD1210081+9990MW1021REMSYN06001047 41686 80901 10000 21038 39816 40196 52008 70222 8802/=
0256010470999992013101206004+69000+023033FM-12+030799999V0201801N003019999999N030000199+00171+00021101801ADDAA112000231AJ100023100020094AY161021AY221021GA1081+999991051GE19MSL   +99999+99999GF108991081990999999991991IA1279KA1240N-00011MA1999990098011MD1810101+9990MW1601REMSYN08201047 11680 81803 10017 20002 39801 40180 58010 69922 76062 8802/ 333 21001 43002=
0187010470999992013101209004+69000+023033FM-12+030799999V0201801N003019999999N050000199+00261+00131101671ADDAY161021AY221021GA1081+999991051GE19MSL   +99999+99999GF108991081990999999991991MA1999990097901MD1810181+9990MW1021REMSYN06001047 41584 81803 10026 20013 39790 40167 58018 70262 8802/=
0187010470999992013101212004+69000+023033FM-12+030799999V0201801N003019999999N060000199+00621+00211101441ADDAY111021AY201021GA1041+999991031GE19MSL   +99999+99999GF104991041990999999991991MA1999990097721MD1710191+9990MW1011REMSYN06001047 41886 41803 10062 20021 39772 40144 57019 70110 84040=
0203010470999992013101215004+69000+023033FM-12+030799999V0201801N003019999999N060000199+00731+00121101241ADDAY121021AY211021GA1991+999991031GA2051+999991061GE19MSL   +99999+99999GF107991990990999999991991MA1999990097551MD1610191+9990MW1031REMSYN06001047 41686 71803 10073 20012 39755 40124 56019 70321 85450=
0227010470999992013101218004+69000+023033FM-12+030799999V0202201N003019999999N060000199+00601+00141101171ADDAA112000131AY121021AY221021GA1081+999991031GE19MSL   +99999+99999GF108991081990999999991991KA1120M+00761MA1999990097461MD1510061+9990MW1021REMSYN07601047 11886 82203 10060 20014 39746 40117 55006 69912 70222 8807/ 333 10076=
0117010470999992013101300004+69000+023033FM-12+030799999V0203401N010019999999N060000199+00241-00351101321ADDAY121021AY201021MA1999990097561MD1310121+9990MW1011REMSYN05401047 41986 03410 10024 21035 39756 40132 53012 70120=
0239010470999992013101306004+69000+023033FM-12+030799999V0203401N007019999999N060000199-00161-00631102281ADDAJ199999999999999AY121021AY201021GA1041+999991041GE19MSL   +99999+99999GF104991041990999999991991IA1219KA1240N-00161MA1999990098461MD1110421+9990MW1021REMSYN07601047 41886 43407 11016 21063 39846 40228 51042 70220 84010 333 21016 45998=
0203010470999992013101309004+69000+023033FM-12+030799999V0203201N005019999999N060000199+00101-00631102481ADDAY101021AY201021GA1991+999991031GA2011+999991061GE19MSL   +99999+99999GF102991990990999999991991MA1999990098661MD1310161+9990MW1021REMSYN06001047 41686 23205 10010 21063 39866 40248 53016 70200 81440=
0203010470999992013101312004+69000+023033FM-12+030799999V0203201N005019999999N060000199+00181-00531102661ADDAY121021AY201021GA1991+999991051GA2051+999991061GE19MSL   +99999+99999GF107991990990999999991991MA1999990098831MD1310171+9990MW1031REMSYN06001047 41486 73205 10018 21053 39883 40266 53017 70320 85520=
0203010470999992013101315004+69000+023033FM-12+030799999V0203401N005019999999N060000199+00101-00481102571ADDAY121021AY221021GA1991+999991051GA2031+999991061GE19MSL   +99999+99999GF108991990990999999991991MA1999990098751MD1810031+9990MW1021REMSYN06001047 41486 83405 10010 21048 39875 40257 58003 70222 8352/=
0210010470999992013101318004+69000+023033FM-12+030799999V0203401N003019999999N060000199+00001-00511102441ADDAY121021AY221021GA1061+999991031GE19MSL   +99999+99999GF106991061990999999991991KA1120M+00201MA1999990098621MD1810121+9990MW1011REMSYN07001047 31886 63403 10000 21051 39862 40244 58012 70122 86070 333 10020=
0187010470999992013101400004+69000+023033FM-12+030799999V0201801N003019999999N010000199-00101-00311102061ADDAY171021AY221021GA1081+999991051GE19MSL   +99999+99999GF108991081990999999991991MA1999990098251MD1610221+9990MW1711REMSYN06001047 41560 81803 11010 21031 39825 40206 56022 77172 8802/=
0273010470999992013101406004+69000+023033FM-12+030799999V0201801N003019999999N040000199-00081-00221101451ADDAA112001031AA224001231AJ100033100030094AY171021AY221021GA1081+999991051GE19MSL   +99999+99999GF108991081990999999991991IA1239KA1240N-00121MA1999990097661MD1810341+9990MW1021REMSYN08801047 11682 81803 11008 21022 39766 40145 58034 60012 70272 8802/ 333 21012 47003 70012=
0187010470999992013101409004+69000+023033FM-12+030799999V0202201N005019999999N050000199+00081-00191101171ADDAY121021AY221021GA1081+999991051GE19MSL   +99999+99999GF108991081990999999991991MA1999990097401MD1810241+9990MW1021REMSYN06001047 41584 82205 10008 21019 39740 40117 58024 70222 8802/=
0187010470999992013101412004+69000+023033FM-12+030799999V0201801N005019999999N050000199+00261-00081100871ADDAY121021AY221021GA1081+999991051GE19MSL   +99999+99999GF108991081990999999991991MA1999990097121MD1810281+9990MW1021REMSYN06001047 41584 81805 10026 21008 39712 40087 58028 70222 8802/=
0203010470999992013101415004+69000+023033FM-12+030799999V0201801N005019999999N060000199+00481+00081100501ADDAY121021AY221021GA1991+999991051GA2041+999991061GE19MSL   +99999+99999GF108991990990999999991991MA1999990096801MD1810331+9990MW1021REMSYN06001047 41486 81805 10048 20008 39680 40050 58033 70222 8452/=
0243010470999992013101418004+69000+023033FM-12+030799999V0202201N005019999999N050000199+00481-00021100301ADDAA112000021AY181021AY221021GA1991+999991031GA2041+999991091GE19MSL   +99999+99999GF105991990990999999991991KA1120M+00481MA1999990096611MD1510191+9990MW1251REMSYN07601047 11484 52205 10048 21002 39661 40030 55019 69902 72582 84940 333 10048=
0187010470999992013101500004+69000+023033FM-12+030799999V0203201N005019999999N003000199+00101-00401100341ADDAY171021AY221021GA1081+999991051GE19MSL   +99999+99999GF108991081990999999991991MA1999990096601MD1510021+9990MW1711REMSYN06001047 41530 83205 10010 21040 39660 40034 55002 77172 8802/=
0273010470999992013101506004+69000+023033FM-12+030799999V0203201N003019999999N060000199-00371-00721100051ADDAA112000231AA224000231AJ100023100020094AY171021AY221021GA1051+999991061GE19MSL   +99999+99999GF105991051990999999991991IA1229KA1240N-00371MA1999990096301MD1810191+9990MW1021REMSYN08801047 11586 53203 11037 21072 39630 40005 58019 69922 70272 85400 333 21037 46002 70002=
0203010470999992013101509004+69000+023033FM-12+030799999V0202701N003019999999N060000199-00061-00641099751ADDAY121021AY221021GA1991+999991031GA2021+999991061GE19MSL   +99999+99999GF106991990990999999991991MA1999990096021MD1810251+9990MW1031REMSYN06001047 41586 62703 11006 21064 39602 49975 58025 70322 82570=
0203010470999992013101512004+69000+023033FM-12+030799999V0203201N005019999999N060000199+00011-00571099801ADDAY121021AY221021GA1991+999991051GA2031+999991061GE19MSL   +99999+99999GF107991990990999999991991MA1999990096071MD1310051+9990MW1031REMSYN06001047 41586 73205 10001 21057 39607 49980 53005 70322 83520=
0187010470999992013101515004+69000+023033FM-12+030799999V0203201N005019999999N060000199-00361-00741100221ADDAY121021AY221021GA1031+999991031GE19MSL   +99999+99999GF103991031990999999991991MA1999990096471MD1310401+9990MW1011REMSYN06001047 41886 33205 11036 21074 39647 40022 53040 70122 83070=
0210010470999992013101518004+69000+023033FM-12+030799999V0203201N007019999999N060000199-00161-00451100471ADDAY111021AY211021GA1071+999991061GE19MSL   +99999+99999GF107991071990999999991991KA1120M+00051MA1999990096721MD1110251+9990MW1031REMSYN07001047 31486 73207 11016 21045 39672 40047 51025 70311 87500 333 10005=
0187010470999992013101600004+69000+023033FM-12+030799999V0203601N005019999999N015000199-00101-00311100971ADDAY171021AY221021GA1081+999991051GE19MSL   +99999+99999GF108991081990999999991991MA1999990097201MD1110191+9990MW1711REMSYN06001047 41565 83605 11010 21031 39720 40097 51019 77172 8802/=
0273010470999992013101606004+69000+023033FM-12+030799999V0209999C999999999999N060000199-00781-00841101111ADDAA112000131AA224000131AJ100023100020094AY171021AY221021GA1051+999991031GE19MSL   +99999+99999GF105991051990999999991991IA1269KA1240N-00781MA1999990097311MD1900011+9990MW1021REMSYN08801047 11886 50000 11078 21084 39731 40111 50001 69912 70272 85070 333 21078 42002 70001=
0206010470999992013101609004+69000+023033FM-12+030799999V0200501N001019999999N060000199-00321-00581101141ADDAY111021AY211021GA1999+999991001GE19MSL   +99999+99999GF102991001990999999991991MA1999990097361MD1900051+9990MW1011REMSYN06001047 41986 20501 11032 21058 39736 40114 50005 70111 80001=EQDQ01    003SCCGA1
0206010470999992013101612004+69000+023033FM-12+030799999V0209999C999999999999N060000199-00031-00541101121ADDAY111021AY211021GA1999+999991001GE19MSL   +99999+99999GF103991001990999999991991MA1999990097351MD1710011+9990MW1021REMSYN06001047 41986 30000 11003 21054 39735 40112 57001 70211 80001=EQDQ01    003SCCGA1
0187010470999992013101615004+69000+023033FM-12+030799999V0203601N001019999999N060000199-00321-00691101061ADDAY101021AY201021GA1011+999991081GE19MSL   +99999+99999GF101991011990999999991991MA1999990097271MD1710071+9990MW1021REMSYN06001047 41686 13601 11032 21069 39727 40106 57007 70200 81100=
0210010470999992013101618004+69000+023033FM-12+030799999V0203601N001019999999N060000199-00901-01011101091ADDAY101021AY201021GA1021+999991031GE19MSL   +99999+99999GF102991021990999999991991KA1120M+00041MA1999990097271MD1410001+9990MW1021REMSYN07001047 31886 23601 11090 21101 39727 40109 54000 70200 82040 333 10004=
0117010470999992013101700004+69000+023033FM-12+030799999V0209999C999999999999N050000199-01311-01411101011ADDAY101021AY201021MA1999990097181MD1710081+9990MW1021REMSYN05401047 41984 00000 11131 21141 39718 40101 57008 70200=
0239010470999992013101706004+69000+023033FM-12+030799999V0209999C999999999999N050000199-01301-01421100871ADDAJ100023100020094AY121021AY201021GA1071+999991061GE19MSL   +99999+99999GF107991071990999999991991IA1269KA1240N-01541MA1999990097051MD1710071+9990MW1021REMSYN07601047 41584 70000 11130 21142 39705 40087 57007 70220 87500 333 21154 42002=
0187010470999992013101709004+69000+023033FM-12+030799999V0200901N001019999999N050000199-00981-01101100831ADDAY121021AY221021GA1051+999991061GE19MSL   +99999+99999GF105991051990999999991991MA1999990097021MD1810031+9990MW1011REMSYN06001047 41584 50901 11098 21110 39702 40083 58003 70122 85500=
0187010470999992013101712004+69000+023033FM-12+030799999V0200901N003019999999N050000199-00681-00751100771ADDAY121021AY221021GA1071+999991061GE19MSL   +99999+99999GF107991071990999999991991MA1999990096971MD1810051+9990MW1031REMSYN06001047 41484 70903 11068 21075 39697 40077 58005 70322 87500=
0187010470999992013101715004+69000+023033FM-12+030799999V0200901N001019999999N050000199-00701-00761100701ADDAY121021AY221021GA1041+999991061GE19MSL   +99999+99999GF104991041990999999991991MA1999990096921MD1710061+9990MW1011REMSYN06001047 41484 40901 11070 21076 39692 40070 57006 70122 84500=
0229010470999992013101718004+69000+023033FM-12+030799999V0201401N003019999999N050000199-01021-01081100711ADDAY101021AY201021GA1999+999991021GE19MSL   +99999+99999GF103991001990999999991991KA1120M-00451MA1999990096911MD1710021+9990MW1021REMSYN07001047 31984 31403 11102 21108 39691 40071 57002 70200 80008 333 11045=EQDQ01    003SCCGA1
0117010470999992013101800004+69000+023033FM-12+030799999V0209999C999999999999N055000199-01411-01471100641ADDAY101021AY201021MA1999990096821MD1510061+9990MW1021REMSYN05401047 41985 00000 11141 21147 39682 40064 55006 70200=
0223010470999992013101806004+69000+023033FM-12+030799999V0209999C999999999999N060000199-01601-01771100571ADDAJ100023100020094GA1051+999991041GE19MSL   +99999+99999GF105991051990999999991991IA1269KA1240N-01601MA1999990096751MD1710031+9990MW1021REMSYN07601047 41886 50000 11160 21177 39675 40057 57003 702// 85010 333 21160 42002=
0206010470999992013101809004+69000+023033FM-12+030799999V0201401N001019999999N060000199-00981-01101100451ADDAY111021AY211021GA1999+999991021GE19MSL   +99999+99999GF104991001990999999991991MA1999990096661MD1810081+9990MW1021REMSYN06001047 41986 41401 11098 21110 39666 40045 58008 70211 80008=EQDQ01    003SCCGA1
0187010470999992013101812004+69000+023033FM-12+030799999V0201601N003019999999N060000199-00681-00801100311ADDAY101021AY201021GA1021+999991081GE19MSL   +99999+99999GF102991021990999999991991MA1999990096531MD1810131+9990MW1021REMSYN06001047 41686 21603 11068 21080 39653 40031 58013 70200 82100=
0117010470999992013101815004+69000+023033FM-12+030799999V0201801N003019999999N060000199-00861-01041100231ADDAY101021AY201021MA1999990096461MD1710081+9990MW1021REMSYN05401047 41986 01803 11086 21104 39646 40023 57008 70200=
0140010470999992013101818004+69000+023033FM-12+030799999V0201801N003019999999N050000199-00861-00971100191ADDAY111021AY201021KA1120M-00651MA1999990096421MD1710051+9990MW1021REMSYN06401047 41984 01803 11086 21097 39642 40019 57005 70210 333 11065=
0192010470999992013101900004+69000+023033FM-12+030799999V0200901N001019999999N003000199-00981-01051100191ADDAY121021AY201021GA1081+999991071GE19MSL   +99999+99999GF108991081990999999991991MA1999990096411MW1101REMSYN06001047 41330 80901 11098 21105 39641 40019 54001 71020 886//=EQDQ014     3APCTEN
0244010470999992013101906004+69000+023033FM-12+030799999V0209999C999999999999N010000199-01061-01181100191ADDAJ100023100020094AY121021AY201021GA1081+999991071GE19MSL   +99999+99999GF108991081990999999991991IA1269KA1240N-01061MA1999990096411MW1021REMSYN07601047 41360 80000 11106 21118 39641 40019 54001 70220 886// 333 21106 42002=EQDQ014     3APCTEN
0117010470999992013101909004+69000+023033FM-12+030799999V0203601N001019999999N050000199-00981-01101100271ADDAY121021AY201021MA1999990096481MD1210091+9990MW1011REMSYN05401047 41984 03601 11098 21110 39648 40027 52009 70120=
0187010470999992013101912004+69000+023033FM-12+030799999V0203601N003019999999N060000199-00561-00631100281ADDAY101021AY201021GA1041+999991031GE19MSL   +99999+99999GF104991041990999999991991MA1999990096521MD1210021+9990MW1031REMSYN06001047 41886 43603 11056 21063 39652 40028 52002 70300 84070=
0187010470999992013101915004+69000+023033FM-12+030799999V0203401N005019999999N060000199-00521-00811100351ADDAY111021AY211021GA1051+999991031GE19MSL   +99999+99999GF105991051990999999991991MA1999990096581MD1210071+9990MW1021REMSYN06001047 41886 53405 11052 21081 39658 40035 52007 70211 85070=
0210010470999992013101918004+69000+023033FM-12+030799999V0203401N003019999999N060000199-00521-00881100321ADDAY111021AY211021GA1021+999991031GE19MSL   +99999+99999GF102991021990999999991991KA1120M-00401MA1999990096561MD1710031+9990MW1021REMSYN07001047 31886 23403 11052 21088 39656 40032 57003 70211 82070 333 11040=
0117010470999992013102000004+69000+023033FM-12+030799999V0203201N005019999999N060000199-00261-00651100331ADDAY101021AY201021MA1999990096571MD1410001+9990MW1021REMSYN05401047 41986 03205 11026 21065 39657 40033 54000 70200=
0255010470999992013102006004+69000+023033FM-12+030799999V0203201N005019999999N060000199-00251-00641100471ADDAJ100023100020094AY121021AY201021GA1991+999991001GA2061+999991031GE19MSL   +99999+99999GF108991990990999999991991IA1269KA1240N-00521MA1999990096711MD1210091+9990MW1021REMSYN07601047 41886 83205 11025 21064 39671 40047 52009 70220 86071 333 21052 42002=
0203010470999992013102009004+69000+023033FM-12+030799999V0203201N005019999999N060000199-00121-00481100691ADDAY121021AY221021GA1991+999991031GA2021+999991061GE19MSL   +99999+99999GF108991990990999999991991MA1999990096921MD1210221+9990MW1021REMSYN06001047 41686 83205 11012 21048 39692 40069 52022 70222 8247/=
0203010470999992013102012004+69000+023033FM-12+030799999V0203401N007019999999N060000199-00081-00451100991ADDAY121021AY221021GA1991+999991051GA2041+999991061GE19MSL   +99999+99999GF108991990990999999991991MA1999990097221MD1310261+9990MW1021REMSYN06001047 41486 83407 11008 21045 39722 40099 53026 70222 8452/=
0203010470999992013102015004+69000+023033FM-12+030799999V0203401N007019999999N060000199-00201-00491101261ADDAY171021AY221021GA1991+999991051GA2021+999991061GE19MSL   +99999+99999GF108991990990999999991991MA1999990097471MD1210291+9990MW1021REMSYN06001047 41586 83407 11020 21049 39747 40126 52029 70272 8252/=
0246010470999992013102018004+69000+023033FM-12+030799999V0203201N007019999999N060000199-00321-00611101501ADDAA112000091AY171021AY221021GA1021+999991051GE19MSL   +99999+99999GF102991021990999999991991KA1120M-00041MA1999990097701MD1210221+9990MW1011REMSYN07601047 11586 23207 11032 21061 39770 40150 52022 69902 70172 82020 333 11004=EQDQ01  00002PRCP12
0187010470999992013102100004+69000+023033FM-12+030799999V0203201N003019999999N060000199-00821-00951101741ADDAY101021AY201021GA1041+999991031GE19MSL   +99999+99999GF104991041990999999991991MA1999990097911MD1110051+9990MW1031REMSYN06001047 41886 43203 11082 21095 39791 40174 51005 70300 84070=
0239010470999992013102106004+69000+023033FM-12+030799999V0201801N003019999999N060000199-00911-01031101711ADDAJ100023100020094AY121021AY201021GA1081+999991031GE19MSL   +99999+99999GF108991081990999999991991IA1269KA1240N-01001MA1999990097871MD1710011+9990MW1021REMSYN07601047 41886 81803 11091 21103 39787 40171 57001 70220 8807/ 333 21100 42002=
0187010470999992013102109004+69000+023033FM-12+030799999V0201801N003019999999N060000199-00801-00921101711ADDAY121021AY221021GA1081+999991051GE19MSL   +99999+99999GF108991081990999999991991MA1999990097871MD1410001+9990MW1021REMSYN06001047 41586 81803 11080 21092 39787 40171 54000 70222 8802/=
0187010470999992013102115004+69000+023033FM-12+030799999V0201801N005019999999N060000199-00221-00661101561ADDAY121021AY221021GA1081+999991041GE19MSL   +99999+99999GF108991081990999999991991MA1999990097761MD1810101+9990MW1021REMSYN06001047 41886 81805 11022 21066 39776 40156 58010 70222 8801/=
0210010470999992013102118004+69000+023033FM-12+030799999V0201801N005019999999N060000199-00421-00771101461ADDAY121021AY221021GA1081+999991041GE19MSL   +99999+99999GF108991081990999999991991KA1120M-00061MA1999990097661MD1710101+9990MW1021REMSYN07001047 31886 81805 11042 21077 39766 40146 57010 70222 8801/ 333 11006=
0187010470999992013102200004+69000+023033FM-12+030799999V0201801N005019999999N060000199-00421-00791101341ADDAY121021AY221021GA1081+999991041GE19MSL   +99999+99999GF108991081990999999991991MA1999990097531MD1710071+9990MW1021REMSYN06001047 41886 81805 11042 21079 39753 40134 57007 70222 8801/=
0239010470999992013102206004+69000+023033FM-12+030799999V0201801N005019999999N060000199-00881-01091101291ADDAJ100023100020094AY121021AY221021GA1081+999991041GE19MSL   +99999+99999GF108991081990999999991991IA1259KA1240N-00881MA1999990097471MD1810011+9990MW1021REMSYN07601047 41886 81805 11088 21109 39747 40129 58001 70222 8801/ 333 21088 41002=
0187010470999992013102209004+69000+023033FM-12+030799999V0201801N005019999999N060000199-00801-01041101331ADDAY121021AY221021GA1061+999991041GE19MSL   +99999+99999GF106991061990999999991991MA1999990097521MD1210031+9990MW1021REMSYN06001047 41886 61805 11080 21104 39752 40133 52003 70222 86010=
0206010470999992013102212004+69000+023033FM-12+030799999V0201801N005019999999N065000199-00521-00931101231ADDAY121021AY201021GA1999+999991021GE19MSL   +99999+99999GF103991001990999999991991MA1999990097421MD1810081+9990MW1011REMSYN06001047 41987 31805 11052 21093 39742 40123 58008 70120 80008=EQDQ01    003SCCGA1
0187010470999992013102215004+69000+023033FM-12+030799999V0201801N005019999999N065000199-00841-01061101161ADDAY101021AY201021GA1021+999991081GE19MSL   +99999+99999GF102991021990999999991991MA1999990097351MD1710081+9990MW1011REMSYN06001047 41687 21805 11084 21106 39735 40116 57008 70100 82100=
0210010470999992013102218004+69000+023033FM-12+030799999V0201801N005019999999N065000199-00681-00801101051ADDAY121021AY201021GA1081+999991051GE19MSL   +99999+99999GF108991081990999999991991KA1120M-00451MA1999990097251MD1810101+9990MW1021REMSYN07001047 31687 81805 11068 21080 39725 40105 58010 70220 8802/ 333 11045=
0187010470999992013102300004+69000+023033FM-12+030799999V0201801N003019999999N003000199-00381-00421100521ADDAY171021AY251021GA1081+999991051GE19MSL   +99999+99999GF108991081990999999991991MA1999990096761MD1810281+9990MW1711REMSYN06001047 41530 81803 11038 21042 39676 40052 58028 77175 8802/=
0273010470999992013102306004+69000+023033FM-12+030799999V0201801N005019999999N050000199-00031-00161099931ADDAA112000131AA224000131AJ100023100020094AY171021AY251021GA1081+999991071GE19MSL   +99999+99999GF108991081990999999991991IA1239KA1240N-00681MA1999990096201MD1610261+9990MW1021REMSYN08801047 11484 81805 11003 21016 39620 49993 56026 69912 70275 887// 333 21068 47002 70001=
0203010470999992013102309004+69000+023033FM-12+030799999V0201801N003019999999N050000199-00151-00291099691ADDAY121021AY221021GA1991+999991051GA2051+999991061GE19MSL   +99999+99999GF108991990990999999991991MA1999990095971MD1810211+9990MW1021REMSYN06001047 41484 81803 11015 21029 39597 49969 58021 70222 8552/=
0187010470999992013102312004+69000+023033FM-12+030799999V0201401N005019999999N003000199-00211-00381099431ADDAY171021AY221021GA1081+999991051GE19MSL   +99999+99999GF108991081990999999991991MA1999990095711MD1810251+9990MW1711REMSYN06001047 41530 81405 11021 21038 39571 49943 58025 77172 8802/=
0203010470999992013102315004+69000+023033FM-12+030799999V0201401N003019999999N050000199-00281-00421099261ADDAY171021AY271021GA1991+999991051GA2041+999991061GE19MSL   +99999+99999GF108991990990999999991991MA1999990095551MD1710171+9990MW1221REMSYN06001047 41484 81403 11028 21042 39555 49926 57017 72277 8452/=
0227010470999992013102318004+69000+023033FM-12+030799999V0201601N003019999999N050000199-00421-00491099211ADDAA112001031AY171021AY221021GA1081+999991061GE19MSL   +99999+99999GF108991081990999999991991KA1120M+00051MA1999990095481MD1710061+9990MW1021REMSYN07601047 11484 81603 11042 21049 39548 49921 57006 60012 70272 885// 333 10005=
0187010470999992013102400004+69000+023033FM-12+030799999V0201801N003019999999N050000199-00421-00491099311ADDAY121021AY221021GA1081+999991071GE19MSL   +99999+99999GF108991081990999999991991MA1999990095581MD1110041+9990MW1021REMSYN06001047 41284 81803 11042 21049 39558 49931 51004 70222 886//=
0239010470999992013102406004+69000+023033FM-12+030799999V0201801N003019999999N060000199-00461-00581099421ADDAJ100083100080094AY121021AY221021GA1081+999991051GE19MSL   +99999+99999GF108991081990999999991991IA1239KA1240N-00461MA1999990095681MD1210031+9990MW1021REMSYN07601047 41686 81803 11046 21058 39568 49942 52003 70222 8802/ 333 21046 47008=
0187010470999992013102409004+69000+023033FM-12+030799999V0200901N003019999999N060000199-00311-00451099481ADDAY121021AY221021GA1071+999991061GE19MSL   +99999+99999GF107991071990999999991991MA1999990095761MD1210061+9990MW1021REMSYN06001047 41486 70903 11031 21045 39576 49948 52006 70222 87500=
0187010470999992013102412004+69000+023033FM-12+030799999V0200501N005019999999N060000199-00081-00251099561ADDAY121021AY221021GA1081+999991061GE19MSL   +99999+99999GF108991081990999999991991MA1999990095831MD1310081+9990MW1021REMSYN06001047 41486 80505 11008 21025 39583 49956 53008 70222 885//=
0187010470999992013102415004+69000+023033FM-12+030799999V0200501N005019999999N060000199-00161-00371099611ADDAY121021AY221021GA1081+999991061GE19MSL   +99999+99999GF108991081990999999991991MA1999990095881MD1210071+9990MW1021REMSYN06001047 41486 80505 11016 21037 39588 49961 52007 70222 885//=
0227010470999992013102418004+69000+023033FM-12+030799999V0200501N005019999999N010000199-00161-00291099741ADDAA112000131AY171021AY221021GA1081+999991051GE19MSL   +99999+99999GF108991081990999999991991KA1120M-00061MA1999990096011MD1210111+9990MW1711REMSYN07601047 11460 80505 11016 21029 39601 49974 52011 69912 77172 8802/ 333 11006=
0187010470999992013102500004+69000+023033FM-12+030799999V0200501N003019999999N020000199-00161-00271099851ADDAY171021AY221021GA1081+999991051GE19MSL   +99999+99999GF108991081990999999991991MA1999990096121MD1210021+9990MW1711REMSYN06001047 41470 80503 11016 21027 39612 49985 52002 77172 8802/=
0273010470999992013102506004+69000+023033FM-12+030799999V0209999C999999999999N055000199-00071-00181099951ADDAA112000231AA224000331AJ100073100070094AY171021AY221021GA1081+999991051GE19MSL   +99999+99999GF108991081990999999991991IA1239KA1240N-00181MA1999990096221MD1310051+9990MW1021REMSYN08801047 11585 80000 11007 21018 39622 49995 53005 69922 70272 8802/ 333 21018 47007 70003=
0187010470999992013102509004+69000+023033FM-12+030799999V0200901N005019999999N050000199-00091-00311100021ADDAY121021AY221021GA1081+999991051GE19MSL   +99999+99999GF108991081990999999991991MA1999990096281MD1210071+9990MW1021REMSYN06001047 41584 80905 11009 21031 39628 40002 52007 70222 8802/=
0187010470999992013102512004+69000+023033FM-12+030799999V0209999C999999999999N020000199-00151-00321100071ADDAY151021AY221021GA1081+999991051GE19MSL   +99999+99999GF108991081990999999991991MA1999990096321MD1210041+9990MW1511REMSYN06001047 41570 80000 11015 21032 39632 40007 52004 75152 8802/=
0187010470999992013102600004+69000+023033FM-12+030799999V0209999C999999999999N000500199-00421-00481100371ADDAY141021AY221021GA1061+999991071GE19MSL   +99999+99999GF106991061990999999991991MA1999990096611MD1900031+9990MW1441REMSYN06001047 41105 60000 11042 21048 39661 40037 50003 74442 86600=
0239010470999992013102606004+69000+023033FM-12+030799999V0209999C999999999999N055000199-00701-00771100421ADDAJ100083100080094AY141021AY221021GA1061+999991061GE19MSL   +99999+99999GF106991061990999999991991IA1239KA1240N-00731MA1999990096651MD1510051+9990MW1021REMSYN07601047 41585 60000 11070 21077 39665 40042 55005 70242 86400 333 21073 47008=
0187010470999992013102609004+69000+023033FM-12+030799999V0200901N001019999999N050000199-00721-00791100371ADDAY121021AY221021GA1051+999991031GE19MSL   +99999+99999GF105991051990999999991991MA1999990096601MD1810041+9990MW1021REMSYN06001047 41884 50901 11072 21079 39660 40037 58004 70222 85070=
0203010470999992013102612004+69000+023033FM-12+030799999V0200901N003019999999N050000199-00511-00581100231ADDAY121021AY221021GA1991+999991051GA2021+999991061GE19MSL   +99999+99999GF108991990990999999991991MA1999990096471MD1810131+9990MW1021REMSYN06001047 41484 80903 11051 21058 39647 40023 58013 70222 8252/=
0203010470999992013102615004+69000+023033FM-12+030799999V0200901N003019999999N020000199-00381-00501100061ADDAY121021AY221021GA1991+999991051GA2031+999991061GE19MSL   +99999+99999GF108991990990999999991991MA1999990096311MD1610171+9990MW1021REMSYN06001047 41570 80903 11038 21050 39631 40006 56017 70222 8352/=
0243010470999992013102618004+69000+023033FM-12+030799999V0201401N003019999999N020000199-00401-00561099921ADDAA112000131AY171021AY221021GA1991+999991051GA2051+999991061GE19MSL   +99999+99999GF108991990990999999991991KA1120M-00351MA1999990096171MD1810131+9990MW1711REMSYN07601047 11470 81403 11040 21056 39617 49992 58013 69912 77172 8552/ 333 11035=
0187010470999992013102700004+69000+023033FM-12+030799999V0201601N003019999999N003000199-00401-00471099591ADDAY171021AY271021GA1081+999991051GE19MSL   +99999+99999GF108991081990999999991991MA1999990095861MD1810171+9990MW1711REMSYN06001047 41530 81603 11040 21047 39586 49959 58017 77177 8802/=
0273010470999992013102706004+69000+023033FM-12+030799999V0209999C999999999999N003000199-00321-00391099331ADDAA112003031AA224003531AJ100133100130094AY171021AY271021GA1081+999991051GE19MSL   +99999+99999GF108991081990999999991991IA1239KA1240N-00401MA1999990095611MD1610141+9990MW1731REMSYN08801047 11530 80000 11032 21039 39561 49933 56014 60032 77377 8802/ 333 21040 47013 70035=
0187010470999992013102709004+69000+023033FM-12+030799999V0209999C999999999999N003000199-00291-00361099251ADDAY171021AY271021GA1081+999991051GE19MSL   +99999+99999GF108991081990999999991991MA1999990095531MD1710061+9990MW1711REMSYN06001047 41530 80000 11029 21036 39553 49925 57006 77177 8802/=
0203010470999992013102712004+69000+023033FM-12+030799999V0201401N003019999999N050000199-00211-00341099151ADDAY171021AY221021GA1991+999991051GA2051+999991071GE19MSL   +99999+99999GF108991990990999999991991MA1999990095431MD1710101+9990MW1221REMSYN06001047 41484 81403 11021 21034 39543 49915 57010 72272 8572/=
0187010470999992013102715004+69000+023033FM-12+030799999V0201401N001019999999N050000199-00301-00441099131ADDAY171021AY221021GA1081+999991061GE19MSL   +99999+99999GF108991081990999999991991MA1999990095421MD1710021+9990MW1021REMSYN06001047 41484 81401 11030 21044 39542 49913 57002 70272 885//=
0227010470999992013102718004+69000+023033FM-12+030799999V0201401N001019999999N055000199-00401-00521099031ADDAA112002031AY171021AY221021GA1081+999991061GE19MSL   +99999+99999GF108991081990999999991991KA1120M-00141MA1999990095321MD1510101+9990MW1021REMSYN07601047 11485 81401 11040 21052 39532 49903 55010 60022 70272 885// 333 11014=
0187010470999992013102800004+69000+023033FM-12+030799999V0209999C999999999999N000800199-00361-00421098681ADDAY171021AY221021GA1081+999991051GE19MSL   +99999+99999GF108991081990999999991991MA1999990094981MD1810191+9990MW1731REMSYN06001047 41508 80000 11036 21042 39498 49868 58019 77372 8802/=
0273010470999992013102806004+69000+023033FM-12+030799999V0209999C999999999999N055000199-00261-00331098391ADDAA112002031AA224004131AJ100183100180094AY171021AY221021GA1081+999991051GE19MSL   +99999+99999GF108991081990999999991991IA1239KA1240N-00411MA1999990094711MD1610131+9990MW1021REMSYN08801047 11585 80000 11026 21033 39471 49839 56013 60022 70272 8802/ 333 21041 47018 70041=
0187010470999992013102809004+69000+023033FM-12+030799999V0201801N001019999999N003000199-00121-00191098281ADDAY171021AY221021GA1081+999991051GE19MSL   +99999+99999GF108991081990999999991991MA1999990094611MD1710091+9990MW1681REMSYN06001047 41530 81801 11012 21019 39461 49828 57009 76872 8802/=
0187010470999992013102812004+69000+023033FM-12+030799999V0203601N001019999999N003000199+00061-00021098121ADDAY171021AY271021GA1081+999991051GE19MSL   +99999+99999GF108991081990999999991991MA1999990094461MD1810151+9990MW1711REMSYN06001047 41530 83601 10006 21002 39446 49812 58015 77177 8802/=
0187010470999992013102815004+69000+023033FM-12+030799999V0200501N003019999999N030000199+00101+00011097911ADDAY171021AY261021GA1081+999991051GE19MSL   +99999+99999GF108991081990999999991991MA1999990094261MD1710211+9990MW1611REMSYN06001047 41480 80503 10010 20001 39426 49791 57021 76176 8802/=
0227010470999992013102818004+69000+023033FM-12+030799999V0200501N003019999999N007000199+00101+00011097691ADDAA112005031AY171021AY261021GA1081+999991051GE19MSL   +99999+99999GF108991081990999999991991KA1120M+00151MA1999990094051MD1810191+9990MW1681REMSYN07601047 11457 80503 10010 20001 39405 49769 58019 60052 76876 8802/ 333 10015=
0187010470999992013102900004+69000+023033FM-12+030799999V0200501N001019999999N020000199+00141+00051097461ADDAY171021AY261021GA1081+999991051GE19MSL   +99999+99999GF108991081990999999991991MA1999990093821MD1710101+9990MW1611REMSYN06001047 41470 80501 10014 20005 39382 49746 57010 76176 8802/=
0273010470999992013102906004+69000+023033FM-12+030799999V0200501N001019999999N030000199+00191+00101097341ADDAA112003031AA224008231AJ100033100030094AY171021AY261021GA1081+999991051GE19MSL   +99999+99999GF108991081990999999991991IA1279KA1240N+00051MA1999990093721MD1710051+9990MW1611REMSYN08801047 11580 80501 10019 20010 39372 49734 57005 60032 76176 8802/ 333 20005 43003 70082=
0187010470999992013102909004+69000+023033FM-12+030799999V0200501N003019999999N030000199+00201+00111097401ADDAY161021AY261021GA1081+999991051GE19MSL   +99999+99999GF108991081990999999991991MA1999990093771MD1210061+9990MW1611REMSYN06001047 41580 80503 10020 20011 39377 49740 52006 76166 8802/=
0187010470999992013102912004+69000+023033FM-12+030799999V0200501N003019999999N030000199+00211+00121097471ADDAY161021AY261021GA1081+999991051GE19MSL   +99999+99999GF108991081990999999991991MA1999990093851MD1210071+9990MW1611REMSYN06001047 41580 80503 10021 20012 39385 49747 52007 76166 8802/=
0187010470999992013102915004+69000+023033FM-12+030799999V0200901N003019999999N020000199+00121+00031097601ADDAY161021AY261021GA1081+999991051GE19MSL   +99999+99999GF108991081990999999991991MA1999990093971MD1210131+9990MW1611REMSYN06001047 41570 80903 10012 20003 39397 49760 52013 76166 8802/=
0227010470999992013102918004+69000+023033FM-12+030799999V0200501N003019999999N004000199+00081-00011097771ADDAA112007031AY171021AY261021GA1081+999991051GE19MSL   +99999+99999GF108991081990999999991991KA1120M+00221MA1999990094121MD1210141+9990MW1711REMSYN07601047 11540 80503 10008 21001 39412 49777 52014 60072 77176 8802/ 333 10022=
0187010470999992013103000004+69000+023033FM-12+030799999V0200501N003019999999N002500199+00041-00031098091ADDAY171021AY271021GA1081+999991051GE19MSL   +99999+99999GF108991081990999999991991MA1999990094421MD1210181+9990MW1711REMSYN06001047 41525 80503 10004 21003 39442 49809 52018 77177 8802/=
0273010470999992013103006004+69000+023033FM-12+030799999V0209999C999999999999N025000199+00051-00031098401ADDAA112005031AA224011131AJ100123100120094AY171021AY271021GA1081+999991051GE19MSL   +99999+99999GF108991081990999999991991IA1279KA1240N+00041MA1999990094721MD1210151+9990MW1681REMSYN08801047 11575 80000 10005 21003 39472 49840 52015 60052 76877 8802/ 333 20004 43012 70111=
0187010470999992013103009004+69000+023033FM-12+030799999V0209999C999999999999N004000199+00051-00021098651ADDAY171021AY271021GA1081+999991051GE19MSL   +99999+99999GF108991081990999999991991MA1999990094971MD1210221+9990MW1711REMSYN06001047 41540 80000 10005 21002 39497 49865 52022 77177 8802/=
0187010470999992013103012004+69000+023033FM-12+030799999V0203601N001019999999N002500199+00101+00031098831ADDAY171021AY271021GA1081+999991051GE19MSL   +99999+99999GF108991081990999999991991MA1999990095151MD1210191+9990MW1711REMSYN06001047 41525 83601 10010 20003 39515 49883 52019 77177 8802/=
0187010470999992013103015004+69000+023033FM-12+030799999V0203601N003019999999N003500199+00081+00011099001ADDAY171021AY271021GA1081+999991051GE19MSL   +99999+99999GF108991081990999999991991MA1999990095311MD1210161+9990MW1711REMSYN06001047 41535 83603 10008 20001 39531 49900 52016 77177 8802/=
0227010470999992013103018004+69000+023033FM-12+030799999V0203601N003019999999N004000199+00061-00011099131ADDAA112008031AY171021AY271021GA1081+999991051GE19MSL   +99999+99999GF108991081990999999991991KA1120M+00141MA1999990095431MD1210141+9990MW1711REMSYN07601047 11540 83603 10006 21001 39543 49913 52014 60082 77177 8802/ 333 10014=
0203010470999992013103100004+69000+023033FM-12+030799999V0203601N003019999999N010000199+00031-00041099501ADDAY171021AY271021GA1991+999991051GA2061+999991071GE19MSL   +99999+99999GF108991990990999999991991MA1999990095781MD1210161+9990MW1711REMSYN06001047 41460 83603 10003 21004 39578 49950 52016 77177 8672/=
0273010470999992013103106004+69000+023033FM-12+030799999V0209999C999999999999N050000199+00021-00061099831ADDAA112003031AA224010731AJ100203100200094AY171021AY221021GA1081+999991051GE19MSL   +99999+99999GF108991081990999999991991IA1279KA1240N+00011MA1999990096111MD1210141+9990MW1021REMSYN08801047 11584 80000 10002 21006 39611 49983 52014 60032 70272 8802/ 333 20001 43020 70107=
0187010470999992013103109004+69000+023033FM-12+030799999V0201401N001019999999N040000199+00021-00051099981ADDAY121021AY221021GA1081+999991071GE19MSL   +99999+99999GF108991081990999999991991MA1999990096251MD1210131+9990MW1021REMSYN06001047 41282 81401 10002 21005 39625 49998 52013 70222 886//=
0187010470999992013103112004+69000+023033FM-12+030799999V0201601N003019999999N003000199-00021-00081100051ADDAY121021AY221021GA1081+999991071GE19MSL   +99999+99999GF108991081990999999991991MA1999990096321MD1110091+9990MW1101REMSYN06001047 41230 81603 11002 21008 39632 40005 51009 71022 886//=
0187010470999992013103115004+69000+023033FM-12+030799999V0201601N003019999999N006000199-00091-00161100061ADDAY171021AY221021GA1081+999991071GE19MSL   +99999+99999GF108991081990999999991991MA1999990096321MD1900011+9990MW1701REMSYN06001047 41356 81603 11009 21016 39632 40006 50001 77072 886//=
0227010470999992013103118004+69000+023033FM-12+030799999V0201801N005019999999N040000199-00181-00241099961ADDAA112000131AY171021AY221021GA1081+999991071GE19MSL   +99999+99999GF108991081990999999991991KA1120M+00101MA1999990096221MD1810091+9990MW1021REMSYN07601047 11282 81805 11018 21024 39622 49996 58009 69912 70272 886// 333 10010=
0187010470999992013110100004+69000+023033FM-12+030799999V0201801N003019999999N050000199-00461-00531100001ADDAY121021AY221021GA1081+999991071GE19MSL   +99999+99999GF108991081990999999991991MA1999990096251MD1210031+9990MW1021REMSYN06001047 41284 81803 11046 21053 39625 40000 52003 70222 886//=
0239010470999992013110106004+69000+023033FM-12+030799999V0202201N003019999999N006000199-00601-00671099921ADDAJ100213100210094AY121021AY221021GA1081+999991071GE19MSL   +99999+99999GF108991081990999999991991IA1279KA1240N-00601MA1999990096171MD1510031+9990MW1101REMSYN07601047 41456 82203 11060 21067 39617 49992 55003 71022 886// 333 21060 43021=
0187010470999992013110109004+69000+023033FM-12+030799999V0202201N003019999999N000800199-00661-00721099951ADDAY141021AY221021GA1081+999991071GE19MSL   +99999+99999GF108991081990999999991991MA1999990096201MD1210041+9990MW1461REMSYN06001047 41208 82203 11066 21072 39620 49995 52004 74642 886//=
0187010470999992013110112004+69000+023033FM-12+030799999V0202201N003019999999N000900199-00741-00811099941ADDAY141021AY241021GA1081+999991071GE19MSL   +99999+99999GF108991081990999999991991MA1999990096171MD1510021+9990MW1441REMSYN06001047 41209 82203 11074 21081 39617 49994 55002 74444 886//=
0187010470999992013110115004+69000+023033FM-12+030799999V0202201N003019999999N000900199-00781-00891099881ADDAY141021AY241021GA1081+999991071GE19MSL   +99999+99999GF108991081990999999991991MA1999990096121MD1810051+9990MW1481REMSYN06001047 41209 82203 11078 21089 39612 49988 58005 74844 886//=
0210010470999992013110118004+69000+023033FM-12+030799999V0201801N003019999999N000600199-00801-00911099831ADDAY141021AY241021GA1081+999991071GE19MSL   +99999+99999GF108991081990999999991991KA1120M-00451MA1999990096071MD1710051+9990MW1441REMSYN07001047 31206 81803 11080 21091 39607 49983 57005 74444 886// 333 11045=
0187010470999992013110200004+69000+023033FM-12+030799999V0201801N003019999999N030000199-00901-01021099751ADDAY141021AY221021GA1081+999991071GE19MSL   +99999+99999GF108991081990999999991991MA1999990095981MD1810041+9990MW1021REMSYN06001047 41280 81803 11090 21102 39598 49975 58004 70242 886//=
0239010470999992013110206004+69000+023033FM-12+030799999V0201801N003019999999N020000199-00601-00721099611ADDAJ100213100210094AY141021AY221021GA1081+999991071GE19MSL   +99999+99999GF108991081990999999991991IA1239KA1240N-00911MA1999990095871MD1510031+9990MW1021REMSYN07601047 41370 81803 11060 21072 39587 49961 55003 70242 886// 333 21091 47021=
0187010470999992013110209004+69000+023033FM-12+030799999V0201801N003019999999N010000199-00501-00611099661ADDAY171021AY221021GA1081+999991051GE19MSL   +99999+99999GF108991081990999999991991MA1999990095921MD1900041+9990MW1711REMSYN06001047 41560 81803 11050 21061 39592 49966 50004 77172 8802/=
0187010470999992013110212004+69000+023033FM-12+030799999V0201801N003019999999N010000199-00341-00411099631ADDAY171021AY221021GA1081+999991051GE19MSL   +99999+99999GF108991081990999999991991MA1999990095901MD1710021+9990MW1101REMSYN06001047 41560 81803 11034 21041 39590 49963 57002 71072 8802/=
0187010470999992013110215004+69000+023033FM-12+030799999V0201801N003019999999N040000199-00141-00201099591ADDAY121021AY221021GA1081+999991051GE19MSL   +99999+99999GF108991081990999999991991MA1999990095871MD1710021+9990MW1021REMSYN06001047 41582 81803 11014 21020 39587 49959 57002 70222 8802/=
0227010470999992013110218004+69000+023033FM-12+030799999V0201801N003019999999N055000199-00121-00181099591ADDAA112000131AY171021AY221021GA1081+999991051GE19MSL   +99999+99999GF108991081990999999991991KA1120M-00121MA1999990095871MD1510001+9990MW1021REMSYN07601047 11685 81803 11012 21018 39587 49959 55000 69912 70272 8802/ 333 11012=
0187010470999992013110300004+69000+023033FM-12+030799999V0201801N005019999999N050000199-00141-00251099691ADDAY121021AY221021GA1081+999991051GE19MSL   +99999+99999GF108991081990999999991991MA1999990095971MD1210021+9990MW1021REMSYN06001047 41584 81805 11014 21025 39597 49969 52002 70222 8802/=
0239010470999992013110306004+69000+023033FM-12+030799999V0209999C999999999999N055000199-00501-00611099801ADDAJ100213100210094AY121021AY221021GA1081+999991051GE19MSL   +99999+99999GF108991081990999999991991IA1239KA1240N-00501MA1999990096061MD1210061+9990MW1021REMSYN07601047 41585 80000 11050 21061 39606 49980 52006 70222 8802/ 333 21050 47021=
0187010470999992013110309004+69000+023033FM-12+030799999V0201801N003019999999N060000199-00481-00551099871ADDAY121021AY221021GA1081+999991051GE19MSL   +99999+99999GF108991081990999999991991MA1999990096121MD1210081+9990MW1021REMSYN06001047 41686 81803 11048 21055 39612 49987 52008 70222 8802/=
0187010470999992013110312004+69000+023033FM-12+030799999V0201801N005019999999N060000199-00401-00471099881ADDAY121021AY221021GA1081+999991051GE19MSL   +99999+99999GF108991081990999999991991MA1999990096131MD1900001+9990MW1021REMSYN06001047 41686 81805 11040 21047 39613 49988 50000 70222 8802/=
0187010470999992013110315004+69000+023033FM-12+030799999V0201801N003019999999N030000199-00331-00441099901ADDAY171021AY221021GA1081+999991051GE19MSL   +99999+99999GF108991081990999999991991MA1999990096161MD1210021+9990MW1711REMSYN06001047 41580 81803 11033 21044 39616 49990 52002 77172 8802/=
0227010470999992013110318004+69000+023033FM-12+030799999V0201801N003019999999N020000199-00241-00351099811ADDAA112000431AY171021AY271021GA1081+999991051GE19MSL   +99999+99999GF108991081990999999991991KA1120M-00241MA1999990096071MD1710071+9990MW1711REMSYN07601047 11570 81803 11024 21035 39607 49981 57007 69942 77177 8802/ 333 11024=
0273010470999992013110406004+69000+023033FM-12+030799999V0201801N005019999999N060000199+00011-00121099441ADDAA112000331AA224000731AJ100183100180094AY171021AY221021GA1081+999991051GE19MSL   +99999+99999GF108991081990999999991991IA1279KA1240N-00241MA1999990095721MD1810091+9990MW1021REMSYN08801047 11586 81805 10001 21012 39572 49944 58009 69932 70272 8802/ 333 21024 43018 70007=
0187010470999992013110409004+69000+023033FM-12+030799999V0201801N005019999999N020000199+00001-00111099431ADDAY171021AY221021GA1081+999991051GE19MSL   +99999+99999GF108991081990999999991991MA1999990095721MD1710021+9990MW1711REMSYN06001047 41570 81805 10000 21011 39572 49943 57002 77172 8802/=
0187010470999992013110412004+69000+023033FM-12+030799999V0201801N005019999999N050000199-00161-00301099361ADDAY171021AY221021GA1081+999991061GE19MSL   +99999+99999GF108991081990999999991991MA1999990095651MD1810071+9990MW1021REMSYN06001047 41484 81805 11016 21030 39565 49936 58007 70272 885//=
0203010470999992013110415004+69000+023033FM-12+030799999V0201801N003019999999N040000199-00201-00411099251ADDAY171021AY221021GA1991+999991051GA2041+999991061GE19MSL   +99999+99999GF108991990990999999991991MA1999990095531MD1710111+9990MW1701REMSYN06001047 41482 81803 11020 21041 39553 49925 57011 77072 8452/=
0227010470999992013110418004+69000+023033FM-12+030799999V0201801N005019999999N030000199-00281-00441099181ADDAA112000131AY171021AY221021GA1081+999991051GE19MSL   +99999+99999GF108991081990999999991991KA1120M+00061MA1999990095471MD1710071+9990MW1701REMSYN07601047 11580 81805 11028 21044 39547 49918 57007 69912 77072 8802/ 333 10006=
0187010470999992013110500004+69000+023033FM-12+030799999V0201801N005019999999N002500199-00321-00441098881ADDAY171021AY221021GA1081+999991051GE19MSL   +99999+99999GF108991081990999999991991MA1999990095171MD1810181+9990MW1711REMSYN06001047 41525 81805 11032 21044 39517 49888 58018 77172 8802/=
0273010470999992013110506004+69000+023033FM-12+030799999V0209999C999999999999N015000199-00361-00481098491ADDAA112002031AA224002431AJ100203100200094AY171021AY221021GA1081+999991051GE19MSL   +99999+99999GF108991081990999999991991IA1239KA1240N-00361MA1999990094801MD1710231+9990MW1711REMSYN08801047 11565 80000 11036 21048 39480 49849 57023 60022 77172 8802/ 333 21036 47020 70024=
0187010470999992013110509004+69000+023033FM-12+030799999V0201801N001019999999N001500199-00321-00441098281ADDAY171021AY271021GA1081+999991051GE19MSL   +99999+99999GF108991081990999999991991MA1999990094601MD1710191+9990MW1731REMSYN06001047 41515 81801 11032 21044 39460 49828 57019 77377 8802/=
0187010470999992013110512004+69000+023033FM-12+030799999V0201401N003019999999N006000199-00311-00431098151ADDAY171021AY271021GA1081+999991051GE19MSL   +99999+99999GF108991081990999999991991MA1999990094471MD1710131+9990MW1711REMSYN06001047 41556 81403 11031 21043 39447 49815 57013 77177 8802/=
0187010470999992013110515004+69000+023033FM-12+030799999V0201601N005019999999N050000199-00501-00661098171ADDAY171021AY221021GA1061+999991061GE19MSL   +99999+99999GF106991061990999999991991MA1999990094481MD1900001+9990MW1011REMSYN06001047 41484 61605 11050 21066 39448 49817 50000 70172 86500=
0227010470999992013110518004+69000+023033FM-12+030799999V0201801N005019999999N060000199-00681-00841098351ADDAA112005031AY171021AY221021GA1021+999991061GE19MSL   +99999+99999GF102991021990999999991991KA1120M-00251MA1999990094651MD1310161+9990MW1011REMSYN07601047 11486 21805 11068 21084 39465 49835 53016 60052 70172 82500 333 11025=
0117010470999992013110600004+69000+023033FM-12+030799999V0201801N003019999999N040000199-01401-01531098671ADDAY101021AY201021MA1999990094921MD1210071+9990MW1021REMSYN05401047 41982 01803 11140 21153 39492 49867 52007 70200=
0239010470999992013110606004+69000+023033FM-12+030799999V0209999C999999999999N055000199-01681-01881098861ADDAJ100213100210094AY121021AY201021GA1051+999991031GE19MSL   +99999+99999GF105991051990999999991991IA1239KA1240N-01681MA1999990095101MD1310131+9990MW1031REMSYN07601047 41785 50000 11168 21188 39510 49886 53013 70320 85070 333 21168 47021=
0203010470999992013110609004+69000+023033FM-12+030799999V0201801N001019999999N055000199-01621-01821098981ADDAY121021AY221021GA1991+999991021GA2021+999991061GE19MSL   +99999+99999GF106991990990999999991991MA1999990095221MD1210121+9990MW1031REMSYN06001047 41585 61801 11162 21182 39522 49898 52012 70322 82508=
0203010470999992013110612004+69000+023033FM-12+030799999V0201801N001019999999N050000199-01501-01701099121ADDAY121021AY221021GA1991+999991021GA2031+999991061GE19MSL   +99999+99999GF106991990990999999991991MA1999990095361MD1310141+9990MW1021REMSYN06001047 41584 61801 11150 21170 39536 49912 53014 70222 83508=
0187010470999992013110615004+69000+023033FM-12+030799999V0201801N003019999999N060000199-01421-01621099211ADDAY121021AY221021GA1071+999991061GE19MSL   +99999+99999GF107991071990999999991991MA1999990095451MD1210081+9990MW1031REMSYN06001047 41586 71803 11142 21162 39545 49921 52008 70322 87500=
0210010470999992013110618004+69000+023033FM-12+030799999V0201801N003019999999N060000199-01041-01201099281ADDAY121021AY221021GA1081+999991061GE19MSL   +99999+99999GF108991081990999999991991KA1120M-01041MA1999990095521MD1210081+9990MW1021REMSYN07001047 41586 81803 11104 21120 39552 49928 52008 70222 885// 333 11104=
0203010470999992013110700004+69000+023033FM-12+030799999V0203601N001019999999N060000199-00581-00651099431ADDAY171021AY221021GA1991+999991051GA2041+999991061GE19MSL   +99999+99999GF108991990990999999991991MA1999990095701MD1210081+9990MW1021REMSYN06001047 41586 83601 11058 21065 39570 49943 52008 70272 8452/=
0237010470999992013110706004+69000+023033FM-12+030799999V0209999C999999999999N060000199-00811-00921099521ADDAA112000931AJ100223100220094AY171021AY221021GA1061+999991061GE19MSL   +99999+99999GF106991061990999999991991IA1239MA1999990095771MD1210021+9990MW1021REMSYN07601047 11586 60000 11081 21092 39577 49952 52002 69992 70272 86500 333 47022=
0187010470999992013110709004+69000+023033FM-12+030799999V0200501N001019999999N050000199-00981-01051099591ADDAY121021AY221021GA1061+999991061GE19MSL   +99999+99999GF106991061990999999991991MA1999990095831MD1210061+9990MW1021REMSYN06001047 41484 60501 11098 21105 39583 49959 52006 70222 86500=
0187010470999992013110712004+69000+023033FM-12+030799999V0203601N003019999999N003000199-01101-01221099621ADDAY171021AY221021GA1081+999991051GE19MSL   +99999+99999GF108991081990999999991991MA1999990095861MD1210061+9990MW1711REMSYN06001047 41530 83603 11110 21122 39586 49962 52006 77172 8802/=
0187010470999992013110715004+69000+023033FM-12+030799999V0203601N001019999999N005000199-01021-01141099551ADDAY171021AY221021GA1081+999991051GE19MSL   +99999+99999GF108991081990999999991991MA1999990095801MD1610061+9990MW1701REMSYN06001047 41550 83601 11102 21114 39580 49955 56006 77072 8802/=
0227010470999992013110718004+69000+023033FM-12+030799999V0203601N003019999999N003000199-01011-01131099471ADDAA112000531AY171021AY221021GA1081+999991051GE19MSL   +99999+99999GF108991081990999999991991KA1120M-00651MA1999990095721MD1810081+9990MW1711REMSYN07601047 11530 83603 11101 21113 39572 49947 58008 69952 77172 8802/ 333 11065=
0187010470999992013110800004+69000+023033FM-12+030799999V0201801N005019999999N060000199-00431-00571099311ADDAY121021AY221021GA1081+999991051GE19MSL   +99999+99999GF108991081990999999991991MA1999990095581MD1710031+9990MW1021REMSYN06001047 41586 81805 11043 21057 39558 49931 57003 70222 8802/=
0289010470999992013110806004+69000+023033FM-12+030799999V0201801N001019999999N060000199-00421-00561099371ADDAA112000231AA224000731AJ100213100210094AY171021AY221021GA1991+999991051GA2041+999991061GE19MSL   +99999+99999GF108991990990999999991991IA1239KA1240N-01011MA1999990095651MD1210041+9990MW1021REMSYN08801047 11586 81801 11042 21056 39565 49937 52004 69922 70272 8452/ 333 21101 47021 70007=
0203010470999992013110809004+69000+023033FM-12+030799999V0201801N003019999999N010000199-00421-00561099451ADDAY171021AY221021GA1991+999991051GA2031+999991061GE19MSL   +99999+99999GF108991990990999999991991MA1999990095721MD1210071+9990MW1701REMSYN06001047 41460 81803 11042 21056 39572 49945 52007 77072 8352/=
0187010470999992013110812004+69000+023033FM-12+030799999V0201401N003019999999N060000199-00431-00551099481ADDAY171021AY221021GA1081+999991051GE19MSL   +99999+99999GF108991081990999999991991MA1999990095751MD1210031+9990MW1021REMSYN06001047 41586 81403 11043 21055 39575 49948 52003 70272 8802/=
0187010470999992013110815004+69000+023033FM-12+030799999V0201401N003019999999N040000199-00621-00691099601ADDAY121021AY221021GA1081+999991071GE19MSL   +99999+99999GF108991081990999999991991MA1999990095861MD1210111+9990MW1021REMSYN06001047 41382 81403 11062 21069 39586 49960 52011 70222 886//=
0227010470999992013110818004+69000+023033FM-12+030799999V0201801N003019999999N004000199-00561-00631099641ADDAA112000331AY151021AY221021GA1081+999991071GE19MSL   +99999+99999GF108991081990999999991991KA1120M-00351MA1999990095901MD1210041+9990MW1561REMSYN07601047 11140 81803 11056 21063 39590 49964 52004 69932 75652 886// 333 11035=
0187010470999992013110900004+69000+023033FM-12+030799999V0201801N005019999999N050000199-00621-00691099791ADDAY151021AY221021GA1081+999991071GE19MSL   +99999+99999GF108991081990999999991991MA1999990096031MD1210071+9990MW1021REMSYN06001047 41384 81805 11062 21069 39603 49979 52007 70252 886//=
0273010470999992013110906004+69000+023033FM-12+030799999V0209999C999999999999N020000199-00561-00631099851ADDAA112000131AA224000431AJ100253100250094AY171021AY251021GA1081+999991071GE19MSL   +99999+99999GF108991081990999999991991IA1239KA1240N-00661MA1999990096101MD1210031+9990MW1701REMSYN08801047 11470 80000 11056 21063 39610 49985 52003 69912 77075 886// 333 21066 47025 70004=
0206010470999992013110909004+69000+023033FM-12+030799999V0201401N005019999999N005000199-00441-00511099861ADDAY171021AY251021GA1081+999991051GE19MSL   +99999+99999GF108991081990999999991991MA1999990096121MD1290019+9990MW1561REMSYN06001047 41450 81405 11044 21051 39612 49986 54001 75675 8802/=EQDQ01.1    3APC3  
0187010470999992013110912004+69000+023033FM-12+030799999V0201401N005019999999N030000199-00521-00591099841ADDAY151021AY221021GA1081+999991051GE19MSL   +99999+99999GF108991081990999999991991MA1999990096101MD1810011+9990MW1021REMSYN06001047 41480 81405 11052 21059 39610 49984 58001 70252 8802/=
0187010470999992013110915004+69000+023033FM-12+030799999V0201401N005019999999N040000199-00551-00621099781ADDAY121021AY221021GA1081+999991051GE19MSL   +99999+99999GF108991081990999999991991MA1999990096031MD1810061+9990MW1021REMSYN06001047 41482 81405 11055 21062 39603 49978 58006 70222 8802/=
0227010470999992013110918004+69000+023033FM-12+030799999V0201401N007019999999N040000199-00501-00611099751ADDAA112000131AY151021AY221021GA1081+999991051GE19MSL   +99999+99999GF108991081990999999991991KA1120M-00441MA1999990096011MD1810021+9990MW1021REMSYN07601047 11582 81407 11050 21061 39601 49975 58002 69912 70252 8802/ 333 11044=
0187010470999992013111000004+69000+023033FM-12+030799999V0201801N005019999999N050000199-00551-00671099651ADDAY121021AY221021GA1081+999991071GE19MSL   +99999+99999GF108991081990999999991991MA1999990095911MD1810021+9990MW1021REMSYN06001047 41384 81805 11055 21067 39591 49965 58002 70222 886//=
0239010470999992013111006004+69000+023033FM-12+030799999V0201801N005019999999N060000199-00881-01001099621ADDAJ100253100250094AY121021AY221021GA1071+999991071GE19MSL   +99999+99999GF107991071990999999991991IA1239KA1240N-00881MA1999990095871MD1810041+9990MW1021REMSYN07601047 41486 71805 11088 21100 39587 49962 58004 70222 876// 333 21088 47025=
0187010470999992013111009004+69000+023033FM-12+030799999V0201801N005019999999N060000199-00891-01011099601ADDAY121021AY221021GA1081+999991051GE19MSL   +99999+99999GF108991081990999999991991MA1999990095851MD1810021+9990MW1021REMSYN06001047 41586 81805 11089 21101 39585 49960 58002 70222 8802/=
0187010470999992013111012004+69000+023033FM-12+030799999V0201801N003019999999N050000199-00821-00931099551ADDAY121021AY221021GA1081+999991051GE19MSL   +99999+99999GF108991081990999999991991MA1999990095801MD1710061+9990MW1021REMSYN06001047 41584 81803 11082 21093 39580 49955 57006 70222 8802/=
0187010470999992013111015004+69000+023033FM-12+030799999V0201801N001019999999N050000199-01121-01221099601ADDAY121021AY221021GA1061+999991051GE19MSL   +99999+99999GF106991061990999999991991MA1999990095831MD1310041+9990MW1011REMSYN06001047 41584 61801 11112 21122 39583 49960 53004 70122 86020=
0210010470999992013111018004+69000+023033FM-12+030799999V0201801N001019999999N060000199-01381-01561099671ADDAY121021AY221021GA1051+999991031GE19MSL   +99999+99999GF105991051990999999991991KA1120M-00721MA1999990095901MD1310061+9990MW1021REMSYN07001047 41886 51801 11138 21156 39590 49967 53006 70222 85070 333 11072=
0117010470999992013111100004+69000+023033FM-12+030799999V0201801N003019999999N060000199-01701-01881099951ADDAY101021AY201021MA1999990096151MD1110131+9990MW1021REMSYN05401047 41986 01803 11170 21188 39615 49995 51013 70200=
0220010470999992013111106004+69000+023033FM-12+030799999V0201801N003019999999N060000199+99999+99999100161ADDAJ100253100250094AY111021AY201021GA1041+999991031GE19MSL   +99999+99999GF104991041990999999991991IA1239MA1999990096401MD1310151+9990MW1021REMSYN07001047 41886 41803 1//// 2//// 39640 40016 53015 70210 84070 333 47025=
0187010470999992013111109004+69000+023033FM-12+030799999V0201801N003019999999N060000199-00721-00971100511ADDAY101021AY201021GA1021+999991031GE19MSL   +99999+99999GF102991021990999999991991MA1999990096721MD1310311+9990MW1011REMSYN06001047 41886 21803 11072 21097 39672 40051 53031 70100 82070=
0187010470999992013111112004+69000+023033FM-12+030799999V0201801N003019999999N060000199-00801-01081100751ADDAY101021AY201021GA1011+999991081GE19MSL   +99999+99999GF101991011990999999991991MA1999990096961MD1110261+9990MW1021REMSYN06001047 41686 11803 11080 21108 39696 40075 51026 70200 81100=
0187010470999992013111115004+69000+023033FM-12+030799999V0201801N003019999999N060000199-00951-01231100901ADDAY101021AY201021GA1031+999991031GE19MSL   +99999+99999GF103991031990999999991991MA1999990097101MD1310141+9990MW1031REMSYN06001047 41886 31803 11095 21123 39710 40090 53014 70300 83070=
0210010470999992013111118004+69000+023033FM-12+030799999V0201801N005019999999N060000199-01001-01211100811ADDAY101021AY201021GA1021+999991031GE19MSL   +99999+99999GF102991021990999999991991KA1120M-00351MA1999990097011MD1810091+9990MW1021REMSYN07001047 31886 21805 11100 21121 39701 40081 58009 70200 82070 333 11035=
0187010470999992013111200004+69000+023033FM-12+030799999V0201801N005019999999N060000199-00801-01011100171ADDAY121021AY201021GA1061+999991031GE19MSL   +99999+99999GF106991061990999999991991MA1999990096401MD1310361+9990MW1031REMSYN06001047 41886 61805 11080 21101 39640 40017 53036 70320 86070=
0239010470999992013111206004+69000+023033FM-12+030799999V0201801N003019999999N060000199-00901-01111099701ADDAJ100243100240094AY121021AY201021GA1051+999991031GE19MSL   +99999+99999GF105991051990999999991991IA1239KA1240N-01101MA1999990095931MD1610191+9990MW1021REMSYN07601047 41886 51803 11090 21111 39593 49970 56019 70220 85070 333 21110 47024=
0187010470999992013111209004+69000+023033FM-12+030799999V0201801N005019999999N060000199-00821-01021099621ADDAY121021AY221021GA1071+999991071GE19MSL   +99999+99999GF107991071990999999991991MA1999990095871MD1810051+9990MW1031REMSYN06001047 41386 71805 11082 21102 39587 49962 58005 70322 87600=
0187010470999992013111212004+69000+023033FM-12+030799999V0201601N005019999999N060000199-00861-01021099531ADDAY121021AY221021GA1061+999991071GE19MSL   +99999+99999GF106991061990999999991991MA1999990095771MD1810101+9990MW1021REMSYN06001047 41386 61605 11086 21102 39577 49953 58010 70222 86600=
0187010470999992013111215004+69000+023033FM-12+030799999V0201601N005019999999N060000199-00811-00931099441ADDAY121021AY221021GA1071+999991071GE19MSL   +99999+99999GF107991071990999999991991MA1999990095701MD1710121+9990MW1021REMSYN06001047 41386 71605 11081 21093 39570 49944 57012 70222 87600=
0210010470999992013111218004+69000+023033FM-12+030799999V0201801N005019999999N060000199-00911-01041099381ADDAY111021AY211021GA1041+999991031GE19MSL   +99999+99999GF104991041990999999991991KA1120M-00701MA1999990095631MD1510041+9990MW1011REMSYN07001047 31886 41805 11091 21104 39563 49938 55004 70111 84070 333 11070=
0187010470999992013111300004+69000+023033FM-12+030799999V0201801N005019999999N060000199-00641-00761099181ADDAY111021AY211021GA1081+999991061GE19MSL   +99999+99999GF108991081990999999991991MA1999990095461MD1810071+9990MW1021REMSYN06001047 41586 81805 11064 21076 39546 49918 58007 70211 885//=
0255010470999992013111306004+69000+023033FM-12+030799999V0209999C999999999999N060000199-00581-00771099121ADDAJ100243100240094AY121021AY211021GA1991+999991031GA2021+999991061GE19MSL   +99999+99999GF106991990990999999991991IA1239KA1240N-00911MA1999990095401MD1510001+9990MW1021REMSYN07601047 41586 60000 11058 21077 39540 49912 55000 70221 82470 333 21091 47024=
0187010470999992013111309004+69000+023033FM-12+030799999V0201801N003019999999N060000199-00921-01081099261ADDAY121021AY221021GA1031+999991031GE19MSL   +99999+99999GF103991031990999999991991MA1999990095521MD1310121+9990MW1011REMSYN06001047 41886 31803 11092 21108 39552 49926 53012 70122 83070=
0187010470999992013111312004+69000+023033FM-12+030799999V0201401N005019999999N060000199-01161-01311099311ADDAY101021AY201021GA1021+999991031GE19MSL   +99999+99999GF102991021990999999991991MA1999990095561MD1900041+9990MW1011REMSYN06001047 41886 21405 11116 21131 39556 49931 50004 70100 82070=
0187010470999992013111315004+69000+023033FM-12+030799999V0201601N003019999999N060000199-01161-01311099391ADDAY101021AY201021GA1041+999991031GE19MSL   +99999+99999GF104991041990999999991991MA1999990095631MD1310091+9990MW1031REMSYN06001047 41886 41603 11116 21131 39563 49939 53009 70300 84070=
0226010470999992013111318004+69000+023033FM-12+030799999V0200901N003019999999N060000199-01151-01301099581ADDAY121021AY221021GA1991+999991031GA2031+999991061GE19MSL   +99999+99999GF106991990990999999991991KA1120M-00501MA1999990095821MD1310181+9990MW1031REMSYN07001047 31586 60903 11115 21130 39582 49958 53018 70322 83570 333 11050=
0187010470999992013111400004+69000+023033FM-12+030799999V0200501N005019999999N060000199-00411-00701100341ADDAY111021AY211021GA1021+999991031GE19MSL   +99999+99999GF102991021990999999991991MA1999990096571MD1310351+9990MW1011REMSYN06001047 41886 20505 11041 21070 39657 40034 53035 70111 82070=
0239010470999992013111406004+69000+023033FM-12+030799999V0209999C999999999999N060000199-00721-01051100951ADDAJ100243100240094AY121021AY211021GA1061+999991031GE19MSL   +99999+99999GF106991061990999999991991IA1239KA1240N-01151MA1999990097161MD1310331+9990MW1021REMSYN07601047 41886 60000 11072 21105 39716 40095 53033 70221 86070 333 21115 47024=
0117010470999992013111409004+69000+023033FM-12+030799999V0200501N003019999999N060000199-00861-01141101191ADDAY121021AY221021MA1999990097371MD1110211+9990MW1011REMSYN05401047 41986 00503 11086 21114 39737 40119 51021 70122=
0206010470999992013111412004+69000+023033FM-12+030799999V0203601N003019999999N060000199-01241-01441101441ADDAY101021AY201021GA1999+999991001GE19MSL   +99999+99999GF102991001990999999991991MA1999990097601MD1310221+9990MW1021REMSYN06001047 41986 23603 11124 21144 39760 40144 53022 70200 80002=EQDQ01    003SCCGA1
0206010470999992013111415004+69000+023033FM-12+030799999V0201801N003019999999N060000199-01541-01741101611ADDAY101021AY201021GA1999+999991001GE19MSL   +99999+99999GF103991001990999999991991MA1999990097751MD1310151+9990MW1021REMSYN06001047 41986 31803 11154 21174 39775 40161 53015 70200 80002=EQDQ01    003SCCGA1
0229010470999992013111418004+69000+023033FM-12+030799999V0201801N003019999999N060000199-01921-02111101701ADDAY101021AY201021GA1999+999991021GE19MSL   +99999+99999GF103991001990999999991991KA1120M-00441MA1999990097821MD1210051+9990MW1021REMSYN07001047 31986 31803 11192 21211 39782 40170 52005 70200 80008 333 11044=EQDQ01    003SCCGA1
0187010470999992013111500004+69000+023033FM-12+030799999V0201801N003019999999N060000199-02201-02411101381ADDAY101021AY201021GA1051+999991031GE19MSL   +99999+99999GF105991051990999999991991MA1999990097501MD1810201+9990MW1031REMSYN06001047 41786 51803 11220 21241 39750 40138 58020 70300 85070=
0273010470999992013111506004+69000+023033FM-12+030799999V0201801N005019999999N010000199-00621-00781100561ADDAA112000231AA224000231AJ100243100240094AY171021AY221021GA1081+999991051GE19MSL   +99999+99999GF108991081990999999991991IA1239KA1240N-02211MA1999990096771MD1610381+9990MW1701REMSYN08801047 11660 81805 11062 21078 39677 40056 56038 69922 77072 8802/ 333 21221 47024 70002=
0187010470999992013111509004+69000+023033FM-12+030799999V0201801N010019999999N004000199-00461-00601100041ADDAY171021AY231021GA1081+999991051GE19MSL   +99999+99999GF108991081990999999991991MA1999990096281MD1810491+9990MW1711REMSYN06001047 41540 81810 11046 21060 39628 40004 58049 77173 8802/=
0187010470999992013111512004+69000+023033FM-12+030799999V0201801N007019999999N004000199-00281-00421099461ADDAY171021AY231021GA1081+999991051GE19MSL   +99999+99999GF108991081990999999991991MA1999990095731MD1810541+9990MW1711REMSYN06001047 41540 81807 11028 21042 39573 49946 58054 77173 8802/=
0187010470999992013111515004+69000+023033FM-12+030799999V0201801N007019999999N002500199-00201-00341098671ADDAY171021AY271021GA1081+999991051GE19MSL   +99999+99999GF108991081990999999991991MA1999990094971MD1810761+9990MW1711REMSYN06001047 41525 81807 11020 21034 39497 49867 58076 77177 8802/=
0227010470999992013111518004+69000+023033FM-12+030799999V0201801N010019999999N005000199-00081-00301097931ADDAA112001031AY171021AY231021GA1081+999991051GE19MSL   +99999+99999GF108991081990999999991991KA1120M-00081MA1999990094271MD1610671+9990MW1711REMSYN07601047 11550 81810 11008 21030 39427 49793 56067 60012 77173 8802/ 333 11008=
0187010470999992013111600004+69000+023033FM-12+030799999V0202201N007019999999N060000199-00011-00451097561ADDAY171021AY221021GA1021+999991061GE19MSL   +99999+99999GF102991021990999999991991MA1999990093921MD1510091+9990MW1011REMSYN06001047 41586 22207 11001 21045 39392 49756 55009 70172 82500=
0203010470999992013111606004+69000+023033FM-12+030799999V0202201N005019999999N060000199-00101-00611097811ADDAA112000131AA224001131AJ100213100210094AY171021AY221021IA1289KA1240N-00221MA1999990094161MD1310271+9990MW1021REMSYN08201047 11986 02205 11010 21061 39416 49781 53027 69912 70272 333 21022 48021 70011=
0187010470999992013111609004+69000+023033FM-12+030799999V0202201N007019999999N060000199-00231-00791098131ADDAY101021AY201021GA1021+999991081GE19MSL   +99999+99999GF102991021990999999991991MA1999990094461MD1110311+9990MW1021REMSYN06001047 41786 22207 11023 21079 39446 49813 51031 70200 82100=
0203010470999992013111612004+69000+023033FM-12+030799999V0202201N003019999999N060000199-00301-00871098311ADDAY101021AY201021GA1991+999991031GA2021+999991061GE19MSL   +99999+99999GF103991990990999999991991MA1999990094621MD1310161+9990MW1031REMSYN06001047 41586 32203 11030 21087 39462 49831 53016 70300 82540=
0187010470999992013111615004+69000+023033FM-12+030799999V0202201N005019999999N060000199-00501-00991098321ADDAY101021AY201021GA1051+999991031GE19MSL   +99999+99999GF105991051990999999991991MA1999990094621MD1900001+9990MW1031REMSYN06001047 41886 52205 11050 21099 39462 49832 50000 70300 85070=
0210010470999992013111618004+69000+023033FM-12+030799999V0201801N005019999999N065000199-00411-00841098051ADDAY121021AY221021GA1081+999991031GE19MSL   +99999+99999GF108991081990999999991991KA1120M-00021MA1999990094371MD1810241+9990MW1021REMSYN07001047 31887 81805 11041 21084 39437 49805 58024 70222 8807/ 333 11002=
0187010470999992013111700004+69000+023033FM-12+030799999V0200501N003019999999N005000199-00511-00631097531ADDAY171021AY221021GA1081+999991051GE19MSL   +99999+99999GF108991081990999999991991MA1999990093871MD1610241+9990MW1711REMSYN06001047 41550 80503 11051 21063 39387 49753 56024 77172 8802/=
0273010470999992013111706004+69000+023033FM-12+030799999V0200501N003019999999N060000199-00621-00921098261ADDAA112001031AA224001431AJ100233100230094AY171021AY221021GA1071+999991051GE19MSL   +99999+99999GF107991071990999999991991IA1289KA1240N-01011MA1999990094571MD1310471+9990MW1021REMSYN08801047 11686 70503 11062 21092 39457 49826 53047 60012 70272 87020 333 21101 48023 70014=
0187010470999992013111709004+69000+023033FM-12+030799999V0203601N003019999999N060000199-00411-00821098751ADDAY121021AY221021GA1071+999991031GE19MSL   +99999+99999GF107991071990999999991991MA1999990095051MD1310451+9990MW1021REMSYN06001047 41786 73603 11041 21082 39505 49875 53045 70222 87070=
0187010470999992013111712004+69000+023033FM-12+030799999V0203401N003019999999N060000199-00461-00841099201ADDAY121021AY221021GA1071+999991031GE19MSL   +99999+99999GF107991071990999999991991MA1999990095471MD1310451+9990MW1021REMSYN06001047 41786 73403 11046 21084 39547 49920 53045 70222 87070=
0203010470999992013111715004+69000+023033FM-12+030799999V0203401N005019999999N060000199-00581-01001099541ADDAY121021AY221021GA1991+999991031GA2021+999991061GE19MSL   +99999+99999GF107991990990999999991991MA1999990095801MD1210331+9990MW1021REMSYN06001047 41586 73405 11058 21100 39580 49954 52033 70222 82570=
0210010470999992013111718004+69000+023033FM-12+030799999V0202701N003019999999N060000199-00661-01151099891ADDAY121021AY221021GA1061+999991031GE19MSL   +99999+99999GF106991061990999999991991KA1120M-00351MA1999990096131MD1210341+9990MW1011REMSYN07001047 31886 62703 11066 21115 39613 49989 52034 70122 86070 333 11035=
0187010470999992013111800004+69000+023033FM-12+030799999V0203601N003019999999N060000199-01161-01451099921ADDAY121021AY221021GA1081+999991051GE19MSL   +99999+99999GF108991081990999999991991MA1999990096151MD1810061+9990MW1021REMSYN06001047 41586 83603 11116 21145 39615 49992 58006 70222 8802/=
0273010470999992013111806004+69000+023033FM-12+030799999V0200501N003019999999N060000199-00581-00771099231ADDAA112001031AA224001231AJ100253100250094AY171021AY221021GA1081+999991051GE19MSL   +99999+99999GF108991081990999999991991IA1289KA1240N-01161MA1999990095511MD1610401+9990MW1021REMSYN08801047 11586 80503 11058 21077 39551 49923 56040 60012 70272 8802/ 333 21116 48025 70012=
0203010470999992013111809004+69000+023033FM-12+030799999V0201801N005019999999N060000199-00441-00641099041ADDAY121021AY221021GA1991+999991051GA2021+999991061GE19MSL   +99999+99999GF108991990990999999991991MA1999990095321MD1610161+9990MW1021REMSYN06001047 41486 81805 11044 21064 39532 49904 56016 70222 8252/=
0187010470999992013111812004+69000+023033FM-12+030799999V0201801N005019999999N010000199-00301-00421098761ADDAY171021AY221021GA1081+999991051GE19MSL   +99999+99999GF108991081990999999991991MA1999990095071MD1710271+9990MW1711REMSYN06001047 41560 81805 11030 21042 39507 49876 57027 77172 8802/=
0187010470999992013111815004+69000+023033FM-12+030799999V0201801N005019999999N060000199-00501-00621098631ADDAY171021AY221021GA1031+999991051GE19MSL   +99999+99999GF103991031990999999991991MA1999990094921MD1810141+9990MW1011REMSYN06001047 41586 31805 11050 21062 39492 49863 58014 70172 83020=
0227010470999992013111818004+69000+023033FM-12+030799999V0201801N005019999999N060000199-00411-00531098591ADDAA112000021AY171021AY201021GA1021+999991031GE19MSL   +99999+99999GF102991021990999999991991KA1120M-00251MA1999990094901MD1510031+9990MW1021REMSYN07601047 11886 21805 11041 21053 39490 49859 55003 69902 70270 82070 333 11025=
0239010470999992013111906004+69000+023033FM-12+030799999V0201801N003019999999N065000199-00611-00841098991ADDAJ100253100250094AY121021AY211021GA1071+999991061GE19MSL   +99999+99999GF107991071990999999991991IA1289KA1240N-00951MA1999990095271MD1710061+9990MW1021REMSYN07601047 41687 71803 11061 21084 39527 49899 57006 70221 87500 333 21095 48025=
0187010470999992013111909004+69000+023033FM-12+030799999V0201801N003019999999N060000199-01011-01141098981ADDAY101021AY201021GA1021+999991061GE19MSL   +99999+99999GF102991021990999999991991MA1999990095251MD1710021+9990MW1011REMSYN06001047 41686 21803 11101 21114 39525 49898 57002 70100 82500=
0187010470999992013111912004+69000+023033FM-12+030799999V0201801N003019999999N002000199-01011-01081098941ADDAY121021AY201021GA1081+999991071GE19MSL   +99999+99999GF108991081990999999991991MA1999990095211MD1710041+9990MW1101REMSYN06001047 41220 81803 11101 21108 39521 49894 57004 71020 886//=
0187010470999992013111915004+69000+023033FM-12+030799999V0201801N003019999999N010000199-01201-01301098951ADDAY121021AY221021GA1081+999991071GE19MSL   +99999+99999GF108991081990999999991991MA1999990095211MD1310021+9990MW1101REMSYN06001047 41260 81803 11120 21130 39521 49895 53002 71022 886//=
0210010470999992013111918004+69000+023033FM-12+030799999V0200901N003019999999N050000199-01501-01631099061ADDAY121021AY221021GA1051+999991031GE19MSL   +99999+99999GF105991051990999999991991KA1120M-00481MA1999990095301MD1900081+9990MW1011REMSYN07001047 31884 50903 11150 21163 39530 49906 50008 70122 85070 333 11048=
0187010470999992013112000004+69000+023033FM-12+030799999V0200501N001019999999N060000199-02241-02441099421ADDAY111021AY211021GA1061+999991031GE19MSL   +99999+99999GF106991061990999999991991MA1999990095621MD1310151+9990MW1021REMSYN06001047 41886 60501 11224 21244 39562 49942 53015 70211 86070=
0239010470999992013112006004+69000+023033FM-12+030799999V0209999C999999999999N060000199-02291-02501099681ADDAJ100253100250094AY121021AY211021GA1031+999991031GE19MSL   +99999+99999GF103991031990999999991991IA1289KA1240N-02291MA1999990095871MD1310141+9990MW1021REMSYN07601047 41886 30000 11229 21250 39587 49968 53014 70221 83070 333 21229 48025=
0117010470999992013112009004+69000+023033FM-12+030799999V0201801N003019999999N050000199-02101-02301099811ADDAY101021AY201021MA1999990096001MD1310121+9990MW1021REMSYN05401047 41984 01803 11210 21230 39600 49981 53012 70200=
0187010470999992013112012004+69000+023033FM-12+030799999V0201801N003019999999N050000199-01821-02031099861ADDAY101021AY201021GA1031+999991031GE19MSL   +99999+99999GF103991031990999999991991MA1999990096061MD1900041+9990MW1021REMSYN06001047 41884 31803 11182 21203 39606 49986 50004 70200 83070=
0187010470999992013112015004+69000+023033FM-12+030799999V0201801N005019999999N060000199-00662-00991100031ADDAY121021AY221021GA1081+999991031GE19MSL   +99999+99999GF108991081990999999991991MA1999990096271MD1310171+9990MW1021REMSYN06001047 41886 81805 11066 21099 39627 40003 53017 70222 8807/=
0210010470999992013112018004+69000+023033FM-12+030799999V0201801N005019999999N060000199-00521-00951100301ADDAY121021AY221021GA1051+999991031GE19MSL   +99999+99999GF105991051990999999991991KA1120M-00451MA1999990096531MD1310311+9990MW1011REMSYN07001047 31886 51805 11052 21095 39653 40030 53031 70122 85070 333 11045=
0187010470999992013112100004+69000+023033FM-12+030799999V0201801N005019999999N060000199-00721-01191100951ADDAY111021AY211021GA1031+999991031GE19MSL   +99999+99999GF103991031990999999991991MA1999990097161MD1210241+9990MW1021REMSYN06001047 41886 31805 11072 21119 39716 40095 52024 70211 83040=
0258010470999992013112106004+69000+023033FM-12+030799999V0201801N005019999999N065000199-01581-01771101311ADDAJ100253100250094AY111021AY201021GA1999+999991021GE19MSL   +99999+99999GF104991001990999999991991IA1289KA1240N-01611MA1999990097461MD1310161+9990MW1021REMSYN07601047 41987 41805 11158 21177 39746 40131 53016 70210 80008 333 21161 48025=EQDQ01    003SCCGA1
0206010470999992013112109004+69000+023033FM-12+030799999V0201801N005019999999N060000199-01601-01801101441ADDAY101021AY201021GA1999+999991021GE19MSL   +99999+99999GF103991001990999999991991MA1999990097581MD1110111+9990MW1021REMSYN06001047 41986 31805 11160 21180 39758 40144 51011 70200 80008=EQDQ01    003SCCGA1
0206010470999992013112112004+69000+023033FM-12+030799999V0201801N005019999999N060000199-01701-01881101531ADDAY101021AY201021GA1999+999991021GE19MSL   +99999+99999GF104991001990999999991991MA1999990097671MD1110091+9990MW1031REMSYN06001047 41986 41805 11170 21188 39767 40153 51009 70300 80008=EQDQ01    003SCCGA1
0206010470999992013112115004+69000+023033FM-12+030799999V0203601N003019999999N050000199-01901-02091101571ADDAY101021AY201021GA1999+999991021GE19MSL   +99999+99999GF104991001990999999991991MA1999990097701MD1210031+9990MW1021REMSYN06001047 41984 43603 11190 21209 39770 40157 52003 70200 80008=EQDQ01    003SCCGA1
0210010470999992013112118004+69000+023033FM-12+030799999V0202701N003019999999N050000199-01961-02151101551ADDAY121021AY221021GA1081+999991041GE19MSL   +99999+99999GF108991081990999999991991KA1120M-00881MA1999990097671MD1710031+9990MW1021REMSYN07001047 31884 82703 11196 21215 39767 40155 57003 70222 8801/ 333 11088=
0187010470999992013112200004+69000+023033FM-12+030799999V0202201N003019999999N050000199-01421-01621101271ADDAY111021AY211021GA1021+999991031GE19MSL   +99999+99999GF102991021990999999991991MA1999990097421MD1710161+9990MW1021REMSYN06001047 41884 22203 11142 21162 39742 40127 57016 70211 82040=
0239010470999992013112206004+69000+023033FM-12+030799999V0202201N001019999999N055000199-02051-02271100811ADDAJ100253100250094AY121021AY211021GA1051+999991031GE19MSL   +99999+99999GF105991051990999999991991IA1289KA1240N-02121MA1999990096961MD1810301+9990MW1021REMSYN07601047 41885 52201 11205 21227 39696 40081 58030 70221 85070 333 21212 48025=
0183010470999992013112209004+69000+023033FM-12+030799999V0201801N005019999999N060000199-01151-01361100491ADDAY121021AY221021GA1031+999991061GA2991+999991031GE19MSL   +99999+99999GF107991031990999999991991MA1999990096681MW1031REMSYN05401047 41586 71805 11115 21136 39668 40049 70322 83570=
0187010470999992013112212004+69000+023033FM-12+030799999V0201801N007019999999N060000199-01011-01261100041ADDAY121021AY221021GA1081+999991051GE19MSL   +99999+99999GF108991081990999999991991MA1999990096271MD1810421+9990MW1021REMSYN06001047 41586 81807 11101 21126 39627 40004 58042 70222 8802/=
0187010470999992013112215004+69000+023033FM-12+030799999V0202201N007019999999N060000199-00861-01141099591ADDAY121021AY221021GA1061+999991051GE19MSL   +99999+99999GF106991061990999999991991MA1999990095831MD1610421+9990MW1011REMSYN06001047 41586 62207 11086 21114 39583 49959 56042 70122 86020=
0210010470999992013112218004+69000+023033FM-12+030799999V0202201N007019999999N060000199-00911-01191099461ADDAY121021AY221021GA1031+999991051GE19MSL   +99999+99999GF103991031990999999991991KA1120M-00861MA1999990095711MD1610131+9990MW1011REMSYN07001047 31586 32207 11091 21119 39571 49946 56013 70122 83020 333 11086=
0187010470999992013112300004+69000+023033FM-12+030799999V0201801N005019999999N060000199-00951-01171099801ADDAY111021AY211021GA1041+999991031GE19MSL   +99999+99999GF104991041990999999991991MA1999990096031MD1110161+9990MW1031REMSYN06001047 41886 41805 11095 21117 39603 49980 51016 70311 84070=
0239010470999992013112306004+69000+023033FM-12+030799999V0201801N005019999999N060000199-00741-01131099651ADDAJ100243100240094AY121021AY211021GA1051+999991031GE19MSL   +99999+99999GF105991051990999999991991IA1289KA1240N-00971MA1999990095901MD1810151+9990MW1021REMSYN07601047 41886 51805 11074 21113 39590 49965 58015 70221 85070 333 21097 48024=
0203010470999992013112309004+69000+023033FM-12+030799999V0201801N005019999999N060000199-00851-01131099601ADDAY111021AY211021GA1991+999991031GA2011+999991081GE19MSL   +99999+99999GF102991990990999999991991MA1999990095851MD1810041+9990MW1011REMSYN06001047 41686 21805 11085 21113 39585 49960 58004 70111 81140=
0187010470999992013112312004+69000+023033FM-12+030799999V0201801N005019999999N060000199-01211-01461099581ADDAY101021AY201021GA1041+999991031GE19MSL   +99999+99999GF104991041990999999991991MA1999990095821MD1710051+9990MW1031REMSYN06001047 41886 41805 11121 21146 39582 49958 57005 70300 84070=
0187010470999992013112315004+69000+023033FM-12+030799999V0201801N005019999999N060000199-01111-01321099491ADDAY121021AY211021GA1071+999991031GE19MSL   +99999+99999GF107991071990999999991991MA1999990095721MD1710091+9990MW1021REMSYN06001047 41886 71805 11111 21132 39572 49949 57009 70221 87070=
0140010470999992013112318004+69000+023033FM-12+030799999V0201401N007019999999N060000199-00981-01321099361ADDAY111021AY211021KA1120M-00581MA1999990095611MD1610111+9990MW1011REMSYN06401047 31986 01407 11098 21132 39561 49936 56011 70111 333 11058=
0187010470999992013112400004+69000+023033FM-12+030799999V0201601N007019999999N065000199-01331-01601099171ADDAY101021AY201021GA1021+999991031GE19MSL   +99999+99999GF102991021990999999991991MA1999990095421MD1810071+9990MW1021REMSYN06001047 41887 21607 11133 21160 39542 49917 58007 70200 82070=
0239010470999992013112406004+69000+023033FM-12+030799999V0201601N005019999999N065000199-01161-01451098781ADDAJ100243100240094AY121021AY201021GA1061+999991031GE19MSL   +99999+99999GF106991061990999999991991IA1289KA1240N-01471MA1999990095051MD1610231+9990MW1021REMSYN07601047 41887 61605 11116 21145 39505 49878 56023 70220 86070 333 21147 48024=
0187010470999992013112409004+69000+023033FM-12+030799999V0201601N005019999999N065000199-01241-01511098771ADDAY121021AY221021GA1051+999991031GE19MSL   +99999+99999GF105991051990999999991991MA1999990095031MD1310011+9990MW1021REMSYN06001047 41887 51605 11124 21151 39503 49877 53001 70222 85070=
0206010470999992013112412004+69000+023033FM-12+030799999V0201601N005019999999N065000199-00701-00861098671ADDAY121021AY221021GA1999+999991001GE19MSL   +99999+99999GF105991001990999999991991MA1999990094961MD1810091+9990MW1021REMSYN06001047 41987 51605 11070 21086 39496 49867 58009 70222 80002=EQDQ01    003SCCGA1
0187010470999992013112415004+69000+023033FM-12+030799999V0203001N007019999999N000500199-00241-00311098671ADDAY171021AY231021GA1081+999991051GE19MSL   +99999+99999GF108991081990999999991991MA1999990094971MD1510011+9990MW1731REMSYN06001047 41505 83007 11024 21031 39497 49867 55001 77373 8802/=
0180010470999992013112418004+69000+023033FM-12+030799999V0203201N010019999999N003000199-00261-00331999999ADDAA112009031AY171021AY231021GA1081+999991051GE19MSL   +99999+99999GF108991081990999999991991KA1120M-00141MW1711REMSYN05801047 11530 83210 11026 21033 60092 77173 8802/ 333 11014=
0273010470999992013112506004+69000+023033FM-12+030799999V0203201N005019999999N060000199-00341-00691100231ADDAA112000331AA224009331AJ100303100300094AY171021AY231021GA1041+999991031GE19MSL   +99999+99999GF104991041990999999991991IA1289KA1240N-00411MA1999990096471MD1310301+9990MW1021REMSYN08801047 11886 43205 11034 21069 39647 40023 53030 69932 70273 84070 333 21041 48030 70093=
0187010470999992013112509004+69000+023033FM-12+030799999V0203201N007019999999N004000199-00211-00321100441ADDAY171021AY221021GA1081+999991051GE19MSL   +99999+99999GF108991081990999999991991MA1999990096681MD1110201+9990MW1711REMSYN06001047 41540 83207 11021 21032 39668 40044 51020 77172 8802/=
0187010470999992013112512004+69000+023033FM-12+030799999V0203201N005019999999N060000199-00511-00841100671ADDAY171021AY221021GA1031+999991051GE19MSL   +99999+99999GF103991031990999999991991MA1999990096881MD1310201+9990MW1011REMSYN06001047 41586 33205 11051 21084 39688 40067 53020 70172 83020=
0117010470999992013112515004+69000+023033FM-12+030799999V0203201N007019999999N050000199-00511-00871100751ADDAY131021AY201021MA1999990096971MD1110091+9990MW1361REMSYN05401047 41984 03207 11051 21087 39697 40075 51009 73630=
0157010470999992013112518004+69000+023033FM-12+030799999V0203201N005019999999N060000199-00801-01161100991ADDAA112001031AY131021AY201021KA1120M-00161MA1999990097181MD1110201+9990MW1021REMSYN07001047 11986 03205 11080 21116 39718 40099 51020 60012 70230 333 11016=
0187010470999992013112600004+69000+023033FM-12+030799999V0202201N005019999999N060000199-00691-01111100981ADDAY121021AY201021GA1081+999991051GE19MSL   +99999+99999GF108991081990999999991991MA1999990097181MD1810061+9990MW1021REMSYN06001047 41586 82205 11069 21111 39718 40098 58006 70220 8802/=
0239010470999992013112606004+69000+023033FM-12+030799999V0209999C999999999999N060000199-01011-01221100841ADDAJ100303100300094AY121021AY201021GA1061+999991051GE19MSL   +99999+99999GF106991061990999999991991IA1289KA1240N-01011MA1999990097031MD1710131+9990MW1021REMSYN07601047 41686 60000 11101 21122 39703 40084 57013 70220 86020 333 21101 48030=
0203010470999992013112609004+69000+023033FM-12+030799999V0201801N003019999999N060000199-01341-01471100611ADDAY101021AY201021GA1991+999991001GA2021+999991031GE19MSL   +99999+99999GF103991990990999999991991MA1999990096801MD1810241+9990MW1021REMSYN06001047 41886 31803 11134 21147 39680 40061 58024 70200 82041=
0203010470999992013112612004+69000+023033FM-12+030799999V0201401N003019999999N060000199-00981-01111100021ADDAY121021AY201021GA1991+999991051GA2031+999991061GE19MSL   +99999+99999GF108991990990999999991991MA1999990096251MD1810541+9990MW1021REMSYN06001047 41486 81403 11098 21111 39625 40002 58054 70220 8352/=
0187010470999992013112615004+69000+023033FM-12+030799999V0202201N005019999999N000500199-00721-00841099351ADDAY171021AY221021GA1081+999991051GE19MSL   +99999+99999GF108991081990999999991991MA1999990095621MD1810621+9990MW1731REMSYN06001047 41405 82205 11072 21084 39562 49935 58062 77372 8802/=
0227010470999992013112618004+69000+023033FM-12+030799999V0202201N005019999999N002000199-00651-00771099081ADDAA112007031AY171021AY271021GA1081+999991051GE19MSL   +99999+99999GF108991081990999999991991KA1120M-00651MA1999990095361MD1610291+9990MW1711REMSYN07601047 11420 82205 11065 21077 39536 49908 56029 60072 77177 8802/ 333 11065=
0117010470999992013112700004+69000+023033FM-12+030799999V0200501N003019999999N060000199-00901-01101099251ADDAY171021AY221021MA1999990095511MD1110071+9990MW1011REMSYN05401047 41986 00503 11090 21110 39551 49925 51007 70172=
0273010470999992013112706004+69000+023033FM-12+030799999V0209999C999999999999N060000199-01471-01661098911ADDAA112001031AA224007531AJ100393100390094AY171021AY221021GA1071+999991041GE19MSL   +99999+99999GF107991071990999999991991IA1239KA1240N-01611MA1999990095161MD1810331+9990MW1021REMSYN08801047 11886 70000 11147 21166 39516 49891 58033 60012 70272 87010 333 21161 47039 70075=
0187010470999992013112709004+69000+023033FM-12+030799999V0202201N005019999999N000500199-00721-00841098221ADDAY171021AY221021GA1081+999991051GE19MSL   +99999+99999GF108991081990999999991991MA1999990094521MD1810631+9990MW1731REMSYN06001047 41505 82205 11072 21084 39452 49822 58063 77372 8802/=
0187010470999992013112712004+69000+023033FM-12+030799999V0202201N005019999999N000500199-00521-00631097411ADDAY171021AY271021GA1081+999991051GE19MSL   +99999+99999GF108991081990999999991991MA1999990093761MD1810801+9990MW1731REMSYN06001047 41505 82205 11052 21063 39376 49741 58080 77377 8802/=
0187010470999992013112715004+69000+023033FM-12+030799999V0202201N003019999999N040000199-00471-00591097071ADDAY171021AY221021GA1081+999991051GE19MSL   +99999+99999GF108991081990999999991991MA1999990093421MD1610431+9990MW1021REMSYN06001047 41582 82203 11047 21059 39342 49707 56043 70272 8802/=
0227010470999992013112718004+69000+023033FM-12+030799999V0202201N003019999999N060000199-00601-00721096971ADDAA112004031AY171021AY221021GA1081+999991051GE19MSL   +99999+99999GF108991081990999999991991KA1120M-00421MA1999990093321MD1510051+9990MW1021REMSYN07601047 11586 82203 11060 21072 39332 49697 55005 60042 70272 8802/ 333 11042=
0140010470999992013112800004+69000+023033FM-12+030799999V0200501N003019999999N003000199-00531-00691999999ADDAY171021AY221021GA1081+999991051GE19MSL   +99999+99999GF108991081990999999991991MW1711REMSYN04201047 41530 80503 11053 21069 77172 8802/=
0273010470999992013112806004+69000+023033FM-12+030799999V0203601N010019999999N050000199-00231-00491098411ADDAA112000331AA224003831AJ100403100400094AY171021AY231021GA1081+999991051GE19MSL   +99999+99999GF108991081990999999991991IA1289KA1240N-00651MA1999990094721MD1310571+9990MW1361REMSYN08801047 11584 83610 11023 21049 39472 49841 53057 69932 73673 8802/ 333 21065 48040 70038=
0203010470999992013112809004+69000+023033FM-12+030799999V0203601N010019999999N040000199-00461-00841099091ADDAY131021AY221021GA1991+999991051GA2031+999991061GE19MSL   +99999+99999GF107991990990999999991991MA1999990095371MD1310621+9990MW1361REMSYN06001047 41482 73610 11046 21084 39537 49909 53062 73632 83520=
0187010470999992013112812004+69000+023033FM-12+030799999V0203601N010019999999N050000199-00401-00751099581ADDAY131021AY221021GA1051+999991061GE19MSL   +99999+99999GF105991051990999999991991MA1999990095851MD1110501+9990MW1361REMSYN06001047 41584 53610 11040 21075 39585 49958 51050 73632 85500=
0187010470999992013112815004+69000+023033FM-12+030799999V0203601N007019999999N020000199-00501-00791100021ADDAY171021AY231021GA1061+999991051GE19MSL   +99999+99999GF106991061990999999991991MA1999990096271MD1110351+9990MW1711REMSYN06001047 41570 63607 11050 21079 39627 40002 51035 77173 86020=
0227010470999992013112818004+69000+023033FM-12+030799999V0203601N005019999999N060000199-00781-01081100301ADDAA112002031AY171021AY221021GA1041+999991051GE19MSL   +99999+99999GF104991041990999999991991KA1120M-00151MA1999990096521MD1110261+9990MW1011REMSYN07601047 11586 43605 11078 21108 39652 40030 51026 60022 70172 84020 333 11015=
0187010470999992013112900004+69000+023033FM-12+030799999V0203601N005019999999N060000199-00721-01141100421ADDAY111021AY211021GA1081+999991051GE19MSL   +99999+99999GF108991081990999999991991MA1999990096651MD1900021+9990MW1021REMSYN06001047 41586 83605 11072 21114 39665 40042 50002 70211 8802/=
0239010470999992013112906004+69000+023033FM-12+030799999V0201801N003019999999N060000199-00991-01331100161ADDAJ100403100400094AY121021AY211021GA1081+999991051GE19MSL   +99999+99999GF108991081990999999991991IA1289KA1240N-01101MA1999990096371MD1710161+9990MW1021REMSYN07601047 41586 81803 11099 21133 39637 40016 57016 70221 8802/ 333 21110 48040=
0187010470999992013112909004+69000+023033FM-12+030799999V0203601N003019999999N060000199-01421-01621100061ADDAY121021AY221021GA1041+999991051GE19MSL   +99999+99999GF104991041990999999991991MA1999990096271MD1610101+9990MW1011REMSYN06001047 41586 43603 11142 21162 39627 40006 56010 70122 84020=
0187010470999992013112912004+69000+023033FM-12+030799999V0203601N003019999999N060000199-01601-01801099961ADDAY111021AY211021GA1061+999991031GE19MSL   +99999+99999GF106991061990999999991991MA1999990096161MD1810101+9990MW1031REMSYN06001047 41886 63603 11160 21180 39616 49996 58010 70311 86070=
0187010470999992013112915004+69000+023033FM-12+030799999V0201801N003019999999N060000199-00891-01171099831ADDAY121021AY221021GA1081+999991051GE19MSL   +99999+99999GF108991081990999999991991MA1999990096071MD1610101+9990MW1021REMSYN06001047 41686 81803 11089 21117 39607 49983 56010 70222 8802/=
0210010470999992013112918004+69000+023033FM-12+030799999V0201801N005019999999N065000199-00801-01221099731ADDAY121021AY221021GA1081+999991041GE19MSL   +99999+99999GF108991081990999999991991KA1120M-00541MA1999990095971MD1810091+9990MW1021REMSYN07001047 31887 81805 11080 21122 39597 49973 58009 70222 8801/ 333 11054=
0187010470999992013113000004+69000+023033FM-12+030799999V0209999C999999999999N003000199-00641-01051099221ADDAY171021AY221021GA1081+999991051GE19MSL   +99999+99999GF108991081990999999991991MA1999990095481MD1610301+9990MW1711REMSYN06001047 41530 80000 11064 21105 39548 49922 56030 77172 8802/=
0273010470999992013113006004+69000+023033FM-12+030799999V0203601N003019999999N060000199-01041-01251099071ADDAA112002031AA224002031AJ100423100420094AY171021AY221021GA1081+999991051GE19MSL   +99999+99999GF108991081990999999991991IA1239KA1240N-01521MA1999990095321MD1310031+9990MW1021REMSYN08801047 11586 83603 11104 21125 39532 49907 53003 60022 70272 8802/ 333 21152 47042 70020=
0187010470999992013113009004+69000+023033FM-12+030799999V0203601N005019999999N060000199-00861-01281099251ADDAY121021AY221021GA1031+999991051GE19MSL   +99999+99999GF103991031990999999991991MA1999990095511MD1210161+9990MW1011REMSYN06001047 41586 33605 11086 21128 39551 49925 52016 70122 83020=
0187010470999992013113012004+69000+023033FM-12+030799999V0202701N003019999999N060000199-01521-01761099331ADDAY101021AY201021GA1021+999991031GE19MSL   +99999+99999GF102991021990999999991991MA1999990095561MD1900051+9990MW1021REMSYN06001047 41886 22703 11152 21176 39556 49933 50005 70200 82040=
0117010470999992013113015004+69000+023033FM-12+030799999V0202201N005019999999N060000199-01261-01711099291ADDAY101021AY201021MA1999990095521MD1710021+9990MW1021REMSYN05401047 41986 02205 11126 21171 39552 49929 57002 70200=
0140010470999992013113018004+69000+023033FM-12+030799999V0202201N003019999999N060000199-01801-02031099191ADDAY101021AY201021KA1120M-00781MA1999990095421MD1810111+9990MW1021REMSYN06401047 31986 02203 11180 21203 39542 49919 58011 70200 333 11078=
0117010470999992013120100004+69000+023033FM-12+030799999V0201801N003019999999N060000199-02061-02291098611ADDAY101021AY201021MA1999990094851MD1710291+9990MW1021REMSYN05401047 41986 01803 11206 21229 39485 49861 57029 70200=
0169010470999992013120106004+69000+023033FM-12+030799999V0209999C999999999999N060000199-02851-03091098711ADDAJ100423100420094AY101021AY201021IA1239KA1240N-02851MA1999990094911MD1310141+9990MW1021REMSYN07001047 41986 00000 11285 21309 39491 49871 53014 70200 333 21285 47042=
0187010470999992013120109004+69000+023033FM-12+030799999V0201801N001019999999N060000199-02541-02791099011ADDAY101021AY201021GA1041+999991031GE19MSL   +99999+99999GF104991041990999999991991MA1999990095211MD1310281+9990MW1031REMSYN06001047 41886 41801 11254 21279 39521 49901 53028 70300 84070=
0187010470999992013120112004+69000+023033FM-12+030799999V0202201N003019999999N050000199-02701-02941099341ADDAY111021AY211021GA1061+999991051GE19MSL   +99999+99999GF106991061990999999991991MA1999990095521MD1310341+9990MW1031REMSYN06001047 41584 62203 11270 21294 39552 49934 53034 70311 86020=
0187010470999992013120115004+69000+023033FM-12+030799999V0202201N003019999999N050000199-02131-02381099661ADDAY121021AY211021GA1071+999991051GE19MSL   +99999+99999GF107991071990999999991991MA1999990095851MD1210391+9990MW1021REMSYN06001047 41584 72203 11213 21238 39585 49966 52039 70221 87020=
0227010470999992013120118004+69000+023033FM-12+030799999V0202201N005019999999N060000199-01002-01291100061ADDAA112000431AY171021AY201021GA1081+999991051GE19MSL   +99999+99999GF108991081990999999991991KA1120M-01001MA1999990096281MD1310391+9990MW1021REMSYN07601047 11686 82205 11100 21129 39628 40006 53039 69942 70270 8802/ 333 11100=
0187010470999992013120200004+69000+023033FM-12+030799999V0202701N005019999999N050000199-01081-01431100601ADDAY181021AY211021GA1051+999991091GE19MSL   +99999+99999GF105991051990999999991991MA1999990096801MD1210231+9990MW1261REMSYN06001047 41484 52705 11108 21143 39680 40060 52023 72681 85900=
0273010470999992013120206004+69000+023033FM-12+030799999V0202701N005019999999N060000199-00901-01381100761ADDAA112000831AA224001231AJ100423100420094AY181021AY211021GA1041+999991031GE19MSL   +99999+99999GF104991041990999999991991IA1239KA1240N-01461MA1999990096961MD1900021+9990MW1021REMSYN08801047 11886 42705 11090 21138 39696 40076 50002 69982 70281 84070 333 21146 47042 70012=
0187010470999992013120209004+69000+023033FM-12+030799999V0202201N007019999999N060000199-01061-01411100661ADDAY121021AY221021GA1081+999991051GE19MSL   +99999+99999GF108991081990999999991991MA1999990096861MD1810101+9990MW1021REMSYN06001047 41686 82207 11106 21141 39686 40066 58010 70222 8802/=
0187010470999992013120212004+69000+023033FM-12+030799999V0201801N005019999999N060000199-00761-01181100491ADDAY121021AY221021GA1081+999991051GE19MSL   +99999+99999GF108991081990999999991991MA1999990096711MD1710181+9990MW1021REMSYN06001047 41686 81805 11076 21118 39671 40049 57018 70222 8802/=
0187010470999992013120215004+69000+023033FM-12+030799999V0201801N007019999999N002000199-00761-00991100091ADDAY171021AY221021GA1081+999991051GE19MSL   +99999+99999GF108991081990999999991991MA1999990096321MD1810371+9990MW1711REMSYN06001047 41520 81807 11076 21099 39632 40009 58037 77172 8802/=
0227010470999992013120218004+69000+023033FM-12+030799999V0201801N005019999999N004000199-00781-00991099581ADDAA112001031AY171021AY271021GA1081+999991051GE19MSL   +99999+99999GF108991081990999999991991KA1120M-00621MA1999990095821MD1810511+9990MW1711REMSYN07601047 11540 81805 11078 21099 39582 49958 58051 60012 77177 8802/ 333 11062=
0187010470999992013120300004+69000+023033FM-12+030799999V0202201N007019999999N060000199-00641-00851098401ADDAY171021AY231021GA1041+999991061GE19MSL   +99999+99999GF104991041990999999991991MA1999990094701MD1810491+9990MW1021REMSYN06001047 41586 42207 11064 21085 39470 49840 58049 70273 84500=
0273010470999992013120306004+69000+023033FM-12+030799999V0209999C999999999999N060000199-00671-00791098141ADDAA112000631AA224001831AJ100383100380094AY171021AY231021GA1071+999991051GE19MSL   +99999+99999GF107991071990999999991991IA1289KA1240N-00781MA1999990094451MD1510051+9990MW1021REMSYN08801047 11586 70000 11067 21079 39445 49814 55005 69962 70273 87020 333 21078 48038 70018=
0203010470999992013120309004+69000+023033FM-12+030799999V0203601N003019999999N060000199-00581-00791098271ADDAY121021AY221021GA1991+999991031GA2021+999991061GE19MSL   +99999+99999GF106991990990999999991991MA1999990094571MD1310151+9990MW1011REMSYN06001047 41486 63603 11058 21079 39457 49827 53015 70122 82570=
0187010470999992013120312004+69000+023033FM-12+030799999V0201401N003019999999N060000199-00601-00981098281ADDAY121021AY221021GA1031+999991061GE19MSL   +99999+99999GF103991031990999999991991MA1999990094581MD1900021+9990MW1011REMSYN06001047 41486 31403 11060 21098 39458 49828 50002 70122 83500=
0187010470999992013120315004+69000+023033FM-12+030799999V0202201N007019999999N040000199-00571-00991098271ADDAY181021AY231021GA1041+999991091GE19MSL   +99999+99999GF104991041990999999991991MA1999990094571MD1900011+9990MW1361REMSYN06001047 41482 42207 11057 21099 39457 49827 50001 73683 84900=
0227010470999992013120318004+69000+023033FM-12+030799999V0202201N007019999999N050000199-00471-00971098181ADDAA112000231AY181021AY231021GA1061+999991051GE19MSL   +99999+99999GF106991061990999999991991KA1120M-00201MA1999990094501MD1810081+9990MW1361REMSYN07601047 11584 62207 11047 21097 39450 49818 58008 69922 73683 86020 333 11020=
0187010470999992013120400004+69000+023033FM-12+030799999V0202701N010019999999N000500199-00401-00691097881ADDAY171021AY231021GA1081+999991051GE19MSL   +99999+99999GF108991081990999999991991MA1999990094211MD1510151+9990MW1711REMSYN06001047 41505 82710 11040 21069 39421 49788 55015 77173 8802/=
0091010470999992013120406004+69000+023033FM-12+030799999V020999999999999999999999999999+99999+99999999999REMSYN08201047 11X04 92710 11030 21036 39486 49855 53048 60112 77573 333 21050 48040 70107=
0187010470999992013120409004+69000+023033FM-12+030799999V0203201N005019999999N005000199-00351-00421098791ADDAY171021AY231021GA1081+999991051GE19MSL   +99999+99999GF108991081990999999991991MA1999990095081MD1210221+9990MW1711REMSYN06001047 41450 83205 11035 21042 39508 49879 52022 77173 8802/=
0203010470999992013120412004+69000+023033FM-12+030799999V0201401N003019999999N060000199-00611-00821098851ADDAY171021AY221021GA1991+999991051GA2021+999991061GE19MSL   +99999+99999GF107991990990999999991991MA1999990095131MD1310051+9990MW1011REMSYN06001047 41586 71403 11061 21082 39513 49885 53005 70172 82520=
0187010470999992013120415004+69000+023033FM-12+030799999V0201401N003019999999N060000199-01301-01491098821ADDAY101021AY201021GA1021+999991061GE19MSL   +99999+99999GF102991021990999999991991MA1999990095071MD1510061+9990MW1011REMSYN06001047 41586 21403 11130 21149 39507 49882 55006 70100 82500=
0157010470999992013120418004+69000+023033FM-12+030799999V0201401N001019999999N050000199-01951-02171098661ADDAA112004031AY101021AY201021KA1120M-00201MA1999990094901MD1810171+9990MW1021REMSYN07001047 11984 01401 11195 21217 39490 49866 58017 60042 70200 333 11020=
0187010470999992013120500004+69000+023033FM-12+030799999V0203601N001019999999N002000199-01701-01961098161ADDAY171021AY211021GA1081+999991051GE19MSL   +99999+99999GF108991081990999999991991MA1999990094421MD1710281+9990MW1711REMSYN06001047 41520 83601 11170 21196 39442 49816 57028 77171 8802/=
0273010470999992013120506004+69000+023033FM-12+030799999V0209999C999999999999N002500199-01161-01341097781ADDAA112003031AA224006931AJ100423100420094AY171021AY221021GA1081+999991051GE19MSL   +99999+99999GF108991081990999999991991IA1239KA1240N-02211MA1999990094081MD1610131+9990MW1711REMSYN08801047 11525 80000 11116 21134 39408 49778 56013 60032 77172 8802/ 333 21221 47042 70069=
0187010470999992013120509004+69000+023033FM-12+030799999V0200501N003019999999N020000199-01041-01201097881ADDAY171021AY271021GA1081+999991051GE19MSL   +99999+99999GF108991081990999999991991MA1999990094181MD1310111+9990MW1711REMSYN06001047 41570 80503 11104 21120 39418 49788 53011 77177 8802/=
0187010470999992013120512004+69000+023033FM-12+030799999V0209999C999999999999N010000199-01001-01131098001ADDAY171021AY271021GA1081+999991051GE19MSL   +99999+99999GF108991081990999999991991MA1999990094301MD1210121+9990MW1711REMSYN06001047 41560 80000 11100 21113 39430 49800 52012 77177 8802/=
0187010470999992013120515004+69000+023033FM-12+030799999V0200501N001019999999N050000199-00901-01031098161ADDAY171021AY221021GA1081+999991051GE19MSL   +99999+99999GF108991081990999999991991MA1999990094461MD1310161+9990MW1021REMSYN06001047 41584 80501 11090 21103 39446 49816 53016 70272 8802/=
0227010470999992013120518004+69000+023033FM-12+030799999V0200901N003019999999N050000199-00961-01091098401ADDAA112001031AY171021AY221021GA1081+999991051GE19MSL   +99999+99999GF108991081990999999991991KA1120M-00851MA1999990094681MD1210231+9990MW1021REMSYN07601047 11484 80903 11096 21109 39468 49840 52023 60012 70272 8802/ 333 11085=
0187010470999992013120600004+69000+023033FM-12+030799999V0200501N005019999999N020000199-00861-00991098951ADDAY171021AY221021GA1081+999991051GE19MSL   +99999+99999GF108991081990999999991991MA1999990095221MD1310271+9990MW1701REMSYN06001047 41570 80505 11086 21099 39522 49895 53027 77072 8802/=
0273010470999992013120606004+69000+023033FM-12+030799999V0209999C999999999999N050000199-00921-01041099301ADDAA112000231AA224001231AJ100453100450094AY171021AY221021GA1081+999991051GE19MSL   +99999+99999GF108991081990999999991991IA1239KA1240N-01001MA1999990095561MD1310171+9990MW1021REMSYN08801047 11584 80000 11092 21104 39556 49930 53017 69922 70272 8802/ 333 21100 47045 70012=
0187010470999992013120609004+69000+023033FM-12+030799999V0200501N003019999999N060000199-01301-01501099611ADDAY121021AY221021GA1041+999991051GE19MSL   +99999+99999GF104991041990999999991991MA1999990095831MD1210261+9990MW1011REMSYN06001047 41586 40503 11130 21150 39583 49961 52026 70122 84020=
0117010470999992013120612004+69000+023033FM-12+030799999V0200501N001019999999N060000199-02461-02711099901ADDAY101021AY201021MA1999990096071MD1310221+9990MW1021REMSYN05401047 41986 00501 11246 21271 39607 49990 53022 70200=
0117010470999992013120615004+69000+023033FM-12+030799999V0201801N003019999999N060000199-02761-03011100091ADDAY101021AY201021MA1999990096231MD1210181+9990MW1021REMSYN05401047 41986 01803 11276 21301 39623 40009 52018 70200=
0210010470999992013120618004+69000+023033FM-12+030799999V0201801N003019999999N060000199-02921-03171100251ADDAY101021AY201021GA1031+999991061GE19MSL   +99999+99999GF103991031990999999991991KA1120M-00751MA1999990096381MD1210151+9990MW1031REMSYN07001047 31586 31803 11292 21317 39638 40025 52015 70300 83500 333 11075=
0117010470999992013120700004+69000+023033FM-12+030799999V0201801N003019999999N060000199-02981-03231100551ADDAY101021AY201021MA1999990096671MD1210141+9990MW1021REMSYN05401047 41986 01803 11298 21323 39667 40055 52014 70200=
0169010470999992013120706004+69000+023033FM-12+030799999V0209999C999999999999N060000199-03131-03381100901ADDAJ100453100450094AY101021AY201021IA1239KA1240N-03131MA1999990097001MD1310141+9990MW1021REMSYN07001047 41986 00000 11313 21338 39700 40090 53014 70200 333 21313 47045=
0187010470999992013120709004+69000+023033FM-12+030799999V0201801N003019999999N060000199-03281-03521101101ADDAY101021AY201021GA1021+999991031GE19MSL   +99999+99999GF102991021990999999991991MA1999990097181MD1210181+9990MW1021REMSYN06001047 41886 21803 11328 21352 39718 40110 52018 70200 82040=
0206010470999992013120712004+69000+023033FM-12+030799999V0200501N001019999999N060000199-03281-03521101211ADDAY101021AY201021GA1999+999991021GE19MSL   +99999+99999GF103991001990999999991991MA1999990097281MD1210101+9990MW1021REMSYN06001047 41986 30501 11328 21352 39728 40121 52010 70200 80008=EQDQ01    003SCCGA1
0206010470999992013120715004+69000+023033FM-12+030799999V0201401N003019999999N060000199-03261-03501101221ADDAY101021AY201021GA1999+999991021GE19MSL   +99999+99999GF102991001990999999991991MA1999990097301MD1210011+9990MW1021REMSYN06001047 41986 21403 11326 21350 39730 40122 52001 70200 80008=EQDQ01    003SCCGA1
0210010470999992013120718004+69000+023033FM-12+030799999V0200501N001019999999N001500199-03281-03511101201ADDAY121021AY201021GA1081+999991071GE19MSL   +99999+99999GF108991081990999999991991KA1120M-02751MA1999990097271MD1710031+9990MW1101REMSYN07001047 31115 80501 11328 21351 39727 40120 57003 71020 886// 333 11275=
0117010470999992013120800004+69000+023033FM-12+030799999V0201801N003019999999N040000199-03441-03681101251ADDAY121021AY201021MA1999990097321MD1310011+9990MW1021REMSYN05401047 41982 01803 11344 21368 39732 40125 53001 70220=
0169010470999992013120806004+69000+023033FM-12+030799999V0201801N003019999999N060000199-02681-02941101101ADDAJ100453100450094AY121021AY201021IA1239KA1240N-03601MA1999990097211MD1810051+9990MW1021REMSYN07001047 41986 01803 11268 21294 39721 40110 58005 70220 333 21360 47045=
0206010470999992013120809004+69000+023033FM-12+030799999V0201801N003019999999N060000199-02771-03061101221ADDAY111021AY201021GA1999+999991021GE19MSL   +99999+99999GF104991001990999999991991MA1999990097321MD1210101+9990MW1021REMSYN06001047 41986 41803 11277 21306 39732 40122 52010 70210 80008=EQDQ01    003SCCGA1
0187010470999992013120812004+69000+023033FM-12+030799999V0203201N001019999999N060000199-02861-03111101281ADDAY101021AY201021GA1041+999991031GE19MSL   +99999+99999GF104991041990999999991991MA1999990097371MD1310051+9990MW1031REMSYN06001047 41886 43201 11286 21311 39737 40128 53005 70300 84070=
0187010470999992013120815004+69000+023033FM-12+030799999V0202701N001019999999N060000199-03021-03271101391ADDAY101021AY201021GA1021+999991031GE19MSL   +99999+99999GF102991021990999999991991MA1999990097471MD1310101+9990MW1021REMSYN06001047 41886 22701 11302 21327 39747 40139 53010 70200 82070=
0210010470999992013120818004+69000+023033FM-12+030799999V0201801N003019999999N060000199-03201-03441101511ADDAY101021AY201021GA1031+999991031GE19MSL   +99999+99999GF103991031990999999991991KA1120M-02251MA1999990097571MD1210091+9990MW1021REMSYN07001047 31886 31803 11320 21344 39757 40151 52009 70200 83070 333 11225=
0117010470999992013120900004+69000+023033FM-12+030799999V0201801N003019999999N060000199-03761-04021101791ADDAY101021AY201021MA1999990097821MD1210111+9990MW1021REMSYN05401047 41986 01803 11376 21402 39782 40179 52011 70200=
0186010470999992013120906004+69000+023033FM-12+030799999V0209999C999999999999N060000199-03811-04071102021ADDAA124000091AJ100453100450094AY101021AY201021IA1239KA1240N-03811MA1999990098051MD1310051+9990MW1021REMSYN07601047 31986 00000 11381 21407 39805 40202 53005 70200 333 21381 47045 70000=
0187010470999992013120909004+69000+023033FM-12+030799999V0201801N003019999999N060000199-03861-04091102141ADDAY101021AY201021GA1021+999991031GE19MSL   +99999+99999GF102991021990999999991991MA1999990098161MD1310151+9990MW1021REMSYN06001047 41886 21803 11386 21409 39816 40214 53015 70200 82040=
0117010470999992013120912004+69000+023033FM-12+030799999V0201801N001019999999N060000199-03921-04151102281ADDAY101021AY201021MA1999990098281MD1110131+9990MW1021REMSYN05401047 41986 01801 11392 21415 39828 40228 51013 70200=
0117010470999992013120915004+69000+023033FM-12+030799999V0201801N003019999999N050000199-03901-04131102321ADDAY101021AY201021MA1999990098321MD1310051+9990MW1021REMSYN05401047 41984 01803 11390 21413 39832 40232 53005 70200=
0140010470999992013120918004+69000+023033FM-12+030799999V0201801N001019999999N050000199-03881-04111102331ADDAY101021AY201021KA1120M-03121MA1999990098331MD1900021+9990MW1021REMSYN06401047 31984 01801 11388 21411 39833 40233 50002 70200 333 11312=
0117010470999992013121000004+69000+023033FM-12+030799999V0203201N003019999999N050000199-03521-03761102031ADDAY101021AY201021MA1999990098071MD1810221+9990MW1021REMSYN05401047 41984 03203 11352 21376 39807 40203 58022 70200=
0239010470999992013121006004+69000+023033FM-12+030799999V0201801N005019999999N010000199-01332-01532101201ADDAJ100453100450094AY121021AY201021GA1081+999991051GE19MSL   +99999+99999GF108991081990999999991991IA1239KA1240N-03891MA1999990097371MD1810341+9990MW1021REMSYN07601047 41560 81805 11133 21153 39737 40120 58034 70220 8802/ 333 21389 47045=
0187010470999992013121009004+69000+023033FM-12+030799999V0201801N005019999999N050000199-01221-01421100901ADDAY121021AY221021GA1081+999991051GE19MSL   +99999+99999GF108991081990999999991991MA1999990097081MD1810251+9990MW1021REMSYN06001047 41584 81805 11122 21142 39708 40090 58025 70222 8802/=
0187010470999992013121012004+69000+023033FM-12+030799999V0201801N007019999999N004000199-00951-01161100601ADDAY171021AY221021GA1081+999991051GE19MSL   +99999+99999GF108991081990999999991991MA1999990096811MD1610331+9990MW1711REMSYN06001047 41540 81807 11095 21116 39681 40060 56033 77172 8802/=
0187010470999992013121015004+69000+023033FM-12+030799999V0201801N007019999999N004000199-00791-00951100271ADDAY171021AY271021GA1081+999991051GE19MSL   +99999+99999GF108991081990999999991991MA1999990096501MD1810291+9990MW1711REMSYN06001047 41540 81807 11079 21095 39650 40027 58029 77177 8802/=
0227010470999992013121018004+69000+023033FM-12+030799999V0201801N007019999999N010000199-00771-00971100051ADDAA112003031AY171021AY271021GA1081+999991051GE19MSL   +99999+99999GF108991081990999999991991KA1120M-00771MA1999990096281MD1810211+9990MW1711REMSYN07601047 11560 81807 11077 21097 39628 40005 58021 60032 77177 8802/ 333 11077=
0187010470999992013121100004+69000+023033FM-12+030799999V0201801N005019999999N060000199-00631-00761099841ADDAY171021AY221021GA1061+999991051GE19MSL   +99999+99999GF106991061990999999991991MA1999990096081MD1610131+9990MW1011REMSYN06001047 41686 61805 11063 21076 39608 49984 56013 70172 86020=
0273010470999992013121106004+69000+023033FM-12+030799999V0201801N005019999999N060000199+00021-00111099231ADDAA112000231AA224002731AJ100463100460094AY171021AY221021GA1081+999991051GE19MSL   +99999+99999GF108991081990999999991991IA1239KA1240N-00781MA1999990095521MD1610381+9990MW1021REMSYN08801047 11686 81805 10002 21011 39552 49923 56038 69922 70272 8802/ 333 21078 47046 70027=
0187010470999992013121109004+69000+023033FM-12+030799999V0201801N005019999999N065000199+00021-00121098961ADDAY121021AY221021GA1061+999991031GE19MSL   +99999+99999GF106991061990999999991991MA1999990095271MD1610211+9990MW1021REMSYN06001047 41887 61805 10002 21012 39527 49896 56021 70222 86070=
0187010470999992013121112004+69000+023033FM-12+030799999V0201801N007019999999N065000199+00441+00001098591ADDAY121021AY221021GA1071+999991031GE19MSL   +99999+99999GF107991071990999999991991MA1999990094961MD1810321+9990MW1031REMSYN06001047 41887 71807 10044 20000 39496 49859 58032 70322 87070=
0187010470999992013121115004+69000+023033FM-12+030799999V0202701N010019999999N065000199+00481-00121098571ADDAY121021AY221021GA1051+999991031GE19MSL   +99999+99999GF105991051990999999991991MA1999990094931MD1510051+9990MW1011REMSYN06001047 41887 52710 10048 21012 39493 49857 55005 70122 85070=
0246010470999992013121118004+69000+023033FM-12+030799999V0203201N007019999999N065000199+00061-00371099191ADDAA112000091AY181021AY211021GA1021+999991031GE19MSL   +99999+99999GF102991021990999999991991KA1120M+00551MA1999990095481MD1110501+9990MW1011REMSYN07601047 11887 23207 10006 21037 39548 49919 51050 69902 70181 82040 333 10055=EQDQ01  00002PRCP12
0187010470999992013121200004+69000+023033FM-12+030799999V0203201N005019999999N065000199-00161-00551099471ADDAY101021AY201021GA1021+999991031GE19MSL   +99999+99999GF102991021990999999991991MA1999990095751MD1310081+9990MW1021REMSYN06001047 41887 23205 11016 21055 39575 49947 53008 70200 82070=
0239010470999992013121206004+69000+023033FM-12+030799999V0209999C999999999999N065000199-00291-00711099401ADDAJ100453100450094AY101021AY201021GA1031+999991031GE19MSL   +99999+99999GF103991031990999999991991IA1239KA1240N-00561MA1999990095671MD1610081+9990MW1021REMSYN07601047 41887 30000 11029 21071 39567 49940 56008 70200 83070 333 21056 47045=
0187010470999992013121209004+69000+023033FM-12+030799999V0203201N005019999999N065000199-00301-00611099361ADDAY101021AY201021GA1031+999991031GE19MSL   +99999+99999GF103991031990999999991991MA1999990095631MD1510021+9990MW1021REMSYN06001047 41887 33205 11030 21061 39563 49936 55002 70200 83070=
0187010470999992013121212004+69000+023033FM-12+030799999V0203201N005019999999N065000199-01041-01251099381ADDAY101021AY201021GA1041+999991031GE19MSL   +99999+99999GF104991041990999999991991MA1999990095621MD1900001+9990MW1031REMSYN06001047 41887 43205 11104 21125 39562 49938 50000 70300 84070=
0210010470999992013121218004+69000+023033FM-12+030799999V0200501N003019999999N060000199-01161-01291099171ADDAY121021AY221021GA1081+999991041GE19MSL   +99999+99999GF108991081990999999991991KA1120M-00291MA1999990095421MD1510091+9990MW1021REMSYN07001047 31886 80503 11116 21129 39542 49917 55009 70222 8801/ 333 11029=
0187010470999992013121300004+69000+023033FM-12+030799999V0200901N001019999999N060000199-01701-01881099531ADDAY111021AY211021GA1021+999991031GE19MSL   +99999+99999GF102991021990999999991991MA1999990095751MD1210251+9990MW1021REMSYN06001047 41886 20901 11170 21188 39575 49953 52025 70211 82040=
0239010470999992013121306004+69000+023033FM-12+030799999V0200501N005019999999N060000199-00641-00921100311ADDAJ100453100450094AY111021AY201021GA1031+999991031GE19MSL   +99999+99999GF103991031990999999991991IA1239KA1240N-01701MA1999990096531MD1110421+9990MW1021REMSYN07601047 41886 30505 11064 21092 39653 40031 51042 70210 83040 333 21170 47045=
0187010470999992013121309004+69000+023033FM-12+030799999V0200501N005019999999N060000199-00721-01141100441ADDAY121021AY211021GA1051+999991031GE19MSL   +99999+99999GF105991051990999999991991MA1999990096661MD1110121+9990MW1021REMSYN06001047 41886 50505 11072 21114 39666 40044 51012 70221 85070=
0187010470999992013121312004+69000+023033FM-12+030799999V0200501N007019999999N001500199-00491-00631100561ADDAY171021AY231021GA1081+999991051GE19MSL   +99999+99999GF108991081990999999991991MA1999990096781MD1110121+9990MW1731REMSYN06001047 41515 80507 11049 21063 39678 40056 51012 77373 8802/=
0187010470999992013121315004+69000+023033FM-12+030799999V0200501N007019999999N060000199-00641-00971101261ADDAY171021AY231021GA1021+999991031GE19MSL   +99999+99999GF102991021990999999991991MA1999990097461MD1110531+9990MW1361REMSYN06001047 41886 20507 11064 21097 39746 40126 51053 73673 82070=
0227010470999992013121318004+69000+023033FM-12+030799999V0200501N003019999999N065000199-01041-01361101571ADDAA112001031AY171021AY231021GA1031+999991031GE19MSL   +99999+99999GF103991031990999999991991KA1120M-00441MA1999990097731MD1310391+9990MW1021REMSYN07601047 11887 30503 11104 21136 39773 40157 53039 60012 70273 83070 333 11044=
0187010470999992013121400004+69000+023033FM-12+030799999V0202701N003019999999N060000199-01661-01851102091ADDAY101021AY201021GA1021+999991031GE19MSL   +99999+99999GF102991021990999999991991MA1999990098211MD1110201+9990MW1021REMSYN06001047 41886 22703 11166 21185 39821 40209 51020 70200 82070=
0169010470999992013121406004+69000+023033FM-12+030799999V0209999C999999999999N060000199-02191-02381102131ADDAJ100453100450094AY101021AY201021IA1239KA1240N-02191MA1999990098221MD1510031+9990MW1021REMSYN07001047 41986 00000 11219 21238 39822 40213 55003 70200 333 21219 47045=
0117010470999992013121409004+69000+023033FM-12+030799999V0203401N003019999999N060000199-02381-02571102161ADDAY101021AY201021MA1999990098251MD1210031+9990MW1021REMSYN05401047 41986 03403 11238 21257 39825 40216 52003 70200=
0117010470999992013121412004+69000+023033FM-12+030799999V0203201N001019999999N060000199-02701-02881102101ADDAY101021AY201021MA1999990098171MD1510081+9990MW1021REMSYN05401047 41986 03201 11270 21288 39817 40210 55008 70200=
0187010470999992013121415004+69000+023033FM-12+030799999V0203201N001019999999N010000199-02391-02581101841ADDAY121021AY201021GA1081+999991071GE19MSL   +99999+99999GF108991081990999999991991MA1999990097931MD1810231+9990MW1021REMSYN06001047 41460 83201 11239 21258 39793 40184 58023 70220 886//=
0140010470999992013121418004+69000+023033FM-12+030799999V0201801N001019999999N055000199-02411-02581101601ADDAY121021AY201021KA1120M-01321MA1999990097711MD1710231+9990MW1021REMSYN06401047 41985 01801 11241 21258 39771 40160 57023 70220 333 11132=
0256010470999992013121506004+69000+023033FM-12+030799999V0201401N005019999999N020000199-00511-00671100471ADDAA112000231AJ100463100460094AY171021AY221021GA1081+999991051GE19MSL   +99999+99999GF108991081990999999991991IA1239KA1240N-02411MA1999990096701MD1810151+9990MW1701REMSYN08201047 11570 81405 11051 21067 39670 40047 58015 69922 77072 8802/ 333 21241 47046=
0187010470999992013121509004+69000+023033FM-12+030799999V0201401N007019999999N025000199-00471-00611100361ADDAY171021AY221021GA1081+999991051GE19MSL   +99999+99999GF108991081990999999991991MA1999990096601MD1710101+9990MW1701REMSYN06001047 41575 81407 11047 21061 39660 40036 57010 77072 8802/=
0181010470999992013121512004+69000+023033FM-12+030799999V0201401N007019999999N050000199-00431-00571100281ADDAY171021AY221021GA1081+999991051GE19MSL   +99999+99999GF108991081990999999991991MA1999990096521MD1510081+9990REMSYN06001047 41584 81407 11043 21057 39652 40028 55008 7//72 8802/=
0181010470999992013121515004+69000+023033FM-12+030799999V0201801N007019999999N050000199-00321-00441100251ADDAY171021AY231021GA1081+999991051GE19MSL   +99999+99999GF108991081990999999991991MA1999990096501MD1510021+9990REMSYN06001047 41584 81807 11032 21044 39650 40025 55002 7//73 8802/=
0227010470999992013121518004+69000+023033FM-12+030799999V0201801N005019999999N050000199-00301-00461100231ADDAA112000931AY171021AY231021GA1081+999991051GE19MSL   +99999+99999GF108991081990999999991991KA1120M-00281MA1999990096471MD1510011+9990MW1361REMSYN07601047 11584 81805 11030 21046 39647 40023 55001 69992 73673 8802/ 333 11028=
0187010470999992013121600004+69000+023033FM-12+030799999V0201801N005019999999N060000199-00441-00561100241ADDAY131021AY221021GA1081+999991051GE19MSL   +99999+99999GF108991081990999999991991MA1999990096471MD1810051+9990MW1021REMSYN06001047 41586 81805 11044 21056 39647 40024 58005 70232 8802/=
0239010470999992013121606004+69000+023033FM-12+030799999V0201801N005019999999N060000199-00481-00551099771ADDAJ100473100470094AY131021AY221021GA1081+999991051GE19MSL   +99999+99999GF108991081990999999991991IA1239KA1240N-00501MA1999990096021MD1610341+9990MW1021REMSYN07601047 41586 81805 11048 21055 39602 49977 56034 70232 8802/ 333 21050 47047=
0187010470999992013121609004+69000+023033FM-12+030799999V0201801N010019999999N050000199-00321-00441099571ADDAY131021AY221021GA1081+999991051GE19MSL   +99999+99999GF108991081990999999991991MA1999990095831MD1510201+9990MW1361REMSYN06001047 41584 81810 11032 21044 39583 49957 55020 73632 8802/=
0187010470999992013121615004+69000+023033FM-12+030799999V0201801N007019999999N020000199-00211-00351099251ADDAY171021AY231021GA1081+999991051GE19MSL   +99999+99999GF108991081990999999991991MA1999990095531MD1810291+9990MW1701REMSYN06001047 41570 81807 11021 21035 39553 49925 58029 77073 8802/=
0227010470999992013121618004+69000+023033FM-12+030799999V0201801N007019999999N000800199-00121-00191098651ADDAA112000231AY171021AY231021GA1081+999991051GE19MSL   +99999+99999GF108991081990999999991991KA1120M-00121MA1999990094971MD1810461+9990MW1731REMSYN07601047 11508 81807 11012 21019 39497 49865 58046 69922 77373 8802/ 333 11012=
0187010470999992013121700004+69000+023033FM-12+030799999V0201801N007019999999N060000199-00211-00471098731ADDAY171021AY231021GA1081+999991051GE19MSL   +99999+99999GF108991081990999999991991MA1999990095031MD1110121+9990MW1021REMSYN06001047 41586 81807 11021 21047 39503 49873 51012 70273 8802/=
0273010470999992013121706004+69000+023033FM-12+030799999V0209999C999999999999N065000199-00841-00951099041ADDAA112000731AA224000931AJ100473100470094AY171021AY231021GA1041+999991031GE19MSL   +99999+99999GF104991041990999999991991IA1289KA1240N-00841MA1999990095311MD1210151+9990MW1021REMSYN08801047 11887 40000 11084 21095 39531 49904 52015 69972 70273 84070 333 21084 48047 70009=
0206010470999992013121709004+69000+023033FM-12+030799999V0200501N003019999999N065000199-01201-01301099341ADDAY101021AY201021GA1999+999991001GE19MSL   +99999+99999GF102991001990999999991991MA1999990095581MD1310271+9990MW1021REMSYN06001047 41987 20503 11120 21130 39558 49934 53027 70200 80002=EQDQ01    003SCCGA1
0206010470999992013121712004+69000+023033FM-12+030799999V0202201N003019999999N065000199-01741-01861099541ADDAY101021AY201021GA1999+999991001GE19MSL   +99999+99999GF103991001990999999991991MA1999990095751MD1310171+9990MW1021REMSYN06001047 41987 32203 11174 21186 39575 49954 53017 70200 80002=EQDQ01    003SCCGA1
0187010470999992013121715004+69000+023033FM-12+030799999V0202701N003019999999N050000199-01841-01991099571ADDAY101021AY201021GA1041+999991031GE19MSL   +99999+99999GF104991041990999999991991MA1999990095771MD1310031+9990MW1031REMSYN06001047 41884 42703 11184 21199 39577 49957 53003 70300 84070=
0210010470999992013121718004+69000+023033FM-12+030799999V0203601N001019999999N050000199-01761-01941099621ADDAY121021AY221021GA1061+999991031GE19MSL   +99999+99999GF106991061990999999991991KA1120M-00721MA1999990095821MD1310051+9990MW1031REMSYN07001047 31884 63601 11176 21194 39582 49962 53005 70322 86070 333 11072=
0187010470999992013121800004+69000+023033FM-12+030799999V0200501N003019999999N060000199-01961-02151099891ADDAY111021AY211021GA1051+999991031GE19MSL   +99999+99999GF105991051990999999991991MA1999990096071MD1310181+9990MW1021REMSYN06001047 41886 50503 11196 21215 39607 49989 53018 70211 85070=
0239010470999992013121806004+69000+023033FM-12+030799999V0200501N003019999999N060000199-02161-02341100281ADDAJ100473100470094AY121021AY211021GA1061+999991031GE19MSL   +99999+99999GF106991061990999999991991IA1289KA1240N-02161MA1999990096451MD1310201+9990MW1021REMSYN07601047 41886 60503 11216 21234 39645 40028 53020 70221 86070 333 21216 48047=
0187010470999992013121809004+69000+023033FM-12+030799999V0202701N003019999999N060000199-02301-02491100541ADDAY121021AY221021GA1021+999991031GE19MSL   +99999+99999GF102991021990999999991991MA1999990096681MD1210221+9990MW1011REMSYN06001047 41886 22703 11230 21249 39668 40054 52022 70122 82070=
0117010470999992013121812004+69000+023033FM-12+030799999V0200501N003019999999N060000199-02361-02551100751ADDAY101021AY201021MA1999990096881MD1110211+9990MW1021REMSYN05401047 41986 00503 11236 21255 39688 40075 51021 70200=
0206010470999992013121815004+69000+023033FM-12+030799999V0201401N005019999999N060000199-02421-02611100941ADDAY101021AY201021GA1999+999991021GE19MSL   +99999+99999GF103991001990999999991991MA1999990097071MD1310171+9990MW1031REMSYN06001047 41986 31405 11242 21261 39707 40094 53017 70300 80008=EQDQ01    003SCCGA1
0229010470999992013121818004+69000+023033FM-12+030799999V0200501N001019999999N060000199-02501-02671100941ADDAY101021AY201021GA1999+999991021GE19MSL   +99999+99999GF102991001990999999991991KA1120M-01901MA1999990097071MD1510001+9990MW1021REMSYN07001047 31986 20501 11250 21267 39707 40094 55000 70200 80008 333 11190=EQDQ01    003SCCGA1
0187010470999992013121900004+69000+023033FM-12+030799999V0202701N001019999999N060000199-01811-01991100961ADDAY111021AY211021GA1061+999991031GE19MSL   +99999+99999GF106991061990999999991991MA1999990097121MD1810041+9990MW1031REMSYN06001047 41886 62701 11181 21199 39712 40096 58004 70311 86070=
0239010470999992013121906004+69000+023033FM-12+030799999V0209999C999999999999N004000199-01401-01591100921ADDAJ100463100460094AY121021AY211021GA1081+999991071GE19MSL   +99999+99999GF108991081990999999991991IA1289KA1240N-02511MA1999990097101MD1410001+9990MW1101REMSYN07601047 41440 80000 11140 21159 39710 40092 54000 71021 886// 333 21251 48046=
0187010470999992013121909004+69000+023033FM-12+030799999V0209999C999999999999N010000199-01221-01351100951ADDAY121021AY221021GA1081+999991071GE19MSL   +99999+99999GF108991081990999999991991MA1999990097121MD1310041+9990MW1101REMSYN06001047 41360 80000 11122 21135 39712 40095 53004 71022 886//=
0187010470999992013121912004+69000+023033FM-12+030799999V0209999C999999999999N000500199-00841-00951100851ADDAY151021AY241021GA1081+999991071GE19MSL   +99999+99999GF108991081990999999991991MA1999990097051MD1510081+9990MW1561REMSYN06001047 41205 80000 11084 21095 39705 40085 55008 75654 886//=
0187010470999992013121915004+69000+023033FM-12+030799999V0209999C999999999999N002000199-00801-00911100821ADDAY171021AY251021GA1081+999991051GE19MSL   +99999+99999GF108991081990999999991991MA1999990097021MD1810031+9990MW1711REMSYN06001047 41420 80000 11080 21091 39702 40082 58003 77175 8802/=
0227010470999992013121918004+69000+023033FM-12+030799999V0200901N003019999999N006000199-00701-00771100631ADDAA112000231AY171021AY221021GA1081+999991051GE19MSL   +99999+99999GF108991081990999999991991KA1120M-00651MA1999990096851MD1710201+9990MW1701REMSYN07601047 11456 80903 11070 21077 39685 40063 57020 69922 77072 8802/ 333 11065=
0187010470999992013122000004+69000+023033FM-12+030799999V0201801N007019999999N010000199-00301-00361100331ADDAY171021AY221021GA1081+999991051GE19MSL   +99999+99999GF108991081990999999991991MA1999990096571MD1810091+9990MW1701REMSYN06001047 41460 81807 11030 21036 39657 40033 58009 77072 8802/=
0273010470999992013122006004+69000+023033FM-12+030799999V0201801N003019999999N005000199-00241-00301099991ADDAA112001031AA224001431AJ100483100480094AY171021AY221021GA1081+999991051GE19MSL   +99999+99999GF108991081990999999991991IA1289KA1240N-00701MA1999990096251MD1810191+9990MW1701REMSYN08801047 11550 81803 11024 21030 39625 49999 58019 60012 77072 8802/ 333 21070 48048 70014=
0187010470999992013122009004+69000+023033FM-12+030799999V0201801N005019999999N001500199-00261-00321099771ADDAY171021AY271021GA1081+999991051GE19MSL   +99999+99999GF108991081990999999991991MA1999990096031MD1810191+9990MW1711REMSYN06001047 41515 81805 11026 21032 39603 49977 58019 77177 8802/=
0187010470999992013122012004+69000+023033FM-12+030799999V0201801N005019999999N050000199-00301-00361099591ADDAY171021AY221021GA1081+999991051GE19MSL   +99999+99999GF108991081990999999991991MA1999990095861MD1710181+9990MW1021REMSYN06001047 41584 81805 11030 21036 39586 49959 57018 70272 8802/=
0187010470999992013122015004+69000+023033FM-12+030799999V0201801N003019999999N004000199-00321-00431099411ADDAY171021AY221021GA1081+999991051GE19MSL   +99999+99999GF108991081990999999991991MA1999990095681MD1710161+9990MW1711REMSYN06001047 41540 81803 11032 21043 39568 49941 57016 77172 8802/=
0227010470999992013122018004+69000+023033FM-12+030799999V0202701N003019999999N015000199-00381-00491099261ADDAA112002031AY171021AY271021GA1081+999991051GE19MSL   +99999+99999GF108991081990999999991991KA1120M-00161MA1999990095531MD1810141+9990MW1711REMSYN07601047 11565 82703 11038 21049 39553 49926 58014 60022 77177 8802/ 333 11016=
0192010470999992013122100004+69000+023033FM-12+030799999V0202201N001019999999N004000199-00441-00511099181ADDAY171021AY221021GA1081+999991051GE19MSL   +99999+99999GF108991081990999999991991MA1999990095461MW1711REMSYN06001047 41540 82201 11044 21051 39546 49918 54001 77172 8802/=EQDQ014     3APCTEN
0273010470999992013122106004+69000+023033FM-12+030799999V0209999C999999999999N005000199-00471-00541099251ADDAA112002031AA224004231AJ100533100530094AY171021AY221021GA1081+999991051GE19MSL   +99999+99999GF108991081990999999991991IA1289KA1240N-00501MA1999990095521MD1210041+9990MW1711REMSYN08801047 11550 80000 11047 21054 39552 49925 52004 60022 77172 8802/ 333 21050 48053 70042=
0187010470999992013122109004+69000+023033FM-12+030799999V0201801N003019999999N060000199-00641-00711099331ADDAY171021AY221021GA1061+999991051GE19MSL   +99999+99999GF106991061990999999991991MA1999990095601MD1210061+9990MW1011REMSYN06001047 41586 61803 11064 21071 39560 49933 52006 70172 86020=
0187010470999992013122112004+69000+023033FM-12+030799999V0201801N005019999999N002000199-00751-00821099351ADDAY121021AY221021GA1061+999991061GE19MSL   +99999+99999GF106991061990999999991991MA1999990095611MD1900011+9990MW1101REMSYN06001047 41520 61805 11075 21082 39561 49935 50001 71022 86500=
0187010470999992013122115004+69000+023033FM-12+030799999V0201801N003019999999N060000199-00851-00921099311ADDAY121021AY221021GA1041+999991031GE19MSL   +99999+99999GF104991041990999999991991MA1999990095571MD1710041+9990MW1011REMSYN06001047 41886 41803 11085 21092 39557 49931 57004 70122 84070=
0183010470999992013122118004+69000+023033FM-12+030799999V0202201N00101001201CN000600199-01451-01561099271ADDAA112001031AY141021AY201021GF109991999999999999999999KA1120M-00351MA1999990095511MD1710061+9990MW1471REMSYN07001047 11/06 92201 11145 21156 39551 49927 57006 60012 74740 333 11035=
0143010470999992013122200004+69000+023033FM-12+030799999V0202201N00101001201CN000400199-01561-01711099141ADDAY141021AY241021GF109991999999999999999999MA1999990095371MD1710071+9990MW1451REMSYN05401047 41/04 92201 11156 21171 39537 49914 57007 74544=
0079010470999992013122206004+69000+023033FM-12+030799999V020999999999999999999999999999+99999+99999999999REMSYN07001047 41X02 90000 11124 21139 39522 49896 57010 74544 333 21156 48053=
0187010470999992013122209004+69000+023033FM-12+030799999V0201801N001019999999N010000199-01111-01241098831ADDAY171021AY241021GA1081+999991051GE19MSL   +99999+99999GF108991081990999999991991MA1999990095101MD1710111+9990MW1711REMSYN06001047 41460 81801 11111 21124 39510 49883 57011 77174 8802/=
0187010470999992013122212004+69000+023033FM-12+030799999V0203601N001019999999N003000199-00861-00981098691ADDAY171021AY251021GA1081+999991051GE19MSL   +99999+99999GF108991081990999999991991MA1999990094971MD1810131+9990MW1561REMSYN06001047 41430 83601 11086 21098 39497 49869 58013 75675 8802/=
0187010470999992013122215004+69000+023033FM-12+030799999V0202201N005019999999N005000199-00551-00611098471ADDAY171021AY251021GA1081+999991051GE19MSL   +99999+99999GF108991081990999999991991MA1999990094771MD1810201+9990MW1711REMSYN06001047 41450 82205 11055 21061 39477 49847 58020 77175 8802/=
0227010470999992013122218004+69000+023033FM-12+030799999V0202201N005019999999N060000199-00501-00561098361ADDAA112002031AY171021AY221021GA1081+999991051GE19MSL   +99999+99999GF108991081990999999991991KA1120M-00451MA1999990094671MD1810101+9990MW1021REMSYN07601047 11486 82205 11050 21056 39467 49836 58010 60022 70272 8802/ 333 11045=
0187010470999992013122300004+69000+023033FM-12+030799999V0202201N005019999999N060000199-00551-00611098241ADDAY121021AY221021GA1081+999991071GE19MSL   +99999+99999GF108991081990999999991991MA1999990094551MD1710071+9990MW1021REMSYN06001047 41286 82205 11055 21061 39455 49824 57007 70222 886//=
0239010470999992013122306004+69000+023033FM-12+030799999V0209999C999999999999N060000199-01041-01111098231ADDAJ100533100530094AY121021AY201021GA1041+999991031GE19MSL   +99999+99999GF104991041990999999991991IA1289KA1240N-01041MA1999990094521MD1410001+9990MW1021REMSYN07601047 41886 40000 11104 21111 39452 49823 54000 70220 84070 333 21104 48053=
0187010470999992013122309004+69000+023033FM-12+030799999V0201801N001019999999N060000199-01141-01241098331ADDAY121021AY221021GA1081+999991051GE19MSL   +99999+99999GF108991081990999999991991MA1999990094621MD1210081+9990MW1021REMSYN06001047 41586 81801 11114 21124 39462 49833 52008 70222 8802/=
0187010470999992013122312004+69000+023033FM-12+030799999V0201401N003019999999N050000199-01181-01281098421ADDAY121021AY221021GA1081+999991061GE19MSL   +99999+99999GF108991081990999999991991MA1999990094701MD1210091+9990MW1021REMSYN06001047 41484 81403 11118 21128 39470 49842 52009 70222 885//=
0187010470999992013122315004+69000+023033FM-12+030799999V0201401N003019999999N060000199-01261-01361098521ADDAY121021AY221021GA1081+999991061GE19MSL   +99999+99999GF108991081990999999991991MA1999990094781MD1210091+9990MW1021REMSYN06001047 41486 81403 11126 21136 39478 49852 52009 70222 885//=
0140010470999992013122318004+69000+023033FM-12+030799999V0200901N001019999999N060000199-01301-01421098671ADDAY121021AY201021KA1120M-00901MA1999990094931MD1310151+9990MW1011REMSYN06401047 31986 00901 11130 21142 39493 49867 53015 70120 333 11090=
0117010470999992013122400004+69000+023033FM-12+030799999V0201401N003019999999N002000199-01821-02001099131ADDAY101021AY201021MA1999990095361MD1310211+9990MW1101REMSYN05401047 41920 01403 11182 21200 39536 49913 53021 71000=
0195010470999992013122406004+69000+023033FM-12+030799999V0209999C99999002401CN001000199-01481-01661099351ADDAJ100533100530094AY141021AY201021GF109991999999999999999999IA1289KA1240N-01951MA1999990095571MD1210101+9990MW1101REMSYN07001047 41/10 90000 11148 21166 39557 49935 52010 71040 333 21195 48053=
0063010470999992013122409004+69000+023033FM-12+030799999V020999999999999999999999999999+99999+99999999999REMSYN05401047 41X01 90000 11132 21151 39572 49949 53014 74740=
0187010470999992013122412004+69000+023033FM-12+030799999V0201801N001019999999N000500199-01181-01311099481ADDAY141021AY241021GA1081+999991071GE19MSL   +99999+99999GF108991081990999999991991MA1999990095721MD1900011+9990MW1481REMSYN06001047 41105 81801 11118 21131 39572 49948 50001 74844 886//=
0187010470999992013122415004+69000+023033FM-12+030799999V0201801N005019999999N003000199-00721-00831099441ADDAY171021AY241021GA1081+999991051GE19MSL   +99999+99999GF108991081990999999991991MA1999990095701MD1810021+9990MW1711REMSYN06001047 41430 81805 11072 21083 39570 49944 58002 77174 8802/=
0227010470999992013122418004+69000+023033FM-12+030799999V0200901N003019999999N004000199-00621-00691099271ADDAA112000131AY171021AY221021GA1081+999991051GE19MSL   +99999+99999GF108991081990999999991991KA1120M-00551MA1999990095531MD1810161+9990MW1701REMSYN07601047 11440 80903 11062 21069 39553 49927 58016 69912 77072 8802/ 333 11055=
0187010470999992013122500004+69000+023033FM-12+030799999V0201601N010019999999N001500199-00441-00551098651ADDAY171021AY231021GA1081+999991051GE19MSL   +99999+99999GF108991081990999999991991MA1999990094951MD1810341+9990MW1711REMSYN06001047 41415 81610 11044 21055 39495 49865 58034 77173 8802/=
0273010470999992013122506004+69000+023033FM-12+030799999V0201601N007019999999N005000199-00211-00351098041ADDAA112004031AA224004131AJ100543100540094AY171021AY231021GA1081+999991051GE19MSL   +99999+99999GF108991081990999999991991IA1289KA1240N-00621MA1999990094371MD1710381+9990MW1701REMSYN08801047 11550 81607 11021 21035 39437 49804 57038 60042 77073 8802/ 333 21062 48054 70041=
0187010470999992013122509004+69000+023033FM-12+030799999V0201601N007019999999N004000199-00041-00111097881ADDAY171021AY231021GA1081+999991051GE19MSL   +99999+99999GF108991081990999999991991MA1999990094221MD1810151+9990MW1711REMSYN06001047 41540 81607 11004 21011 39422 49788 58015 77173 8802/=
0187010470999992013122512004+69000+023033FM-12+030799999V0202201N007019999999N060000199+00081-00011097651ADDAY171021AY231021GA1081+999991051GE19MSL   +99999+99999GF108991081990999999991991MA1999990094011MD1610211+9990MW1021REMSYN06001047 41586 82207 10008 21001 39401 49765 56021 70273 8802/=
0187010470999992013122515004+69000+023033FM-12+030799999V0202201N010019999999N060000199+00221-00041097801ADDAY121021AY221021GA1051+999991061GE19MSL   +99999+99999GF105991051990999999991991MA1999990094171MD1310161+9990MW1011REMSYN06001047 41586 52210 10022 21004 39417 49780 53016 70122 85500=
0157010470999992013122518004+69000+023033FM-12+030799999V0202201N007019999999N060000199-00021-00271098261ADDAA112003031AY101021AY201021KA1120M+00251MA1999990094601MD1310461+9990MW1021REMSYN07001047 11986 02207 11002 21027 39460 49826 53046 60032 70200 333 10025=
0203010470999992013122600004+69000+023033FM-12+030799999V0201801N005019999999N060000199-00081-00211098371ADDAY121021AY201021GA1991+999991051GA2041+999991061GE19MSL   +99999+99999GF108991990990999999991991MA1999990094701MD1900011+9990MW1021REMSYN06001047 41486 81805 11008 21021 39470 49837 50001 70220 8452/=
0273010470999992013122606004+69000+023033FM-12+030799999V0201801N005019999999N060000199+00111+00021097831ADDAA112000831AA224003831AJ100533100530094AY171021AY221021GA1081+999991051GE19MSL   +99999+99999GF108991081990999999991991IA1249KA1240N-00201MA1999990094181MD1810351+9990MW1021REMSYN08801047 11586 81805 10011 20002 39418 49783 58035 69982 70272 8802/ 333 21020 44053 70038=
0187010470999992013122609004+69000+023033FM-12+030799999V0201801N007019999999N065000199+00151+00061097651ADDAY121021AY221021GA1081+999991051GE19MSL   +99999+99999GF108991081990999999991991MA1999990094021MD1610191+9990MW1021REMSYN06001047 41687 81807 10015 20006 39402 49765 56019 70222 8802/=
0187010470999992013122612004+69000+023033FM-12+030799999V0202201N010019999999N030000199+00141-00011097681ADDAY171021AY221021GA1081+999991051GE19MSL   +99999+99999GF108991081990999999991991MA1999990094031MD1310031+9990MW1681REMSYN06001047 41580 82210 10014 21001 39403 49768 53003 76872 8802/=
0187010470999992013122615004+69000+023033FM-12+030799999V0201801N005019999999N060000199+00101-00151097951ADDAY171021AY221021GA1081+999991051GE19MSL   +99999+99999GF108991081990999999991991MA1999990094301MD1310261+9990MW1021REMSYN06001047 41586 81805 10010 21015 39430 49795 53026 70272 8802/=
0227010470999992013122618004+69000+023033FM-12+030799999V0201801N007019999999N010000199+00041-00401098251ADDAA112002031AY171021AY221021GA1071+999991051GE19MSL   +99999+99999GF107991071990999999991991KA1120M+00151MA1999990094581MD1310301+9990MW1021REMSYN07601047 11560 71807 10004 21040 39458 49825 53030 60022 70272 87020 333 10015=
0187010470999992013122700004+69000+023033FM-12+030799999V0202201N007019999999N065000199-00101-00351098791ADDAY111021AY211021GA1041+999991041GE19MSL   +99999+99999GF104991041990999999991991MA1999990095101MD1110231+9990MW1021REMSYN06001047 41887 42207 11010 21035 39510 49879 51023 70211 84010=
0239010470999992013122706004+69000+023033FM-12+030799999V0202201N003019999999N065000199-00301-00521099191ADDAJ100533100530094AY111021AY211021GA1031+999991031GE19MSL   +99999+99999GF103991031990999999991991IA1249KA1240N-00301MA1999990095471MD1310171+9990MW1021REMSYN07601047 41887 32203 11030 21052 39547 49919 53017 70211 83070 333 21030 44053=
0187010470999992013122709004+69000+023033FM-12+030799999V0201801N005019999999N065000199-00401-00511099371ADDAY121021AY221021GA1081+999991061GE19MSL   +99999+99999GF108991081990999999991991MA1999990095651MD1310161+9990MW1021REMSYN06001047 41487 81805 11040 21051 39565 49937 53016 70222 885//=
0187010470999992013122712004+69000+023033FM-12+030799999V0201801N003019999999N065000199-00301-00421099501ADDAY121021AY221021GA1081+999991051GE19MSL   +99999+99999GF108991081990999999991991MA1999990095771MD1310141+9990MW1021REMSYN06001047 41587 81803 11030 21042 39577 49950 53014 70222 8802/=
0187010470999992013122715004+69000+023033FM-12+030799999V0202201N003019999999N060000199-00321-00441099411ADDAY121021AY221021GA1081+999991051GE19MSL   +99999+99999GF108991081990999999991991MA1999990095681MD1610091+9990MW1021REMSYN06001047 41586 82203 11032 21044 39568 49941 56009 70222 8802/=
0210010470999992013122718004+69000+023033FM-12+030799999V0202201N005019999999N060000199-00261-00381099331ADDAY121021AY221021GA1081+999991051GE19MSL   +99999+99999GF108991081990999999991991KA1120M-00261MA1999990095621MD1810081+9990MW1021REMSYN07001047 31586 82205 11026 21038 39562 49933 58008 70222 8802/ 333 11026=
0187010470999992013122800004+69000+023033FM-12+030799999V0201801N003019999999N060000199-00211-00321099011ADDAY171021AY221021GA1081+999991051GE19MSL   +99999+99999GF108991081990999999991991MA1999990095311MD1810191+9990MW1021REMSYN06001047 41486 81803 11021 21032 39531 49901 58019 70272 8802/=
0273010470999992013122806004+69000+023033FM-12+030799999V0209999C999999999999N006000199-00191-00261098361ADDAA112001031AA224001331AJ100543100540094AY171021AY221021GA1081+999991051GE19MSL   +99999+99999GF108991081990999999991991IA1239KA1240N-00291MA1999990094671MD1610371+9990MW1701REMSYN08801047 11556 80000 11019 21026 39467 49836 56037 60012 77072 8802/ 333 21029 47054 70013=
0187010470999992013122809004+69000+023033FM-12+030799999V0201801N003019999999N020000199-00221-00291098151ADDAY171021AY221021GA1081+999991051GE19MSL   +99999+99999GF108991081990999999991991MA1999990094471MD1610171+9990MW1701REMSYN06001047 41570 81803 11022 21029 39447 49815 56017 77072 8802/=
0187010470999992013122812004+69000+023033FM-12+030799999V0200501N001019999999N010000199-00291-00361098031ADDAY171021AY221021GA1081+999991051GE19MSL   +99999+99999GF108991081990999999991991MA1999990094361MD1710121+9990MW1701REMSYN06001047 41560 80501 11029 21036 39436 49803 57012 77072 8802/=
0203010470999992013122815004+69000+023033FM-12+030799999V0201801N007019999999N060000199-00051-00121097941ADDAY171021AY221021GA1991+999991051GA2051+999991061GE19MSL   +99999+99999GF108991990990999999991991MA1999990094281MD1810081+9990MW1021REMSYN06001047 41486 81807 11005 21012 39428 49794 58008 70272 8552/=
0243010470999992013122818004+69000+023033FM-12+030799999V0202201N007019999999N060000199+00001-00111097991ADDAA112002031AY171021AY221021GA1991+999991051GA2041+999991061GE19MSL   +99999+99999GF108991990990999999991991KA1120M+00001MA1999990094331MD1900051+9990MW1021REMSYN07601047 11486 82207 10000 21011 39433 49799 50005 60022 70272 8452/ 333 10000=
0187010470999992013122900004+69000+023033FM-12+030799999V0201801N005019999999N060000199+00101+00011098131ADDAY121021AY221021GA1081+999991051GE19MSL   +99999+99999GF108991081990999999991991MA1999990094471MD1210051+9990MW1021REMSYN06001047 41486 81805 10010 20001 39447 49813 52005 70222 8802/=
0244010470999992013122906004+69000+023033FM-12+030799999V0201801N003019999999N060000199+00121+00051098131ADDAJ100533100530094AY121021AY221021GA1081+999991051GE19MSL   +99999+99999GF108991081990999999991991IA1279KA1240N-00041MA1999990094471MW1021REMSYN07601047 41586 81803 10012 20005 39447 49813 54001 70222 8802/ 333 21004 43053=EQDQ014     3APCTEN
0187010470999992013122909004+69000+023033FM-12+030799999V0201801N003019999999N060000199+00091+00001098261ADDAY121021AY221021GA1081+999991051GE19MSL   +99999+99999GF108991081990999999991991MA1999990094601MD1310131+9990MW1021REMSYN06001047 41586 81803 10009 20000 39460 49826 53013 70222 8802/=
0187010470999992013122912004+69000+023033FM-12+030799999V0201801N003019999999N060000199+00101+00011098391ADDAY121021AY221021GA1081+999991061GE19MSL   +99999+99999GF108991081990999999991991MA1999990094721MD1210111+9990MW1021REMSYN06001047 41486 81803 10010 20001 39472 49839 52011 70222 885//=
0187010470999992013122915004+69000+023033FM-12+030799999V0202201N003019999999N060000199+00091-00071098541ADDAY121021AY221021GA1081+999991051GE19MSL   +99999+99999GF108991081990999999991991MA1999990094871MD1310161+9990MW1021REMSYN06001047 41486 82203 10009 21007 39487 49854 53016 70222 8802/=
0210010470999992013122918004+69000+023033FM-12+030799999V0202201N003019999999N060000199+00041-00181098671ADDAY121021AY221021GA1081+999991051GE19MSL   +99999+99999GF108991081990999999991991KA1120M+00161MA1999990094981MD1310121+9990MW1021REMSYN07001047 41486 82203 10004 21018 39498 49867 53012 70222 8802/ 333 10016=
0187010470999992013123000004+69000+023033FM-12+030799999V0203201N003019999999N004000199-00351-00471098971ADDAY171021AY221021GA1081+999991051GE19MSL   +99999+99999GF108991081990999999991991MA1999990095271MD1110131+9990MW1711REMSYN06001047 41540 83203 11035 21047 39527 49897 51013 77172 8802/=
0256010470999992013123006004+69000+023033FM-12+030799999V0209999C999999999999N060000199-00471-00581099281ADDAA112000131AJ100533100530094AY171021AY221021GA1081+999991051GE19MSL   +99999+99999GF108991081990999999991991IA1279KA1240N-00471MA1999990095561MD1310141+9990MW1021REMSYN08201047 11586 80000 11047 21058 39556 49928 53014 69912 70272 8802/ 333 21047 43053=
0187010470999992013123009004+69000+023033FM-12+030799999V0209999C999999999999N060000199-00481-00591099481ADDAY121021AY221021GA1081+999991051GE19MSL   +99999+99999GF108991081990999999991991MA1999990095751MD1310201+9990MW1021REMSYN06001047 41586 80000 11048 21059 39575 49948 53020 70222 8802/=
0187010470999992013123012004+69000+023033FM-12+030799999V0209999C999999999999N005000199-00451-00571099681ADDAY171021AY221021GA1081+999991051GE19MSL   +99999+99999GF108991081990999999991991MA1999990095931MD1210201+9990MW1701REMSYN06001047 41450 80000 11045 21057 39593 49968 52020 77072 8802/=
0187010470999992013123015004+69000+023033FM-12+030799999V0201801N003019999999N004000199-00421-00491099901ADDAY171021AY221021GA1081+999991051GE19MSL   +99999+99999GF108991081990999999991991MA1999990096161MD1210211+9990MW1701REMSYN06001047 41440 81803 11042 21049 39616 49990 52021 77072 8802/=
0227010470999992013123018004+69000+023033FM-12+030799999V0202701N003019999999N010000199-00461-00531100101ADDAA112003031AY171021AY271021GA1081+999991051GE19MSL   +99999+99999GF108991081990999999991991KA1120M-00351MA1999990096351MD1210181+9990MW1711REMSYN07601047 11460 82703 11046 21053 39635 40010 52018 60032 77177 8802/ 333 11035=
0187010470999992013123100004+69000+023033FM-12+030799999V0200501N003019999999N003000199-00251-00321100551ADDAY171021AY271021GA1081+999991051GE19MSL   +99999+99999GF108991081990999999991991MA1999990096781MD1210211+9990MW1711REMSYN06001047 41530 80503 11025 21032 39678 40055 52021 77177 8802/=
0273010470999992013123106004+69000+023033FM-12+030799999V0200501N005019999999N004000199-00141-00271100911ADDAA112004031AA224006731AJ100603100600094AY171021AY271021GA1081+999991051GE19MSL   +99999+99999GF108991081990999999991991IA1239KA1240N-00471MA1999990097131MD1210161+9990MW1711REMSYN08801047 11540 80505 11014 21027 39713 40091 52016 60042 77177 8802/ 333 21047 47060 70067=
0187010470999992013123109004+69000+023033FM-12+030799999V0200501N005019999999N050000199-00261-00401101131ADDAY171021AY221021GA1081+999991051GE19MSL   +99999+99999GF108991081990999999991991MA1999990097351MD1310201+9990MW1021REMSYN06001047 41584 80505 11026 21040 39735 40113 53020 70272 8802/=
0187010470999992013123112004+69000+023033FM-12+030799999V0200501N003019999999N010000199-00281-00491101211ADDAY171021AY221021GA1081+999991051GE19MSL   +99999+99999GF108991081990999999991991MA1999990097421MD1210061+9990MW1701REMSYN06001047 41560 80503 11028 21049 39742 40121 52006 77072 8802/=
0187010470999992013123115004+69000+023033FM-12+030799999V0200901N005019999999N007000199-00281-00491101181ADDAY171021AY221021GA1081+999991051GE19MSL   +99999+99999GF108991081990999999991991MA1999990097401MD1710021+9990MW1701REMSYN06001047 41557 80905 11028 21049 39740 40118 57002 77072 8802/=
0227010470999992013123118004+69000+023033FM-12+030799999V0200901N010019999999N050000199-00331-00621101171ADDAA112000231AY171021AY231021GA1081+999991051GE19MSL   +99999+99999GF108991081990999999991991KA1120M-00051MA1999990097371MD1510001+9990MW1361REMSYN07601047 11584 80910 11033 21062 39737 40117 55000 69922 73673 8802/ 333 11005=
