0140008416999992015010100534+32900-117300FM-15+007099999V0209999C000019999999N009999199+01061-00681101851ADDMA1101831999999REMMET113MOBOB1 METAR XM22 //007 329173 010053Z AUTO 00000KT 9999 11/M07 A3007      RMK A02 SLP185 T01061068 PA094 DA-346=
0140008416999992015010101534+32900-117300FM-15+007099999V0200901N001019999999N009999199+00891-00621101891ADDMA1101861999999REMMET113MOBOB1 METAR XM22 //007 329173 010153Z AUTO 09002KT 9999 09/M06 A3008      RMK A02 SLP189 T00891062 PA084 DA-562=
0140008416999992015010102534+32900-117300FM-15+007099999V0201001N000519999999N009999199+00881-00661101961ADDMA1101931999999REMMET113MOBOB1 METAR XM22 //007 329173 010253Z AUTO 10001KT 9999 09/M07 A3010      RMK A02 SLP196 T00881066 PA066 DA-598=
0140008416999992015010103534+32900-117300FM-15+007099999V0200901N002119999999N009999199+00781-00581101961ADDMA1101931999999REMMET113MOBOB1 METAR XM22 //007 329173 010353Z AUTO 09004KT 9999 08/M06 A3010      RMK A02 SLP196 T00781058 PA066 DA-717=
0140008416999992015010104534+32900-117300FM-15+007099999V0200901N002119999999N009999199+00761-00621102001ADDMA1101961999999REMMET113MOBOB1 METAR XM22 //007 329173 010453Z AUTO 09004KT 9999 08/M06 A3011      RMK A02 SLP200 T00761062 PA057 DA-755=
0140008416999992015010105534+32900-117300FM-15+007099999V0201001N002619999999N009999199+00621-00261102001ADDMA1101961999999REMMET113MOBOB1 METAR XM22 //007 329173 010553Z AUTO 10005KT 9999 06/M03 A3011      RMK A02 SLP200 T00621026 PA057 DA-911=
0140008416999992015010106534+32900-117300FM-15+007099999V0201001N002619999999N009999199+00621-00251102001ADDMA1101961999999REMMET113MOBOB1 METAR XM22 //007 329173 010653Z AUTO 10005KT 9999 06/M03 A3011      RMK A02 SLP200 T00621025 PA057 DA-911=
0141008416999992015010107534+32900-117300FM-15+007099999V0201001N003119999999N009999199+00541-00171102001ADDMA1101961999999REMMET114MOBOB1 METAR XM22 //007 329173 010753Z AUTO 10006KT 9999 05/M02 A3011      RMK A02 SLP200 T00541017 PA057 DA-1005=
0141008416999992015010108534+32900-117300FM-15+007099999V0201001N003119999999N009999199+00491-00141102001ADDMA1101961999999REMMET114MOBOB1 METAR XM22 //007 329173 010853Z AUTO 10006KT 9999 05/M01 A3011      RMK A02 SLP200 T00491014 PA057 DA-1065=
0141008416999992015010109534+32900-117300FM-15+007099999V0201001N003119999999N009999199+00471-00151102031ADDMA1102001999999REMMET114MOBOB1 METAR XM22 //007 329173 010953Z AUTO 10006KT 9999 05/M02 A3012      RMK A02 SLP203 T00471015 PA047 DA-1102=
0141008416999992015010110544+32900-117300FM-15+007099999V0201001N002619999999N009999199+00471-00171102061ADDMA1102031999999REMMET114MOBOB1 METAR XM22 //007 329173 011054Z AUTO 10005KT 9999 05/M02 A3013      RMK A02 SLP206 T00471017 PA038 DA-1114=
0141008416999992015010111534+32900-117300FM-15+007099999V0201001N003119999999N009999199+00481-00211102061ADDMA1102031999999REMMET114MOBOB1 METAR XM22 //007 329173 011153Z AUTO 10006KT 9999 05/M02 A3013      RMK A02 SLP206 T00481021 PA038 DA-1104=
0141008416999992015010112534+32900-117300FM-15+007099999V0201001N003619999999N009999199+00451-00211102101ADDMA1102071999999REMMET114MOBOB1 METAR XM22 //007 329173 011253Z AUTO 10007KT 9999 05/M02 A3014      RMK A02 SLP210 T00451021 PA029 DA-1153=
0152008416999992015010113534+32900-117300FM-15+007099999V0201001N003619999999N009999199+00461-00241102171ADDMA1102131999999OC100671REMMET117MOBOB1 METAR XM22 //007 329173 011353Z AUTO 10007G13KT 9999 05/M02      A3016 RMK A02 SLP217 T00461024 PA010 DA-1165=
0141008416999992015010114534+32900-117300FM-15+007099999V0201001N003619999999N009999199+00491-00281102201ADDMA1102171999999REMMET114MOBOB1 METAR XM22 //007 329173 011453Z AUTO 10007KT 9999 05/M03 A3017      RMK A02 SLP220 T00491028 PA001 DA-1141=
0141008416999992015010115534+32900-117300FM-15+007099999V0201001N003119999999N009999199+00571-00321102241ADDMA1102201999999REMMET114MOBOB1 METAR XM22 //007 329173 011553Z AUTO 10006KT 9999 06/M03 A3018      RMK A02 SLP224 T00571032 PA-08 DA-1056=
0140008416999992015010117534+32900-117300FM-15+007099999V0201001N002119999999N009999199+01151-00121102331ADDMA1102301999999REMMET113MOBOB1 METAR XM22 //007 329173 011753Z AUTO 10004KT 9999 12/M01 A3021      RMK A02 SLP233 T01151012 PA-36 DA-374=
0140008416999992015010118534+32900-117300FM-15+007099999V0201201N001019999999N009999199+01381-00041102291ADDMA1102271999999REMMET113MOBOB1 METAR XM22 //007 329173 011853Z AUTO 12002KT 9999 14/M00 A3020      RMK A02 SLP229 T01381004 PA-27 DA-083=
0139008416999992015010119534+32900-117300FM-15+007099999V0202401N000519999999N009999199+01621+00031102191ADDMA1102171999999REMMET112MOBOB1 METAR XM22 //007 329173 011953Z AUTO 24001KT 9999 16/00 A3017      RMK A02 SLP219 T01620003 PA001 DA0240=
0139008416999992015010120534+32900-117300FM-15+007099999V0202501N000519999999N009999199+01701+00061102121ADDMA1102101999999REMMET112MOBOB1 METAR XM22 //007 329173 012053Z AUTO 25001KT 9999 17/01 A3015      RMK A02 SLP212 T01700006 PA020 DA0359=
0139008416999992015010122534+32900-117300FM-15+007099999V0209999C000019999999N009999199+01711+00171102091ADDMA1102071999999REMMET112MOBOB1 METAR XM22 //007 329173 012253Z AUTO 00000KT 9999 17/02 A3014      RMK A02 SLP209 T01710017 PA029 DA0388=
0139008416999992015010123534+32900-117300FM-15+007099999V0209999C000019999999N009999199+01561+00241102121ADDMA1102101999999REMMET112MOBOB1 METAR XM22 //007 329173 012353Z AUTO 00000KT 9999 16/02 A3015      RMK A02 SLP212 T01560024 PA020 DA0205=
0139008416999992015010201534+32900-117300FM-15+007099999V0209999C000019999999N009999199+01211+00361102201ADDMA1102171999999REMMET112MOBOB1 METAR XM22 //007 329173 020153Z AUTO 00000KT 9999 12/04 A3017      RMK A02 SLP220 T01210036 PA001 DA-226=
0139008416999992015010202534+32900-117300FM-15+007099999V0209999C000019999999N009999199+01191+00321102201ADDMA1102171999999REMMET112MOBOB1 METAR XM22 //007 329173 020253Z AUTO 00000KT 9999 12/03 A3017      RMK A02 SLP220 T01190032 PA001 DA-253=
0139008416999992015010204534+32900-117300FM-15+007099999V0201001N001519999999N009999199+01041+00271102231ADDMA1102201999999REMMET112MOBOB1 METAR XM22 //007 329173 020453Z AUTO 10003KT 9999 10/03 A3018      RMK A02 SLP223 T01040027 PA-08 DA-449=
0139008416999992015010205534+32900-117300FM-15+007099999V0200901N001519999999N009999199+00911+00261102221ADDMA1102201999999REMMET112MOBOB1 METAR XM22 //007 329173 020553Z AUTO 09003KT 9999 09/03 A3018      RMK A02 SLP222 T00910026 PA-08 DA-607=
0139008416999992015010206534+32900-117300FM-15+007099999V0200901N002119999999N009999199+00951+00221102221ADDMA1102201999999REMMET112MOBOB1 METAR XM22 //007 329173 020653Z AUTO 09004KT 9999 10/02 A3018      RMK A02 SLP222 T00950022 PA-08 DA-561=
0139008416999992015010207544+32900-117300FM-15+007099999V0200901N002119999999N009999199+00761+00191102191ADDMA1102171999999REMMET112MOBOB1 METAR XM22 //007 329173 020754Z AUTO 09004KT 9999 08/02 A3017      RMK A02 SLP219 T00760019 PA001 DA-783=
0139008416999992015010208534+32900-117300FM-15+007099999V0200901N002119999999N009999199+00711+00141102151ADDMA1102131999999REMMET112MOBOB1 METAR XM22 //007 329173 020853Z AUTO 09004KT 9999 07/01 A3016      RMK A02 SLP215 T00710014 PA010 DA-836=
0138008416999992015010209534+32900-117300FM-15+007099999V0200901N002119999999N009999199+00761+00081999999ADDMA1102131999999REMMET111MOBOB1 METAR XM22 //007 329173 020953Z AUTO 09004KT 9999 08/01 A3016      RMK A02 SLPNO T00760008 PA010 DA-778=
0139008416999992015010210534+32900-117300FM-15+007099999V0200901N002119999999N009999199+00691+00041102151ADDMA1102131999999REMMET112MOBOB1 METAR XM22 //007 329173 021053Z AUTO 09004KT 9999 07/00 A3016      RMK A02 SLP215 T00690004 PA010 DA-866=
0140008416999992015010212534+32900-117300FM-15+007099999V0200901N002619999999N009999199+00701-00031102161ADDMA1102131999999REMMET113MOBOB1 METAR XM22 //007 329173 021253Z AUTO 09005KT 9999 07/M00 A3016      RMK A02 SLP216 T00701003 PA010 DA-858=
0140008416999992015010213534+32900-117300FM-15+007099999V0200901N002619999999N009999199+00701-00121102161ADDMA1102131999999REMMET113MOBOB1 METAR XM22 //007 329173 021353Z AUTO 09005KT 9999 07/M01 A3016      RMK A02 SLP216 T00701012 PA010 DA-863=
0140008416999992015010214534+32900-117300FM-15+007099999V0200901N002619999999N009999199+00641-00151102261ADDMA1102231999999REMMET113MOBOB1 METAR XM22 //007 329173 021453Z AUTO 09005KT 9999 06/M02 A3019      RMK A02 SLP226 T00641015 PA-17 DA-973=
0140008416999992015010215534+32900-117300FM-15+007099999V0200901N002619999999N009999199+00711-00131102301ADDMA1102271999999REMMET113MOBOB1 METAR XM22 //007 329173 021553Z AUTO 09005KT 9999 07/M01 A3020      RMK A02 SLP230 T00711013 PA-27 DA-898=
0139008416999992015010217534+32900-117300FM-15+007099999V0202501N000519999999N009999199+01501+00191102361ADDMA1102341999999REMMET112MOBOB1 METAR XM22 //007 329173 021753Z AUTO 25001KT 9999 15/02 A3022      RMK A02 SLP236 T01500019 PA-45 DA0051=
0139008416999992015010218534+32900-117300FM-15+007099999V0202501N000519999999N009999199+01621+00341102251ADDMA1102231999999REMMET112MOBOB1 METAR XM22 //007 329173 021853Z AUTO 25001KT 9999 16/03 A3019      RMK A02 SLP225 T01620034 PA-17 DA0237=
0139008416999992015010220534+32900-117300FM-15+007099999V0209999C000019999999N009999199+01761+00501102081ADDMA1102071999999REMMET112MOBOB1 METAR XM22 //007 329173 022053Z AUTO 00000KT 9999 18/05 A3014      RMK A02 SLP208 T01760050 PA029 DA0470=
0139008416999992015010222534+32900-117300FM-15+007099999V0202401N000519999999N009999199+01731+00621102051ADDMA1102031999999REMMET112MOBOB1 METAR XM22 //007 329173 022253Z AUTO 24001KT 9999 17/06 A3013      RMK A02 SLP205 T01730062 PA038 DA0456=
0139008416999992015010223534+32900-117300FM-15+007099999V0209999C000019999999N009999199+01621+00641102011ADDMA1102001999999REMMET112MOBOB1 METAR XM22 //007 329173 022353Z AUTO 00000KT 9999 16/06 A3012      RMK A02 SLP201 T01620064 PA047 DA0340=
0139008416999992015010300534+32900-117300FM-15+007099999V0209999C000019999999N009999199+01391+00551102051ADDMA1102031999999REMMET112MOBOB1 METAR XM22 //007 329173 030053Z AUTO 00000KT 9999 14/05 A3013      RMK A02 SLP205 T01390055 PA038 DA0049=
0139008416999992015010302534+32900-117300FM-15+007099999V0209999C000019999999N009999199+01201+00621102121ADDMA1102101999999REMMET112MOBOB1 METAR XM22 //007 329173 030253Z AUTO 00000KT 9999 12/06 A3015      RMK A02 SLP212 T01200062 PA020 DA-195=
0139008416999992015010303534+32900-117300FM-15+007099999V0200901N001019999999N009999199+01141+00601102231ADDMA1102201999999REMMET112MOBOB1 METAR XM22 //007 329173 030353Z AUTO 09002KT 9999 11/06 A3018      RMK A02 SLP223 T01140060 PA-08 DA-303=
0139008416999992015010304534+32900-117300FM-15+007099999V0200901N001519999999N009999199+01041+00541102291ADDMA1102271999999REMMET112MOBOB1 METAR XM22 //007 329173 030453Z AUTO 09003KT 9999 10/05 A3020      RMK A02 SLP229 T01040054 PA-27 DA-452=
0139008416999992015010305534+32900-117300FM-15+007099999V0201001N002119999999N009999199+00981+00521102321ADDMA1102301999999REMMET112MOBOB1 METAR XM22 //007 329173 030553Z AUTO 10004KT 9999 10/05 A3021      RMK A02 SLP232 T00980052 PA-36 DA-537=
0139008416999992015010306534+32900-117300FM-15+007099999V0200901N002119999999N009999199+01001+00551102321ADDMA1102301999999REMMET112MOBOB1 METAR XM22 //007 329173 030653Z AUTO 09004KT 9999 10/05 A3021      RMK A02 SLP232 T01000055 PA-36 DA-511=
0139008416999992015010307534+32900-117300FM-15+007099999V0201001N002619999999N009999199+00871+00451102281ADDMA1102271999999REMMET112MOBOB1 METAR XM22 //007 329173 030753Z AUTO 10005KT 9999 09/05 A3020      RMK A02 SLP228 T00870045 PA-27 DA-665=
0139008416999992015010308534+32900-117300FM-15+007099999V0201001N002619999999N009999199+00871+00451102251ADDMA1102231999999REMMET112MOBOB1 METAR XM22 //007 329173 030853Z AUTO 10005KT 9999 09/05 A3019      RMK A02 SLP225 T00870045 PA-17 DA-653=
0139008416999992015010309534+32900-117300FM-15+007099999V0201001N002119999999N009999199+00871+00461102321ADDMA1102301999999REMMET112MOBOB1 METAR XM22 //007 329173 030953Z AUTO 10004KT 9999 09/05 A3021      RMK A02 SLP232 T00870046 PA-36 DA-676=
0139008416999992015010310534+32900-117300FM-15+007099999V0201001N002619999999N009999199+00821+00431102281ADDMA1102271999999REMMET112MOBOB1 METAR XM22 //007 329173 031053Z AUTO 10005KT 9999 08/04 A3020      RMK A02 SLP228 T00820043 PA-27 DA-728=
0139008416999992015010311534+32900-117300FM-15+007099999V0201001N002619999999N009999199+00791+00381102291ADDMA1102271999999REMMET112MOBOB1 METAR XM22 //007 329173 031153Z AUTO 10005KT 9999 08/04 A3020      RMK A02 SLP229 T00790038 PA-27 DA-768=
0139008416999992015010312534+32900-117300FM-15+007099999V0201001N002619999999N009999199+00771+00311102291ADDMA1102271999999REMMET112MOBOB1 METAR XM22 //007 329173 031253Z AUTO 10005KT 9999 08/03 A3020      RMK A02 SLP229 T00770031 PA-27 DA-797=
0139008416999992015010313534+32900-117300FM-15+007099999V0201001N002119999999N009999199+00771+00311102401ADDMA1102371999999REMMET112MOBOB1 METAR XM22 //007 329173 031353Z AUTO 10004KT 9999 08/03 A3023      RMK A02 SLP240 T00770031 PA-54 DA-832=
0139008416999992015010314534+32900-117300FM-15+007099999V0201001N002619999999N009999199+00711+00281102471ADDMA1102441999999REMMET112MOBOB1 METAR XM22 //007 329173 031453Z AUTO 10005KT 9999 07/03 A3025      RMK A02 SLP247 T00710028 PA-73 DA-930=
0139008416999992015010315534+32900-117300FM-15+007099999V0200901N002119999999N009999199+00851+00311102531ADDMA1102511999999REMMET112MOBOB1 METAR XM22 //007 329173 031553Z AUTO 09004KT 9999 09/03 A3027      RMK A02 SLP253 T00850031 PA-91 DA-780=
0140008416999992015010316534+32900-117300FM-15+007099999V0200901N001519999999N009999199+01141+00391102601ADDMA1102571999999REMMET113MOBOB1 METAR XM22 //007 329173 031653Z AUTO 09003KT 9999 11/04 A3029      RMK A02 SLP260 T01140039 PA-110 DA-445=
0140008416999992015010317534+32900-117300FM-15+007099999V0202601N000519999999N009999199+01561+00561102631ADDMA1102611999999REMMET113MOBOB1 METAR XM22 //007 329173 031753Z AUTO 26001KT 9999 16/06 A3030      RMK A02 SLP263 T01560056 PA-119 DA0057=
0140008416999992015010318534+32900-117300FM-15+007099999V0202501N000519999999N009999199+01701+00601102561ADDMA1102541999999REMMET113MOBOB1 METAR XM22 //007 329173 031853Z AUTO 25001KT 9999 17/06 A3028      RMK A02 SLP256 T01700060 PA-100 DA0248=
0139008416999992015010319534+32900-117300FM-15+007099999V0202601N000519999999N009999199+01801+00641102491ADDMA1102471999999REMMET112MOBOB1 METAR XM22 //007 329173 031953Z AUTO 26001KT 9999 18/06 A3026      RMK A02 SLP249 T01800064 PA-82 DA0391=
0139008416999992015010320534+32900-117300FM-15+007099999V0209999C000019999999N009999199+01841+00621102451ADDMA1102441999999REMMET112MOBOB1 METAR XM22 //007 329173 032053Z AUTO 00000KT 9999 18/06 A3025      RMK A02 SLP245 T01840062 PA-73 DA0448=
0139008416999992015010321534+32900-117300FM-15+007099999V0209999C000019999999N009999199+01861+00621102421ADDMA1102401999999REMMET112MOBOB1 METAR XM22 //007 329173 032153Z AUTO 00000KT 9999 19/06 A3024      RMK A02 SLP242 T01860062 PA-64 DA0482=
0139008416999992015010322534+32900-117300FM-15+007099999V0209999C000019999999N009999199+01751+00671102451ADDMA1102441999999REMMET112MOBOB1 METAR XM22 //007 329173 032253Z AUTO 00000KT 9999 18/07 A3025      RMK A02 SLP245 T01750067 PA-73 DA0347=
0139008416999992015010323534+32900-117300FM-15+007099999V0209999C000019999999N009999199+01641+00751102491ADDMA1102471999999REMMET112MOBOB1 METAR XM22 //007 329173 032353Z AUTO 00000KT 9999 16/07 A3026      RMK A02 SLP249 T01640075 PA-82 DA0213=
0139008416999992015010400534+32900-117300FM-15+007099999V0201401N000519999999N009999199+01451+00731102531ADDMA1102511999999REMMET112MOBOB1 METAR XM22 //007 329173 040053Z AUTO 14001KT 9999 15/07 A3027      RMK A02 SLP253 T01450073 PA-91 DA-025=
0140008416999992015010402534+32900-117300FM-15+007099999V0209999C000019999999N009999199+01281+00701102631ADDMA1102611999999REMMET113MOBOB1 METAR XM22 //007 329173 040253Z AUTO 00000KT 9999 13/07 A3030      RMK A02 SLP263 T01280070 PA-119 DA-264=
0140008416999992015010404534+32900-117300FM-15+007099999V0200901N000519999999N009999199+01201+00711102701ADDMA1102671999999REMMET113MOBOB1 METAR XM22 //007 329173 040453Z AUTO 09001KT 9999 12/07 A3032      RMK A02 SLP270 T01200071 PA-137 DA-383=
0140008416999992015010405534+32900-117300FM-15+007099999V0200901N001519999999N009999199+01181+00691102691ADDMA1102671999999REMMET113MOBOB1 METAR XM22 //007 329173 040553Z AUTO 09003KT 9999 12/07 A3032      RMK A02 SLP269 T01180069 PA-137 DA-408=
0140008416999992015010406534+32900-117300FM-15+007099999V0200901N001019999999N009999199+01131+00671102691ADDMA1102671999999REMMET113MOBOB1 METAR XM22 //007 329173 040653Z AUTO 09002KT 9999 11/07 A3032      RMK A02 SLP269 T01130067 PA-137 DA-470=
0140008416999992015010407534+32900-117300FM-15+007099999V0200901N002119999999N009999199+01011+00611102691ADDMA1102671999999REMMET113MOBOB1 METAR XM22 //007 329173 040753Z AUTO 09004KT 9999 10/06 A3032      RMK A02 SLP269 T01010061 PA-137 DA-620=
0140008416999992015010408534+32900-117300FM-15+007099999V0200901N002119999999N009999199+01001+00571102691ADDMA1102671999999REMMET113MOBOB1 METAR XM22 //007 329173 040853Z AUTO 09004KT 9999 10/06 A3032      RMK A02 SLP269 T01000057 PA-137 DA-635=
0140008416999992015010409534+32900-117300FM-15+007099999V0200901N002119999999N009999199+01021+00581102691ADDMA1102671999999REMMET113MOBOB1 METAR XM22 //007 329173 040953Z AUTO 09004KT 9999 10/06 A3032      RMK A02 SLP269 T01020058 PA-137 DA-610=
0140008416999992015010410534+32900-117300FM-15+007099999V0200901N002119999999N009999199+01001+00591102691ADDMA1102671999999REMMET113MOBOB1 METAR XM22 //007 329173 041053Z AUTO 09004KT 9999 10/06 A3032      RMK A02 SLP269 T01000059 PA-137 DA-634=
0140008416999992015010411534+32900-117300FM-15+007099999V0200901N001019999999N009999199+01031+00571102661ADDMA1102641999999REMMET113MOBOB1 METAR XM22 //007 329173 041153Z AUTO 09002KT 9999 10/06 A3031      RMK A02 SLP266 T01030057 PA-128 DA-587=
0140008416999992015010412534+32900-117300FM-15+007099999V0200901N000519999999N009999199+00991+00501102661ADDMA1102641999999REMMET113MOBOB1 METAR XM22 //007 329173 041253Z AUTO 09001KT 9999 10/05 A3031      RMK A02 SLP266 T00990050 PA-128 DA-642=
0140008416999992015010413534+32900-117300FM-15+007099999V0200901N000519999999N009999199+01011+00521102701ADDMA1102671999999REMMET113MOBOB1 METAR XM22 //007 329173 041353Z AUTO 09001KT 9999 10/05 A3032      RMK A02 SLP270 T01010052 PA-137 DA-627=
0140008416999992015010414534+32900-117300FM-15+007099999V0201001N000519999999N009999199+00971+00461102731ADDMA1102711999999REMMET113MOBOB1 METAR XM22 //007 329173 041453Z AUTO 10001KT 9999 10/05 A3033      RMK A02 SLP273 T00970046 PA-146 DA-692=
0140008416999992015010417534+32900-117300FM-15+007099999V0202301N000519999999N009999199+01711+00571102891ADDMA1102881999999REMMET113MOBOB1 METAR XM22 //007 329173 041753Z AUTO 23001KT 9999 17/06 A3038      RMK A02 SLP289 T01710057 PA-192 DA0143=
0140008416999992015010419534+32900-117300FM-15+007099999V0202401N000519999999N009999199+01831+00691102721ADDMA1102711999999REMMET113MOBOB1 METAR XM22 //007 329173 041953Z AUTO 24001KT 9999 18/07 A3033      RMK A02 SLP272 T01830069 PA-146 DA0351=
0140008416999992015010420534+32900-117300FM-15+007099999V0202201N000519999999N009999199+01851+00831102651ADDMA1102641999999REMMET113MOBOB1 METAR XM22 //007 329173 042053Z AUTO 22001KT 9999 19/08 A3031      RMK A02 SLP265 T01850083 PA-128 DA0410=
0149008416999992015010422534+32900-117300FM-15+007099999V0202301N000519999999N009000199+01851+00881102591ADDAW1051MA1102571999999REMMET116MOBOB1 METAR XM22 //007 329173 042253Z AUTO 23001KT 9000 HZ 19/09 A3029      RMK A02 SLP259 T01850088 PA-110 DA0438=
0140008416999992015010500534+32900-117300FM-15+007099999V0202301N000519999999N009999199+01611+00961102621ADDMA1102611999999REMMET113MOBOB1 METAR XM22 //007 329173 050053Z AUTO 23001KT 9999 16/10 A3030      RMK A02 SLP262 T01610096 PA-119 DA0152=
0149008416999992015010501534+32900-117300FM-15+007099999V0202001N000519999999N009000199+01481+01001102661ADDAW1051MA1102641999999REMMET116MOBOB1 METAR XM22 //007 329173 050153Z AUTO 20001KT 9000 HZ 15/10 A3031      RMK A02 SLP266 T01480100 PA-128 DA-009=
0140008416999992015010502534+32900-117300FM-15+007099999V0209999C000019999999N009999199+01421+01021102661ADDMA1102641999999REMMET113MOBOB1 METAR XM22 //007 329173 050253Z AUTO 00000KT 9999 14/10 A3031      RMK A02 SLP266 T01420102 PA-128 DA-077=
0140008416999992015010503534+32900-117300FM-15+007099999V0209999C000019999999N009999199+01391+01071102631ADDMA1102611999999REMMET113MOBOB1 METAR XM22 //007 329173 050353Z AUTO 00000KT 9999 14/11 A3030      RMK A02 SLP263 T01390107 PA-119 DA-097=
0140008416999992015010504534+32900-117300FM-15+007099999V0209999C000019999999N009999199+01361+01101102651ADDMA1102641999999REMMET113MOBOB1 METAR XM22 //007 329173 050453Z AUTO 00000KT 9999 14/11 A3031      RMK A02 SLP265 T01360110 PA-128 DA-140=
0148008416999992015010506534+32900-117300FM-15+007099999V0200901N001019999999N007000199+01281+01061999999ADDAW1051MA1102571999999REMMET115MOBOB1 METAR XM22 //007 329173 050653Z AUTO 09002KT 7000 HZ 13/11 A3029      RMK A02 SLPNO T01280106 PA-110 DA-218=
0139008416999992015010507534+32900-117300FM-15+007099999V0209999C000019999999N009999199+01261+00971102511ADDMA1102511999999REMMET112MOBOB1 METAR XM22 //007 329173 050753Z AUTO 00000KT 9999 13/10 A3027      RMK A02 SLP251 T01260097 PA-91 DA-228=
0139008416999992015010508534+32900-117300FM-15+007099999V0201001N002119999999N009999199+01241+00621102481ADDMA1102471999999REMMET112MOBOB1 METAR XM22 //007 329173 050853Z AUTO 10004KT 9999 12/06 A3026      RMK A02 SLP248 T01240062 PA-82 DA-273=
0138008416999992015010509534+32900-117300FM-15+007099999V0200901N001019999999N009999199+01241+00741999999ADDMA1102511999999REMMET111MOBOB1 METAR XM22 //007 329173 050953Z AUTO 09002KT 9999 12/07 A3027      RMK A02 SLPNO T01240074 PA-91 DA-274=
0139008416999992015010510534+32900-117300FM-15+007099999V0209999C000019999999N009999199+01221+01001102511ADDMA1102511999999REMMET112MOBOB1 METAR XM22 //007 329173 051053Z AUTO 00000KT 9999 12/10 A3027      RMK A02 SLP251 T01220100 PA-91 DA-273=
0139008416999992015010512534+32900-117300FM-15+007099999V0200901N001019999999N009999199+01161+00691102491ADDMA1102471999999REMMET112MOBOB1 METAR XM22 //007 329173 051253Z AUTO 09002KT 9999 12/07 A3026      RMK A02 SLP249 T01160069 PA-82 DA-363=
0139008416999992015010513534+32900-117300FM-15+007099999V0200901N001019999999N009999199+01151+00571102451ADDMA1102441999999REMMET112MOBOB1 METAR XM22 //007 329173 051353Z AUTO 09002KT 9999 12/06 A3025      RMK A02 SLP245 T01150057 PA-73 DA-374=
0139008416999992015010514534+32900-117300FM-15+007099999V0200801N000519999999N009999199+01171+00281102491ADDMA1102471999999REMMET112MOBOB1 METAR XM22 //007 329173 051453Z AUTO 08001KT 9999 12/03 A3026      RMK A02 SLP249 T01170028 PA-82 DA-383=
0140008416999992015010516534+32900-117300FM-15+007099999V0209999C000019999999N009999199+01781+00661102551ADDMA1102541999999REMMET113MOBOB1 METAR XM22 //007 329173 051653Z AUTO 00000KT 9999 18/07 A3028      RMK A02 SLP255 T01780066 PA-100 DA0347=
0140008416999992015010517534+32900-117300FM-15+007099999V0202501N000519999999N009999199+01911+00631102551ADDMA1102541999999REMMET113MOBOB1 METAR XM22 //007 329173 051753Z AUTO 25001KT 9999 19/06 A3028      RMK A02 SLP255 T01910063 PA-100 DA0496=
0139008416999992015010518534+32900-117300FM-15+007099999V0202601N000519999999N009999199+01971+00591102441ADDMA1102441999999REMMET112MOBOB1 METAR XM22 //007 329173 051853Z AUTO 26001KT 9999 20/06 A3025      RMK A02 SLP244 T01970059 PA-73 DA0597=
0140008416999992015010519534+32900-117300FM-15+007099999V0202601N000519999999N009999199+02281-00051102341ADDMA1102341999999REMMET113MOBOB1 METAR XM22 //007 329173 051953Z AUTO 26001KT 9999 23/M01 A3022      RMK A02 SLP234 T02281005 PA-45 DA0946=
0139008416999992015010520534+32900-117300FM-15+007099999V0202501N000519999999N009999199+02301+00661102241ADDMA1102231999999REMMET112MOBOB1 METAR XM22 //007 329173 052053Z AUTO 25001KT 9999 23/07 A3019      RMK A02 SLP224 T02300066 PA-17 DA1052=
0148008416999992015010521534+32900-117300FM-15+007099999V0202601N000519999999N006000199+02191+01222102201ADDAW1051MA1102201999999REMMET115MOBOB1 METAR XM22 //007 329173 052153Z AUTO 26001KT 6000 HZ 22/12 A3018      RMK A02 SLP220 T02190122 PA-08 DA0993=
0139008416999992015010522534+32900-117300FM-15+007099999V0202401N000519999999N009999199+02281+00571102201ADDMA1102201999999REMMET112MOBOB1 METAR XM22 //007 329173 052253Z AUTO 24001KT 9999 23/06 A3018      RMK A02 SLP220 T02280057 PA-08 DA1032=
0138008416999992015010523534+32900-117300FM-15+007099999V0202201N000519999999N009999199+02171+00951999999ADDMA1102201999999REMMET111MOBOB1 METAR XM22 //007 329173 052353Z AUTO 22001KT 9999 22/10 A3018      RMK A02 SLPNO T02170095 PA-08 DA0941=
0139008416999992015010600534+32900-117300FM-15+007099999V0202701N000519999999N009999199+01971+00821102211ADDMA1102201999999REMMET112MOBOB1 METAR XM22 //007 329173 060053Z AUTO 27001KT 9999 20/08 A3018      RMK A02 SLP221 T01970082 PA-08 DA0697=
0139008416999992015010601534+32900-117300FM-15+007099999V0200901N001019999999N009999199+01921+00081102171ADDMA1102171999999REMMET112MOBOB1 METAR XM22 //007 329173 060153Z AUTO 09002KT 9999 19/01 A3017      RMK A02 SLP217 T01920008 PA001 DA0594=
0139008416999992015010602534+32900-117300FM-15+007099999V0200901N002119999999N009999199+02031+00241102211ADDMA1102201999999REMMET112MOBOB1 METAR XM22 //007 329173 060253Z AUTO 09004KT 9999 20/02 A3018      RMK A02 SLP221 T02030024 PA-08 DA0720=
0140008416999992015010603534+32900-117300FM-15+007099999V0200901N001019999999N009999199+02021+00001102241ADDMA1102231999999REMMET113MOBOB1 METAR XM22 //007 329173 060353Z AUTO 09002KT 9999 20/M00 A3019      RMK A02 SLP224 T02021000 PA-17 DA0683=
0140008416999992015010604534+32900-117300FM-15+007099999V0200901N000519999999N009999199+01751-00071102241ADDMA1102231999999REMMET113MOBOB1 METAR XM22 //007 329173 060453Z AUTO 09001KT 9999 18/M01 A3019      RMK A02 SLP224 T01751007 PA-17 DA0364=
0140008416999992015010605534+32900-117300FM-15+007099999V0200901N000519999999N009999199+01841-00311102271ADDMA1102271999999REMMET113MOBOB1 METAR XM22 //007 329173 060553Z AUTO 09001KT 9999 18/M03 A3020      RMK A02 SLP227 T01841031 PA-27 DA0446=
0140008416999992015010607534+32900-117300FM-15+007099999V0200801N001019999999N009999199+01731-00051102261ADDMA1102271999999REMMET113MOBOB1 METAR XM22 //007 329173 060753Z AUTO 08002KT 9999 17/M01 A3020      RMK A02 SLP226 T01731005 PA-27 DA0330=
0139008416999992015010608534+32900-117300FM-15+007099999V0200901N001019999999N009999199+01861+00031102301ADDMA1102301999999REMMET112MOBOB1 METAR XM22 //007 329173 060853Z AUTO 09002KT 9999 19/00 A3021      RMK A02 SLP230 T01860003 PA-36 DA0476=
0140008416999992015010609534+32900-117300FM-15+007099999V0200901N001019999999N009999199+01841-00171102301ADDMA1102301999999REMMET113MOBOB1 METAR XM22 //007 329173 060953Z AUTO 09002KT 9999 18/M02 A3021      RMK A02 SLP230 T01841017 PA-36 DA0442=
0140008416999992015010610534+32900-117300FM-15+007099999V0200901N001519999999N009999199+01881-00271102301ADDMA1102301999999REMMET113MOBOB1 METAR XM22 //007 329173 061053Z AUTO 09003KT 9999 19/M03 A3021      RMK A02 SLP230 T01881027 PA-36 DA0483=
0140008416999992015010611534+32900-117300FM-15+007099999V0200901N001019999999N009999199+01821-00431102261ADDMA1102271999999REMMET113MOBOB1 METAR XM22 //007 329173 061153Z AUTO 09002KT 9999 18/M04 A3020      RMK A02 SLP226 T01821043 PA-27 DA0417=
0140008416999992015010612534+32900-117300FM-15+007099999V0200901N001519999999N009999199+01771-00351102231ADDMA1102231999999REMMET113MOBOB1 METAR XM22 //007 329173 061253Z AUTO 09003KT 9999 18/M04 A3019      RMK A02 SLP223 T01771035 PA-17 DA0374=
0140008416999992015010613534+32900-117300FM-15+007099999V0200901N002119999999N009999199+01731-00411102271ADDMA1102271999999REMMET113MOBOB1 METAR XM22 //007 329173 061353Z AUTO 09004KT 9999 17/M04 A3020      RMK A02 SLP227 T01731041 PA-27 DA0313=
0140008416999992015010614534+32900-117300FM-15+007099999V0200901N002619999999N009999199+01731-00501102301ADDMA1102301999999REMMET113MOBOB1 METAR XM22 //007 329173 061453Z AUTO 09005KT 9999 17/M05 A3021      RMK A02 SLP230 T01731050 PA-36 DA0298=
0140008416999992015010615534+32900-117300FM-15+007099999V0200901N001019999999N009999199+01921-00381102371ADDMA1102371999999REMMET113MOBOB1 METAR XM22 //007 329173 061553Z AUTO 09002KT 9999 19/M04 A3023      RMK A02 SLP237 T01921038 PA-54 DA0502=
0140008416999992015010616534+32900-117300FM-15+007099999V0201101N000519999999N009999199+02191-00091102401ADDMA1102401999999REMMET113MOBOB1 METAR XM22 //007 329173 061653Z AUTO 11001KT 9999 22/M01 A3024      RMK A02 SLP240 T02191009 PA-64 DA0818=
0140008416999992015010617534+32900-117300FM-15+007099999V0202601N000519999999N009999199+02491-00101102361ADDMA1102371999999REMMET113MOBOB1 METAR XM22 //007 329173 061753Z AUTO 26001KT 9999 25/M01 A3023      RMK A02 SLP236 T02491010 PA-54 DA1172=
0140008416999992015010618534+32900-117300FM-15+007099999V0202801N000519999999N009999199+02661-00301102261ADDMA1102271999999REMMET113MOBOB1 METAR XM22 //007 329173 061853Z AUTO 28001KT 9999 27/M03 A3020      RMK A02 SLP226 T02661030 PA-27 DA1388=
0139008416999992015010619534+32900-117300FM-15+007099999V0202601N000519999999N009999199+02471+00111102121ADDMA1102131999999REMMET112MOBOB1 METAR XM22 //007 329173 061953Z AUTO 26001KT 9999 25/01 A3016      RMK A02 SLP212 T02470011 PA010 DA1240=
0139008416999992015010621534+32900-117300FM-15+007099999V0202501N000519999999N009999199+02601+00391102021ADDMA1102031999999REMMET112MOBOB1 METAR XM22 //007 329173 062153Z AUTO 25001KT 9999 26/04 A3013      RMK A02 SLP202 T02600039 PA038 DA1440=
0139008416999992015010623534+32900-117300FM-15+007099999V0202101N000519999999N009999199+02421+00011102061ADDMA1102071999999REMMET112MOBOB1 METAR XM22 //007 329173 062353Z AUTO 21001KT 9999 24/00 A3014      RMK A02 SLP206 T02420001 PA029 DA1200=
0140008416999992015010700534+32900-117300FM-15+007099999V0202501N000519999999N009999199+02331-00451102091ADDMA1102101999999REMMET113MOBOB1 METAR XM22 //007 329173 070053Z AUTO 25001KT 9999 23/M05 A3015      RMK A02 SLP209 T02331045 PA020 DA1063=
0140008416999992015010701534+32900-117300FM-15+007099999V0201001N001019999999N009999199+02071-00421102101ADDMA1102101999999REMMET113MOBOB1 METAR XM22 //007 329173 070153Z AUTO 10002KT 9999 21/M04 A3015      RMK A02 SLP210 T02071042 PA020 DA0766=
0140008416999992015010702534+32900-117300FM-15+007099999V0201001N000519999999N009999199+02001-00381102131ADDMA1102131999999REMMET113MOBOB1 METAR XM22 //007 329173 070253Z AUTO 10001KT 9999 20/M04 A3016      RMK A02 SLP213 T02001038 PA010 DA0675=
0140008416999992015010703534+32900-117300FM-15+007099999V0200901N002119999999N009999199+01891-00331102161ADDMA1102171999999REMMET113MOBOB1 METAR XM22 //007 329173 070353Z AUTO 09004KT 9999 19/M03 A3017      RMK A02 SLP216 T01891033 PA001 DA0538=
0139008416999992015010704534+32900-117300FM-15+007099999V0201101N001019999999N009999199+01621+00591102161ADDMA1102171999999REMMET112MOBOB1 METAR XM22 //007 329173 070453Z AUTO 11002KT 9999 16/06 A3017      RMK A02 SLP216 T01620059 PA001 DA0279=
0139008416999992015010705534+32900-117300FM-15+007099999V0200901N002119999999N009999199+01631+00782102161ADDMA1102171999999REMMET112MOBOB1 METAR XM22 //007 329173 070553Z AUTO 09004KT 9999 16/08 A3017      RMK A02 SLP216 T01630078 PA001 DA0307=
0139008416999992015010706534+32900-117300FM-15+007099999V0200901N001019999999N009999199+01671+00461102161ADDMA1102171999999REMMET112MOBOB1 METAR XM22 //007 329173 070653Z AUTO 09002KT 9999 17/05 A3017      RMK A02 SLP216 T01670046 PA001 DA0327=
0139008416999992015010707534+32900-117300FM-15+007099999V0200901N001519999999N009999199+01711+00291102161ADDMA1102171999999REMMET112MOBOB1 METAR XM22 //007 329173 070753Z AUTO 09003KT 9999 17/03 A3017      RMK A02 SLP216 T01710029 PA001 DA0362=
0139008416999992015010708534+32900-117300FM-15+007099999V0200901N001019999999N009999199+01661+00121102121ADDMA1102131999999REMMET112MOBOB1 METAR XM22 //007 329173 070853Z AUTO 09002KT 9999 17/01 A3016      RMK A02 SLP212 T01660012 PA010 DA0304=
0140008416999992015010709534+32900-117300FM-15+007099999V0200901N000519999999N009999199+01731-00061102161ADDMA1102171999999REMMET113MOBOB1 METAR XM22 //007 329173 070953Z AUTO 09001KT 9999 17/M01 A3017      RMK A02 SLP216 T01731006 PA001 DA0364=
0140008416999992015010711534+32900-117300FM-15+007099999V0200801N000519999999N009999199+01631-00021102061ADDMA1102071999999REMMET113MOBOB1 METAR XM22 //007 329173 071153Z AUTO 08001KT 9999 16/M00 A3014      RMK A02 SLP206 T01631002 PA029 DA0283=
0140008416999992015010712534+32900-117300FM-15+007099999V0209999C000019999999N009999199+01601-00161102061ADDMA1102071999999REMMET113MOBOB1 METAR XM22 //007 329173 071253Z AUTO 00000KT 9999 16/M02 A3014      RMK A02 SLP206 T01601016 PA029 DA0240=
0140008416999992015010713534+32900-117300FM-15+007099999V0200801N000519999999N009999199+01531-00231102061ADDMA1102071999999REMMET113MOBOB1 METAR XM22 //007 329173 071353Z AUTO 08001KT 9999 15/M02 A3014      RMK A02 SLP206 T01531023 PA029 DA0154=
0140008416999992015010714534+32900-117300FM-15+007099999V0200801N000519999999N009999199+01511-00161102101ADDMA1102101999999REMMET113MOBOB1 METAR XM22 //007 329173 071453Z AUTO 08001KT 9999 15/M02 A3015      RMK A02 SLP210 T01511016 PA020 DA0122=
0140008416999992015010715534+32900-117300FM-15+007099999V0200801N000519999999N009999199+01531-00111102101ADDMA1102101999999REMMET113MOBOB1 METAR XM22 //007 329173 071553Z AUTO 08001KT 9999 15/M01 A3015      RMK A02 SLP210 T01531011 PA020 DA0149=
0139008416999992015010716534+32900-117300FM-15+007099999V0201301N000519999999N009999199+02091+00021102171ADDMA1102171999999REMMET112MOBOB1 METAR XM22 //007 329173 071653Z AUTO 13001KT 9999 21/00 A3017      RMK A02 SLP217 T02090002 PA001 DA0787=
0139008416999992015010717534+32900-117300FM-15+007099999V0202501N000519999999N009999199+02291+00271102161ADDMA1102171999999REMMET112MOBOB1 METAR XM22 //007 329173 071753Z AUTO 25001KT 9999 23/03 A3017      RMK A02 SLP216 T02290027 PA001 DA1034=
0139008416999992015010718534+32900-117300FM-15+007099999V0202601N000519999999N009999199+02231+00001102131ADDMA1102131999999REMMET112MOBOB1 METAR XM22 //007 329173 071853Z AUTO 26001KT 9999 22/00 A3016      RMK A02 SLP213 T02230000 PA010 DA0959=
0139008416999992015010719534+32900-117300FM-15+007099999V0202701N000519999999N009999199+02341+00461102061ADDMA1102071999999REMMET112MOBOB1 METAR XM22 //007 329173 071953Z AUTO 27001KT 9999 23/05 A3014      RMK A02 SLP206 T02340046 PA029 DA1138=
0140008416999992015010720534+32900-117300FM-15+007099999V0202701N001019999999N009999199+02271-00071102031ADDMA1102031999999REMMET113MOBOB1 METAR XM22 //007 329173 072053Z AUTO 27002KT 9999 23/M01 A3013      RMK A02 SLP203 T02271007 PA038 DA1036=
0139008416999992015010722534+32900-117300FM-15+007099999V0202601N000519999999N009999199+02281+00141101991ADDMA1102001999999REMMET112MOBOB1 METAR XM22 //007 329173 072253Z AUTO 26001KT 9999 23/01 A3012      RMK A02 SLP199 T02280014 PA047 DA1070=
0139008416999992015010723534+32900-117300FM-15+007099999V0201401N000519999999N009999199+02191+00141101991ADDMA1102001999999REMMET112MOBOB1 METAR XM22 //007 329173 072353Z AUTO 14001KT 9999 22/01 A3012      RMK A02 SLP199 T02190014 PA047 DA0967=
0139008416999992015010800534+32900-117300FM-15+007099999V0201201N000519999999N009999199+01991+00441101961ADDMA1101961999999REMMET112MOBOB1 METAR XM22 //007 329173 080053Z AUTO 12001KT 9999 20/04 A3011      RMK A02 SLP196 T01990044 PA057 DA0768=
0139008416999992015010801534+32900-117300FM-15+007099999V0209999C000019999999N009999199+01941+00401102001ADDMA1102001999999REMMET112MOBOB1 METAR XM22 //007 329173 080153Z AUTO 00000KT 9999 19/04 A3012      RMK A02 SLP200 T01940040 PA047 DA0696=
0139008416999992015010802534+32900-117300FM-15+007099999V0200901N000519999999N009999199+01671+00641101971ADDMA1101961999999REMMET112MOBOB1 METAR XM22 //007 329173 080253Z AUTO 09001KT 9999 17/06 A3011      RMK A02 SLP197 T01670064 PA057 DA0411=
0139008416999992015010803534+32900-117300FM-15+007099999V0209999C000019999999N009999199+01631+00471102001ADDMA1102001999999REMMET112MOBOB1 METAR XM22 //007 329173 080353Z AUTO 00000KT 9999 16/05 A3012      RMK A02 SLP200 T01630047 PA047 DA0338=
0139008416999992015010804534+32900-117300FM-15+007099999V0209999C000019999999N009999199+01641+00771101961ADDMA1101961999999REMMET112MOBOB1 METAR XM22 //007 329173 080453Z AUTO 00000KT 9999 16/08 A3011      RMK A02 SLP196 T01640077 PA057 DA0387=
0139008416999992015010805534+32900-117300FM-15+007099999V0200901N001519999999N009999199+01571+00671101961ADDMA1101961999999REMMET112MOBOB1 METAR XM22 //007 329173 080553Z AUTO 09003KT 9999 16/07 A3011      RMK A02 SLP196 T01570067 PA057 DA0295=
0139008416999992015010807534+32900-117300FM-15+007099999V0201001N000519999999N009999199+01551+00581101891ADDMA1101901999999REMMET112MOBOB1 METAR XM22 //007 329173 080753Z AUTO 10001KT 9999 16/06 A3009      RMK A02 SLP189 T01550058 PA075 DA0287=
0139008416999992015010808534+32900-117300FM-15+007099999V0200801N000519999999N009999199+01541+00781101921ADDMA1101931999999REMMET112MOBOB1 METAR XM22 //007 329173 080853Z AUTO 08001KT 9999 15/08 A3010      RMK A02 SLP192 T01540078 PA066 DA0281=
0138008416999992015010809534+32900-117300FM-15+007099999V0200901N001019999999N009999199+01501+00651999999ADDMA1101931999999REMMET111MOBOB1 METAR XM22 //007 329173 080953Z AUTO 09002KT 9999 15/07 A3010      RMK A02 SLPNO T01500065 PA066 DA0223=
0139008416999992015010810534+32900-117300FM-15+007099999V0200901N001019999999N009999199+01581+00601101891ADDMA1101901999999REMMET112MOBOB1 METAR XM22 //007 329173 081053Z AUTO 09002KT 9999 16/06 A3009      RMK A02 SLP189 T01580060 PA075 DA0324=
0139008416999992015010812534+32900-117300FM-15+007099999V0200901N002119999999N009999199+01631+00141101831ADDMA1101831999999REMMET112MOBOB1 METAR XM22 //007 329173 081253Z AUTO 09004KT 9999 16/01 A3007      RMK A02 SLP183 T01630014 PA094 DA0373=
0139008416999992015010813534+32900-117300FM-15+007099999V0200901N000519999999N009999199+01601+00071101891ADDMA1101901999999REMMET112MOBOB1 METAR XM22 //007 329173 081353Z AUTO 09001KT 9999 16/01 A3009      RMK A02 SLP189 T01600007 PA075 DA0310=
0139008416999992015010815534+32900-117300FM-15+007099999V0201001N001019999999N009999199+01611+00201102041ADDMA1102031999999REMMET112MOBOB1 METAR XM22 //007 329173 081553Z AUTO 10002KT 9999 16/02 A3013      RMK A02 SLP204 T01610020 PA038 DA0284=
0139008416999992015010816534+32900-117300FM-15+007099999V0201001N001519999999N009999199+01621+00311102071ADDMA1102071999999REMMET112MOBOB1 METAR XM22 //007 329173 081653Z AUTO 10003KT 9999 16/03 A3014      RMK A02 SLP207 T01620031 PA029 DA0292=
0139008416999992015010817534+32900-117300FM-15+007099999V0201601N000519999999N009999199+01971+00421102031ADDMA1102031999999REMMET112MOBOB1 METAR XM22 //007 329173 081753Z AUTO 16001KT 9999 20/04 A3013      RMK A02 SLP203 T01970042 PA038 DA0720=
0139008416999992015010818534+32900-117300FM-15+007099999V0201801N000519999999N009999199+02251+00131101921ADDMA1101931999999REMMET112MOBOB1 METAR XM22 //007 329173 081853Z AUTO 18001KT 9999 23/01 A3010      RMK A02 SLP192 T02250013 PA066 DA1058=
0139008416999992015010819534+32900-117300FM-15+007099999V0201301N000519999999N009999199+02101+00971101821ADDMA1101831999999REMMET112MOBOB1 METAR XM22 //007 329173 081953Z AUTO 13001KT 9999 21/10 A3007      RMK A02 SLP182 T02100097 PA094 DA0988=
0139008416999992015010820534+32900-117300FM-15+007099999V0202601N000519999999N009999199+02161+01141101751ADDMA1101761999999REMMET112MOBOB1 METAR XM22 //007 329173 082053Z AUTO 26001KT 9999 22/11 A3005      RMK A02 SLP175 T02160114 PA112 DA1098=
0138008416999992015010823534+32900-117300FM-15+007099999V0202401N000519999999N009999199+02021+01341999999ADDMA1101861999999REMMET111MOBOB1 METAR XM22 //007 329173 082353Z AUTO 24001KT 9999 20/13 A3008      RMK A02 SLPNO T02020134 PA084 DA0926=
0139008416999992015010901534+32900-117300FM-15+007099999V0201001N000519999999N009999199+01621+01331101791ADDMA1101791999999REMMET112MOBOB1 METAR XM22 //007 329173 090153Z AUTO 10001KT 9999 16/13 A3006      RMK A02 SLP179 T01620133 PA103 DA0481=
0139008416999992015010902534+32900-117300FM-15+007099999V0201001N001019999999N009999199+01611+01231101791ADDMA1101791999999REMMET112MOBOB1 METAR XM22 //007 329173 090253Z AUTO 10002KT 9999 16/12 A3006      RMK A02 SLP179 T01610123 PA103 DA0457=
0139008416999992015010903534+32900-117300FM-15+007099999V0209999C000019999999N009999199+01571+01261101831ADDMA1101831999999REMMET112MOBOB1 METAR XM22 //007 329173 090353Z AUTO 00000KT 9999 16/13 A3007      RMK A02 SLP183 T01570126 PA094 DA0402=
0139008416999992015010905534+32900-117300FM-15+007099999V0209999C000019999999N009999199+01551+01341101761ADDMA1101761999999REMMET112MOBOB1 METAR XM22 //007 329173 090553Z AUTO 00000KT 9999 16/13 A3005      RMK A02 SLP176 T01550134 PA112 DA0411=
0139008416999992015010906534+32900-117300FM-15+007099999V0209999C000019999999N009999199+01541+01351101751ADDMA1101761999999REMMET112MOBOB1 METAR XM22 //007 329173 090653Z AUTO 00000KT 9999 15/14 A3005      RMK A02 SLP175 T01540135 PA112 DA0401=
0139008416999992015010907534+32900-117300FM-15+007099999V0201001N000519999999N009999199+01551+01371101721ADDMA1101731999999REMMET112MOBOB1 METAR XM22 //007 329173 090753Z AUTO 10001KT 9999 16/14 A3004      RMK A02 SLP172 T01550137 PA122 DA0427=
0148008416999992015010908544+32900-117300FM-15+007099999V0200901N001019999999N006000199+01501+01291101721ADDAW1101MA1101731999999REMMET115MOBOB1 METAR XM22 //007 329173 090854Z AUTO 09002KT 6000 BR 15/13 A3004      RMK A02 SLP172 T01500129 PA122 DA0358=
0139008416999992015010909534+32900-117300FM-15+007099999V0209999C000019999999N009999199+01501+01211101721ADDMA1101731999999REMMET112MOBOB1 METAR XM22 //007 329173 090953Z AUTO 00000KT 9999 15/12 A3004      RMK A02 SLP172 T01500121 PA122 DA0348=
0148008416999992015010910534+32900-117300FM-15+007099999V0200901N001019999999N009000199+01501+01281101691ADDAW1101MA1101691999999REMMET115MOBOB1 METAR XM22 //007 329173 091053Z AUTO 09002KT 9000 BR 15/13 A3003      RMK A02 SLP169 T01500128 PA131 DA0368=
0139008416999992015010911534+32900-117300FM-15+007099999V0201001N000519999999N009999199+01501+01271101691ADDMA1101691999999REMMET112MOBOB1 METAR XM22 //007 329173 091153Z AUTO 10001KT 9999 15/13 A3003      RMK A02 SLP169 T01500127 PA131 DA0366=
0139008416999992015010912534+32900-117300FM-15+007099999V0200901N000519999999N009999199+01501+01301101691ADDMA1101691999999REMMET112MOBOB1 METAR XM22 //007 329173 091253Z AUTO 09001KT 9999 15/13 A3003      RMK A02 SLP169 T01500130 PA131 DA0371=
0166008416999992015010913534+32900-117300FM-15+007099999V0200801N000519999999N009000199+01481+01061101731ADDAA101000021AW1611MA1101731999999REMMET122MOBOB1 METAR XM22 //007 329173 091353Z AUTO 08001KT 9000 -RA 15/11      A3004 RMK A02 SLP173 P0000 T01480106 PA122 DA0307=
0139008416999992015010915534+32900-117300FM-15+007099999V0209999C000019999999N009999199+01511+01141101871ADDMA1101861999999REMMET112MOBOB1 METAR XM22 //007 329173 091553Z AUTO 00000KT 9999 15/11 A3008      RMK A02 SLP187 T01510114 PA084 DA0306=
0139008416999992015010916534+32900-117300FM-15+007099999V0209999C000019999999N009999199+01611+01331101931ADDMA1101931999999REMMET112MOBOB1 METAR XM22 //007 329173 091653Z AUTO 00000KT 9999 16/13 A3010      RMK A02 SLP193 T01610133 PA066 DA0423=
0148008416999992015010917534+32900-117300FM-15+007099999V0202501N000519999999N009000199+01761+01331101931ADDAW1051MA1101931999999REMMET115MOBOB1 METAR XM22 //007 329173 091753Z AUTO 25001KT 9000 HZ 18/13 A3010      RMK A02 SLP193 T01760133 PA066 DA0600=
0139008416999992015010918534+32900-117300FM-15+007099999V0209999C000019999999N009999199+01751+01391101861ADDMA1101861999999REMMET112MOBOB1 METAR XM22 //007 329173 091853Z AUTO 00000KT 9999 18/14 A3008      RMK A02 SLP186 T01750139 PA084 DA0619=
0139008416999992015010919534+32900-117300FM-15+007099999V0209999C000019999999N009999199+01751+01381101761ADDMA1101761999999REMMET112MOBOB1 METAR XM22 //007 329173 091953Z AUTO 00000KT 9999 18/14 A3005      RMK A02 SLP176 T01750138 PA112 DA0652=
0139008416999992015010920534+32900-117300FM-15+007099999V0202501N000519999999N009999199+01771+01381101721ADDMA1101731999999REMMET112MOBOB1 METAR XM22 //007 329173 092053Z AUTO 25001KT 9999 18/14 A3004      RMK A02 SLP172 T01770138 PA122 DA0687=
0139008416999992015010921534+32900-117300FM-15+007099999V0202501N000519999999N009999199+01711+01381101691ADDMA1101691999999REMMET112MOBOB1 METAR XM22 //007 329173 092153Z AUTO 25001KT 9999 17/14 A3003      RMK A02 SLP169 T01710138 PA131 DA0628=
0139008416999992015010922534+32900-117300FM-15+007099999V0209999C000019999999N009999199+01811+01391101721ADDMA1101731999999REMMET112MOBOB1 METAR XM22 //007 329173 092253Z AUTO 00000KT 9999 18/14 A3004      RMK A02 SLP172 T01810139 PA122 DA0734=
0139008416999992015010923534+32900-117300FM-15+007099999V0202601N000519999999N009999199+01791+01321101691ADDMA1101691999999REMMET112MOBOB1 METAR XM22 //007 329173 092353Z AUTO 26001KT 9999 18/13 A3003      RMK A02 SLP169 T01790132 PA131 DA0713=
0139008416999992015011000534+32900-117300FM-15+007099999V0209999C000019999999N009999199+01751+01381101761ADDMA1101761999999REMMET112MOBOB1 METAR XM22 //007 329173 100053Z AUTO 00000KT 9999 18/14 A3005      RMK A02 SLP176 T01750138 PA112 DA0652=
0139008416999992015011001534+32900-117300FM-15+007099999V0209999C000019999999N009999199+01551+01341101761ADDMA1101761999999REMMET112MOBOB1 METAR XM22 //007 329173 100153Z AUTO 00000KT 9999 16/13 A3005      RMK A02 SLP176 T01550134 PA112 DA0412=
0148008416999992015011002534+32900-117300FM-15+007099999V0200801N000519999999N009000199+01471+01301101801ADDAW1101MA1101791999999REMMET115MOBOB1 METAR XM22 //007 329173 100253Z AUTO 08001KT 9000 BR 15/13 A3006      RMK A02 SLP180 T01470130 PA103 DA0301=
0148008416999992015011003534+32900-117300FM-15+007099999V0200901N000519999999N007000199+01451+01291101801ADDAW1101MA1101791999999REMMET115MOBOB1 METAR XM22 //007 329173 100353Z AUTO 09001KT 7000 BR 15/13 A3006      RMK A02 SLP180 T01450129 PA103 DA0275=
0148008416999992015011005534+32900-117300FM-15+007099999V0200901N001019999999N008000199+01401+01231101801ADDAW1101MA1101791999999REMMET115MOBOB1 METAR XM22 //007 329173 100553Z AUTO 09002KT 8000 BR 14/12 A3006      RMK A02 SLP180 T01400123 PA103 DA0209=
0148008416999992015011006534+32900-117300FM-15+007099999V0209999C000019999999N005000199+01411+01261101801ADDAW1101MA1101791999999REMMET115MOBOB1 METAR XM22 //007 329173 100653Z AUTO 00000KT 5000 BR 14/13 A3006      RMK A02 SLP180 T01410126 PA103 DA0225=
0148008416999992015011007534+32900-117300FM-15+007099999V0200901N001519999999N000800199+01301+01171101761ADDAW1301MA1101761999999REMMET115MOBOB1 METAR XM22 //007 329173 100753Z AUTO 09003KT 0800 FG 13/12 A3005      RMK A02 SLP176 T01300117 PA112 DA0094=
0148008416999992015011008534+32900-117300FM-15+007099999V0201001N003119999999N000800199+01251+01141101701ADDAW1301MA1101691999999REMMET115MOBOB1 METAR XM22 //007 329173 100853Z AUTO 10006KT 0800 FG 13/11 A3003      RMK A02 SLP170 T01250114 PA131 DA0054=
0139008416999992015011010534+32900-117300FM-15+007099999V0201201N001019999999N009999199+01291+01061101731ADDMA1101731999999REMMET112MOBOB1 METAR XM22 //007 329173 101053Z AUTO 12002KT 9999 13/11 A3004      RMK A02 SLP173 T01290106 PA122 DA0082=
0139008416999992015011011534+32900-117300FM-15+007099999V0200901N000519999999N009999199+01261+00981101701ADDMA1101691999999REMMET112MOBOB1 METAR XM22 //007 329173 101153Z AUTO 09001KT 9999 13/10 A3003      RMK A02 SLP170 T01260098 PA131 DA0049=
0139008416999992015011014534+32900-117300FM-15+007099999V0201001N001519999999N009999199+01301+00641101701ADDMA1101691999999REMMET112MOBOB1 METAR XM22 //007 329173 101453Z AUTO 10003KT 9999 13/06 A3003      RMK A02 SLP170 T01300064 PA131 DA0064=
0139008416999992015011015534+32900-117300FM-15+007099999V0209999C000019999999N009999199+01411+00791101771ADDMA1101761999999REMMET112MOBOB1 METAR XM22 //007 329173 101553Z AUTO 00000KT 9999 14/08 A3005      RMK A02 SLP177 T01410079 PA112 DA0186=
0139008416999992015011016534+32900-117300FM-15+007099999V0202601N000519999999N009999199+01671+00841101871ADDMA1101861999999REMMET112MOBOB1 METAR XM22 //007 329173 101653Z AUTO 26001KT 9999 17/08 A3008      RMK A02 SLP187 T01670084 PA084 DA0463=
0139008416999992015011019534+32900-117300FM-15+007099999V0202601N000519999999N009999199+01981+01031101691ADDMA1101691999999REMMET112MOBOB1 METAR XM22 //007 329173 101953Z AUTO 26001KT 9999 20/10 A3003      RMK A02 SLP169 T01980103 PA131 DA0901=
0139008416999992015011020534+32900-117300FM-15+007099999V0202601N000519999999N009999199+01971+00911101621ADDMA1101631999999REMMET112MOBOB1 METAR XM22 //007 329173 102053Z AUTO 26001KT 9999 20/09 A3001      RMK A02 SLP162 T01970091 PA149 DA0900=
0148008416999992015011022534+32900-117300FM-15+007099999V0202401N000519999999N009000199+01911+01251101591ADDAW1051MA1101591999999REMMET115MOBOB1 METAR XM22 //007 329173 102253Z AUTO 24001KT 9000 HZ 19/12 A3000      RMK A02 SLP159 T01910125 PA159 DA0879=
0139008416999992015011023534+32900-117300FM-15+007099999V0202601N000519999999N009999199+01771+01081101631ADDMA1101631999999REMMET112MOBOB1 METAR XM22 //007 329173 102353Z AUTO 26001KT 9999 18/11 A3001      RMK A02 SLP163 T01770108 PA149 DA0684=
0139008416999992015011100534+32900-117300FM-15+007099999V0202701N000519999999N009999199+01681+01131101631ADDMA1101631999999REMMET112MOBOB1 METAR XM22 //007 329173 110053Z AUTO 27001KT 9999 17/11 A3001      RMK A02 SLP163 T01680113 PA149 DA0585=
0139008416999992015011102534+32900-117300FM-15+007099999V0209999C000019999999N009999199+01611+01171101701ADDMA1101691999999REMMET112MOBOB1 METAR XM22 //007 329173 110253Z AUTO 00000KT 9999 16/12 A3003      RMK A02 SLP170 T01610117 PA131 DA0484=
0139008416999992015011103534+32900-117300FM-15+007099999V0209999C000019999999N009999199+01591+01131101701ADDMA1101691999999REMMET112MOBOB1 METAR XM22 //007 329173 110353Z AUTO 00000KT 9999 16/11 A3003      RMK A02 SLP170 T01590113 PA131 DA0456=
0139008416999992015011104534+32900-117300FM-15+007099999V0201101N000519999999N009999199+01581+01081101761ADDMA1101761999999REMMET112MOBOB1 METAR XM22 //007 329173 110453Z AUTO 11001KT 9999 16/11 A3005      RMK A02 SLP176 T01580108 PA112 DA0416=
0139008416999992015011106534+32900-117300FM-15+007099999V0201201N000519999999N009999199+01551+01211101721ADDMA1101731999999REMMET112MOBOB1 METAR XM22 //007 329173 110653Z AUTO 12001KT 9999 16/12 A3004      RMK A02 SLP172 T01550121 PA122 DA0408=
0139008416999992015011107534+32900-117300FM-15+007099999V0201201N000519999999N009999199+01581+01221101721ADDMA1101731999999REMMET112MOBOB1 METAR XM22 //007 329173 110753Z AUTO 12001KT 9999 16/12 A3004      RMK A02 SLP172 T01580122 PA122 DA0443=
0139008416999992015011108534+32900-117300FM-15+007099999V0201001N000519999999N009999199+01581+00861101691ADDMA1101691999999REMMET112MOBOB1 METAR XM22 //007 329173 110853Z AUTO 10001KT 9999 16/09 A3003      RMK A02 SLP169 T01580086 PA131 DA0416=
0139008416999992015011109534+32900-117300FM-15+007099999V0209999C000019999999N009999199+01511+01231101721ADDMA1101731999999REMMET112MOBOB1 METAR XM22 //007 329173 110953Z AUTO 00000KT 9999 15/12 A3004      RMK A02 SLP172 T01510123 PA122 DA0362=
0166008416999992015011110534+32900-117300FM-15+007099999V0201201N000519999999N006000199+01421+01191101691ADDAA101000021AW1611MA1101691999999REMMET122MOBOB1 METAR XM22 //007 329173 111053Z AUTO 12001KT 6000 -RA 14/12      A3003 RMK A02 SLP169 P0000 T01420119 PA131 DA0263=
0139008416999992015011111534+32900-117300FM-15+007099999V0201201N001019999999N009999199+01481+01221101661ADDMA1101661999999REMMET112MOBOB1 METAR XM22 //007 329173 111153Z AUTO 12002KT 9999 15/12 A3002      RMK A02 SLP166 T01480122 PA140 DA0349=
0139008416999992015011112534+32900-117300FM-15+007099999V0209999C000019999999N009999199+01501+01221101661ADDMA1101661999999REMMET112MOBOB1 METAR XM22 //007 329173 111253Z AUTO 00000KT 9999 15/12 A3002      RMK A02 SLP166 T01500122 PA140 DA0372=
0148008416999992015011113534+32900-117300FM-15+007099999V0201601N001019999999N007000199+01431+01221101731ADDAW1101MA1101731999999REMMET115MOBOB1 METAR XM22 //007 329173 111353Z AUTO 16002KT 7000 BR 14/12 A3004      RMK A02 SLP173 T01430122 PA122 DA0266=
0148008416999992015011114534+32900-117300FM-15+007099999V0201101N000519999999N002800199+01351+01191101761ADDAW1101MA1101761999999REMMET115MOBOB1 METAR XM22 //007 329173 111453Z AUTO 11001KT 2800 BR 14/12 A3005      RMK A02 SLP176 T01350119 PA112 DA0156=
0139008416999992015011115534+32900-117300FM-15+007099999V0200801N002119999999N009999199+01351+01171101831ADDMA1101831999999REMMET112MOBOB1 METAR XM22 //007 329173 111553Z AUTO 08004KT 9999 14/12 A3007      RMK A02 SLP183 T01350117 PA094 DA0131=
0139008416999992015011116534+32900-117300FM-15+007099999V0200901N001519999999N009999199+01401+01211101901ADDMA1101901999999REMMET112MOBOB1 METAR XM22 //007 329173 111653Z AUTO 09003KT 9999 14/12 A3009      RMK A02 SLP190 T01400121 PA075 DA0172=
0139008416999992015011117534+32900-117300FM-15+007099999V0200901N001519999999N009999199+01441+01251101931ADDMA1101931999999REMMET112MOBOB1 METAR XM22 //007 329173 111753Z AUTO 09003KT 9999 14/12 A3010      RMK A02 SLP193 T01440125 PA066 DA0213=
0148008416999992015011118534+32900-117300FM-15+007099999V0202701N000519999999N001600199+01491+01321101901ADDAW1101MA1101901999999REMMET115MOBOB1 METAR XM22 //007 329173 111853Z AUTO 27001KT 1600 BR 15/13 A3009      RMK A02 SLP190 T01490132 PA075 DA0292=
0175008416999992015011119534+32900-117300FM-15+007099999V0200301N001019999999N001600199+01471+01321101831ADDAA101000021AW1101AW2611MA1101831999999REMMET125MOBOB1 METAR XM22 //007 329173 111953Z AUTO 03002KT 1600 -RA BR 15/13      A3007 RMK A02 SLP183 P0000 T01470132 PA094 DA0292=
0148008416999992015011120534+32900-117300FM-15+007099999V0202601N000519999999N003200199+01511+01371101761ADDAW1101MA1101761999999REMMET115MOBOB1 METAR XM22 //007 329173 112053Z AUTO 26001KT 3200 BR 15/14 A3005      RMK A02 SLP176 T01510137 PA112 DA0368=
0148008416999992015011121534+32900-117300FM-15+007099999V0209999C000019999999N006000199+01511+01351101761ADDAW1101MA1101761999999REMMET115MOBOB1 METAR XM22 //007 329173 112153Z AUTO 00000KT 6000 BR 15/13 A3005      RMK A02 SLP176 T01510135 PA112 DA0366=
0148008416999992015011122534+32900-117300FM-15+007099999V0202501N000519999999N003200199+01521+01371101761ADDAW1101MA1101761999999REMMET115MOBOB1 METAR XM22 //007 329173 112253Z AUTO 25001KT 3200 BR 15/14 A3005      RMK A02 SLP176 T01520137 PA112 DA0380=
0139008416999992015011200534+32900-117300FM-15+007099999V0202801N000519999999N009999199+01531+01351101831ADDMA1101831999999REMMET112MOBOB1 METAR XM22 //007 329173 120053Z AUTO 28001KT 9999 15/13 A3007      RMK A02 SLP183 T01530135 PA094 DA0366=
0139008416999992015011201534+32900-117300FM-15+007099999V0209999C000019999999N009999199+01491+01301101901ADDMA1101901999999REMMET112MOBOB1 METAR XM22 //007 329173 120153Z AUTO 00000KT 9999 15/13 A3009      RMK A02 SLP190 T01490130 PA075 DA0290=
0148008416999992015011202534+32900-117300FM-15+007099999V0209999C000019999999N009000199+01481+01321101901ADDAW1101MA1101901999999REMMET115MOBOB1 METAR XM22 //007 329173 120253Z AUTO 00000KT 9000 BR 15/13 A3009      RMK A02 SLP190 T01480132 PA075 DA0280=
0139008416999992015011203534+32900-117300FM-15+007099999V0209999C000019999999N009999199+01471+01311101971ADDMA1101961999999REMMET112MOBOB1 METAR XM22 //007 329173 120353Z AUTO 00000KT 9999 15/13 A3011      RMK A02 SLP197 T01470131 PA057 DA0245=
0139008416999992015011205534+32900-117300FM-15+007099999V0200901N000519999999N009999199+01491+01331102111ADDMA1102101999999REMMET112MOBOB1 METAR XM22 //007 329173 120553Z AUTO 09001KT 9999 15/13 A3015      RMK A02 SLP211 T01490133 PA020 DA0225=
0139008416999992015011206534+32900-117300FM-15+007099999V0200901N000519999999N009999199+01511+01331102101ADDMA1102101999999REMMET112MOBOB1 METAR XM22 //007 329173 120653Z AUTO 09001KT 9999 15/13 A3015      RMK A02 SLP210 T01510133 PA020 DA0249=
0139008416999992015011207534+32900-117300FM-15+007099999V0201001N000519999999N009999199+01521+01341102101ADDMA1102101999999REMMET112MOBOB1 METAR XM22 //007 329173 120753Z AUTO 10001KT 9999 15/13 A3015      RMK A02 SLP210 T01520134 PA020 DA0261=
0139008416999992015011208534+32900-117300FM-15+007099999V0201501N000519999999N009999199+01511+01371102101ADDMA1102101999999REMMET112MOBOB1 METAR XM22 //007 329173 120853Z AUTO 15001KT 9999 15/14 A3015      RMK A02 SLP210 T01510137 PA020 DA0253=
0175008416999992015011209534+32900-117300FM-15+007099999V0209999C000019999999N004000199+01471+01341102171ADDAA101000021AW1101AW2611MA1102171999999REMMET125MOBOB1 METAR XM22 //007 329173 120953Z AUTO 00000KT 4000 -RA BR 15/13      A3017 RMK A02 SLP217 P0000 T01470134 PA001 DA0180=
0148008416999992015011210534+32900-117300FM-15+007099999V0209999C000019999999N002400199+01481+01361102171ADDAW1101MA1102171999999REMMET115MOBOB1 METAR XM22 //007 329173 121053Z AUTO 00000KT 2400 BR 15/14 A3017      RMK A02 SLP217 T01480136 PA001 DA0193=
0148008416999992015011211534+32900-117300FM-15+007099999V0200901N000519999999N009000199+01451+01311102141ADDAW1101MA1102131999999REMMET115MOBOB1 METAR XM22 //007 329173 121153Z AUTO 09001KT 9000 BR 15/13 A3016      RMK A02 SLP214 T01450131 PA010 DA0164=
0139008416999992015011213534+32900-117300FM-15+007099999V0201001N000519999999N009999199+01441+01301102211ADDMA1102201999999REMMET112MOBOB1 METAR XM22 //007 329173 121353Z AUTO 10001KT 9999 14/13 A3018      RMK A02 SLP221 T01440130 PA-08 DA0127=
0148008416999992015011214534+32900-117300FM-15+007099999V0200901N001019999999N009000199+01421+01291102241ADDAW1101MA1102231999999REMMET115MOBOB1 METAR XM22 //007 329173 121453Z AUTO 09002KT 9000 BR 14/13 A3019      RMK A02 SLP224 T01420129 PA-17 DA0091=
0148008416999992015011215534+32900-117300FM-15+007099999V0201001N001019999999N001200199+01411+01291102281ADDAW1101MA1102271999999REMMET115MOBOB1 METAR XM22 //007 329173 121553Z AUTO 10002KT 1200 BR 14/13 A3020      RMK A02 SLP228 T01410129 PA-27 DA0068=
0148008416999992015011216534+32900-117300FM-15+007099999V0201001N000519999999N009000199+01491+01331102341ADDAW1101MA1102341999999REMMET115MOBOB1 METAR XM22 //007 329173 121653Z AUTO 10001KT 9000 BR 15/13 A3022      RMK A02 SLP234 T01490133 PA-45 DA0144=
0139008416999992015011223064+32900-117300FM-15+007099999V0209999C000019999999N009999199+01911+01271102071ADDMA1102071999999REMMET112MOBOB1 METAR XM22 //007 329173 122306Z AUTO 00000KT 9999 19/13 A3014      RMK A02 SLP207 T01910127 PA029 DA0722=
0139008416999992015011223524+32900-117300FM-15+007099999V0209999C000019999999N009999199+01811+01281102101ADDMA1102101999999REMMET112MOBOB1 METAR XM22 //007 329173 122352Z AUTO 00000KT 9999 18/13 A3015      RMK A02 SLP210 T01810128 PA020 DA0595=
0138008416999992015061910064+11500+043200FM-15+003099999V0200801N001019999999N009999199+03941+02081999999ADDMA1100411999999REMMET111MOBOB3 METAR XM22 //003 115432 191006Z AUTO 08002KT 9999 39/21 A2965      RMK A02 SLPNO T03940208 PA345 DA3497=
0138008416999992015061910554+11500+043200FM-15+003099999V0200901N000519999999N009999199+03971+02121999999ADDMA1100301999999REMMET111MOBOB3 METAR XM22 //003 115432 191055Z AUTO 09001KT 9999 40/21 A2962      RMK A02 SLPNO T03970212 PA364 DA3558=
0138008416999992015061911524+11500+043200FM-15+003099999V0200701N000519999999N009999199+03741+02431999999ADDMA1100171999999REMMET111MOBOB3 METAR XM22 //003 115432 191152Z AUTO 07001KT 9999 37/24 A2958      RMK A02 SLPNO T03740243 PA392 DA3413=
0147008416999992015061912524+11500+043200FM-15+002099999V0200801N001019999999N009000199+03571+02471999999ADDAW1051MA1100201999999REMMET114MOBOB3 METAR XM22 //002 115432 191252Z AUTO 08002KT 9000 HZ 36/25 A2959      RMK A02 SLPNO T03570247 PA382 DA3228=
0138008416999992015061913524+11500+043200FM-15+002099999V0200701N001019999999N009999199+03571+02241999999ADDMA1100241999999REMMET111MOBOB3 METAR XM22 //002 115432 191352Z AUTO 07002KT 9999 36/22 A2960      RMK A02 SLPNO T03570224 PA373 DA3166=
0138008416999992015061914524+11500+043200FM-15+002099999V0200701N000519999999N009999199+03521+02301999999ADDMA1100301999999REMMET111MOBOB3 METAR XM22 //002 115432 191452Z AUTO 07001KT 9999 35/23 A2962      RMK A02 SLPNO T03520230 PA354 DA3100=
0138008416999992015062115044-02200+040900FM-15+002099999V0201801N003619999999N009999199+02641+02041999999ADDMA1101661999999REMMET111MOBOB8 METAR XM22 //002 022409 211504Z AUTO 18007KT 9999 26/20 A3002      RMK A02 SLPNO T02640204 PA-17 DA1618=
0138008416999992015062115524-02200+040900FM-15+002099999V0201701N003119999999N009999199+02611+02081999999ADDMA1101661999999REMMET111MOBOB8 METAR XM22 //002 022409 211552Z AUTO 17006KT 9999 26/21 A3002      RMK A02 SLPNO T02610208 PA-17 DA1592=
0149008416999992015062116524-02200+040900FM-15+002099999V0201801N003619999999N009999199+02611+02081999999ADDMA1101691999999OC100721REMMET114MOBOB8 METAR XM22 //002 022409 211652Z AUTO 18007G14KT 9999 26/21 A3003      RMK A02 SLPNO T02610208 PA-27 DA1580=
0149008416999992015062117524-02200+040900FM-15+002099999V0201701N004119999999N009999199+02621+02091999999ADDMA1101731999999OC100821REMMET114MOBOB8 METAR XM22 //002 022409 211752Z AUTO 17008G16KT 9999 26/21 A3004      RMK A02 SLPNO T02620209 PA-36 DA1582=
0138008416999992015062118524-02200+040900FM-15+002099999V0201801N003619999999N009999199+02621+02111999999ADDMA1101761999999REMMET111MOBOB8 METAR XM22 //002 022409 211852Z AUTO 18007KT 9999 26/21 A3005      RMK A02 SLPNO T02620211 PA-45 DA1575=
0138008416999992015062119524-02200+040900FM-15+002099999V0201701N003119999999N009999199+02621+02171999999ADDMA1101761999999REMMET111MOBOB8 METAR XM22 //002 022409 211952Z AUTO 17006KT 9999 26/22 A3005      RMK A02 SLPNO T02620217 PA-45 DA1587=
0149008416999992015062120524-02200+040900FM-15+002099999V0201701N004119999999N009999199+02621+02111999999ADDMA1101691999999OC100881REMMET114MOBOB8 METAR XM22 //002 022409 212052Z AUTO 17008G17KT 9999 26/21 A3003      RMK A02 SLPNO T02620211 PA-27 DA1598=
0138008416999992015062121524-02200+040900FM-15+002099999V0201801N003119999999N009999199+02611+02131999999ADDMA1101661999999REMMET111MOBOB8 METAR XM22 //002 022409 212152Z AUTO 18006KT 9999 26/21 A3002      RMK A02 SLPNO T02610213 PA-17 DA1602=
0138008416999992015062122524-02200+040900FM-15+002099999V0201701N002619999999N009999199+02541+02051999999ADDMA1101591999999REMMET111MOBOB8 METAR XM22 //002 022409 212252Z AUTO 17005KT 9999 25/21 A3000      RMK A02 SLPNO T02540205 PA001 DA1531=
0138008416999992015062123524-02200+040900FM-15+002099999V0201801N003119999999N009999199+02561+02211999999ADDMA1101631999999REMMET111MOBOB8 METAR XM22 //002 022409 212352Z AUTO 18006KT 9999 26/22 A3001      RMK A02 SLPNO T02560221 PA-08 DA1572=
0138008416999992015062200524-02200+040900FM-15+002099999V0201801N002119999999N009999199+02541+02251999999ADDMA1101661999999REMMET111MOBOB8 METAR XM22 //002 022409 220052Z AUTO 18004KT 9999 25/22 A3002      RMK A02 SLPNO T02540225 PA-17 DA1547=
0138008416999992015062201524-02200+040900FM-15+002099999V0201801N002619999999N009999199+02571+02201999999ADDMA1101691999999REMMET111MOBOB8 METAR XM22 //002 022409 220152Z AUTO 18005KT 9999 26/22 A3003      RMK A02 SLPNO T02570220 PA-27 DA1559=
0138008416999992015062202524-02200+040900FM-15+002099999V0201801N002119999999N009999199+02531+02181999999ADDMA1101731999999REMMET111MOBOB8 METAR XM22 //002 022409 220252Z AUTO 18004KT 9999 25/22 A3004      RMK A02 SLPNO T02530218 PA-36 DA1498=
0139008416999992015062203524-02200+040900FM-15+002099999V0201801N002619999999N009999199+02601+02181101761ADDMA1101761999999REMMET112MOBOB8 METAR XM22 //002 022409 220352Z AUTO 18005KT 9999 26/22 A3005      RMK A02 SLP176 T02600218 PA-45 DA1566=
0139008416999992015062204524-02200+040900FM-15+002099999V0201801N003619999999N009999199+02671+02101101861ADDMA1101861999999REMMET112MOBOB8 METAR XM22 //002 022409 220452Z AUTO 18007KT 9999 27/21 A3008      RMK A02 SLP186 T02670210 PA-73 DA1596=
0166008416999992015062205524-02200+040900FM-15+002099999V0201701N002119999999N009000199+02441+02271101891ADDAA101003031AW1611MA1101901999999REMMET122MOBOB8 METAR XM22 //002 022409 220552Z AUTO 17004KT 9000 -RA 24/23      A3009 RMK A02 SLP189 P0012 T02440227 PA-82 DA1359=
0166008416999992015062206524-02200+040900FM-15+002099999V0201801N002619999999N009000199+02481+02181101931ADDAA101000731AW1611MA1101931999999REMMET122MOBOB8 METAR XM22 //002 022409 220652Z AUTO 18005KT 9000 -RA 25/22      A3010 RMK A02 SLP193 P0003 T02480218 PA-91 DA1374=
0150008416999992015062207524-02200+040900FM-15+002099999V0201701N003619999999N009999199+02671+02291101891ADDMA1101901999999OC100621REMMET115MOBOB8 METAR XM22 //002 022409 220752Z AUTO 17007G12KT 9999 27/23 A3009      RMK A02 SLP189 T02670229 PA-82 DA1622=
0166008416999992015062208524-02200+040900FM-15+002099999V0201701N002619999999N007000199+02491+02251101821ADDAA101000731AW1611MA1101831999999REMMET122MOBOB8 METAR XM22 //002 022409 220852Z AUTO 17005KT 7000 -RA 25/22      A3007 RMK A02 SLP182 P0003 T02490225 PA-64 DA1433=
0150008416999992015062209524-02200+040900FM-15+002099999V0201701N004619999999N009999199+02801+02321101761ADDMA1101761999999OC100881REMMET115MOBOB8 METAR XM22 //002 022409 220952Z AUTO 17009G17KT 9999 28/23 A3005      RMK A02 SLP176 T02800232 PA-45 DA1822=
0166008416999992015062210524-02200+040900FM-15+002099999V0201701N003619999999N009000199+02461+02051101761ADDAA101000021AW1611MA1101761999999REMMET122MOBOB8 METAR XM22 //002 022409 221052Z AUTO 17007KT 9000 -RA 25/21      A3005 RMK A02 SLP176 P0000 T02460205 PA-45 DA1383=
0166008416999992015062211524-02200+040900FM-15+002099999V0201701N002119999999N009000199+02511+02131101621ADDAA101000021AW1611MA1101631999999REMMET122MOBOB8 METAR XM22 //002 022409 221152Z AUTO 17004KT 9000 -RA 25/21      A3001 RMK A02 SLP162 P0000 T02510213 PA-08 DA1500=
0150008416999992015062212524-02200+040900FM-15+002099999V0201701N004119999999N009999199+02651+02141101591ADDMA1101591999999OC100721REMMET115MOBOB8 METAR XM22 //002 022409 221252Z AUTO 17008G14KT 9999 27/21 A3000      RMK A02 SLP159 T02650214 PA001 DA1671=
0139008416999992015062213524-02200+040900FM-15+002099999V0201701N003619999999N009999199+02681+02241101591ADDMA1101591999999REMMET112MOBOB8 METAR XM22 //002 022409 221352Z AUTO 17007KT 9999 27/22 A3000      RMK A02 SLP159 T02680224 PA001 DA1726=
0139008416999992015062214524-02200+040900FM-15+002099999V0201801N002619999999N009999199+02611+02221101621ADDMA1101631999999REMMET112MOBOB8 METAR XM22 //002 022409 221452Z AUTO 18005KT 9999 26/22 A3001      RMK A02 SLP162 T02610222 PA-08 DA1632=
0139008416999992015062215524-02200+040900FM-15+002099999V0201801N002119999999N009999199+02481+02171101661ADDMA1101661999999REMMET112MOBOB8 METAR XM22 //002 022409 221552Z AUTO 18004KT 9999 25/22 A3002      RMK A02 SLP166 T02480217 PA-17 DA1463=
0139008416999992015062216524-02200+040900FM-15+001099999V0201801N002619999999N009999199+02471+02191101471ADDMA1101461999999REMMET112MOBOB8 METAR XM22 //001 022409 221652Z AUTO 18005KT 9999 25/22 A2996      RMK A02 SLP147 T02470219 PA-27 DA1445=
0139008416999992015062217524-02200+040900FM-15+001099999V0201801N002119999999N009999199+02451+02131101511ADDMA1101491999999REMMET112MOBOB8 METAR XM22 //001 022409 221752Z AUTO 18004KT 9999 25/21 A2997      RMK A02 SLP151 T02450213 PA-36 DA1397=
0139008416999992015062218524-02200+040900FM-15+001099999V0201801N001519999999N009999199+02431+02131101511ADDMA1101491999999REMMET112MOBOB8 METAR XM22 //001 022409 221852Z AUTO 18003KT 9999 24/21 A2997      RMK A02 SLP151 T02430213 PA-36 DA1375=
0139008416999992015062219524-02200+040900FM-15+001099999V0201801N001019999999N009999199+02431+02181101541ADDMA1101521999999REMMET112MOBOB8 METAR XM22 //001 022409 221952Z AUTO 18002KT 9999 24/22 A2998      RMK A02 SLP154 T02430218 PA-45 DA1375=
0139008416999992015062220524-02200+040900FM-15+001099999V0209999C000019999999N009999199+02371+02151101511ADDMA1101491999999REMMET112MOBOB8 METAR XM22 //001 022409 222052Z AUTO 00000KT 9999 24/21 A2997      RMK A02 SLP151 T02370215 PA-36 DA1311=
0139008416999992015062221524-02200+040900FM-15+001099999V0209999C000019999999N009999199+02281+02121101471ADDMA1101461999999REMMET112MOBOB8 METAR XM22 //001 022409 222152Z AUTO 00000KT 9999 23/21 A2996      RMK A02 SLP147 T02280212 PA-27 DA1214=
0139008416999992015062222524-02200+040900FM-15+001099999V0209999C000019999999N009999199+02281+02131101441ADDMA1101421999999REMMET112MOBOB8 METAR XM22 //001 022409 222252Z AUTO 00000KT 9999 23/21 A2995      RMK A02 SLP144 T02280213 PA-17 DA1227=
0139008416999992015062223524-02200+040900FM-15+001099999V0201901N001019999999N009999199+02331+02191101401ADDMA1101391999999REMMET112MOBOB8 METAR XM22 //001 022409 222352Z AUTO 19002KT 9999 23/22 A2994      RMK A02 SLP140 T02330219 PA-08 DA1307=
0166008416999992015062300524-02200+040900FM-15+001099999V0201801N001019999999N009000199+02341+02181101441ADDAA101000021AW1611MA1101421999999REMMET122MOBOB8 METAR XM22 //001 022409 230052Z AUTO 18002KT 9000 -RA 23/22      A2995 RMK A02 SLP144 P0000 T02340218 PA-17 DA1307=
0139008416999992015062301524-02200+040900FM-15+001099999V0201801N001019999999N009999199+02321+02161101441ADDMA1101421999999REMMET112MOBOB8 METAR XM22 //001 022409 230152Z AUTO 18002KT 9999 23/22 A2995      RMK A02 SLP144 T02320216 PA-17 DA1280=
0175008416999992015062302524-02200+040900FM-15+001099999V0201701N002119999999N001000199+02331+02191101541ADDAA101001031AW1101AW2631MA1101521999999REMMET125MOBOB8 METAR XM22 //001 022409 230252Z AUTO 17004KT 1000 +RA BR 23/22      A2998 RMK A02 SLP154 P0004 T02330219 PA-45 DA1262=
0139008416999992015062303524-02200+040900FM-15+001099999V0201901N001519999999N009999199+02311+02141101571ADDMA1101561999999REMMET112MOBOB8 METAR XM22 //001 022409 230352Z AUTO 19003KT 9999 23/21 A2999      RMK A02 SLP157 T02310214 PA-54 DA1217=
0175008416999992015062304524-02200+040900FM-15+001099999V0201901N001019999999N006000199+02361+02211101641ADDAA101001731AW1101AW2611MA1101631999999REMMET125MOBOB8 METAR XM22 //001 022409 230452Z AUTO 19002KT 6000 -RA BR 24/22      A3001 RMK A02 SLP164 P0007 T02360221 PA-73 DA1266=
0175008416999992015062305524-02200+040900FM-15+001099999V0201801N001019999999N009000199+02371+02231101711ADDAA101006631AW1101AW2611MA1101691999999REMMET125MOBOB8 METAR XM22 //001 022409 230552Z AUTO 18002KT 9000 -RA BR 24/22      A3003 RMK A02 SLP171 P0026 T02370223 PA-91 DA1259=
0166008416999992015062306524-02200+040900FM-15+001099999V0201701N002619999999N009000199+02611+02211101711ADDAA101000021AW1611MA1101691999999REMMET122MOBOB8 METAR XM22 //001 022409 230652Z AUTO 17005KT 9000 -RA 26/22      A3003 RMK A02 SLP171 P0000 T02610221 PA-91 DA1527=
0139008416999992015062307524-02200+040900FM-15+001099999V0201801N002619999999N009999199+02711+02261101711ADDMA1101691999999REMMET112MOBOB8 METAR XM22 //001 022409 230752Z AUTO 18005KT 9999 27/23 A3003      RMK A02 SLP171 T02710226 PA-91 DA1651=
0166008416999992015062308524-02200+040900FM-15+001099999V0201801N002619999999N009000199+02771+02241101641ADDAA101000021AW1611MA1101631999999REMMET122MOBOB8 METAR XM22 //001 022409 230852Z AUTO 18005KT 9000 -RA 28/22      A3001 RMK A02 SLP164 P0000 T02770224 PA-73 DA1736=
0150008416999992015062309524-02200+040900FM-15+001099999V0201701N003619999999N009999199+02751+02271101571ADDMA1101561999999OC100671REMMET115MOBOB8 METAR XM22 //001 022409 230952Z AUTO 17007G13KT 9999 28/23 A2999      RMK A02 SLP157 T02750227 PA-54 DA1744=
0177008416999992015062310524-02200+040900FM-15+001099999V0201701N006219999999N009000199+02711+02041101541ADDAA101000021AW1631MA1101521999999OC101131REMMET125MOBOB8 METAR XM22 //001 022409 231052Z AUTO 17012G22KT 9000 +RA 27/20      A2998 RMK A02 SLP154 P0000 T02710204 PA-45 DA1663=
0150008416999992015062311524-02200+040900FM-15+001099999V0201701N003619999999N009999199+02711+02201101441ADDMA1101421999999OC100771REMMET115MOBOB8 METAR XM22 //001 022409 231152Z AUTO 17007G15KT 9999 27/22 A2995      RMK A02 SLP144 T02710220 PA-17 DA1729=
0150008416999992015062312524-02200+040900FM-15+001099999V0201701N004119999999N009999199+02751+02191101401ADDMA1101391999999OC100821REMMET115MOBOB8 METAR XM22 //001 022409 231252Z AUTO 17008G16KT 9999 28/22 A2994      RMK A02 SLP140 T02750219 PA-08 DA1783=
0150008416999992015062313524-02200+040900FM-15+001099999V0201701N005119999999N009999199+02711+02171101401ADDMA1101391999999OC100821REMMET115MOBOB8 METAR XM22 //001 022409 231352Z AUTO 17010G16KT 9999 27/22 A2994      RMK A02 SLP140 T02710217 PA-08 DA1734=
0150008416999992015062314524-02200+040900FM-15+001099999V0201701N003619999999N009999199+02631+02201101441ADDMA1101421999999OC100671REMMET115MOBOB8 METAR XM22 //001 022409 231452Z AUTO 17007G13KT 9999 26/22 A2995      RMK A02 SLP144 T02630220 PA-17 DA1638=
0139008416999992015062315524-02200+040900FM-15+001099999V0201701N003119999999N009999199+02561+02201101511ADDMA1101491999999REMMET112MOBOB8 METAR XM22 //001 022409 231552Z AUTO 17006KT 9999 26/22 A2997      RMK A02 SLP151 T02560220 PA-36 DA1536=
0139008416999992015062316524-02200+040900FM-15+001099999V0201801N001019999999N009999199+02451+02211101511ADDMA1101491999999REMMET112MOBOB8 METAR XM22 //001 022409 231652Z AUTO 18002KT 9999 25/22 A2997      RMK A02 SLP151 T02450221 PA-36 DA1413=
0166008416999992015062317524-02200+040900FM-15+001099999V0201701N002619999999N009000199+02481+02241101571ADDAA101000021AW1611MA1101561999999REMMET122MOBOB8 METAR XM22 //001 022409 231752Z AUTO 17005KT 9000 -RA 25/22      A2999 RMK A02 SLP157 P0000 T02480224 PA-54 DA1433=
0139008416999992015062318524-02200+040900FM-15+001099999V0201701N003119999999N009999199+02501+02211101611ADDMA1101591999999REMMET112MOBOB8 METAR XM22 //001 022409 231852Z AUTO 17006KT 9999 25/22 A3000      RMK A02 SLP161 T02500221 PA-64 DA1436=
0139008416999992015062319524-02200+040900FM-15+001099999V0201701N002619999999N009999199+02501+02231101611ADDMA1101591999999REMMET112MOBOB8 METAR XM22 //001 022409 231952Z AUTO 17005KT 9999 25/22 A3000      RMK A02 SLP161 T02500223 PA-64 DA1441=
0139008416999992015062320524-02200+040900FM-15+001099999V0201701N003119999999N009999199+02551+02221101571ADDMA1101561999999REMMET112MOBOB8 METAR XM22 //001 022409 232052Z AUTO 17006KT 9999 26/22 A2999      RMK A02 SLP157 T02550222 PA-54 DA1506=
0139008416999992015062321524-02200+040900FM-15+001099999V0201701N002119999999N009999199+02511+02191101571ADDMA1101561999999REMMET112MOBOB8 METAR XM22 //001 022409 232152Z AUTO 17004KT 9999 25/22 A2999      RMK A02 SLP157 T02510219 PA-54 DA1456=
0139008416999992015062322524-02200+040900FM-15+001099999V0201601N002119999999N009999199+02511+02221101511ADDMA1101491999999REMMET112MOBOB8 METAR XM22 //001 022409 232252Z AUTO 16004KT 9999 25/22 A2997      RMK A02 SLP151 T02510222 PA-36 DA1484=
0139008416999992015062323524-02200+040900FM-15+001099999V0201701N002119999999N009999199+02451+02151101511ADDMA1101491999999REMMET112MOBOB8 METAR XM22 //001 022409 232352Z AUTO 17004KT 9999 25/21 A2997      RMK A02 SLP151 T02450215 PA-36 DA1401=
0139008416999992015062400524-02200+040900FM-15+001099999V0201801N000519999999N009999199+02371+02151101541ADDMA1101521999999REMMET112MOBOB8 METAR XM22 //001 022409 240052Z AUTO 18001KT 9999 24/21 A2998      RMK A02 SLP154 T02370215 PA-45 DA1299=
0139008416999992015062401524-02200+040900FM-15+001099999V0201601N001519999999N009999199+02451+02191101571ADDMA1101561999999REMMET112MOBOB8 METAR XM22 //001 022409 240152Z AUTO 16003KT 9999 25/22 A2999      RMK A02 SLP157 T02450219 PA-54 DA1388=
0139008416999992015062402524-02200+040900FM-15+001099999V0201801N001519999999N009999199+02411+02121101611ADDMA1101591999999REMMET112MOBOB8 METAR XM22 //001 022409 240252Z AUTO 18003KT 9999 24/21 A3000      RMK A02 SLP161 T02410212 PA-64 DA1316=
0139008416999992015062403524-02200+040900FM-15+001099999V0201601N001519999999N009999199+02431+02111101681ADDMA1101661999999REMMET112MOBOB8 METAR XM22 //001 022409 240352Z AUTO 16003KT 9999 24/21 A3002      RMK A02 SLP168 T02430211 PA-82 DA1314=
0139008416999992015062404524-02200+040900FM-15+001099999V0201601N003619999999N009999199+02651+02161101711ADDMA1101691999999REMMET112MOBOB8 METAR XM22 //001 022409 240452Z AUTO 16007KT 9999 27/22 A3003      RMK A02 SLP171 T02650216 PA-91 DA1562=
0151008416999992015062405524-02200+040900FM-15+001099999V0201601N005119999999N009999199+02761+02141101781ADDMA1101761999999OC100721REMMET116MOBOB8 METAR XM22 //001 022409 240552Z AUTO 16010G14KT 9999 28/21 A3005      RMK A02 SLP178 T02760214 PA-110 DA1659=
0151008416999992015062406524-02200+040900FM-15+001099999V0201701N004619999999N009999199+02811+02111101781ADDMA1101761999999OC100931REMMET116MOBOB8 METAR XM22 //001 022409 240652Z AUTO 17009G18KT 9999 28/21 A3005      RMK A02 SLP178 T02810211 PA-110 DA1709=
0151008416999992015062407524-02200+040900FM-15+001099999V0201601N005719999999N009999199+02831+02081101781ADDMA1101761999999OC100931REMMET116MOBOB8 METAR XM22 //001 022409 240752Z AUTO 16011G18KT 9999 28/21 A3005      RMK A02 SLP178 T02830208 PA-110 DA1726=
0150008416999992015062408524-02200+040900FM-15+001099999V0201601N006219999999N009999199+02841+02091101671ADDMA1101661999999OC101081REMMET115MOBOB8 METAR XM22 //001 022409 240852Z AUTO 16012G21KT 9999 28/21 A3002      RMK A02 SLP167 T02840209 PA-82 DA1774=
0150008416999992015062409524-02200+040900FM-15+001099999V0201601N005719999999N009999199+02851+02131101611ADDMA1101591999999OC101081REMMET115MOBOB8 METAR XM22 //001 022409 240952Z AUTO 16011G21KT 9999 29/21 A3000      RMK A02 SLP161 T02850213 PA-64 DA1814=
0177008416999992015062410524-02200+040900FM-15+001099999V0201601N006219999999N009000199+02861+02101101541ADDAA101000021AW1611MA1101521999999OC100981REMMET125MOBOB8 METAR XM22 //001 022409 241052Z AUTO 16012G19KT 9000 -RA 29/21      A2998 RMK A02 SLP154 P0000 T02860210 PA-45 DA1842=
0150008416999992015062411524-02200+040900FM-15+001099999V0201701N005119999999N009999199+02791+02091101471ADDMA1101461999999OC100821REMMET115MOBOB8 METAR XM22 //001 022409 241152Z AUTO 17010G16KT 9999 28/21 A2996      RMK A02 SLP147 T02790209 PA-27 DA1786=
0150008416999992015062412524-02200+040900FM-15+001099999V0201701N004619999999N009999199+02791+02081101511ADDMA1101491999999OC100771REMMET115MOBOB8 METAR XM22 //001 022409 241252Z AUTO 17009G15KT 9999 28/21 A2997      RMK A02 SLP151 T02790208 PA-36 DA1771=
0177008416999992015062413524-02200+040900FM-15+001099999V0201701N005119999999N009000199+02721+02051101511ADDAA101000021AW1611MA1101491999999OC100931REMMET125MOBOB8 METAR XM22 //001 022409 241352Z AUTO 17010G18KT 9000 -RA 27/21      A2997 RMK A02 SLP151 P0000 T02720205 PA-36 DA1688=
0139008416999992015062414524-02200+040900FM-15+001099999V0201701N003619999999N009999199+02641+02041101541ADDMA1101521999999REMMET112MOBOB8 METAR XM22 //001 022409 241452Z AUTO 17007KT 9999 26/20 A2998      RMK A02 SLP154 T02640204 PA-45 DA1585=
0139008416999992015062415524-02200+040900FM-15+001099999V0201701N002119999999N009999199+02531+02061101541ADDMA1101521999999REMMET112MOBOB8 METAR XM22 //001 022409 241552Z AUTO 17004KT 9999 25/21 A2998      RMK A02 SLP154 T02530206 PA-45 DA1464=
0139008416999992015062416524-02200+040900FM-15+001099999V0201701N002119999999N009999199+02501+02111101611ADDMA1101591999999REMMET112MOBOB8 METAR XM22 //001 022409 241652Z AUTO 17004KT 9999 25/21 A3000      RMK A02 SLP161 T02500211 PA-64 DA1416=
0139008416999992015062417524-02200+040900FM-15+001099999V0201701N002619999999N009999199+02531+02091101671ADDMA1101661999999REMMET112MOBOB8 METAR XM22 //001 022409 241752Z AUTO 17005KT 9999 25/21 A3002      RMK A02 SLP167 T02530209 PA-82 DA1424=
0139008416999992015062418524-02200+040900FM-15+001099999V0201701N001519999999N009999199+02491+02121101671ADDMA1101661999999REMMET112MOBOB8 METAR XM22 //001 022409 241852Z AUTO 17003KT 9999 25/21 A3002      RMK A02 SLP167 T02490212 PA-82 DA1386=
0139008416999992015062419524-02200+040900FM-15+001099999V0201701N001519999999N009999199+02501+02121101671ADDMA1101661999999REMMET112MOBOB8 METAR XM22 //001 022409 241952Z AUTO 17003KT 9999 25/21 A3002      RMK A02 SLP167 T02500212 PA-82 DA1396=
0139008416999992015062420524-02200+040900FM-15+001099999V0201701N001519999999N009999199+02461+02131101671ADDMA1101661999999REMMET112MOBOB8 METAR XM22 //001 022409 242052Z AUTO 17003KT 9999 25/21 A3002      RMK A02 SLP167 T02460213 PA-82 DA1352=
0139008416999992015062421524-02200+040900FM-15+001099999V0201701N003119999999N009999199+02511+02161101611ADDMA1101591999999REMMET112MOBOB8 METAR XM22 //001 022409 242152Z AUTO 17006KT 9999 25/22 A3000      RMK A02 SLP161 T02510216 PA-64 DA1438=
0139008416999992015062422524-02200+040900FM-15+001099999V0201601N002119999999N009999199+02471+02151101571ADDMA1101561999999REMMET112MOBOB8 METAR XM22 //001 022409 242252Z AUTO 16004KT 9999 25/22 A2999      RMK A02 SLP157 T02470215 PA-54 DA1402=
0139008416999992015062423524-02200+040900FM-15+001099999V0201701N002619999999N009999199+02451+02061101511ADDMA1101491999999REMMET112MOBOB8 METAR XM22 //001 022409 242352Z AUTO 17005KT 9999 25/21 A2997      RMK A02 SLP151 T02450206 PA-36 DA1384=
0139008416999992015062500524-02200+040900FM-15+001099999V0201701N003619999999N009999199+02521+02041101511ADDMA1101491999999REMMET112MOBOB8 METAR XM22 //001 022409 250052Z AUTO 17007KT 9999 25/20 A2997      RMK A02 SLP151 T02520204 PA-36 DA1460=
0139008416999992015062501524-02200+040900FM-15+001099999V0201601N003119999999N009999199+02481+01981101571ADDMA1101561999999REMMET112MOBOB8 METAR XM22 //001 022409 250152Z AUTO 16006KT 9999 25/20 A2999      RMK A02 SLP157 T02480198 PA-54 DA1381=
0139008416999992015062502524-02200+040900FM-15+001099999V0201701N002119999999N009999199+02431+01991101641ADDMA1101631999999REMMET112MOBOB8 METAR XM22 //001 022409 250252Z AUTO 17004KT 9999 24/20 A3001      RMK A02 SLP164 T02430199 PA-73 DA1303=
0139008416999992015062503524-02200+040900FM-15+001099999V0201701N002119999999N009999199+02441+02001101681ADDMA1101661999999REMMET112MOBOB8 METAR XM22 //001 022409 250352Z AUTO 17004KT 9999 24/20 A3002      RMK A02 SLP168 T02440200 PA-82 DA1305=
0140008416999992015062504524-02200+040900FM-15+001099999V0201701N003619999999N009999199+02661+02031101781ADDMA1101761999999REMMET113MOBOB8 METAR XM22 //001 022409 250452Z AUTO 17007KT 9999 27/20 A3005      RMK A02 SLP178 T02660203 PA-110 DA1526=
0151008416999992015062505524-02200+040900FM-15+001099999V0201601N005119999999N009999199+02741+02051101781ADDMA1101761999999OC100821REMMET116MOBOB8 METAR XM22 //001 022409 250552Z AUTO 16010G16KT 9999 27/21 A3005      RMK A02 SLP178 T02740205 PA-110 DA1620=
0178008416999992015062506524-02200+040900FM-15+001099999V0201701N005119999999N009000199+02791+02081101811ADDAA101000021AW1611MA1101791999999OC100931REMMET126MOBOB8 METAR XM22 //001 022409 250652Z AUTO 17010G18KT 9000 -RA 28/21      A3006 RMK A02 SLP181 P0000 T02790208 PA-119 DA1669=
0151008416999992015062507524-02200+040900FM-15+001099999V0201701N004619999999N009999199+02871+02051101781ADDMA1101761999999OC100771REMMET116MOBOB8 METAR XM22 //001 022409 250752Z AUTO 17009G15KT 9999 29/21 A3005      RMK A02 SLP178 T02870205 PA-110 DA1766=
0150008416999992015062508524-02200+040900FM-15+001099999V0201701N004119999999N009999199+02901+02061101711ADDMA1101691999999OC100771REMMET115MOBOB8 METAR XM22 //001 022409 250852Z AUTO 17008G15KT 9999 29/21 A3003      RMK A02 SLP171 T02900206 PA-91 DA1824=
0150008416999992015062509524-02200+040900FM-15+001099999V0201701N004619999999N009999199+02871+02101101641ADDMA1101631999999OC100821REMMET115MOBOB8 METAR XM22 //001 022409 250952Z AUTO 17009G16KT 9999 29/21 A3001      RMK A02 SLP164 T02870210 PA-73 DA1819=
0150008416999992015062510524-02200+040900FM-15+001099999V0201701N004119999999N009999199+02891+02121101571ADDMA1101561999999OC100771REMMET115MOBOB8 METAR XM22 //001 022409 251052Z AUTO 17008G15KT 9999 29/21 A2999      RMK A02 SLP157 T02890212 PA-54 DA1869=
0150008416999992015062511524-02200+040900FM-15+001099999V0201701N005119999999N009999199+02841+02091101511ADDMA1101491999999OC100881REMMET115MOBOB8 METAR XM22 //001 022409 251152Z AUTO 17010G17KT 9999 28/21 A2997      RMK A02 SLP151 T02840209 PA-36 DA1830=
0150008416999992015062512524-02200+040900FM-15+001099999V0201701N003619999999N009999199+02781+02121101511ADDMA1101491999999OC100721REMMET115MOBOB8 METAR XM22 //001 022409 251252Z AUTO 17007G14KT 9999 28/21 A2997      RMK A02 SLP151 T02780212 PA-36 DA1770=
0150008416999992015062513524-02200+040900FM-15+001099999V0201701N004119999999N009999199+02711+02101101511ADDMA1101491999999OC100771REMMET115MOBOB8 METAR XM22 //001 022409 251352Z AUTO 17008G15KT 9999 27/21 A2997      RMK A02 SLP151 T02710210 PA-36 DA1687=
0139008416999992015062514524-02200+040900FM-15+001099999V0201701N003619999999N009999199+02631+02101101511ADDMA1101491999999REMMET112MOBOB8 METAR XM22 //001 022409 251452Z AUTO 17007KT 9999 26/21 A2997      RMK A02 SLP151 T02630210 PA-36 DA1596=
0139008416999992015062515524-02200+040900FM-15+001099999V0201701N003119999999N009999199+02591+02111101571ADDMA1101561999999REMMET112MOBOB8 METAR XM22 //001 022409 251552Z AUTO 17006KT 9999 26/21 A2999      RMK A02 SLP157 T02590211 PA-54 DA1530=
0139008416999992015062516524-02200+040900FM-15+001099999V0201701N003119999999N009999199+02581+02121101611ADDMA1101591999999REMMET112MOBOB8 METAR XM22 //001 022409 251652Z AUTO 17006KT 9999 26/21 A3000      RMK A02 SLP161 T02580212 PA-64 DA1509=
0139008416999992015062517524-02200+040900FM-15+001099999V0201701N002619999999N009999199+02551+02121101641ADDMA1101631999999REMMET112MOBOB8 METAR XM22 //001 022409 251752Z AUTO 17005KT 9999 26/21 A3001      RMK A02 SLP164 T02550212 PA-73 DA1465=
0139008416999992015062518524-02200+040900FM-15+001099999V0201701N003119999999N009999199+02551+02121101671ADDMA1101661999999REMMET112MOBOB8 METAR XM22 //001 022409 251852Z AUTO 17006KT 9999 26/21 A3002      RMK A02 SLP167 T02550212 PA-82 DA1452=
0139008416999992015062519524-02200+040900FM-15+001099999V0201801N002619999999N009999199+02551+02111101671ADDMA1101661999999REMMET112MOBOB8 METAR XM22 //001 022409 251952Z AUTO 18005KT 9999 26/21 A3002      RMK A02 SLP167 T02550211 PA-82 DA1451=
0139008416999992015062520524-02200+040900FM-15+001099999V0201701N002619999999N009999199+02541+02101101611ADDMA1101591999999REMMET112MOBOB8 METAR XM22 //001 022409 252052Z AUTO 17005KT 9999 25/21 A3000      RMK A02 SLP161 T02540210 PA-64 DA1460=
0139008416999992015062521524-02200+040900FM-15+001099999V0201701N003119999999N009999199+02561+02111101571ADDMA1101561999999REMMET112MOBOB8 METAR XM22 //001 022409 252152Z AUTO 17006KT 9999 26/21 A2999      RMK A02 SLP157 T02560211 PA-54 DA1497=
0139008416999992015062522524-02200+040900FM-15+001099999V0201701N003119999999N009999199+02541+02131101511ADDMA1101491999999REMMET112MOBOB8 METAR XM22 //001 022409 252252Z AUTO 17006KT 9999 25/21 A2997      RMK A02 SLP151 T02540213 PA-36 DA1501=
0139008416999992015062523524-02200+040900FM-15+001099999V0201701N002619999999N009999199+02541+02111101511ADDMA1101491999999REMMET112MOBOB8 METAR XM22 //001 022409 252352Z AUTO 17005KT 9999 25/21 A2997      RMK A02 SLP151 T02540211 PA-36 DA1496=
0150008416999992015062600524-02200+040900FM-15+001099999V0201701N003619999999N009999199+02551+02071101511ADDMA1101491999999OC100671REMMET115MOBOB8 METAR XM22 //001 022409 260052Z AUTO 17007G13KT 9999 26/21 A2997      RMK A02 SLP151 T02550207 PA-36 DA1500=
0139008416999992015062601524-02200+040900FM-15+001099999V0201701N003619999999N009999199+02541+02121101571ADDMA1101561999999REMMET112MOBOB8 METAR XM22 //001 022409 260152Z AUTO 17007KT 9999 25/21 A2999      RMK A02 SLP157 T02540212 PA-54 DA1475=
0139008416999992015062602524-02200+040900FM-15+001099999V0201801N003119999999N009999199+02531+02101101611ADDMA1101591999999REMMET112MOBOB8 METAR XM22 //001 022409 260252Z AUTO 18006KT 9999 25/21 A3000      RMK A02 SLP161 T02530210 PA-64 DA1450=
0139008416999992015062603524-02200+040900FM-15+001099999V0201701N001519999999N009999199+02531+02131101671ADDMA1101661999999REMMET112MOBOB8 METAR XM22 //001 022409 260352Z AUTO 17003KT 9999 25/21 A3002      RMK A02 SLP167 T02530213 PA-82 DA1431=
0140008416999992015062604524-02200+040900FM-15+001099999V0201701N003119999999N009999199+02661+02161101741ADDMA1101731999999REMMET113MOBOB8 METAR XM22 //001 022409 260452Z AUTO 17006KT 9999 27/22 A3004      RMK A02 SLP174 T02660216 PA-100 DA1562=
0151008416999992015062605524-02200+040900FM-15+001099999V0201601N004619999999N009999199+02761+02171101781ADDMA1101761999999OC100881REMMET116MOBOB8 METAR XM22 //001 022409 260552Z AUTO 16009G17KT 9999 28/22 A3005      RMK A02 SLP178 T02760217 PA-110 DA1665=
0151008416999992015062606524-02200+040900FM-15+001099999V0201701N005119999999N009999199+02841+02161101811ADDMA1101791999999OC100981REMMET116MOBOB8 METAR XM22 //001 022409 260652Z AUTO 17010G19KT 9999 28/22 A3006      RMK A02 SLP181 T02840216 PA-119 DA1743=
0151008416999992015062607524-02200+040900FM-15+001099999V0201701N005719999999N009999199+02821+02131101781ADDMA1101761999999OC100981REMMET116MOBOB8 METAR XM22 //001 022409 260752Z AUTO 17011G19KT 9999 28/21 A3005      RMK A02 SLP178 T02820213 PA-110 DA1725=
0151008416999992015062608524-02200+040900FM-15+001099999V0201701N005119999999N009999199+02871+02071101741ADDMA1101731999999OC101031REMMET116MOBOB8 METAR XM22 //001 022409 260852Z AUTO 17010G20KT 9999 29/21 A3004      RMK A02 SLP174 T02870207 PA-100 DA1780=
0150008416999992015062609524-02200+040900FM-15+001099999V0201701N004619999999N009999199+02911+02001101671ADDMA1101661999999OC100881REMMET115MOBOB8 METAR XM22 //001 022409 260952Z AUTO 17009G17KT 9999 29/20 A3002      RMK A02 SLP167 T02910200 PA-82 DA1834=
0150008416999992015062610524-02200+040900FM-15+001099999V0201701N004619999999N009999199+02891+02091101611ADDMA1101591999999OC100881REMMET115MOBOB8 METAR XM22 //001 022409 261052Z AUTO 17009G17KT 9999 29/21 A3000      RMK A02 SLP161 T02890209 PA-64 DA1852=
0150008416999992015062611524-02200+040900FM-15+001099999V0201701N004119999999N009999199+02871+02051101541ADDMA1101521999999OC100771REMMET115MOBOB8 METAR XM22 //001 022409 261152Z AUTO 17008G15KT 9999 29/21 A2998      RMK A02 SLP154 T02870205 PA-45 DA1845=
0150008416999992015062612524-02200+040900FM-15+001099999V0201701N004119999999N009999199+02821+02051101471ADDMA1101461999999OC100771REMMET115MOBOB8 METAR XM22 //001 022409 261252Z AUTO 17008G15KT 9999 28/21 A2996      RMK A02 SLP147 T02820205 PA-27 DA1812=
0150008416999992015062613524-02200+040900FM-15+001099999V0201701N003619999999N009999199+02711+02051101471ADDMA1101461999999OC100671REMMET115MOBOB8 METAR XM22 //001 022409 261352Z AUTO 17007G13KT 9999 27/21 A2996      RMK A02 SLP147 T02710205 PA-27 DA1688=
0166008416999992015062614524-02200+040900FM-15+001099999V0201701N003119999999N009000199+02621+02041101511ADDAA101000021AW1611MA1101491999999REMMET122MOBOB8 METAR XM22 //001 022409 261452Z AUTO 17006KT 9000 -RA 26/20      A2997 RMK A02 SLP151 P0000 T02620204 PA-36 DA1573=
0139008416999992015062615524-02200+040900FM-15+001099999V0201701N002619999999N009999199+02561+02091101541ADDMA1101521999999REMMET112MOBOB8 METAR XM22 //001 022409 261552Z AUTO 17005KT 9999 26/21 A2998      RMK A02 SLP154 T02560209 PA-45 DA1503=
0139008416999992015062616524-02200+040900FM-15+001099999V0201701N002619999999N009999199+02561+02111101571ADDMA1101561999999REMMET112MOBOB8 METAR XM22 //001 022409 261652Z AUTO 17005KT 9999 26/21 A2999      RMK A02 SLP157 T02560211 PA-54 DA1496=
0139008416999992015062617524-02200+040900FM-15+001099999V0201701N003119999999N009999199+02541+02081101611ADDMA1101591999999REMMET112MOBOB8 METAR XM22 //001 022409 261752Z AUTO 17006KT 9999 25/21 A3000      RMK A02 SLP161 T02540208 PA-64 DA1457=
0139008416999992015062618524-02200+040900FM-15+001099999V0201701N003119999999N009999199+02551+02071101611ADDMA1101591999999REMMET112MOBOB8 METAR XM22 //001 022409 261852Z AUTO 17006KT 9999 26/21 A3000      RMK A02 SLP161 T02550207 PA-64 DA1466=
0139008416999992015062619524-02200+040900FM-15+001099999V0201701N003119999999N009999199+02551+02051101571ADDMA1101561999999REMMET112MOBOB8 METAR XM22 //001 022409 261952Z AUTO 17006KT 9999 26/21 A2999      RMK A02 SLP157 T02550205 PA-54 DA1474=
0139008416999992015062620524-02200+040900FM-15+001099999V0201701N002619999999N009999199+02551+02051101571ADDMA1101561999999REMMET112MOBOB8 METAR XM22 //001 022409 262052Z AUTO 17005KT 9999 26/20 A2999      RMK A02 SLP157 T02550205 PA-54 DA1473=
0139008416999992015062621524-02200+040900FM-15+001099999V0201801N002119999999N009999199+02531+02041101541ADDMA1101521999999REMMET112MOBOB8 METAR XM22 //001 022409 262152Z AUTO 18004KT 9999 25/20 A2998      RMK A02 SLP154 T02530204 PA-45 DA1461=
0139008416999992015062622524-02200+040900FM-15+001099999V0201701N002619999999N009999199+02521+02041101511ADDMA1101491999999REMMET112MOBOB8 METAR XM22 //001 022409 262252Z AUTO 17005KT 9999 25/20 A2997      RMK A02 SLP151 T02520204 PA-36 DA1460=
0139008416999992015062623524-02200+040900FM-15+001099999V0201701N002619999999N009999199+02511+02021101471ADDMA1101461999999REMMET112MOBOB8 METAR XM22 //001 022409 262352Z AUTO 17005KT 9999 25/20 A2996      RMK A02 SLP147 T02510202 PA-27 DA1457=
0139008416999992015062700524-02200+040900FM-15+001099999V0201801N002119999999N009999199+02481+02041101471ADDMA1101461999999REMMET112MOBOB8 METAR XM22 //001 022409 270052Z AUTO 18004KT 9999 25/20 A2996      RMK A02 SLP147 T02480204 PA-27 DA1426=
0139008416999992015062701524-02200+040900FM-15+001099999V0201701N002619999999N009999199+02501+02031101511ADDMA1101491999999REMMET112MOBOB8 METAR XM22 //001 022409 270152Z AUTO 17005KT 9999 25/20 A2997      RMK A02 SLP151 T02500203 PA-36 DA1436=
0139008416999992015062702524-02200+040900FM-15+001099999V0201701N002619999999N009999199+02521+02081101541ADDMA1101521999999REMMET112MOBOB8 METAR XM22 //001 022409 270252Z AUTO 17005KT 9999 25/21 A2998      RMK A02 SLP154 T02520208 PA-45 DA1457=
0139008416999992015062703524-02200+040900FM-15+001099999V0201701N003619999999N009999199+02531+02041101571ADDMA1101561999999REMMET112MOBOB8 METAR XM22 //001 022409 270352Z AUTO 17007KT 9999 25/20 A2999      RMK A02 SLP157 T02530204 PA-54 DA1449=
0139008416999992015062704524-02200+040900FM-15+001099999V0201701N003619999999N009999199+02651+02081101641ADDMA1101631999999REMMET112MOBOB8 METAR XM22 //001 022409 270452Z AUTO 17007KT 9999 27/21 A3001      RMK A02 SLP164 T02650208 PA-73 DA1568=
0151008416999992015062705524-02200+040900FM-15+001099999V0201701N005119999999N009999199+02751+02121101741ADDMA1101731999999OC100931REMMET116MOBOB8 METAR XM22 //001 022409 270552Z AUTO 17010G18KT 9999 28/21 A3004      RMK A02 SLP174 T02750212 PA-100 DA1655=
0151008416999992015062706524-02200+040900FM-15+001099999V0201701N005119999999N009999199+02821+02031101781ADDMA1101761999999OC100881REMMET116MOBOB8 METAR XM22 //001 022409 270652Z AUTO 17010G17KT 9999 28/20 A3005      RMK A02 SLP178 T02820203 PA-110 DA1705=
0151008416999992015062707524-02200+040900FM-15+001099999V0201801N004119999999N009999199+02831+02101101781ADDMA1101761999999OC100721REMMET116MOBOB8 METAR XM22 //001 022409 270752Z AUTO 18008G14KT 9999 28/21 A3005      RMK A02 SLP178 T02830210 PA-110 DA1731=
0166008416999992015062708524-02200+040900FM-15+001099999V0201701N003119999999N006000199+02571+02311101711ADDAA101003031AW1611MA1101691999999REMMET122MOBOB8 METAR XM22 //001 022409 270852Z AUTO 17006KT 6000 -RA 26/23      A3003 RMK A02 SLP171 P0012 T02570231 PA-91 DA1503=
0150008416999992015062709524-02200+040900FM-15+001099999V0201701N005119999999N009999199+02711+02091101641ADDMA1101631999999OC100881REMMET115MOBOB8 METAR XM22 //001 022409 270952Z AUTO 17010G17KT 9999 27/21 A3001      RMK A02 SLP164 T02710209 PA-73 DA1639=
0150008416999992015062710524-02200+040900FM-15+001099999V0201701N004619999999N009999199+02831+02021101571ADDMA1101561999999OC100881REMMET115MOBOB8 METAR XM22 //001 022409 271052Z AUTO 17009G17KT 9999 28/20 A2999      RMK A02 SLP157 T02830202 PA-54 DA1783=
0150008416999992015062711524-02200+040900FM-15+001099999V0201701N004619999999N009999199+02811+02091101511ADDMA1101491999999OC100931REMMET115MOBOB8 METAR XM22 //001 022409 271152Z AUTO 17009G18KT 9999 28/21 A2997      RMK A02 SLP151 T02810209 PA-36 DA1797=
0150008416999992015062712524-02200+040900FM-15+001099999V0201801N004119999999N009999199+02751+02071101511ADDMA1101491999999OC100771REMMET115MOBOB8 METAR XM22 //001 022409 271252Z AUTO 18008G15KT 9999 28/21 A2997      RMK A02 SLP151 T02750207 PA-36 DA1726=
0150008416999992015062713524-02200+040900FM-15+001099999V0201701N004119999999N009999199+02711+02091101511ADDMA1101491999999OC100771REMMET115MOBOB8 METAR XM22 //001 022409 271352Z AUTO 17008G15KT 9999 27/21 A2997      RMK A02 SLP151 T02710209 PA-36 DA1684=
0139008416999992015062714524-02200+040900FM-15+001099999V0201701N003619999999N009999199+02641+02061101511ADDMA1101491999999REMMET112MOBOB8 METAR XM22 //001 022409 271452Z AUTO 17007KT 9999 26/21 A2997      RMK A02 SLP151 T02640206 PA-36 DA1599=
0139008416999992015062715524-02200+040900FM-15+001099999V0201701N002619999999N009999199+02561+02071101511ADDMA1101491999999REMMET112MOBOB8 METAR XM22 //001 022409 271552Z AUTO 17005KT 9999 26/21 A2997      RMK A02 SLP151 T02560207 PA-36 DA1512=
0139008416999992015062716524-02200+040900FM-15+001099999V0201701N003119999999N009999199+02551+02151101571ADDMA1101561999999REMMET112MOBOB8 METAR XM22 //001 022409 271652Z AUTO 17006KT 9999 26/22 A2999      RMK A02 SLP157 T02550215 PA-54 DA1493=
0139008416999992015062717524-02200+040900FM-15+001099999V0201701N002619999999N009999199+02561+02161101611ADDMA1101591999999REMMET112MOBOB8 METAR XM22 //001 022409 271752Z AUTO 17005KT 9999 26/22 A3000      RMK A02 SLP161 T02560216 PA-64 DA1495=
0139008416999992015062718524-02200+040900FM-15+001099999V0201701N003119999999N009999199+02561+02151101611ADDMA1101591999999REMMET112MOBOB8 METAR XM22 //001 022409 271852Z AUTO 17006KT 9999 26/21 A3000      RMK A02 SLP161 T02560215 PA-64 DA1492=
0139008416999992015062719524-02200+040900FM-15+001099999V0201701N003119999999N009999199+02561+02161101611ADDMA1101591999999REMMET112MOBOB8 METAR XM22 //001 022409 271952Z AUTO 17006KT 9999 26/22 A3000      RMK A02 SLP161 T02560216 PA-64 DA1495=
0139008416999992015062720524-02200+040900FM-15+001099999V0201701N003619999999N009999199+02561+02181101571ADDMA1101561999999REMMET112MOBOB8 METAR XM22 //001 022409 272052Z AUTO 17007KT 9999 26/22 A2999      RMK A02 SLP157 T02560218 PA-54 DA1510=
0139008416999992015062721524-02200+040900FM-15+001099999V0201701N003619999999N009999199+02571+02151101541ADDMA1101521999999REMMET112MOBOB8 METAR XM22 //001 022409 272152Z AUTO 17007KT 9999 26/22 A2998      RMK A02 SLP154 T02570215 PA-45 DA1527=
0139008416999992015062722524-02200+040900FM-15+001099999V0201701N003619999999N009999199+02561+02141101471ADDMA1101461999999REMMET112MOBOB8 METAR XM22 //001 022409 272252Z AUTO 17007KT 9999 26/21 A2996      RMK A02 SLP147 T02560214 PA-27 DA1536=
0139008416999992015062723524-02200+040900FM-15+001099999V0201701N003119999999N009999199+02541+02171101441ADDMA1101421999999REMMET112MOBOB8 METAR XM22 //001 022409 272352Z AUTO 17006KT 9999 25/22 A2995      RMK A02 SLP144 T02540217 PA-17 DA1531=
0139008416999992015062800524-02200+040900FM-15+001099999V0201701N003119999999N009999199+02551+02151101441ADDMA1101421999999REMMET112MOBOB8 METAR XM22 //001 022409 280052Z AUTO 17006KT 9999 26/22 A2995      RMK A02 SLP144 T02550215 PA-17 DA1539=
0139008416999992015062801524-02200+040900FM-15+001099999V0201701N002619999999N009999199+02531+02131101441ADDMA1101421999999REMMET112MOBOB8 METAR XM22 //001 022409 280152Z AUTO 17005KT 9999 25/21 A2995      RMK A02 SLP144 T02530213 PA-17 DA1511=
0139008416999992015062802524-02200+040900FM-15+001099999V0201701N002619999999N009999199+02511+02151101541ADDMA1101521999999REMMET112MOBOB8 METAR XM22 //001 022409 280252Z AUTO 17005KT 9999 25/22 A2998      RMK A02 SLP154 T02510215 PA-45 DA1459=
0139008416999992015062803524-02200+040900FM-15+001099999V0201701N002119999999N009999199+02541+02171101611ADDMA1101591999999REMMET112MOBOB8 METAR XM22 //001 022409 280352Z AUTO 17004KT 9999 25/22 A3000      RMK A02 SLP161 T02540217 PA-64 DA1474=
0166008416999992015062804524-02200+040900FM-15+001099999V0201701N002619999999N009000199+02551+02281101671ADDAA101000531AW1611MA1101661999999REMMET122MOBOB8 METAR XM22 //001 022409 280452Z AUTO 17005KT 9000 -RA 26/23      A3002 RMK A02 SLP167 P0002 T02550228 PA-82 DA1486=
0151008416999992015062805524-02200+040900FM-15+001099999V0201701N004119999999N009999199+02741+02171101741ADDMA1101731999999OC100671REMMET116MOBOB8 METAR XM22 //001 022409 280552Z AUTO 17008G13KT 9999 27/22 A3004      RMK A02 SLP174 T02740217 PA-100 DA1653=
0151008416999992015062806524-02200+040900FM-15+001099999V0201701N003619999999N009999199+02841+02171101781ADDMA1101761999999OC100771REMMET116MOBOB8 METAR XM22 //001 022409 280652Z AUTO 17007G15KT 9999 28/22 A3005      RMK A02 SLP178 T02840217 PA-110 DA1756=
0151008416999992015062807524-02200+040900FM-15+001099999V0201701N005119999999N009999199+02851+02201101741ADDMA1101731999999OC100881REMMET116MOBOB8 METAR XM22 //001 022409 280752Z AUTO 17010G17KT 9999 29/22 A3004      RMK A02 SLP174 T02850220 PA-100 DA1784=
0150008416999992015062808524-02200+040900FM-15+001099999V0201601N005119999999N009999199+02901+02211101671ADDMA1101661999999OC100821REMMET115MOBOB8 METAR XM22 //001 022409 280852Z AUTO 16010G16KT 9999 29/22 A3002      RMK A02 SLP167 T02900221 PA-82 DA1865=
0150008416999992015062809524-02200+040900FM-15+001099999V0201701N005119999999N009999199+02921+02131101571ADDMA1101561999999OC100881REMMET115MOBOB8 METAR XM22 //001 022409 280952Z AUTO 17010G17KT 9999 29/21 A2999      RMK A02 SLP157 T02920213 PA-54 DA1904=
0150008416999992015062810524-02200+040900FM-15+001099999V0201701N004619999999N009999199+02891+02211101511ADDMA1101491999999OC100771REMMET115MOBOB8 METAR XM22 //001 022409 281052Z AUTO 17009G15KT 9999 29/22 A2997      RMK A02 SLP151 T02890221 PA-36 DA1909=
0150008416999992015062811524-02200+040900FM-15+001099999V0201701N004619999999N009999199+02811+02131101441ADDMA1101421999999OC100881REMMET115MOBOB8 METAR XM22 //001 022409 281152Z AUTO 17009G17KT 9999 28/21 A2995      RMK A02 SLP144 T02810213 PA-17 DA1826=
0150008416999992015062812524-02200+040900FM-15+001099999V0201601N004619999999N009999199+02791+02201101401ADDMA1101391999999OC100721REMMET115MOBOB8 METAR XM22 //001 022409 281252Z AUTO 16009G14KT 9999 28/22 A2994      RMK A02 SLP140 T02790220 PA-08 DA1830=
0150008416999992015062813524-02200+040900FM-15+001099999V0201701N004619999999N009999199+02761+02151101441ADDMA1101421999999OC100771REMMET115MOBOB8 METAR XM22 //001 022409 281352Z AUTO 17009G15KT 9999 28/22 A2995      RMK A02 SLP144 T02760215 PA-17 DA1775=
0150008416999992015062814524-02200+040900FM-15+001099999V0201701N004119999999N009999199+02661+02181101471ADDMA1101461999999OC100671REMMET115MOBOB8 METAR XM22 //001 022409 281452Z AUTO 17008G13KT 9999 27/22 A2996      RMK A02 SLP147 T02660218 PA-27 DA1656=
0139008416999992015062815524-02200+040900FM-15+001099999V0201701N002619999999N009999199+02571+02151101511ADDMA1101491999999REMMET112MOBOB8 METAR XM22 //001 022409 281552Z AUTO 17005KT 9999 26/22 A2997      RMK A02 SLP151 T02570215 PA-36 DA1539=
0139008416999992015062816524-02200+040900FM-15+001099999V0201701N002619999999N009999199+02561+02161101541ADDMA1101521999999REMMET112MOBOB8 METAR XM22 //001 022409 281652Z AUTO 17005KT 9999 26/22 A2998      RMK A02 SLP154 T02560216 PA-45 DA1518=
0139008416999992015062817524-02200+040900FM-15+001099999V0201601N003119999999N009999199+02571+02141101611ADDMA1101591999999REMMET112MOBOB8 METAR XM22 //001 022409 281752Z AUTO 16006KT 9999 26/21 A3000      RMK A02 SLP161 T02570214 PA-64 DA1502=
0139008416999992015062818524-02200+040900FM-15+001099999V0201601N003119999999N009999199+02541+02191101611ADDMA1101591999999REMMET112MOBOB8 METAR XM22 //001 022409 281852Z AUTO 16006KT 9999 25/22 A3000      RMK A02 SLP161 T02540219 PA-64 DA1477=
0139008416999992015062819524-02200+040900FM-15+001099999V0201701N002619999999N009999199+02531+02181101611ADDMA1101591999999REMMET112MOBOB8 METAR XM22 //001 022409 281952Z AUTO 17005KT 9999 25/22 A3000      RMK A02 SLP161 T02530218 PA-64 DA1464=
0139008416999992015062820524-02200+040900FM-15+001099999V0201601N003119999999N009999199+02551+02101101571ADDMA1101561999999REMMET112MOBOB8 METAR XM22 //001 022409 282052Z AUTO 16006KT 9999 26/21 A2999      RMK A02 SLP157 T02550210 PA-54 DA1484=
0139008416999992015062821524-02200+040900FM-15+001099999V0201701N002619999999N009999199+02511+02111101511ADDMA1101491999999REMMET112MOBOB8 METAR XM22 //001 022409 282152Z AUTO 17005KT 9999 25/21 A2997      RMK A02 SLP151 T02510211 PA-36 DA1461=
0139008416999992015062822524-02200+040900FM-15+001099999V0201701N003119999999N009999199+02541+02161101471ADDMA1101461999999REMMET112MOBOB8 METAR XM22 //001 022409 282252Z AUTO 17006KT 9999 25/22 A2996      RMK A02 SLP147 T02540216 PA-27 DA1518=
0139008416999992015062823524-02200+040900FM-15+001099999V0201701N002119999999N009999199+02491+02171101441ADDMA1101421999999REMMET112MOBOB8 METAR XM22 //001 022409 282352Z AUTO 17004KT 9999 25/22 A2995      RMK A02 SLP144 T02490217 PA-17 DA1474=
0139008416999992015062900524-02200+040900FM-15+001099999V0201701N002619999999N009999199+02491+02121101441ADDMA1101421999999REMMET112MOBOB8 METAR XM22 //001 022409 290052Z AUTO 17005KT 9999 25/21 A2995      RMK A02 SLP144 T02490212 PA-17 DA1465=
0139008416999992015062901524-02200+040900FM-15+001099999V0201701N002119999999N009999199+02451+02101101511ADDMA1101491999999REMMET112MOBOB8 METAR XM22 //001 022409 290152Z AUTO 17004KT 9999 25/21 A2997      RMK A02 SLP151 T02450210 PA-36 DA1391=
0139008416999992015062902524-02200+040900FM-15+001099999V0201701N002119999999N009999199+02441+02071101571ADDMA1101561999999REMMET112MOBOB8 METAR XM22 //001 022409 290252Z AUTO 17004KT 9999 24/21 A2999      RMK A02 SLP157 T02440207 PA-54 DA1353=
0139008416999992015062903524-02200+040900FM-15+001099999V0201701N002119999999N009999199+02471+02121101571ADDMA1101561999999REMMET112MOBOB8 METAR XM22 //001 022409 290352Z AUTO 17004KT 9999 25/21 A2999      RMK A02 SLP157 T02470212 PA-54 DA1396=
0150008416999992015062904524-02200+040900FM-15+001099999V0201601N004119999999N009999199+02671+02151101671ADDMA1101661999999OC100671REMMET115MOBOB8 METAR XM22 //001 022409 290452Z AUTO 16008G13KT 9999 27/21 A3002      RMK A02 SLP167 T02670215 PA-82 DA1594=
0151008416999992015062905524-02200+040900FM-15+001099999V0201701N004119999999N009999199+02761+02151101741ADDMA1101731999999OC100671REMMET116MOBOB8 METAR XM22 //001 022409 290552Z AUTO 17008G13KT 9999 28/21 A3004      RMK A02 SLP174 T02760215 PA-100 DA1672=
0151008416999992015062906524-02200+040900FM-15+001099999V0201701N004119999999N009999199+02851+02171101781ADDMA1101761999999OC100721REMMET116MOBOB8 METAR XM22 //001 022409 290652Z AUTO 17008G14KT 9999 29/22 A3005      RMK A02 SLP178 T02850217 PA-110 DA1766=
0151008416999992015062907524-02200+040900FM-15+001099999V0201701N004619999999N009999199+02851+02141101741ADDMA1101731999999OC100881REMMET116MOBOB8 METAR XM22 //001 022409 290752Z AUTO 17009G17KT 9999 29/21 A3004      RMK A02 SLP174 T02850214 PA-100 DA1772=
0150008416999992015062908524-02200+040900FM-15+001099999V0201701N004619999999N009999199+02811+02181101671ADDMA1101661999999OC100881REMMET115MOBOB8 METAR XM22 //001 022409 290852Z AUTO 17009G17KT 9999 28/22 A3002      RMK A02 SLP167 T02810218 PA-82 DA1757=
0150008416999992015062909524-02200+040900FM-15+001099999V0201701N005719999999N009999199+02871+02181101611ADDMA1101591999999OC101131REMMET115MOBOB8 METAR XM22 //001 022409 290952Z AUTO 17011G22KT 9999 29/22 A3000      RMK A02 SLP161 T02870218 PA-64 DA1847=
0150008416999992015062910524-02200+040900FM-15+001099999V0201601N006219999999N009999199+02881+02091101541ADDMA1101521999999OC101081REMMET115MOBOB8 METAR XM22 //001 022409 291052Z AUTO 16012G21KT 9999 29/21 A2998      RMK A02 SLP154 T02880209 PA-45 DA1863=
0150008416999992015062911524-02200+040900FM-15+001099999V0201601N004619999999N009999199+02891+02171101471ADDMA1101461999999OC100821REMMET115MOBOB8 METAR XM22 //001 022409 291152Z AUTO 16009G16KT 9999 29/22 A2996      RMK A02 SLP147 T02890217 PA-27 DA1912=
0166008416999992015062912524-02200+040900FM-15+001099999V0201801N003119999999N000400199+02591+02271101441ADDAA101001531AW1611MA1101421999999REMMET122MOBOB8 METAR XM22 //001 022409 291252Z AUTO 18006KT 0400 -RA 26/23      A2995 RMK A02 SLP144 P0006 T02590227 PA-17 DA1607=
0139008416999992015062913524-02200+040900FM-15+001099999V0201701N003619999999N009999199+02671+02201101441ADDMA1101421999999REMMET112MOBOB8 METAR XM22 //001 022409 291352Z AUTO 17007KT 9999 27/22 A2995      RMK A02 SLP144 T02670220 PA-17 DA1684=
0139008416999992015062914524-02200+040900FM-15+001099999V0201701N002619999999N009999199+02621+02231101471ADDMA1101461999999REMMET112MOBOB8 METAR XM22 //001 022409 291452Z AUTO 17005KT 9999 26/22 A2996      RMK A02 SLP147 T02620223 PA-27 DA1623=
0139008416999992015062915524-02200+040900FM-15+001099999V0201701N002119999999N009999199+02531+02221101511ADDMA1101491999999REMMET112MOBOB8 METAR XM22 //001 022409 291552Z AUTO 17004KT 9999 25/22 A2997      RMK A02 SLP151 T02530222 PA-36 DA1506=
0139008416999992015062916524-02200+040900FM-15+001099999V0201801N001519999999N009999199+02481+02221101541ADDMA1101521999999REMMET112MOBOB8 METAR XM22 //001 022409 291652Z AUTO 18003KT 9999 25/22 A2998      RMK A02 SLP154 T02480222 PA-45 DA1439=
0139008416999992015062917524-02200+040900FM-15+001099999V0201701N002119999999N009999199+02481+02221101571ADDMA1101561999999REMMET112MOBOB8 METAR XM22 //001 022409 291752Z AUTO 17004KT 9999 25/22 A2999      RMK A02 SLP157 T02480222 PA-54 DA1427=
0139008416999992015062918524-02200+040900FM-15+001099999V0201701N002119999999N009999199+02451+02211101611ADDMA1101591999999REMMET112MOBOB8 METAR XM22 //001 022409 291852Z AUTO 17004KT 9999 25/22 A3000      RMK A02 SLP161 T02450221 PA-64 DA1380=
0139008416999992015062919524-02200+040900FM-15+001099999V0201701N002119999999N009999199+02451+02201101571ADDMA1101561999999REMMET112MOBOB8 METAR XM22 //001 022409 291952Z AUTO 17004KT 9999 25/22 A2999      RMK A02 SLP157 T02450220 PA-54 DA1389=
0139008416999992015062920524-02200+040900FM-15+001099999V0201701N001519999999N009999199+02451+02211101511ADDMA1101491999999REMMET112MOBOB8 METAR XM22 //001 022409 292052Z AUTO 17003KT 9999 25/22 A2997      RMK A02 SLP151 T02450221 PA-36 DA1414=
0139008416999992015062921524-02200+040900FM-15+001099999V0201701N003119999999N009999199+02491+02231101441ADDMA1101421999999REMMET112MOBOB8 METAR XM22 //001 022409 292152Z AUTO 17006KT 9999 25/22 A2995      RMK A02 SLP144 T02490223 PA-17 DA1487=
0139008416999992015062922524-02200+040900FM-15+001099999V0201501N003119999999N009999199+02511+02161101401ADDMA1101391999999REMMET112MOBOB8 METAR XM22 //001 022409 292252Z AUTO 15006KT 9999 25/22 A2994      RMK A02 SLP140 T02510216 PA-08 DA1506=
0139008416999992015062923524-02200+040900FM-15+001099999V0201701N002619999999N009999199+02481+02151101371ADDMA1101351999999REMMET112MOBOB8 METAR XM22 //001 022409 292352Z AUTO 17005KT 9999 25/21 A2993      RMK A02 SLP137 T02480215 PA001 DA1481=
0139008416999992015063000524-02200+040900FM-15+001099999V0201701N002119999999N009999199+02461+02121101401ADDMA1101391999999REMMET112MOBOB8 METAR XM22 //001 022409 300052Z AUTO 17004KT 9999 25/21 A2994      RMK A02 SLP140 T02460212 PA-08 DA1442=
0139008416999992015063001524-02200+040900FM-15+001099999V0201701N001519999999N009999199+02421+02111101441ADDMA1101421999999REMMET112MOBOB8 METAR XM22 //001 022409 300152Z AUTO 17003KT 9999 24/21 A2995      RMK A02 SLP144 T02420211 PA-17 DA1383=
0139008416999992015063002524-02200+040900FM-15+001099999V0201701N001519999999N009999199+02391+02111101511ADDMA1101491999999REMMET112MOBOB8 METAR XM22 //001 022409 300252Z AUTO 17003KT 9999 24/21 A2997      RMK A02 SLP151 T02390211 PA-36 DA1325=
0139008416999992015063003524-02200+040900FM-15+001099999V0201801N001019999999N009999199+02341+02131101541ADDMA1101521999999REMMET112MOBOB8 METAR XM22 //001 022409 300352Z AUTO 18002KT 9999 23/21 A2998      RMK A02 SLP154 T02340213 PA-45 DA1261=
0165008416999992015063004524-02200+040900FM-15+001099999V0201601N003619999999N009000199+02571+02201101641ADDAA101001231AW1621MA1101631999999REMMET121MOBOB8 METAR XM22 //001 022409 300452Z AUTO 16007KT 9000 RA 26/22 A3001      RMK A02 SLP164 P0005 T02570220 PA-73 DA1503=
0139008416999992015063005524-02200+040900FM-15+001099999V0201601N003619999999N009999199+02661+02301101711ADDMA1101691999999REMMET112MOBOB8 METAR XM22 //001 022409 300552Z AUTO 16007KT 9999 27/23 A3003      RMK A02 SLP171 T02660230 PA-91 DA1602=
0150008416999992015063006524-02200+040900FM-15+001099999V0201701N004619999999N009999199+02771+02161101711ADDMA1101691999999OC100881REMMET115MOBOB8 METAR XM22 //001 022409 300652Z AUTO 17009G17KT 9999 28/22 A3003      RMK A02 SLP171 T02770216 PA-91 DA1697=
0150008416999992015063007524-02200+040900FM-15+001099999V0201601N005119999999N009999199+02851+02191101641ADDMA1101631999999OC100881REMMET115MOBOB8 METAR XM22 //001 022409 300752Z AUTO 16010G17KT 9999 29/22 A3001      RMK A02 SLP164 T02850219 PA-73 DA1815=
0150008416999992015063008524-02200+040900FM-15+001099999V0201601N005719999999N009999199+02851+02071101611ADDMA1101591999999OC100821REMMET115MOBOB8 METAR XM22 //001 022409 300852Z AUTO 16011G16KT 9999 29/21 A3000      RMK A02 SLP161 T02850207 PA-64 DA1804=
0150008416999992015063009524-02200+040900FM-15+001099999V0201701N005119999999N009999199+02841+02141101571ADDMA1101561999999OC100821REMMET115MOBOB8 METAR XM22 //001 022409 300952Z AUTO 17010G16KT 9999 28/21 A2999      RMK A02 SLP157 T02840214 PA-54 DA1816=
0150008416999992015063010524-02200+040900FM-15+001099999V0201701N004119999999N009999199+02881+02201101471ADDMA1101461999999OC100821REMMET115MOBOB8 METAR XM22 //001 022409 301052Z AUTO 17008G16KT 9999 29/22 A2996      RMK A02 SLP147 T02880220 PA-27 DA1907=
0150008416999992015063011524-02200+040900FM-15+001099999V0201701N004619999999N009999199+02831+02181101401ADDMA1101391999999OC100821REMMET115MOBOB8 METAR XM22 //001 022409 301152Z AUTO 17009G16KT 9999 28/22 A2994      RMK A02 SLP140 T02830218 PA-08 DA1871=
0150008416999992015063012524-02200+040900FM-15+001099999V0201701N004119999999N009999199+02811+02131101401ADDMA1101391999999OC100721REMMET115MOBOB8 METAR XM22 //001 022409 301252Z AUTO 17008G14KT 9999 28/21 A2994      RMK A02 SLP140 T02810213 PA-08 DA1838=
0150008416999992015063013524-02200+040900FM-15+001099999V0201601N004119999999N009999199+02741+02101101371ADDMA1101351999999OC100771REMMET115MOBOB8 METAR XM22 //001 022409 301352Z AUTO 16008G15KT 9999 27/21 A2993      RMK A02 SLP137 T02740210 PA001 DA1765=
0139008416999992015063014524-02200+040900FM-15+001099999V0201701N003119999999N009999199+02641+02171101441ADDMA1101421999999REMMET112MOBOB8 METAR XM22 //001 022409 301452Z AUTO 17006KT 9999 26/22 A2995      RMK A02 SLP144 T02640217 PA-17 DA1644=
0139008416999992015063015524-02200+040900FM-15+001099999V0201701N002619999999N009999199+02591+02161101471ADDMA1101461999999REMMET112MOBOB8 METAR XM22 //001 022409 301552Z AUTO 17005KT 9999 26/22 A2996      RMK A02 SLP147 T02590216 PA-27 DA1574=
0166008416999992015063016524-02200+040900FM-15+001099999V0201701N002119999999N009000199+02541+02211101511ADDAA101000021AW1611MA1101491999999REMMET122MOBOB8 METAR XM22 //001 022409 301652Z AUTO 17004KT 9000 -RA 25/22      A2997 RMK A02 SLP151 P0000 T02540221 PA-36 DA1516=
0139008416999992015063017524-02200+040900FM-15+001099999V0201801N001019999999N009999199+02451+02191101541ADDMA1101521999999REMMET112MOBOB8 METAR XM22 //001 022409 301752Z AUTO 18002KT 9999 25/22 A2998      RMK A02 SLP154 T02450219 PA-45 DA1398=
0139008416999992015063018524-02200+040900FM-15+001099999V0201701N001019999999N009999199+02441+02151101571ADDMA1101561999999REMMET112MOBOB8 METAR XM22 //001 022409 301852Z AUTO 17002KT 9999 24/21 A2999      RMK A02 SLP157 T02440215 PA-54 DA1367=
0139008416999992015063019524-02200+040900FM-15+001099999V0201701N001519999999N009999199+02441+02151101511ADDMA1101491999999REMMET112MOBOB8 METAR XM22 //001 022409 301952Z AUTO 17003KT 9999 24/21 A2997      RMK A02 SLP151 T02440215 PA-36 DA1391=
0139008416999992015063020524-02200+040900FM-15+001099999V0201701N001519999999N009999199+02431+02171101511ADDMA1101491999999REMMET112MOBOB8 METAR XM22 //001 022409 302052Z AUTO 17003KT 9999 24/22 A2997      RMK A02 SLP151 T02430217 PA-36 DA1384=
0139008416999992015063021524-02200+040900FM-15+001099999V0201701N002119999999N009999199+02421+02141101471ADDMA1101461999999REMMET112MOBOB8 METAR XM22 //001 022409 302152Z AUTO 17004KT 9999 24/21 A2996      RMK A02 SLP147 T02420214 PA-27 DA1378=
0139008416999992015063022524-02200+040900FM-15+001099999V0201701N001519999999N009999199+02421+02121101441ADDMA1101421999999REMMET112MOBOB8 METAR XM22 //001 022409 302252Z AUTO 17003KT 9999 24/21 A2995      RMK A02 SLP144 T02420212 PA-17 DA1386=
0139008416999992015063023524-02200+040900FM-15+001099999V0201901N000519999999N009999199+02391+02151101401ADDMA1101391999999REMMET112MOBOB8 METAR XM22 //001 022409 302352Z AUTO 19001KT 9999 24/21 A2994      RMK A02 SLP140 T02390215 PA-08 DA1367=
0139008416999992015070100524-02200+040900FM-15+001099999V0201701N001019999999N009999199+02411+02161101401ADDMA1101391999999REMMET112MOBOB8 METAR XM22 //001 022409 010052Z AUTO 17002KT 9999 24/22 A2994      RMK A02 SLP140 T02410216 PA-08 DA1394=
0166008416999992015070101524-02200+040900FM-15+001099999V0201801N001519999999N009000199+02411+02191101401ADDAA101000021AW1611MA1101391999999REMMET122MOBOB8 METAR XM22 //001 022409 010152Z AUTO 18003KT 9000 -RA 24/22      A2994 RMK A02 SLP140 P0000 T02410219 PA-08 DA1398=
0139008416999992015070102524-02200+040900FM-15+001099999V0201801N001019999999N009999199+02401+02201101441ADDMA1101421999999REMMET112MOBOB8 METAR XM22 //001 022409 010252Z AUTO 18002KT 9999 24/22 A2995      RMK A02 SLP144 T02400220 PA-17 DA1378=
0139008416999992015070103524-02200+040900FM-15+001099999V0209999C000019999999N009999199+02351+02181101511ADDMA1101491999999REMMET112MOBOB8 METAR XM22 //001 022409 010352Z AUTO 00000KT 9999 24/22 A2997      RMK A02 SLP151 T02350218 PA-36 DA1294=
0139008416999992015070104524-02200+040900FM-15+001099999V0201701N002619999999N009999199+02571+02261101571ADDMA1101561999999REMMET112MOBOB8 METAR XM22 //001 022409 010452Z AUTO 17005KT 9999 26/23 A2999      RMK A02 SLP157 T02570226 PA-54 DA1539=
0139008416999992015070105524-02200+040900FM-15+001099999V0201701N002619999999N009999199+02641+02221101641ADDMA1101631999999REMMET112MOBOB8 METAR XM22 //001 022409 010552Z AUTO 17005KT 9999 26/22 A3001      RMK A02 SLP164 T02640222 PA-73 DA1586=
0150008416999992015070106524-02200+040900FM-15+001099999V0201601N005719999999N009999199+02801+02141101641ADDMA1101631999999OC100821REMMET115MOBOB8 METAR XM22 //001 022409 010652Z AUTO 16011G16KT 9999 28/21 A3001      RMK A02 SLP164 T02800214 PA-73 DA1750=
0150008416999992015070107524-02200+040900FM-15+001099999V0201701N005719999999N009999199+02811+02121101611ADDMA1101591999999OC100771REMMET115MOBOB8 METAR XM22 //001 022409 010752Z AUTO 17011G15KT 9999 28/21 A3000      RMK A02 SLP161 T02810212 PA-64 DA1768=
0139008416999992015070108524-02200+040900FM-15+001099999V0201701N003619999999N009999199+02841+02171101611ADDMA1101591999999REMMET112MOBOB8 METAR XM22 //001 022409 010852Z AUTO 17007KT 9999 28/22 A3000      RMK A02 SLP161 T02840217 PA-64 DA1812=
0150008416999992015070109524-02200+040900FM-15+001099999V0201701N004619999999N009999199+02851+02111101541ADDMA1101521999999OC100721REMMET115MOBOB8 METAR XM22 //001 022409 010952Z AUTO 17009G14KT 9999 29/21 A2998      RMK A02 SLP154 T02850211 PA-45 DA1833=
0150008416999992015070110524-02200+040900FM-15+001099999V0201701N004119999999N009999199+02921+02101101471ADDMA1101461999999OC100721REMMET115MOBOB8 METAR XM22 //001 022409 011052Z AUTO 17008G14KT 9999 29/21 A2996      RMK A02 SLP147 T02920210 PA-27 DA1932=
0150008416999992015070111524-02200+040900FM-15+001099999V0201601N004619999999N009999199+02871+02091101441ADDMA1101421999999OC100671REMMET115MOBOB8 METAR XM22 //001 022409 011152Z AUTO 16009G13KT 9999 29/21 A2995      RMK A02 SLP144 T02870209 PA-17 DA1887=
0150008416999992015070112524-02200+040900FM-15+001099999V0201501N004619999999N009999199+02811+02071101401ADDMA1101391999999OC100821REMMET115MOBOB8 METAR XM22 //001 022409 011252Z AUTO 15009G16KT 9999 28/21 A2994      RMK A02 SLP140 T02810207 PA-08 DA1827=
0139008416999992015070113524-02200+040900FM-15+001099999V0201501N003619999999N009999199+02731+02121101401ADDMA1101391999999REMMET112MOBOB8 METAR XM22 //001 022409 011352Z AUTO 15007KT 9999 27/21 A2994      RMK A02 SLP140 T02730212 PA-08 DA1747=
0139008416999992015070114524-02200+040900FM-15+001099999V0201801N002119999999N009999199+02581+02101101441ADDMA1101421999999REMMET112MOBOB8 METAR XM22 //001 022409 011452Z AUTO 18004KT 9999 26/21 A2995      RMK A02 SLP144 T02580210 PA-17 DA1562=
0139008416999992015070115524-02200+040900FM-15+001099999V0201801N001019999999N009999199+02541+02191101471ADDMA1101461999999REMMET112MOBOB8 METAR XM22 //001 022409 011552Z AUTO 18002KT 9999 25/22 A2996      RMK A02 SLP147 T02540219 PA-27 DA1524=
0139008416999992015070117524-02200+040900FM-15+001099999V0201701N001019999999N009999199+02361+02211101541ADDMA1101521999999REMMET112MOBOB8 METAR XM22 //001 022409 011752Z AUTO 17002KT 9999 24/22 A2998      RMK A02 SLP154 T02360221 PA-45 DA1300=
0139008416999992015070118524-02200+040900FM-15+001099999V0201501N002619999999N009999199+02461+02221101571ADDMA1101561999999REMMET112MOBOB8 METAR XM22 //001 022409 011852Z AUTO 15005KT 9999 25/22 A2999      RMK A02 SLP157 T02460222 PA-54 DA1404=
0139008416999992015070119524-02200+040900FM-15+001099999V0201701N001519999999N009999199+02431+02211101611ADDMA1101591999999REMMET112MOBOB8 METAR XM22 //001 022409 011952Z AUTO 17003KT 9999 24/22 A3000      RMK A02 SLP161 T02430221 PA-64 DA1357=
0139008416999992015070120524-02200+040900FM-15+001099999V0201701N001519999999N009999199+02431+02171101611ADDMA1101591999999REMMET112MOBOB8 METAR XM22 //001 022409 012052Z AUTO 17003KT 9999 24/22 A3000      RMK A02 SLP161 T02430217 PA-64 DA1349=
0139008416999992015070121524-02200+040900FM-15+001099999V0201701N000519999999N009999199+02431+02201101571ADDMA1101561999999REMMET112MOBOB8 METAR XM22 //001 022409 012152Z AUTO 17001KT 9999 24/22 A2999      RMK A02 SLP157 T02430220 PA-54 DA1367=
0166008416999992015070122524-02200+040900FM-15+001099999V0201501N001019999999N009000199+02251+01961101541ADDAA101000021AW1611MA1101521999999REMMET122MOBOB8 METAR XM22 //001 022409 012252Z AUTO 15002KT 9000 -RA 23/20      A2998 RMK A02 SLP154 P0000 T02250196 PA-45 DA1126=
0139008416999992015070123524-02200+040900FM-15+001099999V0201501N001019999999N009999199+02301+02021101511ADDMA1101491999999REMMET112MOBOB8 METAR XM22 //001 022409 012352Z AUTO 15002KT 9999 23/20 A2997      RMK A02 SLP151 T02300202 PA-36 DA1207=
0139008416999992015070200524-02200+040900FM-15+001099999V0209999C000019999999N009999199+02281+02081101471ADDMA1101461999999REMMET112MOBOB8 METAR XM22 //001 022409 020052Z AUTO 00000KT 9999 23/21 A2996      RMK A02 SLP147 T02280208 PA-27 DA1206=
0139008416999992015070201524-02200+040900FM-15+001099999V0209999C000019999999N009999199+02291+01981101471ADDMA1101461999999REMMET112MOBOB8 METAR XM22 //001 022409 020152Z AUTO 00000KT 9999 23/20 A2996      RMK A02 SLP147 T02290198 PA-27 DA1199=
0139008416999992015070202524-02200+040900FM-15+001099999V0202901N000519999999N009999199+02261+02041101541ADDMA1101521999999REMMET112MOBOB8 METAR XM22 //001 022409 020252Z AUTO 29001KT 9999 23/20 A2998      RMK A02 SLP154 T02260204 PA-45 DA1153=
0139008416999992015070203524-02200+040900FM-15+001099999V0203301N000519999999N009999199+02311+02141101611ADDMA1101591999999REMMET112MOBOB8 METAR XM22 //001 022409 020352Z AUTO 33001KT 9999 23/21 A3000      RMK A02 SLP161 T02310214 PA-64 DA1205=
0139008416999992015070204524-02200+040900FM-15+001099999V0203501N000519999999N009999199+02411+02231101681ADDMA1101661999999REMMET112MOBOB8 METAR XM22 //001 022409 020452Z AUTO 35001KT 9999 24/22 A3002      RMK A02 SLP168 T02410223 PA-82 DA1315=
0140008416999992015070205524-02200+040900FM-15+001099999V0201601N002619999999N009999199+02681+02211101741ADDMA1101731999999REMMET113MOBOB8 METAR XM22 //001 022409 020552Z AUTO 16005KT 9999 27/22 A3004      RMK A02 SLP174 T02680221 PA-100 DA1595=
0140008416999992015070206524-02200+040900FM-15+001099999V0201601N003119999999N009999199+02751+02221101781ADDMA1101761999999REMMET113MOBOB8 METAR XM22 //001 022409 020652Z AUTO 16006KT 9999 28/22 A3005      RMK A02 SLP178 T02750222 PA-110 DA1665=
0150008416999992015070207524-02200+040900FM-15+001099999V0201601N004119999999N009999199+02851+02101101711ADDMA1101691999999OC100621REMMET115MOBOB8 METAR XM22 //001 022409 020752Z AUTO 16008G12KT 9999 29/21 A3003      RMK A02 SLP171 T02850210 PA-91 DA1774=
0139008416999992015070208524-02200+040900FM-15+001099999V0201701N003119999999N009999199+02811+02141101671ADDMA1101661999999REMMET112MOBOB8 METAR XM22 //001 022409 020852Z AUTO 17006KT 9999 28/21 A3002      RMK A02 SLP167 T02810214 PA-82 DA1749=
0139008416999992015070209524-02200+040900FM-15+001099999V0201701N003619999999N009999199+02841+02171101611ADDMA1101591999999REMMET112MOBOB8 METAR XM22 //001 022409 020952Z AUTO 17007KT 9999 28/22 A3000      RMK A02 SLP161 T02840217 PA-64 DA1812=
0150008416999992015070210524-02200+040900FM-15+001099999V0201601N004119999999N009999199+02791+02151101541ADDMA1101521999999OC100671REMMET115MOBOB8 METAR XM22 //001 022409 021052Z AUTO 16008G13KT 9999 28/22 A2998      RMK A02 SLP154 T02790215 PA-45 DA1775=
0150008416999992015070211524-02200+040900FM-15+001099999V0201701N004119999999N009999199+02741+02111101511ADDMA1101491999999OC100671REMMET115MOBOB8 METAR XM22 //001 022409 021152Z AUTO 17008G13KT 9999 27/21 A2997      RMK A02 SLP151 T02740211 PA-36 DA1721=
0139008416999992015070212524-02200+040900FM-15+001099999V0201701N003119999999N009999199+02791+02191101471ADDMA1101461999999REMMET112MOBOB8 METAR XM22 //001 022409 021252Z AUTO 17006KT 9999 28/22 A2996      RMK A02 SLP147 T02790219 PA-27 DA1805=
0139008416999992015070213524-02200+040900FM-15+001099999V0201801N001519999999N009999199+02571+02051101511ADDMA1101491999999REMMET112MOBOB8 METAR XM22 //001 022409 021352Z AUTO 18003KT 9999 26/21 A2997      RMK A02 SLP151 T02570205 PA-36 DA1519=
0139008416999992015070214524-02200+040900FM-15+001099999V0201801N001519999999N009999199+02521+02091101511ADDMA1101491999999REMMET112MOBOB8 METAR XM22 //001 022409 021452Z AUTO 18003KT 9999 25/21 A2997      RMK A02 SLP151 T02520209 PA-36 DA1469=
0139008416999992015070215524-02200+040900FM-15+001099999V0201701N001519999999N009999199+02491+02181101511ADDMA1101491999999REMMET112MOBOB8 METAR XM22 //001 022409 021552Z AUTO 17003KT 9999 25/22 A2997      RMK A02 SLP151 T02490218 PA-36 DA1454=
0139008416999992015070216524-02200+040900FM-15+001099999V0201601N002119999999N009999199+02551+02201101541ADDMA1101521999999REMMET112MOBOB8 METAR XM22 //001 022409 021652Z AUTO 16004KT 9999 26/22 A2998      RMK A02 SLP154 T02550220 PA-45 DA1514=
0139008416999992015070217524-02200+040900FM-15+001099999V0201701N002619999999N009999199+02581+02131101571ADDMA1101561999999REMMET112MOBOB8 METAR XM22 //001 022409 021752Z AUTO 17005KT 9999 26/21 A2999      RMK A02 SLP157 T02580213 PA-54 DA1522=
0139008416999992015070218524-02200+040900FM-15+001099999V0201701N003119999999N009999199+02581+02101101611ADDMA1101591999999REMMET112MOBOB8 METAR XM22 //001 022409 021852Z AUTO 17006KT 9999 26/21 A3000      RMK A02 SLP161 T02580210 PA-64 DA1506=
0139008416999992015070219524-02200+040900FM-15+001099999V0201701N003119999999N009999199+02561+02061101611ADDMA1101591999999REMMET112MOBOB8 METAR XM22 //001 022409 021952Z AUTO 17006KT 9999 26/21 A3000      RMK A02 SLP161 T02560206 PA-64 DA1476=
0139008416999992015070220524-02200+040900FM-15+001099999V0201701N003119999999N009999199+02541+02041101611ADDMA1101591999999REMMET112MOBOB8 METAR XM22 //001 022409 022052Z AUTO 17006KT 9999 25/20 A3000      RMK A02 SLP161 T02540204 PA-64 DA1449=
0139008416999992015070221524-02200+040900FM-15+001099999V0201701N002619999999N009999199+02521+02071101571ADDMA1101561999999REMMET112MOBOB8 METAR XM22 //001 022409 022152Z AUTO 17005KT 9999 25/21 A2999      RMK A02 SLP157 T02520207 PA-54 DA1443=
0139008416999992015070222524-02200+040900FM-15+001099999V0201701N002119999999N009999199+02471+02141101471ADDMA1101461999999REMMET112MOBOB8 METAR XM22 //001 022409 022252Z AUTO 17004KT 9999 25/21 A2996      RMK A02 SLP147 T02470214 PA-27 DA1434=
0139008416999992015070223524-02200+040900FM-15+001099999V0201701N002619999999N009999199+02481+02021101471ADDMA1101461999999REMMET112MOBOB8 METAR XM22 //001 022409 022352Z AUTO 17005KT 9999 25/20 A2996      RMK A02 SLP147 T02480202 PA-27 DA1423=
0139008416999992015070300524-02200+040900FM-15+001099999V0201701N003119999999N009999199+02511+02031101511ADDMA1101491999999REMMET112MOBOB8 METAR XM22 //001 022409 030052Z AUTO 17006KT 9999 25/20 A2997      RMK A02 SLP151 T02510203 PA-36 DA1447=
0139008416999992015070301524-02200+040900FM-15+001099999V0201701N003119999999N009999199+02511+02031101541ADDMA1101521999999REMMET112MOBOB8 METAR XM22 //001 022409 030152Z AUTO 17006KT 9999 25/20 A2998      RMK A02 SLP154 T02510203 PA-45 DA1435=
0139008416999992015070302524-02200+040900FM-15+001099999V0201701N002119999999N009999199+02481+02041101611ADDMA1101591999999REMMET112MOBOB8 METAR XM22 //001 022409 030252Z AUTO 17004KT 9999 25/20 A3000      RMK A02 SLP161 T02480204 PA-64 DA1381=
0139008416999992015070303524-02200+040900FM-15+001099999V0201701N002119999999N009999199+02491+02101101641ADDMA1101631999999REMMET112MOBOB8 METAR XM22 //001 022409 030352Z AUTO 17004KT 9999 25/21 A3001      RMK A02 SLP164 T02490210 PA-73 DA1391=
0140008416999992015070304524-02200+040900FM-15+001099999V0201701N003619999999N009999199+02671+02041101741ADDMA1101731999999REMMET113MOBOB8 METAR XM22 //001 022409 030452Z AUTO 17007KT 9999 27/20 A3004      RMK A02 SLP174 T02670204 PA-100 DA1551=
0151008416999992015070305524-02200+040900FM-15+001099999V0201701N004119999999N009999199+02761+02071101781ADDMA1101761999999OC100821REMMET116MOBOB8 METAR XM22 //001 022409 030552Z AUTO 17008G16KT 9999 28/21 A3005      RMK A02 SLP178 T02760207 PA-110 DA1646=
0151008416999992015070306524-02200+040900FM-15+001099999V0201701N005119999999N009999199+02821+02091101811ADDMA1101791999999OC100821REMMET116MOBOB8 METAR XM22 //001 022409 030652Z AUTO 17010G16KT 9999 28/21 A3006      RMK A02 SLP181 T02820209 PA-119 DA1706=
0151008416999992015070307524-02200+040900FM-15+001099999V0201601N005119999999N009999199+02891+02071101811ADDMA1101791999999OC100981REMMET116MOBOB8 METAR XM22 //001 022409 030752Z AUTO 16010G19KT 9999 29/21 A3006      RMK A02 SLP181 T02890207 PA-119 DA1779=
0151008416999992015070308524-02200+040900FM-15+001099999V0201601N006219999999N009999199+02861+01981101741ADDMA1101731999999OC101031REMMET116MOBOB8 METAR XM22 //001 022409 030852Z AUTO 16012G20KT 9999 29/20 A3004      RMK A02 SLP174 T02860198 PA-100 DA1753=
0150008416999992015070309524-02200+040900FM-15+001099999V0201701N004619999999N009999199+02811+02051101711ADDMA1101691999999OC100881REMMET115MOBOB8 METAR XM22 //001 022409 030952Z AUTO 17009G17KT 9999 28/21 A3003      RMK A02 SLP171 T02810205 PA-91 DA1721=
0150008416999992015070310524-02200+040900FM-15+001099999V0201701N004119999999N009999199+02931+02071101611ADDMA1101591999999OC100771REMMET115MOBOB8 METAR XM22 //001 022409 031052Z AUTO 17008G15KT 9999 29/21 A3000      RMK A02 SLP161 T02930207 PA-64 DA1893=
0150008416999992015070311524-02200+040900FM-15+001099999V0201701N005119999999N009999199+02831+02041101541ADDMA1101521999999OC101031REMMET115MOBOB8 METAR XM22 //001 022409 031152Z AUTO 17010G20KT 9999 28/20 A2998      RMK A02 SLP154 T02830204 PA-45 DA1798=
0150008416999992015070312524-02200+040900FM-15+001099999V0201701N004119999999N009999199+02801+02041101511ADDMA1101491999999OC100771REMMET115MOBOB8 METAR XM22 //001 022409 031252Z AUTO 17008G15KT 9999 28/20 A2997      RMK A02 SLP151 T02800204 PA-36 DA1777=
0150008416999992015070313524-02200+040900FM-15+001099999V0201601N005719999999N009999199+02741+02081101511ADDMA1101491999999OC100931REMMET115MOBOB8 METAR XM22 //001 022409 031352Z AUTO 16011G18KT 9999 27/21 A2997      RMK A02 SLP151 T02740208 PA-36 DA1715=
0150008416999992015070314524-02200+040900FM-15+001099999V0201701N003619999999N009999199+02651+02111101541ADDMA1101521999999OC100671REMMET115MOBOB8 METAR XM22 //001 022409 031452Z AUTO 17007G13KT 9999 27/21 A2998      RMK A02 SLP154 T02650211 PA-45 DA1610=
0139008416999992015070315524-02200+040900FM-15+001099999V0201701N002619999999N009999199+02591+02071101611ADDMA1101591999999REMMET112MOBOB8 METAR XM22 //001 022409 031552Z AUTO 17005KT 9999 26/21 A3000      RMK A02 SLP161 T02590207 PA-64 DA1511=
0139008416999992015070316524-02200+040900FM-15+001099999V0201701N002619999999N009999199+02571+02021101611ADDMA1101591999999REMMET112MOBOB8 METAR XM22 //001 022409 031652Z AUTO 17005KT 9999 26/20 A3000      RMK A02 SLP161 T02570202 PA-64 DA1478=
0139008416999992015070317524-02200+040900FM-15+001099999V0201601N003119999999N009999199+02591+02081101671ADDMA1101661999999REMMET112MOBOB8 METAR XM22 //001 022409 031752Z AUTO 16006KT 9999 26/21 A3002      RMK A02 SLP167 T02590208 PA-82 DA1490=
0139008416999992015070318524-02200+040900FM-15+001099999V0201701N003119999999N009999199+02561+02011101711ADDMA1101691999999REMMET112MOBOB8 METAR XM22 //001 022409 031852Z AUTO 17006KT 9999 26/20 A3003      RMK A02 SLP171 T02560201 PA-91 DA1431=
0139008416999992015070319524-02200+040900FM-15+001099999V0201701N003619999999N009999199+02551+01981101711ADDMA1101691999999REMMET112MOBOB8 METAR XM22 //001 022409 031952Z AUTO 17007KT 9999 26/20 A3003      RMK A02 SLP171 T02550198 PA-91 DA1415=
0139008416999992015070320524-02200+040900FM-15+001099999V0201701N003119999999N009999199+02531+01991101711ADDMA1101691999999REMMET112MOBOB8 METAR XM22 //001 022409 032052Z AUTO 17006KT 9999 25/20 A3003      RMK A02 SLP171 T02530199 PA-91 DA1394=
0139008416999992015070321524-02200+040900FM-15+001099999V0201701N002119999999N009999199+02481+02021101671ADDMA1101661999999REMMET112MOBOB8 METAR XM22 //001 022409 032152Z AUTO 17004KT 9999 25/20 A3002      RMK A02 SLP167 T02480202 PA-82 DA1355=
0139008416999992015070322524-02200+040900FM-15+001099999V0201701N002619999999N009999199+02471+02011101611ADDMA1101591999999REMMET112MOBOB8 METAR XM22 //001 022409 032252Z AUTO 17005KT 9999 25/20 A3000      RMK A02 SLP161 T02470201 PA-64 DA1363=
0139008416999992015070323524-02200+040900FM-15+001099999V0201701N003119999999N009999199+02501+01981101571ADDMA1101561999999REMMET112MOBOB8 METAR XM22 //001 022409 032352Z AUTO 17006KT 9999 25/20 A2999      RMK A02 SLP157 T02500198 PA-54 DA1404=
0139008416999992015070400524-02200+040900FM-15+001099999V0201701N002619999999N009999199+02471+02011101511ADDMA1101491999999REMMET112MOBOB8 METAR XM22 //001 022409 040052Z AUTO 17005KT 9999 25/20 A2997      RMK A02 SLP151 T02470201 PA-36 DA1399=
0139008416999992015070401524-02200+040900FM-15+001099999V0201701N002619999999N009999199+02491+02041101541ADDMA1101521999999REMMET112MOBOB8 METAR XM22 //001 022409 040152Z AUTO 17005KT 9999 25/20 A2998      RMK A02 SLP154 T02490204 PA-45 DA1415=
0139008416999992015070402524-02200+040900FM-15+001099999V0201701N002619999999N009999199+02471+02051101571ADDMA1101561999999REMMET112MOBOB8 METAR XM22 //001 022409 040252Z AUTO 17005KT 9999 25/20 A2999      RMK A02 SLP157 T02470205 PA-54 DA1382=
0139008416999992015070403524-02200+040900FM-15+001099999V0201801N001019999999N009999199+02461+02091101641ADDMA1101631999999REMMET112MOBOB8 METAR XM22 //001 022409 040352Z AUTO 18002KT 9999 25/21 A3001      RMK A02 SLP164 T02460209 PA-73 DA1356=
0139008416999992015070404524-02200+040900FM-15+001099999V0201801N002619999999N009999199+02641+02101101711ADDMA1101691999999REMMET112MOBOB8 METAR XM22 //001 022409 040452Z AUTO 18005KT 9999 26/21 A3003      RMK A02 SLP171 T02640210 PA-91 DA1539=
0151008416999992015070405524-02200+040900FM-15+001099999V0201701N003619999999N009999199+02641+02111101811ADDMA1101791999999OC100621REMMET116MOBOB8 METAR XM22 //001 022409 040552Z AUTO 17007G12KT 9999 26/21 A3006      RMK A02 SLP181 T02640211 PA-119 DA1507=
0167008416999992015070406524-02200+040900FM-15+001099999V0201701N002119999999N009000199+02651+02241101811ADDAA101000021AW1611MA1101791999999REMMET123MOBOB8 METAR XM22 //001 022409 040652Z AUTO 17004KT 9000 -RA 27/22      A3006 RMK A02 SLP181 P0000 T02650224 PA-119 DA1544=
0151008416999992015070407524-02200+040900FM-15+001099999V0201701N005119999999N009999199+02831+01991101811ADDMA1101791999999OC100881REMMET116MOBOB8 METAR XM22 //001 022409 040752Z AUTO 17010G17KT 9999 28/20 A3006      RMK A02 SLP181 T02830199 PA-119 DA1697=
0151008416999992015070408524-02200+040900FM-15+001099999V0201601N006219999999N009999199+02881+01961101781ADDMA1101761999999OC100931REMMET116MOBOB8 METAR XM22 //001 022409 040852Z AUTO 16012G18KT 9999 29/20 A3005      RMK A02 SLP178 T02880196 PA-110 DA1761=
0151008416999992015070409524-02200+040900FM-15+001099999V0201601N006219999999N009999199+02891+01991101741ADDMA1101731999999OC100931REMMET116MOBOB8 METAR XM22 //001 022409 040952Z AUTO 16012G18KT 9999 29/20 A3004      RMK A02 SLP174 T02890199 PA-100 DA1788=
0177008416999992015070410524-02200+040900FM-15+001099999V0201601N006219999999N009000199+02881+01911101711ADDAA101000021AW1611MA1101691999999OC101031REMMET125MOBOB8 METAR XM22 //001 022409 041052Z AUTO 16012G20KT 9000 -RA 29/19      A3003 RMK A02 SLP171 P0000 T02880191 PA-91 DA1774=
0150008416999992015070411524-02200+040900FM-15+001099999V0201701N005119999999N009999199+02861+01931101641ADDMA1101631999999OC100981REMMET115MOBOB8 METAR XM22 //001 022409 041152Z AUTO 17010G19KT 9999 29/19 A3001      RMK A02 SLP164 T02860193 PA-73 DA1778=
0150008416999992015070412524-02200+040900FM-15+001099999V0201601N005719999999N009999199+02821+01961101571ADDMA1101561999999OC100881REMMET115MOBOB8 METAR XM22 //001 022409 041252Z AUTO 16011G17KT 9999 28/20 A2999      RMK A02 SLP157 T02820196 PA-54 DA1760=
0139008416999992015070413524-02200+040900FM-15+001099999V0201701N003619999999N009999199+02771+01931101571ADDMA1101561999999REMMET112MOBOB8 METAR XM22 //001 022409 041352Z AUTO 17007KT 9999 28/19 A2999      RMK A02 SLP157 T02770193 PA-54 DA1699=
0139008416999992015070414524-02200+040900FM-15+001099999V0201701N003619999999N009999199+02651+01991101611ADDMA1101591999999REMMET112MOBOB8 METAR XM22 //001 022409 041452Z AUTO 17007KT 9999 27/20 A3000      RMK A02 SLP161 T02650199 PA-64 DA1563=
0139008416999992015070415524-02200+040900FM-15+001099999V0201701N002619999999N009999199+02561+02051101611ADDMA1101591999999REMMET112MOBOB8 METAR XM22 //001 022409 041552Z AUTO 17005KT 9999 26/20 A3000      RMK A02 SLP161 T02560205 PA-64 DA1473=
0139008416999992015070416524-02200+040900FM-15+001099999V0201701N003119999999N009999199+02551+02061101611ADDMA1101591999999REMMET112MOBOB8 METAR XM22 //001 022409 041652Z AUTO 17006KT 9999 26/21 A3000      RMK A02 SLP161 T02550206 PA-64 DA1463=
0139008416999992015070417524-02200+040900FM-15+001099999V0201701N002119999999N009999199+02541+02041101671ADDMA1101661999999REMMET112MOBOB8 METAR XM22 //001 022409 041752Z AUTO 17004KT 9999 25/20 A3002      RMK A02 SLP167 T02540204 PA-82 DA1427=
0139008416999992015070418524-02200+040900FM-15+001099999V0201701N002619999999N009999199+02521+02031101711ADDMA1101691999999REMMET112MOBOB8 METAR XM22 //001 022409 041852Z AUTO 17005KT 9999 25/20 A3003      RMK A02 SLP171 T02520203 PA-91 DA1390=
0140008416999992015070419524-02200+040900FM-15+001099999V0201701N002619999999N009999199+02541+02041101741ADDMA1101731999999REMMET113MOBOB8 METAR XM22 //001 022409 041952Z AUTO 17005KT 9999 25/20 A3004      RMK A02 SLP174 T02540204 PA-100 DA1404=
0139008416999992015070420524-02200+040900FM-15+001099999V0201801N002119999999N009999199+02521+02091101711ADDMA1101691999999REMMET112MOBOB8 METAR XM22 //001 022409 042052Z AUTO 18004KT 9999 25/21 A3003      RMK A02 SLP171 T02520209 PA-91 DA1401=
0139008416999992015070421524-02200+040900FM-15+001099999V0201801N002119999999N009999199+02491+02081101671ADDMA1101661999999REMMET112MOBOB8 METAR XM22 //001 022409 042152Z AUTO 18004KT 9999 25/21 A3002      RMK A02 SLP167 T02490208 PA-82 DA1376=
0139008416999992015070422524-02200+040900FM-15+001099999V0201701N002119999999N009999199+02511+02081101611ADDMA1101591999999REMMET112MOBOB8 METAR XM22 //001 022409 042252Z AUTO 17004KT 9999 25/21 A3000      RMK A02 SLP161 T02510208 PA-64 DA1421=
0139008416999992015070423524-02200+040900FM-15+001099999V0201701N002119999999N009999199+02501+02061101571ADDMA1101561999999REMMET112MOBOB8 METAR XM22 //001 022409 042352Z AUTO 17004KT 9999 25/21 A2999      RMK A02 SLP157 T02500206 PA-54 DA1419=
0139008416999992015070500524-02200+040900FM-15+001099999V0201701N002119999999N009999199+02471+02091101541ADDMA1101521999999REMMET112MOBOB8 METAR XM22 //001 022409 050052Z AUTO 17004KT 9999 25/21 A2998      RMK A02 SLP154 T02470209 PA-45 DA1402=
0139008416999992015070501524-02200+040900FM-15+001099999V0201801N001019999999N009999199+02451+02111101541ADDMA1101521999999REMMET112MOBOB8 METAR XM22 //001 022409 050152Z AUTO 18002KT 9999 25/21 A2998      RMK A02 SLP154 T02450211 PA-45 DA1383=
0139008416999992015070502524-02200+040900FM-15+001099999V0201801N002119999999N009999199+02511+02151101571ADDMA1101561999999REMMET112MOBOB8 METAR XM22 //001 022409 050252Z AUTO 18004KT 9999 25/22 A2999      RMK A02 SLP157 T02510215 PA-54 DA1447=
0139008416999992015070503524-02200+040900FM-15+001099999V0201701N002119999999N009999199+02481+02121101611ADDMA1101591999999REMMET112MOBOB8 METAR XM22 //001 022409 050352Z AUTO 17004KT 9999 25/21 A3000      RMK A02 SLP161 T02480212 PA-64 DA1396=
0166008416999992015070504524-02200+040900FM-15+001099999V0201701N002619999999N009000199+02531+02221101671ADDAA101000021AW1611MA1101661999999REMMET122MOBOB8 METAR XM22 //001 022409 050452Z AUTO 17005KT 9000 -RA 25/22      A3002 RMK A02 SLP167 P0000 T02530222 PA-82 DA1451=
0140008416999992015070505524-02200+040900FM-15+001099999V0201701N003119999999N009999199+02691+02241101741ADDMA1101731999999REMMET113MOBOB8 METAR XM22 //001 022409 050552Z AUTO 17006KT 9999 27/22 A3004      RMK A02 SLP174 T02690224 PA-100 DA1612=
0151008416999992015070506524-02200+040900FM-15+001099999V0201601N004619999999N009999199+02751+02191101781ADDMA1101761999999OC100721REMMET116MOBOB8 METAR XM22 //001 022409 050652Z AUTO 16009G14KT 9999 28/22 A3005      RMK A02 SLP178 T02750219 PA-110 DA1659=
0178008416999992015070507524-02200+040900FM-15+001099999V0201601N005119999999N009000199+02771+02191101741ADDAA101000021AW1611MA1101731999999OC100821REMMET126MOBOB8 METAR XM22 //001 022409 050752Z AUTO 16010G16KT 9000 -RA 28/22      A3004 RMK A02 SLP174 P0000 T02770219 PA-100 DA1693=
0150008416999992015070508524-02200+040900FM-15+001099999V0201701N004619999999N009999199+02841+02171101711ADDMA1101691999999OC100721REMMET115MOBOB8 METAR XM22 //001 022409 050852Z AUTO 17009G14KT 9999 28/22 A3003      RMK A02 SLP171 T02840217 PA-91 DA1778=
0159008416999992015070509524-02200+040900FM-15+001099999V0201701N005719999999N006000199+02911+02131101671ADDAW1051MA1101661999999OC100931REMMET118MOBOB8 METAR XM22 //001 022409 050952Z AUTO 17011G18KT 6000 HZ 29/21      A3002 RMK A02 SLP167 T02910213 PA-82 DA1858=
0159008416999992015070510524-02200+040900FM-15+001099999V0201701N005719999999N002400199+02921+02171101641ADDAW1051MA1101631999999OC100931REMMET118MOBOB8 METAR XM22 //001 022409 051052Z AUTO 17011G18KT 2400 HZ 29/22      A3001 RMK A02 SLP164 T02920217 PA-73 DA1890=
0150008416999992015070511524-02200+040900FM-15+001099999V0201701N004619999999N009999199+02851+02201101571ADDMA1101561999999OC100931REMMET115MOBOB8 METAR XM22 //001 022409 051152Z AUTO 17009G18KT 9999 29/22 A2999      RMK A02 SLP157 T02850220 PA-54 DA1840=
0150008416999992015070512524-02200+040900FM-15+001099999V0201701N005119999999N009999199+02851+02151101541ADDMA1101521999999OC101081REMMET115MOBOB8 METAR XM22 //001 022409 051252Z AUTO 17010G21KT 9999 29/22 A2998      RMK A02 SLP154 T02850215 PA-45 DA1842=
0150008416999992015070513524-02200+040900FM-15+001099999V0201701N004119999999N009999199+02771+02171101541ADDMA1101521999999OC100721REMMET115MOBOB8 METAR XM22 //001 022409 051352Z AUTO 17008G14KT 9999 28/22 A2998      RMK A02 SLP154 T02770217 PA-45 DA1756=
0139008416999992015070514524-02200+040900FM-15+001099999V0201701N002619999999N009999199+02681+02201101541ADDMA1101521999999REMMET112MOBOB8 METAR XM22 //001 022409 051452Z AUTO 17005KT 9999 27/22 A2998      RMK A02 SLP154 T02680220 PA-45 DA1661=
0139008416999992015070515524-02200+040900FM-15+001099999V0201701N002619999999N009999199+02621+02221101571ADDMA1101561999999REMMET112MOBOB8 METAR XM22 //001 022409 051552Z AUTO 17005KT 9999 26/22 A2999      RMK A02 SLP157 T02620222 PA-54 DA1586=
0139008416999992015070516524-02200+040900FM-15+001099999V0201801N002619999999N009999199+02621+02241101611ADDMA1101591999999REMMET112MOBOB8 METAR XM22 //001 022409 051652Z AUTO 18005KT 9999 26/22 A3000      RMK A02 SLP161 T02620224 PA-64 DA1579=
0139008416999992015070517524-02200+040900FM-15+001099999V0201801N002119999999N009999199+02591+02241101641ADDMA1101631999999REMMET112MOBOB8 METAR XM22 //001 022409 051752Z AUTO 18004KT 9999 26/22 A3001      RMK A02 SLP164 T02590224 PA-73 DA1533=
0139008416999992015070518524-02200+040900FM-15+001099999V0201801N001519999999N009999199+02591+02231101671ADDMA1101661999999REMMET112MOBOB8 METAR XM22 //001 022409 051852Z AUTO 18003KT 9999 26/22 A3002      RMK A02 SLP167 T02590223 PA-82 DA1520=
0139008416999992015070519524-02200+040900FM-15+001099999V0201801N001519999999N009999199+02591+02211101671ADDMA1101661999999REMMET112MOBOB8 METAR XM22 //001 022409 051952Z AUTO 18003KT 9999 26/22 A3002      RMK A02 SLP167 T02590221 PA-82 DA1517=
0166008416999992015070520524-02200+040900FM-15+001099999V0201801N001519999999N009000199+02541+02251101641ADDAA101000021AW1611MA1101631999999REMMET122MOBOB8 METAR XM22 //001 022409 052052Z AUTO 18003KT 9000 -RA 25/22      A3001 RMK A02 SLP164 P0000 T02540225 PA-73 DA1479=
0139008416999992015070521524-02200+040900FM-15+001099999V0201901N001019999999N009999199+02541+02241101571ADDMA1101561999999REMMET112MOBOB8 METAR XM22 //001 022409 052152Z AUTO 19002KT 9999 25/22 A2999      RMK A02 SLP157 T02540224 PA-54 DA1499=
0139008416999992015070522524-02200+040900FM-15+001099999V0201801N001019999999N009999199+02511+02231101511ADDMA1101491999999REMMET112MOBOB8 METAR XM22 //001 022409 052252Z AUTO 18002KT 9999 25/22 A2997      RMK A02 SLP151 T02510223 PA-36 DA1486=
0139008416999992015070523524-02200+040900FM-15+001099999V0201801N001519999999N009999199+02531+02241101471ADDMA1101461999999REMMET112MOBOB8 METAR XM22 //001 022409 052352Z AUTO 18003KT 9999 25/22 A2996      RMK A02 SLP147 T02530224 PA-27 DA1523=
0166008416999992015070600524-02200+040900FM-15+001099999V0201801N001019999999N009000199+02511+02241101471ADDAA101000021AW1611MA1101461999999REMMET122MOBOB8 METAR XM22 //001 022409 060052Z AUTO 18002KT 9000 -RA 25/22      A2996 RMK A02 SLP147 P0000 T02510224 PA-27 DA1500=
0166008416999992015070601524-02200+040900FM-15+001099999V0201901N000519999999N009000199+02451+02271101471ADDAA101000021AW1631MA1101461999999REMMET122MOBOB8 METAR XM22 //001 022409 060152Z AUTO 19001KT 9000 +RA 25/23      A2996 RMK A02 SLP147 P0000 T02450227 PA-27 DA1439=
0175008416999992015070602524-02200+040900FM-15+001099999V0201801N001519999999N005000199+02421+02291101511ADDAA101003831AW1101AW2611MA1101491999999REMMET125MOBOB8 METAR XM22 //001 022409 060252Z AUTO 18003KT 5000 -RA BR 24/23      A2997 RMK A02 SLP151 P0015 T02420229 PA-36 DA1396=
0166008416999992015070603524-02200+040900FM-15+001099999V0201801N002119999999N009000199+02311+02171101571ADDAA101003331AW1611MA1101561999999REMMET122MOBOB8 METAR XM22 //001 022409 060352Z AUTO 18004KT 9000 -RA 23/22      A2999 RMK A02 SLP157 P0013 T02310217 PA-54 DA1223=
0175008416999992015070604524-02200+040900FM-15+001099999V0201501N002619999999N005000199+02441+02311101641ADDAA101002231AW1101AW2611MA1101631999999REMMET125MOBOB8 METAR XM22 //001 022409 060452Z AUTO 15005KT 5000 -RA BR 24/23      A3001 RMK A02 SLP164 P0009 T02440231 PA-73 DA1379=
0139008416999992015070605524-02200+040900FM-15+001099999V0201701N002119999999N009999199+02571+02381101671ADDMA1101661999999REMMET112MOBOB8 METAR XM22 //001 022409 060552Z AUTO 17004KT 9999 26/24 A3002      RMK A02 SLP167 T02570238 PA-82 DA1529=
0166008416999992015070606524-02200+040900FM-15+001099999V0201701N002619999999N009000199+02671+02381101671ADDAA101000021AW1611MA1101661999999REMMET122MOBOB8 METAR XM22 //001 022409 060652Z AUTO 17005KT 9000 -RA 27/24      A3002 RMK A02 SLP167 P0000 T02670238 PA-82 DA1643=
0177008416999992015070607524-02200+040900FM-15+001099999V0201701N004119999999N009000199+02731+02361101641ADDAA101000531AW1611MA1101631999999OC100771REMMET125MOBOB8 METAR XM22 //001 022409 060752Z AUTO 17008G15KT 9000 -RA 27/24      A3001 RMK A02 SLP164 P0002 T02730236 PA-73 DA1718=
0150008416999992015070608524-02200+040900FM-15+001099999V0201601N006719999999N009999199+02841+02291101611ADDMA1101591999999OC101031REMMET115MOBOB8 METAR XM22 //001 022409 060852Z AUTO 16013G20KT 9999 28/23 A3000      RMK A02 SLP161 T02840229 PA-64 DA1836=
0150008416999992015070609524-02200+040900FM-15+001099999V0201501N005719999999N009999199+02851+02281101571ADDMA1101561999999OC100931REMMET115MOBOB8 METAR XM22 //001 022409 060952Z AUTO 15011G18KT 9999 29/23 A2999      RMK A02 SLP157 T02850228 PA-54 DA1857=
0150008416999992015070610524-02200+040900FM-15+001099999V0201601N005719999999N009999199+02851+02241101541ADDMA1101521999999OC101241REMMET115MOBOB8 METAR XM22 //001 022409 061052Z AUTO 16011G24KT 9999 29/22 A2998      RMK A02 SLP154 T02850224 PA-45 DA1860=
0150008416999992015070611524-02200+040900FM-15+001099999V0201601N007219999999N009999199+02821+02181101471ADDMA1101461999999OC101031REMMET115MOBOB8 METAR XM22 //001 022409 061152Z AUTO 16014G20KT 9999 28/22 A2996      RMK A02 SLP147 T02820218 PA-27 DA1837=
0150008416999992015070613524-02200+040900FM-15+001099999V0201701N003619999999N009999199+02731+02261101441ADDMA1101421999999OC100671REMMET115MOBOB8 METAR XM22 //001 022409 061352Z AUTO 17007G13KT 9999 27/23 A2995      RMK A02 SLP144 T02730226 PA-17 DA1765=
0177008416999992015070614524-02200+040900FM-15+001099999V0201701N003619999999N009000199+02661+02291101471ADDAA101000021AW1611MA1101461999999OC100621REMMET125MOBOB8 METAR XM22 //001 022409 061452Z AUTO 17007G12KT 9000 -RA 27/23      A2996 RMK A02 SLP147 P0000 T02660229 PA-27 DA1680=
0166008416999992015070615524-02200+040900FM-15+001099999V0201601N003119999999N009000199+02501+02191101541ADDAA101000531AW1611MA1101521999999REMMET122MOBOB8 METAR XM22 //001 022409 061552Z AUTO 16006KT 9000 -RA 25/22      A2998 RMK A02 SLP154 P0002 T02500219 PA-45 DA1456=
0139008416999992015070616524-02200+040900FM-15+001099999V0201701N002119999999N009999199+02501+02291101571ADDMA1101561999999REMMET112MOBOB8 METAR XM22 //001 022409 061652Z AUTO 17004KT 9999 25/23 A2999      RMK A02 SLP157 T02500229 PA-54 DA1464=
0139008416999992015070617524-02200+040900FM-15+001099999V0201701N002619999999N009999199+02551+02271101611ADDMA1101591999999REMMET112MOBOB8 METAR XM22 //001 022409 061752Z AUTO 17005KT 9999 26/23 A3000      RMK A02 SLP161 T02550227 PA-64 DA1506=
0139008416999992015070618524-02200+040900FM-15+001099999V0201701N001019999999N009999199+02531+02291101641ADDMA1101631999999REMMET112MOBOB8 METAR XM22 //001 022409 061852Z AUTO 17002KT 9999 25/23 A3001      RMK A02 SLP164 T02530229 PA-73 DA1477=
0139008416999992015070619524-02200+040900FM-15+001099999V0201801N001519999999N009999199+02531+02261101641ADDMA1101631999999REMMET112MOBOB8 METAR XM22 //001 022409 061952Z AUTO 18003KT 9999 25/23 A3001      RMK A02 SLP164 T02530226 PA-73 DA1469=
0177008416999992015070620524-02200+040900FM-15+001099999V0201601N004619999999N009000199+02481+02121101641ADDAA101000531AW1611MA1101631999999OC100881REMMET125MOBOB8 METAR XM22 //001 022409 062052Z AUTO 16009G17KT 9000 -RA 25/21      A3001 RMK A02 SLP164 P0002 T02480212 PA-73 DA1384=
0139008416999992015070621524-02200+040900FM-15+001099999V0201801N001519999999N009999199+02411+02241101611ADDMA1101591999999REMMET112MOBOB8 METAR XM22 //001 022409 062152Z AUTO 18003KT 9999 24/22 A3000      RMK A02 SLP161 T02410224 PA-64 DA1340=
0139008416999992015070622524-02200+040900FM-15+001099999V0201801N002119999999N009999199+02431+02231101511ADDMA1101491999999REMMET112MOBOB8 METAR XM22 //001 022409 062252Z AUTO 18004KT 9999 24/22 A2997      RMK A02 SLP151 T02430223 PA-36 DA1395=
0139008416999992015070623524-02200+040900FM-15+001099999V0201801N001019999999N009999199+02461+02271101471ADDMA1101461999999REMMET112MOBOB8 METAR XM22 //001 022409 062352Z AUTO 18002KT 9999 25/23 A2996      RMK A02 SLP147 T02460227 PA-27 DA1450=
0166008416999992015070700524-02200+040900FM-15+001099999V0201701N003119999999N009000199+02521+02221101441ADDAA101000021AW1611MA1101421999999REMMET122MOBOB8 METAR XM22 //001 022409 070052Z AUTO 17006KT 9000 -RA 25/22      A2995 RMK A02 SLP144 P0000 T02520222 PA-17 DA1519=
0166008416999992015070701524-02200+040900FM-15+001099999V0201701N003619999999N009000199+02391+02231101471ADDAA101000021AW1611MA1101461999999REMMET122MOBOB8 METAR XM22 //001 022409 070152Z AUTO 17007KT 9000 -RA 24/22      A2996 RMK A02 SLP147 P0000 T02390223 PA-27 DA1362=
0139008416999992015070702524-02200+040900FM-15+001099999V0201801N001519999999N009999199+02401+02251101541ADDMA1101521999999REMMET112MOBOB8 METAR XM22 //001 022409 070252Z AUTO 18003KT 9999 24/22 A2998      RMK A02 SLP154 T02400225 PA-45 DA1354=
0166008416999992015070703524-02200+040900FM-15+001099999V0201701N003119999999N009000199+02471+02231101611ADDAA101000021AW1611MA1101591999999REMMET122MOBOB8 METAR XM22 //001 022409 070352Z AUTO 17006KT 9000 -RA 25/22      A3000 RMK A02 SLP161 P0000 T02470223 PA-64 DA1407=
0177008416999992015070704524-02200+040900FM-15+001099999V0201601N005719999999N003200199+02451+02211101681ADDAA101001531AW1611MA1101661999999OC100981REMMET125MOBOB8 METAR XM22 //001 022409 070452Z AUTO 16011G19KT 3200 -RA 25/22      A3002 RMK A02 SLP168 P0006 T02450221 PA-82 DA1357=
0177008416999992015070705524-02200+040900FM-15+001099999V0201601N004119999999N009000199+02621+02301101711ADDAA101000021AW1611MA1101691999999OC100771REMMET125MOBOB8 METAR XM22 //001 022409 070552Z AUTO 16008G15KT 9000 -RA 26/23      A3003 RMK A02 SLP171 P0000 T02620230 PA-91 DA1558=
0151008416999992015070706524-02200+040900FM-15+001099999V0201701N005719999999N009999199+02751+02211101741ADDMA1101731999999OC100931REMMET116MOBOB8 METAR XM22 //001 022409 070652Z AUTO 17011G18KT 9999 28/22 A3004      RMK A02 SLP174 T02750221 PA-100 DA1673=
0151008416999992015070707524-02200+040900FM-15+001099999V0201701N004119999999N009999199+02761+02241101741ADDMA1101731999999OC100671REMMET116MOBOB8 METAR XM22 //001 022409 070752Z AUTO 17008G13KT 9999 28/22 A3004      RMK A02 SLP174 T02760224 PA-100 DA1691=
0150008416999992015070708524-02200+040900FM-15+001099999V0201601N006219999999N009999199+02811+02121101671ADDMA1101661999999OC101031REMMET115MOBOB8 METAR XM22 //001 022409 070852Z AUTO 16012G20KT 9999 28/21 A3002      RMK A02 SLP167 T02810212 PA-82 DA1745=
0150008416999992015070709524-02200+040900FM-15+001099999V0201701N005719999999N009999199+02771+02121101641ADDMA1101631999999OC100931REMMET115MOBOB8 METAR XM22 //001 022409 070952Z AUTO 17011G18KT 9999 28/21 A3001      RMK A02 SLP164 T02770212 PA-73 DA1712=
0150008416999992015070710524-02200+040900FM-15+001099999V0201701N004119999999N009999199+02841+02141101611ADDMA1101591999999OC100821REMMET115MOBOB8 METAR XM22 //001 022409 071052Z AUTO 17008G16KT 9999 28/21 A3000      RMK A02 SLP161 T02840214 PA-64 DA1806=
0150008416999992015070711524-02200+040900FM-15+001099999V0201701N005719999999N009999199+02801+02161101511ADDMA1101491999999OC100931REMMET115MOBOB8 METAR XM22 //001 022409 071152Z AUTO 17011G18KT 9999 28/22 A2997      RMK A02 SLP151 T02800216 PA-36 DA1798=
0177008416999992015070712524-02200+040900FM-15+001099999V0201701N004619999999N009000199+02781+02091101441ADDAA101000021AW1611MA1101421999999OC100881REMMET125MOBOB8 METAR XM22 //001 022409 071252Z AUTO 17009G17KT 9000 -RA 28/21      A2995 RMK A02 SLP144 P0000 T02780209 PA-17 DA1785=
0150008416999992015070713524-02200+040900FM-15+001099999V0201701N004119999999N009999199+02701+02141101441ADDMA1101421999999OC100721REMMET115MOBOB8 METAR XM22 //001 022409 071352Z AUTO 17008G14KT 9999 27/21 A2995      RMK A02 SLP144 T02700214 PA-17 DA1706=
0139008416999992015070715524-02200+040900FM-15+001099999V0201701N003119999999N009999199+02561+02121101471ADDMA1101461999999REMMET112MOBOB8 METAR XM22 //001 022409 071552Z AUTO 17006KT 9999 26/21 A2996      RMK A02 SLP147 T02560212 PA-27 DA1532=
0139008416999992015070716524-02200+040900FM-15+001099999V0201701N003119999999N009999199+02561+02111101511ADDMA1101491999999REMMET112MOBOB8 METAR XM22 //001 022409 071652Z AUTO 17006KT 9999 26/21 A2997      RMK A02 SLP151 T02560211 PA-36 DA1519=
0139008416999992015070717524-02200+040900FM-15+001099999V0201701N003119999999N009999199+02541+02121101541ADDMA1101521999999REMMET112MOBOB8 METAR XM22 //001 022409 071752Z AUTO 17006KT 9999 25/21 A2998      RMK A02 SLP154 T02540212 PA-45 DA1487=
0139008416999992015070718524-02200+040900FM-15+001099999V0201701N002619999999N009999199+02521+02131101571ADDMA1101561999999REMMET112MOBOB8 METAR XM22 //001 022409 071852Z AUTO 17005KT 9999 25/21 A2999      RMK A02 SLP157 T02520213 PA-54 DA1455=
0139008416999992015070719524-02200+040900FM-15+001099999V0201701N002119999999N009999199+02531+02151101571ADDMA1101561999999REMMET112MOBOB8 METAR XM22 //001 022409 071952Z AUTO 17004KT 9999 25/21 A2999      RMK A02 SLP157 T02530215 PA-54 DA1469=
0139008416999992015070720524-02200+040900FM-15+001099999V0201801N001519999999N009999199+02521+02171101571ADDMA1101561999999REMMET112MOBOB8 METAR XM22 //001 022409 072052Z AUTO 18003KT 9999 25/22 A2999      RMK A02 SLP157 T02520217 PA-54 DA1462=
0139008416999992015070721524-02200+040900FM-15+001099999V0201701N002619999999N009999199+02501+02141101511ADDMA1101491999999REMMET112MOBOB8 METAR XM22 //001 022409 072152Z AUTO 17005KT 9999 25/21 A2997      RMK A02 SLP151 T02500214 PA-36 DA1457=
0139008416999992015070722524-02200+040900FM-15+001099999V0201701N002619999999N009999199+02511+02101101471ADDMA1101461999999REMMET112MOBOB8 METAR XM22 //001 022409 072252Z AUTO 17005KT 9999 25/21 A2996      RMK A02 SLP147 T02510210 PA-27 DA1472=
0139008416999992015070723524-02200+040900FM-15+001099999V0201701N003119999999N009999199+02521+02071101441ADDMA1101421999999REMMET112MOBOB8 METAR XM22 //001 022409 072352Z AUTO 17006KT 9999 25/21 A2995      RMK A02 SLP144 T02520207 PA-17 DA1489=
0139008416999992015070800524-02200+040900FM-15+001099999V0201701N002619999999N009999199+02501+02081101471ADDMA1101461999999REMMET112MOBOB8 METAR XM22 //001 022409 080052Z AUTO 17005KT 9999 25/21 A2996      RMK A02 SLP147 T02500208 PA-27 DA1456=
0139008416999992015070801524-02200+040900FM-15+001099999V0201701N002619999999N009999199+02481+02051101511ADDMA1101491999999REMMET112MOBOB8 METAR XM22 //001 022409 080152Z AUTO 17005KT 9999 25/21 A2997      RMK A02 SLP151 T02480205 PA-36 DA1417=
0138008416999992015070802524-02200+040900FM-15+001099999V0201701N003119999999N009999199+02481+02071999999ADDMA1101491999999REMMET111MOBOB8 METAR XM22 //001 022409 080252Z AUTO 17006KT 9999 25/21 A2997      RMK A02 SLPNO T02480207 PA-36 DA1421=
0139008416999992015070803524-02200+040900FM-15+001099999V0201701N003119999999N009999199+02501+02121101541ADDMA1101521999999REMMET112MOBOB8 METAR XM22 //001 022409 080352Z AUTO 17006KT 9999 25/21 A2998      RMK A02 SLP154 T02500212 PA-45 DA1441=
0139008416999992015070804524-02200+040900FM-15+001099999V0201601N004119999999N009999199+02661+02131101611ADDMA1101591999999REMMET112MOBOB8 METAR XM22 //001 022409 080452Z AUTO 16008KT 9999 27/21 A3000      RMK A02 SLP161 T02660213 PA-64 DA1602=
0177008416999992015070805524-02200+040900FM-15+001099999V0201601N005719999999N009000199+02721+02141101671ADDAA101000021AW1611MA1101661999999OC100821REMMET125MOBOB8 METAR XM22 //001 022409 080552Z AUTO 16011G16KT 9000 -RA 27/21      A3002 RMK A02 SLP167 P0000 T02720214 PA-82 DA1648=
0150008416999992015070807524-02200+040900FM-15+001099999V0201701N006219999999N009999199+02761+02171101671ADDMA1101661999999OC101031REMMET115MOBOB8 METAR XM22 //001 022409 080752Z AUTO 17012G20KT 9999 28/22 A3002      RMK A02 SLP167 T02760217 PA-82 DA1699=
0150008416999992015070808524-02200+040900FM-15+001099999V0201601N005719999999N009999199+02801+02141101611ADDMA1101591999999OC100981REMMET115MOBOB8 METAR XM22 //001 022409 080852Z AUTO 16011G19KT 9999 28/21 A3000      RMK A02 SLP161 T02800214 PA-64 DA1761=
0150008416999992015070809524-02200+040900FM-15+001099999V0201701N006219999999N009999199+02841+02051101511ADDMA1101491999999OC101081REMMET115MOBOB8 METAR XM22 //001 022409 080952Z AUTO 17012G21KT 9999 28/21 A2997      RMK A02 SLP151 T02840205 PA-36 DA1823=
0150008416999992015070810524-02200+040900FM-15+001099999V0201701N004619999999N009999199+02831+02091101471ADDMA1101461999999OC100931REMMET115MOBOB8 METAR XM22 //001 022409 081052Z AUTO 17009G18KT 9999 28/21 A2996      RMK A02 SLP147 T02830209 PA-27 DA1831=
0177008416999992015070811524-02200+040900FM-15+001099999V0201601N005119999999N009000199+02841+02071101401ADDAA101000021AW1611MA1101391999999OC100881REMMET125MOBOB8 METAR XM22 //001 022409 081152Z AUTO 16010G17KT 9000 -RA 28/21      A2994 RMK A02 SLP140 P0000 T02840207 PA-08 DA1860=
0166008416999992015070812524-02200+040900FM-15+001099999V0201701N001519999999N009000199+02351+02061101401ADDAA101000531AW1611MA1101391999999REMMET122MOBOB8 METAR XM22 //001 022409 081252Z AUTO 17003KT 9000 -RA 24/21      A2994 RMK A02 SLP140 P0002 T02350206 PA-08 DA1305=
0139008416999992015070813524-02200+040900FM-15+001099999V0201601N001519999999N009999199+02521+02251101401ADDMA1101391999999REMMET112MOBOB8 METAR XM22 //001 022409 081352Z AUTO 16003KT 9999 25/23 A2994      RMK A02 SLP140 T02520225 PA-08 DA1537=
0166008416999992015070814524-02200+040900FM-15+001099999V0201901N001019999999N009000199+02291+02091101471ADDAA101004031AW1611MA1101461999999REMMET122MOBOB8 METAR XM22 //001 022409 081452Z AUTO 19002KT 9000 -RA 23/21      A2996 RMK A02 SLP147 P0016 T02290209 PA-27 DA1219=
0175008416999992015070815524-02200+040900FM-15+001099999V0201801N002119999999N001200199+02401+02231101511ADDAA101001231AW1101AW2611MA1101491999999REMMET125MOBOB8 METAR XM22 //001 022409 081552Z AUTO 18004KT 1200 -RA BR 24/22      A2997 RMK A02 SLP151 P0005 T02400223 PA-36 DA1362=
0175008416999992015070816524-02200+040900FM-15+001099999V0201801N001519999999N005000199+02351+02191101541ADDAA101000021AW1101AW2611MA1101521999999REMMET125MOBOB8 METAR XM22 //001 022409 081652Z AUTO 18003KT 5000 -RA BR 24/22      A2998 RMK A02 SLP154 P0000 T02350219 PA-45 DA1286=
0166008416999992015070817524-02200+040900FM-15+001099999V0201701N002619999999N009000199+02311+02051101611ADDAA101000021AW1611MA1101591999999REMMET122MOBOB8 METAR XM22 //001 022409 081752Z AUTO 17005KT 9000 -RA 23/20      A3000 RMK A02 SLP161 P0000 T02310205 PA-64 DA1188=
0138008416999992015070818524-02200+040900FM-15+001099999V0201701N002619999999N009999199+02381+02191999999ADDMA1101591999999REMMET111MOBOB8 METAR XM22 //001 022409 081852Z AUTO 17005KT 9999 24/22 A3000      RMK A02 SLPNO T02380219 PA-64 DA1296=
0166008416999992015070819524-02200+040900FM-15+001099999V0201701N002619999999N009000199+02451+02261101611ADDAA101000021AW1611MA1101591999999REMMET122MOBOB8 METAR XM22 //001 022409 081952Z AUTO 17005KT 9000 -RA 25/23      A3000 RMK A02 SLP161 P0000 T02450226 PA-64 DA1390=
0139008416999992015070820524-02200+040900FM-15+001099999V0201801N003119999999N009999199+02461+02171101541ADDMA1101521999999REMMET112MOBOB8 METAR XM22 //001 022409 082052Z AUTO 18006KT 9999 25/22 A2998      RMK A02 SLP154 T02460217 PA-45 DA1405=
0139008416999992015070821524-02200+040900FM-15+001099999V0201701N002619999999N009999199+02441+02121101471ADDMA1101461999999REMMET112MOBOB8 METAR XM22 //001 022409 082152Z AUTO 17005KT 9999 24/21 A2996      RMK A02 SLP147 T02440212 PA-27 DA1396=
0139008416999992015070822524-02200+040900FM-15+001099999V0201701N002619999999N009999199+02451+02161101471ADDMA1101461999999REMMET112MOBOB8 METAR XM22 //001 022409 082252Z AUTO 17005KT 9999 25/22 A2996      RMK A02 SLP147 T02450216 PA-27 DA1415=
0139008416999992015070823524-02200+040900FM-15+001099999V0201701N002619999999N009999199+02481+02171101471ADDMA1101461999999REMMET112MOBOB8 METAR XM22 //001 022409 082352Z AUTO 17005KT 9999 25/22 A2996      RMK A02 SLP147 T02480217 PA-27 DA1451=
0139008416999992015070900524-02200+040900FM-15+001099999V0201801N002119999999N009999199+02451+02141101471ADDMA1101461999999REMMET112MOBOB8 METAR XM22 //001 022409 090052Z AUTO 18004KT 9999 25/21 A2996      RMK A02 SLP147 T02450214 PA-27 DA1411=
0139008416999992015070901524-02200+040900FM-15+001099999V0201601N002619999999N009999199+02481+02121101511ADDMA1101491999999REMMET112MOBOB8 METAR XM22 //001 022409 090152Z AUTO 16005KT 9999 25/21 A2997      RMK A02 SLP151 T02480212 PA-36 DA1430=
0150008416999992015070902524-02200+040900FM-15+001099999V0201701N003619999999N009999199+02501+02041101571ADDMA1101561999999OC100721REMMET115MOBOB8 METAR XM22 //001 022409 090252Z AUTO 17007G14KT 9999 25/20 A2999      RMK A02 SLP157 T02500204 PA-54 DA1414=
0139008416999992015070903524-02200+040900FM-15+001099999V0201701N003119999999N009999199+02491+02081101641ADDMA1101631999999REMMET112MOBOB8 METAR XM22 //001 022409 090352Z AUTO 17006KT 9999 25/21 A3001      RMK A02 SLP164 T02490208 PA-73 DA1389=
0139008416999992015070904524-02200+040900FM-15+001099999V0201701N003619999999N009999199+02641+02161101711ADDMA1101691999999REMMET112MOBOB8 METAR XM22 //001 022409 090452Z AUTO 17007KT 9999 26/22 A3003      RMK A02 SLP171 T02640216 PA-91 DA1550=
0151008416999992015070905524-02200+040900FM-15+001099999V0201701N004619999999N009999199+02691+02151101741ADDMA1101731999999OC100821REMMET116MOBOB8 METAR XM22 //001 022409 090552Z AUTO 17009G16KT 9999 27/21 A3004      RMK A02 SLP174 T02690215 PA-100 DA1594=
0151008416999992015070906524-02200+040900FM-15+001099999V0201701N005119999999N009999199+02761+02111101741ADDMA1101731999999OC100881REMMET116MOBOB8 METAR XM22 //001 022409 090652Z AUTO 17010G17KT 9999 28/21 A3004      RMK A02 SLP174 T02760211 PA-100 DA1665=
0167008416999992015070907524-02200+040900FM-15+001099999V0201801N002619999999N009000199+02411+02181101781ADDAA101001731AW1611MA1101761999999REMMET123MOBOB8 METAR XM22 //001 022409 090752Z AUTO 18005KT 9000 -RA 24/22      A3005 RMK A02 SLP178 P0007 T02410218 PA-110 DA1271=
0175008416999992015070908524-02200+040900FM-15+001099999V0201801N002119999999N004000199+02371+02211101711ADDAA101002731AW1101AW2611MA1101691999999REMMET125MOBOB8 METAR XM22 //001 022409 090852Z AUTO 18004KT 4000 -RA BR 24/22      A3003 RMK A02 SLP171 P0011 T02370221 PA-91 DA1254=
0177008416999992015070909524-02200+040900FM-15+001099999V0201601N005119999999N009000199+02671+02191101641ADDAA101000021AW1611MA1101631999999OC100881REMMET125MOBOB8 METAR XM22 //001 022409 090952Z AUTO 16010G17KT 9000 -RA 27/22      A3001 RMK A02 SLP164 P0000 T02670219 PA-73 DA1614=
0150008416999992015070910524-02200+040900FM-15+001099999V0201601N006719999999N009999199+02731+02051101571ADDMA1101561999999OC101241REMMET115MOBOB8 METAR XM22 //001 022409 091052Z AUTO 16013G24KT 9999 27/20 A2999      RMK A02 SLP157 T02730205 PA-54 DA1676=
0150008416999992015070911524-02200+040900FM-15+001099999V0201701N006219999999N009999199+02691+02081101511ADDMA1101491999999OC100981REMMET115MOBOB8 METAR XM22 //001 022409 091152Z AUTO 17012G19KT 9999 27/21 A2997      RMK A02 SLP151 T02690208 PA-36 DA1659=
0150008416999992015070912524-02200+040900FM-15+001099999V0201701N005119999999N009999199+02671+02081101511ADDMA1101491999999OC100821REMMET115MOBOB8 METAR XM22 //001 022409 091252Z AUTO 17010G16KT 9999 27/21 A2997      RMK A02 SLP151 T02670208 PA-36 DA1637=
0150008416999992015070913524-02200+040900FM-15+001099999V0201701N004119999999N009999199+02651+02091101541ADDMA1101521999999OC100671REMMET115MOBOB8 METAR XM22 //001 022409 091352Z AUTO 17008G13KT 9999 27/21 A2998      RMK A02 SLP154 T02650209 PA-45 DA1605=
0139008416999992015070914524-02200+040900FM-15+001099999V0201601N003619999999N009999199+02451+02081101611ADDMA1101591999999REMMET112MOBOB8 METAR XM22 //001 022409 091452Z AUTO 16007KT 9999 25/21 A3000      RMK A02 SLP161 T02450208 PA-64 DA1355=
0139008416999992015070915524-02200+040900FM-15+001099999V0201701N002619999999N009999199+02471+02011101611ADDMA1101591999999REMMET112MOBOB8 METAR XM22 //001 022409 091552Z AUTO 17005KT 9999 25/20 A3000      RMK A02 SLP161 T02470201 PA-64 DA1364=
0139008416999992015070916524-02200+040900FM-15+001099999V0201701N003119999999N009999199+02501+02011101641ADDMA1101631999999REMMET112MOBOB8 METAR XM22 //001 022409 091652Z AUTO 17006KT 9999 25/20 A3001      RMK A02 SLP164 T02500201 PA-73 DA1387=
0139008416999992015070917524-02200+040900FM-15+001099999V0201401N003619999999N009999199+02431+02141101711ADDMA1101691999999REMMET112MOBOB8 METAR XM22 //001 022409 091752Z AUTO 14007KT 9999 24/21 A3003      RMK A02 SLP171 T02430214 PA-91 DA1309=
0140008416999992015070918524-02200+040900FM-15+001099999V0201401N001019999999N009999199+02391+02131101741ADDMA1101731999999REMMET113MOBOB8 METAR XM22 //001 022409 091852Z AUTO 14002KT 9999 24/21 A3004      RMK A02 SLP174 T02390213 PA-100 DA1250=
0139008416999992015070919524-02200+040900FM-15+001099999V0201701N001019999999N009999199+02341+02141101711ADDMA1101691999999REMMET112MOBOB8 METAR XM22 //001 022409 091952Z AUTO 17002KT 9999 23/21 A3003      RMK A02 SLP171 T02340214 PA-91 DA1206=
0139008416999992015070920524-02200+040900FM-15+001099999V0201801N001019999999N009999199+02401+02071101681ADDMA1101661999999REMMET112MOBOB8 METAR XM22 //001 022409 092052Z AUTO 18002KT 9999 24/21 A3002      RMK A02 SLP168 T02400207 PA-82 DA1272=
0139008416999992015070921524-02200+040900FM-15+001099999V0201801N001519999999N009999199+02441+02071101611ADDMA1101591999999REMMET112MOBOB8 METAR XM22 //001 022409 092152Z AUTO 18003KT 9999 24/21 A3000      RMK A02 SLP161 T02440207 PA-64 DA1342=
0166008416999992015070922524-02200+040900FM-15+001099999V0201701N001519999999N009000199+02241+01971101611ADDAA101000731AW1611MA1101591999999REMMET122MOBOB8 METAR XM22 //001 022409 092252Z AUTO 17003KT 9000 -RA 22/20      A3000 RMK A02 SLP161 P0003 T02240197 PA-64 DA1094=
0139008416999992015070923524-02200+040900FM-15+001099999V0203401N000519999999N009999199+02211+02051101511ADDMA1101491999999REMMET112MOBOB8 METAR XM22 //001 022409 092352Z AUTO 34001KT 9999 22/21 A2997      RMK A02 SLP151 T02210205 PA-36 DA1109=
0139008416999992015071000524-02200+040900FM-15+001099999V0209999C000019999999N009999199+02211+02061101511ADDMA1101491999999REMMET112MOBOB8 METAR XM22 //001 022409 100052Z AUTO 00000KT 9999 22/21 A2997      RMK A02 SLP151 T02210206 PA-36 DA1111=
0139008416999992015071001524-02200+040900FM-15+001099999V0201801N001019999999N009999199+02281+02131101541ADDMA1101521999999REMMET112MOBOB8 METAR XM22 //001 022409 100152Z AUTO 18002KT 9999 23/21 A2998      RMK A02 SLP154 T02280213 PA-45 DA1192=
0166008416999992015071002524-02200+040900FM-15+001099999V0201801N001019999999N009000199+02251+02091101641ADDAA101000231AW1631MA1101631999999REMMET122MOBOB8 METAR XM22 //001 022409 100252Z AUTO 18002KT 9000 +RA 23/21      A3001 RMK A02 SLP164 P0001 T02250209 PA-73 DA1117=
0139008416999992015071003524-02200+040900FM-15+001099999V0201701N001519999999N009999199+02281+02101101681ADDMA1101661999999REMMET112MOBOB8 METAR XM22 //001 022409 100352Z AUTO 17003KT 9999 23/21 A3002      RMK A02 SLP168 T02280210 PA-82 DA1141=
0166008416999992015071004524-02200+040900FM-15+001099999V0201901N000519999999N009000199+02341+02171101711ADDAA101000531AW1611MA1101691999999REMMET122MOBOB8 METAR XM22 //001 022409 100452Z AUTO 19001KT 9000 -RA 23/22      A3003 RMK A02 SLP171 P0002 T02340217 PA-91 DA1212=
0178008416999992015071005524-02200+040900FM-15+001099999V0201501N005119999999N009000199+02361+02101101781ADDAA101000231AW1611MA1101761999999OC100721REMMET126MOBOB8 METAR XM22 //001 022409 100552Z AUTO 15010G14KT 9000 -RA 24/21      A3005 RMK A02 SLP178 P0001 T02360210 PA-110 DA1199=
0187008416999992015071006524-02200+040900FM-15+001099999V0201701N005119999999N002400199+02231+02041101881ADDAA101000021AW1101AW2611MA1101861999999OC100821REMMET129MOBOB8 METAR XM22 //001 022409 100652Z AUTO 17010G16KT 2400 -RA BR      22/20 A3008 RMK A02 SLP188 P0000 T02230204 PA-137 DA1004=
0160008416999992015071007524-02200+040900FM-15+001099999V0201701N004119999999N001600199+02221+02051101841ADDAW1101MA1101831999999OC100721REMMET119MOBOB8 METAR XM22 //001 022409 100752Z AUTO 17008G14KT 1600 BR 22/21      A3007 RMK A02 SLP184 T02220205 PA-128 DA1007=
0140008416999992015071008524-02200+040900FM-15+001099999V0201801N001019999999N009999199+02371+02131101781ADDMA1101761999999REMMET113MOBOB8 METAR XM22 //001 022409 100852Z AUTO 18002KT 9999 24/21 A3005      RMK A02 SLP178 T02370213 PA-110 DA1216=
0150008416999992015071009524-02200+040900FM-15+001099999V0201601N004119999999N009999199+02461+02141101681ADDMA1101661999999OC100671REMMET115MOBOB8 METAR XM22 //001 022409 100952Z AUTO 16008G13KT 9999 25/21 A3002      RMK A02 SLP168 T02460214 PA-82 DA1355=
0166008416999992015071010524-02200+040900FM-15+001099999V0201601N002119999999N009000199+02361+02101101641ADDAA101000021AW1611MA1101631999999REMMET122MOBOB8 METAR XM22 //001 022409 101052Z AUTO 16004KT 9000 -RA 24/21      A3001 RMK A02 SLP164 P0000 T02360210 PA-73 DA1245=
0165008416999992015071011524-02200+040900FM-15+001099999V0201701N003619999999N009000199+02351+01981101571ADDAA101000531AW1621MA1101561999999REMMET121MOBOB8 METAR XM22 //001 022409 101152Z AUTO 17007KT 9000 RA 24/20 A2999      RMK A02 SLP157 P0002 T02350198 PA-54 DA1232=
0139008416999992015071012524-02200+040900FM-15+001099999V0201501N002119999999N009999199+02441+02121101471ADDMA1101461999999REMMET112MOBOB8 METAR XM22 //001 022409 101252Z AUTO 15004KT 9999 24/21 A2996      RMK A02 SLP147 T02440212 PA-27 DA1397=
0166008416999992015071013524-02200+040900FM-15+001099999V0201701N002119999999N009000199+02441+02171101511ADDAA101000021AW1611MA1101491999999REMMET122MOBOB8 METAR XM22 //001 022409 101352Z AUTO 17004KT 9000 -RA 24/22      A2997 RMK A02 SLP151 P0000 T02440217 PA-36 DA1395=
0139008416999992015071014524-02200+040900FM-15+001099999V0201701N002619999999N009999199+02511+02181101571ADDMA1101561999999REMMET112MOBOB8 METAR XM22 //001 022409 101452Z AUTO 17005KT 9999 25/22 A2999      RMK A02 SLP157 T02510218 PA-54 DA1454=
0139008416999992015071015524-02200+040900FM-15+001099999V0201801N001519999999N009999199+02411+02161101611ADDMA1101591999999REMMET112MOBOB8 METAR XM22 //001 022409 101552Z AUTO 18003KT 9999 24/22 A3000      RMK A02 SLP161 T02410216 PA-64 DA1324=
0139008416999992015071016524-02200+040900FM-15+001099999V0201801N002619999999N009999199+02451+02071101641ADDMA1101631999999REMMET112MOBOB8 METAR XM22 //001 022409 101652Z AUTO 18005KT 9999 25/21 A3001      RMK A02 SLP164 T02450207 PA-73 DA1341=
0166008416999992015071017524-02200+040900FM-15+001099999V0201601N003619999999N009000199+02361+02041101711ADDAA101000231AW1611MA1101691999999REMMET122MOBOB8 METAR XM22 //001 022409 101752Z AUTO 16007KT 9000 -RA 24/20      A3003 RMK A02 SLP171 P0001 T02360204 PA-91 DA1210=
0150008416999992015071018524-02200+040900FM-15+001099999V0201701N003619999999N009999199+02431+01721101711ADDMA1101691999999OC100821REMMET115MOBOB8 METAR XM22 //001 022409 101852Z AUTO 17007G16KT 9999 24/17 A3003      RMK A02 SLP171 T02430172 PA-91 DA1234=
0139008416999992015071019524-02200+040900FM-15+001099999V0201701N002119999999N009999199+02331+01991101711ADDMA1101691999999REMMET112MOBOB8 METAR XM22 //001 022409 101952Z AUTO 17004KT 9999 23/20 A3003      RMK A02 SLP171 T02330199 PA-91 DA1165=
0139008416999992015071020524-02200+040900FM-15+001099999V0201701N001519999999N009999199+02301+02061101681ADDMA1101661999999REMMET112MOBOB8 METAR XM22 //001 022409 102052Z AUTO 17003KT 9999 23/21 A3002      RMK A02 SLP168 T02300206 PA-82 DA1156=
0139008416999992015071021524-02200+040900FM-15+001099999V0201801N001019999999N009999199+02261+02051101641ADDMA1101631999999REMMET112MOBOB8 METAR XM22 //001 022409 102152Z AUTO 18002KT 9999 23/21 A3001      RMK A02 SLP164 T02260205 PA-73 DA1121=
0139008416999992015071022524-02200+040900FM-15+001099999V0201801N001019999999N009999199+02251+01971101611ADDMA1101591999999REMMET112MOBOB8 METAR XM22 //001 022409 102252Z AUTO 18002KT 9999 23/20 A3000      RMK A02 SLP161 T02250197 PA-64 DA1106=
0139008416999992015071023524-02200+040900FM-15+001099999V0201701N000519999999N009999199+02191+02011101541ADDMA1101521999999REMMET112MOBOB8 METAR XM22 //001 022409 102352Z AUTO 17001KT 9999 22/20 A2998      RMK A02 SLP154 T02190201 PA-45 DA1067=
0166008416999992015071100524-02200+040900FM-15+001099999V0201801N001519999999N009000199+02161+02001101511ADDAA101001731AW1611MA1101491999999REMMET122MOBOB8 METAR XM22 //001 022409 110052Z AUTO 18003KT 9000 -RA 22/20      A2997 RMK A02 SLP151 P0007 T02160200 PA-36 DA1041=
0166008416999992015071101524-02200+040900FM-15+001099999V0201701N002619999999N009000199+02161+01971101571ADDAA101000021AW1611MA1101561999999REMMET122MOBOB8 METAR XM22 //001 022409 110152Z AUTO 17005KT 9000 -RA 22/20      A2999 RMK A02 SLP157 P0000 T02160197 PA-54 DA1012=
0139008416999992015071102524-02200+040900FM-15+001099999V0209999C000019999999N009999199+02201+02051101641ADDMA1101631999999REMMET112MOBOB8 METAR XM22 //001 022409 110252Z AUTO 00000KT 9999 22/20 A3001      RMK A02 SLP164 T02200205 PA-73 DA1051=
0166008416999992015071103524-02200+040900FM-15+001099999V0201701N001519999999N009000199+02211+02001101681ADDAA101000021AW1611MA1101661999999REMMET122MOBOB8 METAR XM22 //001 022409 110352Z AUTO 17003KT 9000 -RA 22/20      A3002 RMK A02 SLP168 P0000 T02210200 PA-82 DA1041=
0139008416999992015071104524-02200+040900FM-15+001099999V0201801N002619999999N009999199+02261+02051101711ADDMA1101691999999REMMET112MOBOB8 METAR XM22 //001 022409 110452Z AUTO 18005KT 9999 23/20 A3003      RMK A02 SLP171 T02260205 PA-91 DA1097=
0140008416999992015071105524-02200+040900FM-15+001099999V0201801N002119999999N009999199+02431+02141101781ADDMA1101761999999REMMET113MOBOB8 METAR XM22 //001 022409 110552Z AUTO 18004KT 9999 24/21 A3005      RMK A02 SLP178 T02430214 PA-110 DA1285=
0140008416999992015071106524-02200+040900FM-15+001099999V0201701N003119999999N009999199+02531+02111101811ADDMA1101791999999REMMET113MOBOB8 METAR XM22 //001 022409 110652Z AUTO 17006KT 9999 25/21 A3006      RMK A02 SLP181 T02530211 PA-119 DA1382=
0140008416999992015071107524-02200+040900FM-15+001099999V0201801N001519999999N009999199+02601+02011101781ADDMA1101761999999REMMET113MOBOB8 METAR XM22 //001 022409 110752Z AUTO 18003KT 9999 26/20 A3005      RMK A02 SLP178 T02600201 PA-110 DA1454=
0139008416999992015071108524-02200+040900FM-15+001099999V0201701N003619999999N009999199+02661+01991101711ADDMA1101691999999REMMET112MOBOB8 METAR XM22 //001 022409 110852Z AUTO 17007KT 9999 27/20 A3003      RMK A02 SLP171 T02660199 PA-91 DA1540=
0139008416999992015071109524-02200+040900FM-15+001099999V0201701N003619999999N009999199+02831+02071101611ADDMA1101591999999REMMET112MOBOB8 METAR XM22 //001 022409 110952Z AUTO 17007KT 9999 28/21 A3000      RMK A02 SLP161 T02830207 PA-64 DA1780=
0177008416999992015071110524-02200+040900FM-15+001099999V0201701N004119999999N009000199+02741+02071101541ADDAA101000021AW1611MA1101521999999OC100771REMMET125MOBOB8 METAR XM22 //001 022409 111052Z AUTO 17008G15KT 9000 -RA 27/21      A2998 RMK A02 SLP154 P0000 T02740207 PA-45 DA1702=
0139008416999992015071111524-02200+040900FM-15+001099999V0201701N002619999999N009999199+02691+02101101471ADDMA1101461999999REMMET112MOBOB8 METAR XM22 //001 022409 111152Z AUTO 17005KT 9999 27/21 A2996      RMK A02 SLP147 T02690210 PA-27 DA1675=
0139008416999992015071112524-02200+040900FM-15+001099999V0201601N003619999999N009999199+02731+01931101441ADDMA1101421999999REMMET112MOBOB8 METAR XM22 //001 022409 111252Z AUTO 16007KT 9999 27/19 A2995      RMK A02 SLP144 T02730193 PA-17 DA1700=
0139008416999992015071113524-02200+040900FM-15+001099999V0201701N002619999999N009999199+02591+02061101441ADDMA1101421999999REMMET112MOBOB8 METAR XM22 //001 022409 111352Z AUTO 17005KT 9999 26/21 A2995      RMK A02 SLP144 T02590206 PA-17 DA1567=
0139008416999992015071114524-02200+040900FM-15+001099999V0201701N002119999999N009999199+02511+02101101441ADDMA1101421999999REMMET112MOBOB8 METAR XM22 //001 022409 111452Z AUTO 17004KT 9999 25/21 A2995      RMK A02 SLP144 T02510210 PA-17 DA1483=
0186008416999992015071115524-02200+040900FM-15+001099999V0201601N005119999999N006000199+02331+02111101511ADDAA101000531AW1101AW2611MA1101491999999OC100821REMMET128MOBOB8 METAR XM22 //001 022409 111552Z AUTO 16010G16KT 6000 -RA BR      23/21 A2997 RMK A02 SLP151 P0002 T02330211 PA-36 DA1258=
0139008416999992015071116524-02200+040900FM-15+001099999V0201801N001519999999N009999199+02331+02161101511ADDMA1101491999999REMMET112MOBOB8 METAR XM22 //001 022409 111652Z AUTO 18003KT 9999 23/22 A2997      RMK A02 SLP151 T02330216 PA-36 DA1268=
0139008416999992015071117524-02200+040900FM-15+001099999V0201801N001519999999N009999199+02361+02151101541ADDMA1101521999999REMMET112MOBOB8 METAR XM22 //001 022409 111752Z AUTO 18003KT 9999 24/22 A2998      RMK A02 SLP154 T02360215 PA-45 DA1289=
0166008416999992015071118524-02200+040900FM-15+001099999V0201701N002619999999N009000199+02331+02111101571ADDAA101001731AW1611MA1101561999999REMMET122MOBOB8 METAR XM22 //001 022409 111852Z AUTO 17005KT 9000 -RA 23/21      A2999 RMK A02 SLP157 P0007 T02330211 PA-54 DA1235=
0139008416999992015071119524-02200+040900FM-15+001099999V0201701N002119999999N009999199+02331+02121101541ADDMA1101521999999REMMET112MOBOB8 METAR XM22 //001 022409 111952Z AUTO 17004KT 9999 23/21 A2998      RMK A02 SLP154 T02330212 PA-45 DA1248=
0139008416999992015071120524-02200+040900FM-15+001099999V0201801N000519999999N009999199+02251+02061101511ADDMA1101491999999REMMET112MOBOB8 METAR XM22 //001 022409 112052Z AUTO 18001KT 9999 23/21 A2997      RMK A02 SLP151 T02250206 PA-36 DA1155=
0139008416999992015071121524-02200+040900FM-15+001099999V0201801N001019999999N009999199+02291+02131101511ADDMA1101491999999REMMET112MOBOB8 METAR XM22 //001 022409 112152Z AUTO 18002KT 9999 23/21 A2997      RMK A02 SLP151 T02290213 PA-36 DA1216=
0166008416999992015071122524-02200+040900FM-15+001099999V0201801N001519999999N009000199+02341+02141101441ADDAA101000021AW1611MA1101421999999REMMET122MOBOB8 METAR XM22 //001 022409 112252Z AUTO 18003KT 9000 -RA 23/21      A2995 RMK A02 SLP144 P0000 T02340214 PA-17 DA1297=
0177008416999992015071123524-02200+040900FM-15+001099999V0201701N004619999999N007000199+02311+02081101401ADDAA101000731AW1611MA1101391999999OC100821REMMET125MOBOB8 METAR XM22 //001 022409 112352Z AUTO 17009G16KT 7000 -RA 23/21      A2994 RMK A02 SLP140 P0003 T02310208 PA-08 DA1264=
0166008416999992015071200524-02200+040900FM-15+001099999V0201701N002119999999N009000199+02281+02091101441ADDAA101000731AW1611MA1101421999999REMMET122MOBOB8 METAR XM22 //001 022409 120052Z AUTO 17004KT 9000 -RA 23/21      A2995 RMK A02 SLP144 P0003 T02280209 PA-17 DA1220=
0166008416999992015071201524-02200+040900FM-15+001099999V0201201N001019999999N009000199+02291+02151101441ADDAA101000021AW1611MA1101421999999REMMET122MOBOB8 METAR XM22 //001 022409 120152Z AUTO 12002KT 9000 -RA 23/21      A2995 RMK A02 SLP144 P0000 T02290215 PA-17 DA1242=
0139008416999992015071202524-02200+040900FM-15+001099999V0201801N000519999999N009999199+02291+02141101511ADDMA1101491999999REMMET112MOBOB8 METAR XM22 //001 022409 120252Z AUTO 18001KT 9999 23/21 A2997      RMK A02 SLP151 T02290214 PA-36 DA1217=
0139008416999992015071203524-02200+040900FM-15+001099999V0201801N001019999999N009999199+02321+02161101571ADDMA1101561999999REMMET112MOBOB8 METAR XM22 //001 022409 120352Z AUTO 18002KT 9999 23/22 A2999      RMK A02 SLP157 T02320216 PA-54 DA1233=
0175008416999992015071204524-02200+040900FM-15+001099999V0201701N003119999999N008000199+02381+02161101641ADDAA101000531AW1101AW2611MA1101631999999REMMET125MOBOB8 METAR XM22 //001 022409 120452Z AUTO 17006KT 8000 -RA BR 24/22      A3001 RMK A02 SLP164 P0002 T02380216 PA-73 DA1279=
0139008416999992015071205524-02200+040900FM-15+001099999V0201701N003119999999N009999199+02521+02191101711ADDMA1101691999999REMMET112MOBOB8 METAR XM22 //001 022409 120552Z AUTO 17006KT 9999 25/22 A3003      RMK A02 SLP171 T02520219 PA-91 DA1420=
0150008416999992015071206524-02200+040900FM-15+001099999V0201701N003619999999N009999199+02701+02231101711ADDMA1101691999999OC100721REMMET115MOBOB8 METAR XM22 //001 022409 120652Z AUTO 17007G14KT 9999 27/22 A3003      RMK A02 SLP171 T02700223 PA-91 DA1632=
0150008416999992015071207524-02200+040900FM-15+001099999V0201701N006219999999N009999199+02661+02111101711ADDMA1101691999999OC101081REMMET115MOBOB8 METAR XM22 //001 022409 120752Z AUTO 17012G21KT 9999 27/21 A3003      RMK A02 SLP171 T02660211 PA-91 DA1564=
0166008416999992015071208524-02200+040900FM-15+001099999V0201701N003119999999N009000199+02531+02231101611ADDAA101000021AW1611MA1101591999999REMMET122MOBOB8 METAR XM22 //001 022409 120852Z AUTO 17006KT 9000 -RA 25/22      A3000 RMK A02 SLP161 P0000 T02530223 PA-64 DA1475=
0150008416999992015071209524-02200+040900FM-15+001099999V0201601N005719999999N009999199+02731+02131101541ADDMA1101521999999OC100981REMMET115MOBOB8 METAR XM22 //001 022409 120952Z AUTO 16011G19KT 9999 27/21 A2998      RMK A02 SLP154 T02730213 PA-45 DA1703=
0150008416999992015071210524-02200+040900FM-15+001099999V0201701N004619999999N009999199+02801+02011101441ADDMA1101421999999OC100771REMMET115MOBOB8 METAR XM22 //001 022409 121052Z AUTO 17009G15KT 9999 28/20 A2995      RMK A02 SLP144 T02800201 PA-17 DA1794=
0150008416999992015071211524-02200+040900FM-15+001099999V0201701N005119999999N009999199+02741+02121101371ADDMA1101351999999OC100821REMMET115MOBOB8 METAR XM22 //001 022409 121152Z AUTO 17010G16KT 9999 27/21 A2993      RMK A02 SLP137 T02740212 PA001 DA1769=
0139008416999992015071212524-02200+040900FM-15+001099999V0201701N003119999999N009999199+02651+02071101341ADDMA1101321999999REMMET112MOBOB8 METAR XM22 //001 022409 121252Z AUTO 17006KT 9999 27/21 A2992      RMK A02 SLP134 T02650207 PA010 DA1670=
0150008416999992015071213524-02200+040900FM-15+001099999V0201701N003619999999N009999199+02581+02101101401ADDMA1101391999999OC100621REMMET115MOBOB8 METAR XM22 //001 022409 121352Z AUTO 17007G12KT 9999 26/21 A2994      RMK A02 SLP140 T02580210 PA-08 DA1574=
0166008416999992015071214524-02200+040900FM-15+001099999V0201701N003619999999N009000199+02351+02111101471ADDAA101001531AW1611MA1101461999999REMMET122MOBOB8 METAR XM22 //001 022409 121452Z AUTO 17007KT 9000 -RA 24/21      A2996 RMK A02 SLP147 P0006 T02350211 PA-27 DA1291=
0139008416999992015071215524-02200+040900FM-15+001099999V0201701N002119999999N009999199+02381+02141101511ADDMA1101491999999REMMET112MOBOB8 METAR XM22 //001 022409 121552Z AUTO 17004KT 9999 24/21 A2997      RMK A02 SLP151 T02380214 PA-36 DA1320=
0166008416999992015071216524-02200+040900FM-15+001099999V0201801N001519999999N009000199+02321+02141101571ADDAA101000021AW1611MA1101561999999REMMET122MOBOB8 METAR XM22 //001 022409 121652Z AUTO 18003KT 9000 -RA 23/21      A2999 RMK A02 SLP157 P0000 T02320214 PA-54 DA1230=
0139008416999992015071217524-02200+040900FM-15+001099999V0202301N000519999999N009999199+02321+02171101611ADDMA1101591999999REMMET112MOBOB8 METAR XM22 //001 022409 121752Z AUTO 23001KT 9999 23/22 A3000      RMK A02 SLP161 T02320217 PA-64 DA1224=
0166008416999992015071218524-02200+040900FM-15+001099999V0202001N000519999999N009000199+02311+02161101611ADDAA101000021AW1611MA1101591999999REMMET122MOBOB8 METAR XM22 //001 022409 121852Z AUTO 20001KT 9000 -RA 23/22      A3000 RMK A02 SLP161 P0000 T02310216 PA-64 DA1211=
0139008416999992015071219524-02200+040900FM-15+001099999V0201701N003119999999N009999199+02441+02101101611ADDMA1101591999999REMMET112MOBOB8 METAR XM22 //001 022409 121952Z AUTO 17006KT 9999 24/21 A3000      RMK A02 SLP161 T02440210 PA-64 DA1346=
0139008416999992015071220524-02200+040900FM-15+001099999V0201701N003119999999N009999199+02481+02091101571ADDMA1101561999999REMMET112MOBOB8 METAR XM22 //001 022409 122052Z AUTO 17006KT 9999 25/21 A2999      RMK A02 SLP157 T02480209 PA-54 DA1401=
0139008416999992015071221524-02200+040900FM-15+001099999V0201601N003619999999N009999199+02451+02041101471ADDMA1101461999999REMMET112MOBOB8 METAR XM22 //001 022409 122152Z AUTO 16007KT 9999 25/20 A2996      RMK A02 SLP147 T02450204 PA-27 DA1393=
0150008416999992015071222524-02200+040900FM-15+001099999V0201601N004119999999N009999199+02471+02061101441ADDMA1101421999999OC100721REMMET115MOBOB8 METAR XM22 //001 022409 122252Z AUTO 16008G14KT 9999 25/21 A2995      RMK A02 SLP144 T02470206 PA-17 DA1430=
0139008416999992015071223524-02200+040900FM-15+001099999V0201701N003619999999N009999199+02471+02051101401ADDMA1101391999999REMMET112MOBOB8 METAR XM22 //001 022409 122352Z AUTO 17007KT 9999 25/21 A2994      RMK A02 SLP140 T02470205 PA-08 DA1440=
0139008416999992015071300524-02200+040900FM-15+001099999V0201701N003119999999N009999199+02471+02011101401ADDMA1101391999999REMMET112MOBOB8 METAR XM22 //001 022409 130052Z AUTO 17006KT 9999 25/20 A2994      RMK A02 SLP140 T02470201 PA-08 DA1432=
0139008416999992015071301524-02200+040900FM-15+001099999V0201701N003619999999N009999199+02451+02011101441ADDMA1101421999999REMMET112MOBOB8 METAR XM22 //001 022409 130152Z AUTO 17007KT 9999 25/20 A2995      RMK A02 SLP144 T02450201 PA-17 DA1399=
0139008416999992015071302524-02200+040900FM-15+001099999V0201701N002119999999N009999199+02381+02021101511ADDMA1101491999999REMMET112MOBOB8 METAR XM22 //001 022409 130252Z AUTO 17004KT 9999 24/20 A2997      RMK A02 SLP151 T02380202 PA-36 DA1297=
0139008416999992015071303524-02200+040900FM-15+001099999V0201701N002119999999N009999199+02401+02081101541ADDMA1101521999999REMMET112MOBOB8 METAR XM22 //001 022409 130352Z AUTO 17004KT 9999 24/21 A2998      RMK A02 SLP154 T02400208 PA-45 DA1320=
0139008416999992015071304524-02200+040900FM-15+001099999V0201701N002619999999N009999199+02601+02131101611ADDMA1101591999999REMMET112MOBOB8 METAR XM22 //001 022409 130452Z AUTO 17005KT 9999 26/21 A3000      RMK A02 SLP161 T02600213 PA-64 DA1534=
0150008416999992015071305524-02200+040900FM-15+001099999V0201601N004619999999N009999199+02691+02151101711ADDMA1101691999999OC100881REMMET115MOBOB8 METAR XM22 //001 022409 130552Z AUTO 16009G17KT 9999 27/22 A3003      RMK A02 SLP171 T02690215 PA-91 DA1605=
0178008416999992015071306524-02200+040900FM-15+001099999V0201701N004119999999N009000199+02741+02191101741ADDAA101000021AW1611MA1101731999999OC100721REMMET126MOBOB8 METAR XM22 //001 022409 130652Z AUTO 17008G14KT 9000 -RA 27/22      A3004 RMK A02 SLP174 P0000 T02740219 PA-100 DA1659=
0150008416999992015071307524-02200+040900FM-15+001099999V0201701N004119999999N009999199+02831+02201101711ADDMA1101691999999OC100721REMMET115MOBOB8 METAR XM22 //001 022409 130752Z AUTO 17008G14KT 9999 28/22 A3003      RMK A02 SLP171 T02830220 PA-91 DA1772=
0150008416999992015071308524-02200+040900FM-15+001099999V0201701N005119999999N009999199+02841+02201101671ADDMA1101661999999OC100881REMMET115MOBOB8 METAR XM22 //001 022409 130852Z AUTO 17010G17KT 9999 28/22 A3002      RMK A02 SLP167 T02840220 PA-82 DA1795=
0177008416999992015071309524-02200+040900FM-15+001099999V0201701N004119999999N009000199+02561+02181101611ADDAA101000731AW1611MA1101591999999OC100771REMMET125MOBOB8 METAR XM22 //001 022409 130952Z AUTO 17008G15KT 9000 -RA 26/22      A3000 RMK A02 SLP161 P0003 T02560218 PA-64 DA1500=
0150008416999992015071310524-02200+040900FM-15+001099999V0201701N005119999999N009999199+02801+02121101511ADDMA1101491999999OC100931REMMET115MOBOB8 METAR XM22 //001 022409 131052Z AUTO 17010G18KT 9999 28/21 A2997      RMK A02 SLP151 T02800212 PA-36 DA1791=
0177008416999992015071311524-02200+040900FM-15+001099999V0201601N006219999999N009000199+02601+02271101441ADDAA101000021AW1611MA1101421999999OC100981REMMET125MOBOB8 METAR XM22 //001 022409 131152Z AUTO 16012G19KT 9000 -RA 26/23      A2995 RMK A02 SLP144 P0000 T02600227 PA-17 DA1620=
0177008416999992015071312524-02200+040900FM-15+001099999V0201501N006719999999N009000199+02641+02231101441ADDAA101000021AW1611MA1101421999999OC101181REMMET125MOBOB8 METAR XM22 //001 022409 131252Z AUTO 15013G23KT 9000 -RA 26/22      A2995 RMK A02 SLP144 P0000 T02640223 PA-17 DA1656=
0177008416999992015071313524-02200+040900FM-15+001099999V0201801N004119999999N000600199+02331+02091101471ADDAA101007831AW1631MA1101461999999OC100771REMMET125MOBOB8 METAR XM22 //001 022409 131352Z AUTO 18008G15KT 0600 +RA 23/21      A2996 RMK A02 SLP147 P0031 T02330209 PA-27 DA1265=
0175008416999992015071314524-02200+040900FM-15+001099999V0201601N003619999999N006000199+02391+02181101511ADDAA101001231AW1101AW2611MA1101491999999REMMET125MOBOB8 METAR XM22 //001 022409 131452Z AUTO 16007KT 6000 -RA BR 24/22      A2997 RMK A02 SLP151 P0005 T02390218 PA-36 DA1340=
0166008416999992015071315524-02200+040900FM-15+001099999V0201701N003619999999N009000199+02401+02171101541ADDAA101001731AW1611MA1101521999999REMMET122MOBOB8 METAR XM22 //001 022409 131552Z AUTO 17007KT 9000 -RA 24/22      A2998 RMK A02 SLP154 P0007 T02400217 PA-45 DA1337=
0150008416999992015071316524-02200+040900FM-15+001099999V0201501N005119999999N009999199+02351+02091101571ADDMA1101561999999OC100721REMMET115MOBOB8 METAR XM22 //001 022409 131652Z AUTO 15010G14KT 9999 24/21 A2999      RMK A02 SLP157 T02350209 PA-54 DA1253=
0139008416999992015071317524-02200+040900FM-15+001099999V0201801N001519999999N009999199+02341+02171101611ADDMA1101591999999REMMET112MOBOB8 METAR XM22 //001 022409 131752Z AUTO 18003KT 9999 23/22 A3000      RMK A02 SLP161 T02340217 PA-64 DA1246=
0139008416999992015071318524-02200+040900FM-15+001099999V0201701N002119999999N009999199+02441+02181101611ADDMA1101591999999REMMET112MOBOB8 METAR XM22 //001 022409 131852Z AUTO 17004KT 9999 24/22 A3000      RMK A02 SLP161 T02440218 PA-64 DA1363=
0139008416999992015071319524-02200+040900FM-15+001099999V0201701N002619999999N009999199+02471+02221101611ADDMA1101591999999REMMET112MOBOB8 METAR XM22 //001 022409 131952Z AUTO 17005KT 9999 25/22 A3000      RMK A02 SLP161 T02470222 PA-64 DA1404=
0139008416999992015071320524-02200+040900FM-15+001099999V0201701N002119999999N009999199+02461+02171101611ADDMA1101591999999REMMET112MOBOB8 METAR XM22 //001 022409 132052Z AUTO 17004KT 9999 25/22 A3000      RMK A02 SLP161 T02460217 PA-64 DA1384=
0139008416999992015071321524-02200+040900FM-15+001099999V0201701N003119999999N009999199+02481+02151101541ADDMA1101521999999REMMET112MOBOB8 METAR XM22 //001 022409 132152Z AUTO 17006KT 9999 25/21 A2998      RMK A02 SLP154 T02480215 PA-45 DA1425=
0139008416999992015071322524-02200+040900FM-15+001099999V0201701N003619999999N009999199+02491+02111101471ADDMA1101461999999REMMET112MOBOB8 METAR XM22 //001 022409 132252Z AUTO 17007KT 9999 25/21 A2996      RMK A02 SLP147 T02490211 PA-27 DA1451=
0139008416999992015071323524-02200+040900FM-15+001099999V0201801N002119999999N009999199+02431+02121101441ADDMA1101421999999REMMET112MOBOB8 METAR XM22 //001 022409 132352Z AUTO 18004KT 9999 24/21 A2995      RMK A02 SLP144 T02430212 PA-17 DA1397=
0139008416999992015071400524-02200+040900FM-15+001099999V0201701N003119999999N009999199+02461+02101101401ADDMA1101391999999REMMET112MOBOB8 METAR XM22 //001 022409 140052Z AUTO 17006KT 9999 25/21 A2994      RMK A02 SLP140 T02460210 PA-08 DA1437=
0139008416999992015071401524-02200+040900FM-15+001099999V0201601N002619999999N009999199+02461+02141101441ADDMA1101421999999REMMET112MOBOB8 METAR XM22 //001 022409 140152Z AUTO 16005KT 9999 25/21 A2995      RMK A02 SLP144 T02460214 PA-17 DA1434=
0139008416999992015071402524-02200+040900FM-15+001099999V0201701N002619999999N009999199+02441+02091101511ADDMA1101491999999REMMET112MOBOB8 METAR XM22 //001 022409 140252Z AUTO 17005KT 9999 24/21 A2997      RMK A02 SLP151 T02440209 PA-36 DA1379=
0139008416999992015071403524-02200+040900FM-15+001099999V0201601N003119999999N009999199+02451+02091101541ADDMA1101521999999REMMET112MOBOB8 METAR XM22 //001 022409 140352Z AUTO 16006KT 9999 25/21 A2998      RMK A02 SLP154 T02450209 PA-45 DA1378=
0150008416999992015071404524-02200+040900FM-15+001099999V0201601N004119999999N009999199+02611+02121101611ADDMA1101591999999OC100721REMMET115MOBOB8 METAR XM22 //001 022409 140452Z AUTO 16008G14KT 9999 26/21 A3000      RMK A02 SLP161 T02610212 PA-64 DA1542=
0177008416999992015071405524-02200+040900FM-15+001099999V0201701N004619999999N009000199+02541+02121101711ADDAA101000531AW1611MA1101691999999OC100881REMMET125MOBOB8 METAR XM22 //001 022409 140552Z AUTO 17009G17KT 9000 -RA 25/21      A3003 RMK A02 SLP171 P0002 T02540212 PA-91 DA1429=
0151008416999992015071406524-02200+040900FM-15+001099999V0201701N005119999999N009999199+02711+02131101741ADDMA1101731999999OC100931REMMET116MOBOB8 METAR XM22 //001 022409 140652Z AUTO 17010G18KT 9999 27/21 A3004      RMK A02 SLP174 T02710213 PA-100 DA1612=
0150008416999992015071407524-02200+040900FM-15+001099999V0201701N004619999999N009999199+02801+02081101711ADDMA1101691999999OC100881REMMET115MOBOB8 METAR XM22 //001 022409 140752Z AUTO 17009G17KT 9999 28/21 A3003      RMK A02 SLP171 T02800208 PA-91 DA1716=
0150008416999992015071408524-02200+040900FM-15+001099999V0201701N005119999999N009999199+02821+02111101641ADDMA1101631999999OC100821REMMET115MOBOB8 METAR XM22 //001 022409 140852Z AUTO 17010G16KT 9999 28/21 A3001      RMK A02 SLP164 T02820211 PA-73 DA1766=
0150008416999992015071409524-02200+040900FM-15+001099999V0201701N004619999999N009999199+02811+02131101611ADDMA1101591999999OC100771REMMET115MOBOB8 METAR XM22 //001 022409 140952Z AUTO 17009G15KT 9999 28/21 A3000      RMK A02 SLP161 T02810213 PA-64 DA1771=
0150008416999992015071410524-02200+040900FM-15+001099999V0201701N005119999999N009999199+02831+02101101511ADDMA1101491999999OC100881REMMET115MOBOB8 METAR XM22 //001 022409 141052Z AUTO 17010G17KT 9999 28/21 A2997      RMK A02 SLP151 T02830210 PA-36 DA1821=
0150008416999992015071411514-02200+040900FM-15+001099999V0201701N004119999999N009999199+02791+02081101401ADDMA1101391999999OC100821REMMET115MOBOB8 METAR XM22 //001 022409 141151Z AUTO 17008G16KT 9999 28/21 A2994      RMK A02 SLP140 T02790208 PA-08 DA1806=
0150008416999992015071412524-02200+040900FM-15+001099999V0201701N003619999999N009999199+02761+02091101371ADDMA1101351999999OC100721REMMET115MOBOB8 METAR XM22 //001 022409 141252Z AUTO 17007G14KT 9999 28/21 A2993      RMK A02 SLP137 T02760209 PA001 DA1786=
0139008416999992015071413524-02200+040900FM-15+001099999V0201701N003119999999N009999199+02711+02161101371ADDMA1101351999999REMMET112MOBOB8 METAR XM22 //001 022409 141352Z AUTO 17006KT 9999 27/22 A2993      RMK A02 SLP137 T02710216 PA001 DA1743=
0150008416999992015071414524-02200+040900FM-15+001099999V0201701N003619999999N009999199+02571+02131101441ADDMA1101421999999OC100671REMMET115MOBOB8 METAR XM22 //001 022409 141452Z AUTO 17007G13KT 9999 26/21 A2995      RMK A02 SLP144 T02570213 PA-17 DA1558=
0139008416999992015071415524-02200+040900FM-15+001099999V0201701N002119999999N009999199+02521+02141101471ADDMA1101461999999REMMET112MOBOB8 METAR XM22 //001 022409 141552Z AUTO 17004KT 9999 25/21 A2996      RMK A02 SLP147 T02520214 PA-27 DA1490=
0166008416999992015071416524-02200+040900FM-15+001099999V0201901N000519999999N009000199+02301+02141101511ADDAA101000021AW1611MA1101491999999REMMET122MOBOB8 METAR XM22 //001 022409 141652Z AUTO 19001KT 9000 -RA 23/21      A2997 RMK A02 SLP151 P0000 T02300214 PA-36 DA1228=
0139008416999992015071417524-02200+040900FM-15+001099999V0201901N000519999999N009999199+02341+02181101541ADDMA1101521999999REMMET112MOBOB8 METAR XM22 //001 022409 141752Z AUTO 19001KT 9999 23/22 A2998      RMK A02 SLP154 T02340218 PA-45 DA1271=
0166008416999992015071418524-02200+040900FM-15+001099999V0201801N001019999999N009000199+02351+02191101611ADDAA101000231AW1611MA1101591999999REMMET122MOBOB8 METAR XM22 //001 022409 141852Z AUTO 18002KT 9000 -RA 24/22      A3000 RMK A02 SLP161 P0001 T02350219 PA-64 DA1263=
0165008416999992015071419524-02200+040900FM-15+001099999V0201801N002619999999N009000199+02371+02071101641ADDAA101000021AW1621MA1101631999999REMMET121MOBOB8 METAR XM22 //001 022409 141952Z AUTO 18005KT 9000 RA 24/21 A3001      RMK A02 SLP164 P0000 T02370207 PA-73 DA1250=
0166008416999992015071420524-02200+040900FM-15+001099999V0201701N003619999999N005000199+02311+02011101611ADDAA101000531AW1611MA1101591999999REMMET122MOBOB8 METAR XM22 //001 022409 142052Z AUTO 17007KT 5000 -RA 23/20      A3000 RMK A02 SLP161 P0002 T02310201 PA-64 DA1182=
0139008416999992015071421524-02200+040900FM-15+001099999V0201701N002619999999N009999199+02381+02141101571ADDMA1101561999999REMMET112MOBOB8 METAR XM22 //001 022409 142152Z AUTO 17005KT 9999 24/21 A2999      RMK A02 SLP157 T02380214 PA-54 DA1297=
0139008416999992015071422524-02200+040900FM-15+001099999V0201701N002619999999N009999199+02391+02111101511ADDMA1101491999999REMMET112MOBOB8 METAR XM22 //001 022409 142252Z AUTO 17005KT 9999 24/21 A2997      RMK A02 SLP151 T02390211 PA-36 DA1326=
0139008416999992015071423524-02200+040900FM-15+001099999V0201701N002619999999N009999199+02401+02141101471ADDMA1101461999999REMMET112MOBOB8 METAR XM22 //001 022409 142352Z AUTO 17005KT 9999 24/21 A2996      RMK A02 SLP147 T02400214 PA-27 DA1354=
0139008416999992015071500524-02200+040900FM-15+001099999V0201701N002619999999N009999199+02431+02121101441ADDMA1101421999999REMMET112MOBOB8 METAR XM22 //001 022409 150052Z AUTO 17005KT 9999 24/21 A2995      RMK A02 SLP144 T02430212 PA-17 DA1396=
0166008416999992015071501524-02200+040900FM-15+001099999V0201801N002619999999N009000199+02391+02151101441ADDAA101000731AW1611MA1101421999999REMMET122MOBOB8 METAR XM22 //001 022409 150152Z AUTO 18005KT 9000 -RA 24/21      A2995 RMK A02 SLP144 P0003 T02390215 PA-17 DA1356=
0139008416999992015071502524-02200+040900FM-15+001099999V0201801N002619999999N009999199+02401+02081101511ADDMA1101491999999REMMET112MOBOB8 METAR XM22 //001 022409 150252Z AUTO 18005KT 9999 24/21 A2997      RMK A02 SLP151 T02400208 PA-36 DA1331=
0139008416999992015071503524-02200+040900FM-15+001099999V0201701N002119999999N009999199+02431+02081101611ADDMA1101591999999REMMET112MOBOB8 METAR XM22 //001 022409 150352Z AUTO 17004KT 9999 24/21 A3000      RMK A02 SLP161 T02430208 PA-64 DA1332=
0139008416999992015071504524-02200+040900FM-15+001099999V0201701N003119999999N009999199+02551+02101101641ADDMA1101631999999REMMET112MOBOB8 METAR XM22 //001 022409 150452Z AUTO 17006KT 9999 26/21 A3001      RMK A02 SLP164 T02550210 PA-73 DA1459=
0150008416999992015071505524-02200+040900FM-15+001099999V0201701N004119999999N009999199+02681+02101101711ADDMA1101691999999OC100721REMMET115MOBOB8 METAR XM22 //001 022409 150552Z AUTO 17008G14KT 9999 27/21 A3003      RMK A02 SLP171 T02680210 PA-91 DA1585=
0151008416999992015071506524-02200+040900FM-15+001099999V0201701N004119999999N009999199+02751+02141101741ADDMA1101731999999OC100821REMMET116MOBOB8 METAR XM22 //001 022409 150652Z AUTO 17008G16KT 9999 28/21 A3004      RMK A02 SLP174 T02750214 PA-100 DA1660=
0150008416999992015071507524-02200+040900FM-15+001099999V0201701N005719999999N009999199+02761+02211101711ADDMA1101691999999OC101031REMMET115MOBOB8 METAR XM22 //001 022409 150752Z AUTO 17011G20KT 9999 28/22 A3003      RMK A02 SLP171 T02760221 PA-91 DA1695=
0150008416999992015071508524-02200+040900FM-15+001099999V0201701N006219999999N009999199+02691+02071101641ADDMA1101631999999OC101081REMMET115MOBOB8 METAR XM22 //001 022409 150852Z AUTO 17012G21KT 9999 27/21 A3001      RMK A02 SLP164 T02690207 PA-73 DA1613=
0177008416999992015071509524-02200+040900FM-15+001099999V0201701N005119999999N009000199+02741+02081101571ADDAA101000021AW1611MA1101561999999OC100931REMMET125MOBOB8 METAR XM22 //001 022409 150952Z AUTO 17010G18KT 9000 -RA 27/21      A2999 RMK A02 SLP157 P0000 T02740208 PA-54 DA1693=
0150008416999992015071510524-02200+040900FM-15+001099999V0201601N006719999999N009999199+02691+02071101511ADDMA1101491999999OC101131REMMET115MOBOB8 METAR XM22 //001 022409 151052Z AUTO 16013G22KT 9999 27/21 A2997      RMK A02 SLP151 T02690207 PA-36 DA1658=
0150008416999992015071511524-02200+040900FM-15+001099999V0201601N005719999999N009999199+02761+02031101401ADDMA1101391999999OC100981REMMET115MOBOB8 METAR XM22 //001 022409 151152Z AUTO 16011G19KT 9999 28/20 A2994      RMK A02 SLP140 T02760203 PA-08 DA1763=
0150008416999992015071512524-02200+040900FM-15+001099999V0201701N005719999999N009999199+02681+02091101371ADDMA1101351999999OC100931REMMET115MOBOB8 METAR XM22 //001 022409 151252Z AUTO 17011G18KT 9999 27/21 A2993      RMK A02 SLP137 T02680209 PA001 DA1697=
0150008416999992015071513524-02200+040900FM-15+001099999V0201701N005119999999N009999199+02601+02101101371ADDMA1101351999999OC100881REMMET115MOBOB8 METAR XM22 //001 022409 151352Z AUTO 17010G17KT 9999 26/21 A2993      RMK A02 SLP137 T02600210 PA001 DA1607=
0150008416999992015071514524-02200+040900FM-15+001099999V0201701N004619999999N009999199+02571+02061101371ADDMA1101351999999OC100981REMMET115MOBOB8 METAR XM22 //001 022409 151452Z AUTO 17009G19KT 9999 26/21 A2993      RMK A02 SLP137 T02570206 PA001 DA1566=
0150008416999992015071515524-02200+040900FM-15+001099999V0201501N004119999999N009999199+02461+02171101441ADDMA1101421999999OC100671REMMET115MOBOB8 METAR XM22 //001 022409 151552Z AUTO 15008G13KT 9999 25/22 A2995      RMK A02 SLP144 T02460217 PA-17 DA1440=
0150008416999992015071516524-02200+040900FM-15+001099999V0201601N005119999999N009999199+02501+02031101441ADDMA1101421999999OC100981REMMET115MOBOB8 METAR XM22 //001 022409 151652Z AUTO 16010G19KT 9999 25/20 A2995      RMK A02 SLP144 T02500203 PA-17 DA1458=
0150008416999992015071517524-02200+040900FM-15+001099999V0201701N003619999999N009999199+02501+02051101511ADDMA1101491999999OC100671REMMET115MOBOB8 METAR XM22 //001 022409 151752Z AUTO 17007G13KT 9999 25/21 A2997      RMK A02 SLP151 T02500205 PA-36 DA1440=
0139008416999992015071518524-02200+040900FM-15+001099999V0201701N002619999999N009999199+02451+02011101541ADDMA1101521999999REMMET112MOBOB8 METAR XM22 //001 022409 151852Z AUTO 17005KT 9999 25/20 A2998      RMK A02 SLP154 T02450201 PA-45 DA1363=
0139008416999992015071519524-02200+040900FM-15+001099999V0201701N003119999999N009999199+02501+02041101541ADDMA1101521999999REMMET112MOBOB8 METAR XM22 //001 022409 151952Z AUTO 17006KT 9999 25/20 A2998      RMK A02 SLP154 T02500204 PA-45 DA1425=
0150008416999992015071520524-02200+040900FM-15+001099999V0201701N003619999999N009999199+02551+02071101511ADDMA1101491999999OC100621REMMET115MOBOB8 METAR XM22 //001 022409 152052Z AUTO 17007G12KT 9999 26/21 A2997      RMK A02 SLP151 T02550207 PA-36 DA1499=
0150008416999992015071521524-02200+040900FM-15+001099999V0201601N006219999999N009999199+02431+01991101471ADDMA1101461999999OC101031REMMET115MOBOB8 METAR XM22 //001 022409 152152Z AUTO 16012G20KT 9999 24/20 A2996      RMK A02 SLP147 T02430199 PA-27 DA1361=
0166008416999992015071522524-02200+040900FM-15+001099999V0201701N001519999999N009000199+02271+02011101401ADDAA101000021AW1611MA1101391999999REMMET122MOBOB8 METAR XM22 //001 022409 152252Z AUTO 17003KT 9000 -RA 23/20      A2994 RMK A02 SLP140 P0000 T02270201 PA-08 DA1204=
0139008416999992015071523524-02200+040900FM-15+001099999V0201801N002619999999N009999199+02451+02081101371ADDMA1101351999999REMMET112MOBOB8 METAR XM22 //001 022409 152352Z AUTO 18005KT 9999 25/21 A2993      RMK A02 SLP137 T02450208 PA001 DA1434=
0139008416999992015071600524-02200+040900FM-15+001099999V0201701N002619999999N009999199+02471+02061101341ADDMA1101321999999REMMET112MOBOB8 METAR XM22 //001 022409 160052Z AUTO 17005KT 9999 25/21 A2992      RMK A02 SLP134 T02470206 PA010 DA1465=
0139008416999992015071601524-02200+040900FM-15+001099999V0201701N002119999999N009999199+02491+02071101371ADDMA1101351999999REMMET112MOBOB8 METAR XM22 //001 022409 160152Z AUTO 17004KT 9999 25/21 A2993      RMK A02 SLP137 T02490207 PA001 DA1477=
0166008416999992015071602524-02200+040900FM-15+001099999V0201601N003619999999N009000199+02331+02061101401ADDAA101000731AW1611MA1101391999999REMMET122MOBOB8 METAR XM22 //001 022409 160252Z AUTO 16007KT 9000 -RA 23/21      A2994 RMK A02 SLP140 P0003 T02330206 PA-08 DA1282=
0139008416999992015071603524-02200+040900FM-15+001099999V0201701N001519999999N009999199+02361+02161101401ADDMA1101391999999REMMET112MOBOB8 METAR XM22 //001 022409 160352Z AUTO 17003KT 9999 24/22 A2994      RMK A02 SLP140 T02360216 PA-08 DA1336=
0139008416999992015071604524-02200+040900FM-15+001099999V0202701N000519999999N009999199+02401+02211101541ADDMA1101521999999REMMET112MOBOB8 METAR XM22 //001 022409 160452Z AUTO 27001KT 9999 24/22 A2998      RMK A02 SLP154 T02400221 PA-45 DA1346=
0139008416999992015071605524-02200+040900FM-15+001099999V0201701N003119999999N009999199+02551+02171101611ADDMA1101591999999REMMET112MOBOB8 METAR XM22 //001 022409 160552Z AUTO 17006KT 9999 26/22 A3000      RMK A02 SLP161 T02550217 PA-64 DA1486=
0150008416999992015071606514-02200+040900FM-15+001099999V0201701N004119999999N009999199+02741+02151101571ADDMA1101561999999OC100671REMMET115MOBOB8 METAR XM22 //001 022409 160651Z AUTO 17008G13KT 9999 27/21 A2999      RMK A02 SLP157 T02740215 PA-54 DA1706=
0150008416999992015071607524-02200+040900FM-15+001099999V0201701N005119999999N009999199+02821+02141101571ADDMA1101561999999OC100981REMMET115MOBOB8 METAR XM22 //001 022409 160752Z AUTO 17010G19KT 9999 28/21 A2999      RMK A02 SLP157 T02820214 PA-54 DA1794=
0150008416999992015071608524-02200+040900FM-15+001099999V0201601N006719999999N009999199+02831+02111101541ADDMA1101521999999OC101181REMMET115MOBOB8 METAR XM22 //001 022409 160852Z AUTO 16013G23KT 9999 28/21 A2998      RMK A02 SLP154 T02830211 PA-45 DA1812=
0150008416999992015071609524-02200+040900FM-15+001099999V0201601N005719999999N009999199+02871+02111101471ADDMA1101461999999OC101031REMMET115MOBOB8 METAR XM22 //001 022409 160952Z AUTO 16011G20KT 9999 29/21 A2996      RMK A02 SLP147 T02870211 PA-27 DA1878=
0150008416999992015071610524-02200+040900FM-15+001099999V0201601N007219999999N009999199+02841+02081101371ADDMA1101351999999OC101131REMMET115MOBOB8 METAR XM22 //001 022409 161052Z AUTO 16014G22KT 9999 28/21 A2993      RMK A02 SLP137 T02840208 PA001 DA1874=
0150008416999992015071611524-02200+040900FM-15+001099999V0201701N005719999999N009999199+02791+02031101341ADDMA1101321999999OC101031REMMET115MOBOB8 METAR XM22 //001 022409 161152Z AUTO 17011G20KT 9999 28/20 A2992      RMK A02 SLP134 T02790203 PA010 DA1820=
0150008416999992015071612524-02200+040900FM-15+001099999V0201701N005719999999N009999199+02691+02031101301ADDMA1101291999999OC100981REMMET115MOBOB8 METAR XM22 //001 022409 161252Z AUTO 17011G19KT 9999 27/20 A2991      RMK A02 SLP130 T02690203 PA020 DA1718=
0150008416999992015071613524-02200+040900FM-15+001099999V0201701N005719999999N009999199+02651+02091101271ADDMA1101251999999OC100981REMMET115MOBOB8 METAR XM22 //001 022409 161352Z AUTO 17011G19KT 9999 27/21 A2990      RMK A02 SLP127 T02650209 PA029 DA1696=
0150008416999992015071614524-02200+040900FM-15+001099999V0201701N004619999999N009999199+02621+02061101301ADDMA1101291999999OC100771REMMET115MOBOB8 METAR XM22 //001 022409 161452Z AUTO 17009G15KT 9999 26/21 A2991      RMK A02 SLP130 T02620206 PA020 DA1645=
0139008416999992015071615524-02200+040900FM-15+001099999V0201701N003119999999N009999199+02541+02041101341ADDMA1101321999999REMMET112MOBOB8 METAR XM22 //001 022409 161552Z AUTO 17006KT 9999 25/20 A2992      RMK A02 SLP134 T02540204 PA010 DA1539=
0139008416999992015071616524-02200+040900FM-15+001099999V0201701N002119999999N009999199+02501+02061101371ADDMA1101351999999REMMET112MOBOB8 METAR XM22 //001 022409 161652Z AUTO 17004KT 9999 25/21 A2993      RMK A02 SLP137 T02500206 PA001 DA1487=
0139008416999992015071617524-02200+040900FM-15+001099999V0201701N003119999999N009999199+02531+02061101441ADDMA1101421999999REMMET112MOBOB8 METAR XM22 //001 022409 161752Z AUTO 17006KT 9999 25/21 A2995      RMK A02 SLP144 T02530206 PA-17 DA1498=
0139008416999992015071618514-02200+040900FM-15+001099999V0201701N003119999999N009999199+02511+02051101471ADDMA1101461999999REMMET112MOBOB8 METAR XM22 //001 022409 161851Z AUTO 17006KT 9999 25/21 A2996      RMK A02 SLP147 T02510205 PA-27 DA1463=
0139008416999992015071619524-02200+040900FM-15+001099999V0201701N003619999999N009999199+02511+02051101441ADDMA1101421999999REMMET112MOBOB8 METAR XM22 //001 022409 161952Z AUTO 17007KT 9999 25/21 A2995      RMK A02 SLP144 T02510205 PA-17 DA1474=
0139008416999992015071620524-02200+040900FM-15+001099999V0201701N003119999999N009999199+02471+02021101401ADDMA1101391999999REMMET112MOBOB8 METAR XM22 //001 022409 162052Z AUTO 17006KT 9999 25/20 A2994      RMK A02 SLP140 T02470202 PA-08 DA1435=
0139008416999992015071621524-02200+040900FM-15+001099999V0201701N003619999999N009999199+02491+02031101341ADDMA1101321999999REMMET112MOBOB8 METAR XM22 //001 022409 162152Z AUTO 17007KT 9999 25/20 A2992      RMK A02 SLP134 T02490203 PA010 DA1481=
0139008416999992015071622524-02200+040900FM-15+001099999V0201701N003619999999N009999199+02491+02041101301ADDMA1101291999999REMMET112MOBOB8 METAR XM22 //001 022409 162252Z AUTO 17007KT 9999 25/20 A2991      RMK A02 SLP130 T02490204 PA020 DA1495=
0139008416999992015071623514-02200+040900FM-15+001099999V0201701N004119999999N009999199+02501+02071101271ADDMA1101251999999REMMET112MOBOB8 METAR XM22 //001 022409 162351Z AUTO 17008KT 9999 25/21 A2990      RMK A02 SLP127 T02500207 PA029 DA1523=
0150008416999992015071700524-02200+040900FM-15+001099999V0201701N004119999999N009999199+02501+02071101301ADDMA1101291999999OC100621REMMET115MOBOB8 METAR XM22 //001 022409 170052Z AUTO 17008G12KT 9999 25/21 A2991      RMK A02 SLP130 T02500207 PA020 DA1511=
0139008416999992015071701524-02200+040900FM-15+001099999V0201701N002619999999N009999199+02441+02041101341ADDMA1101321999999REMMET112MOBOB8 METAR XM22 //001 022409 170152Z AUTO 17005KT 9999 24/20 A2992      RMK A02 SLP134 T02440204 PA010 DA1425=
0139008416999992015071702514-02200+040900FM-15+001099999V0201701N003119999999N009999199+02481+02051101371ADDMA1101351999999REMMET112MOBOB8 METAR XM22 //001 022409 170251Z AUTO 17006KT 9999 25/20 A2993      RMK A02 SLP137 T02480205 PA001 DA1462=
0139008416999992015071703524-02200+040900FM-15+001099999V0201701N002619999999N009999199+02451+02031101401ADDMA1101391999999REMMET112MOBOB8 METAR XM22 //001 022409 170352Z AUTO 17005KT 9999 25/20 A2994      RMK A02 SLP140 T02450203 PA-08 DA1414=
0150008416999992015071704524-02200+040900FM-15+001099999V0201701N003619999999N009999199+02621+02061101471ADDMA1101461999999OC100621REMMET115MOBOB8 METAR XM22 //001 022409 170452Z AUTO 17007G12KT 9999 26/21 A2996      RMK A02 SLP147 T02620206 PA-27 DA1589=
0150008416999992015071705524-02200+040900FM-15+001099999V0201701N003619999999N009999199+02691+02081101541ADDMA1101521999999OC100621REMMET115MOBOB8 METAR XM22 //001 022409 170552Z AUTO 17007G12KT 9999 27/21 A2998      RMK A02 SLP154 T02690208 PA-45 DA1649=
0150008416999992015071706524-02200+040900FM-15+001099999V0201701N004619999999N009999199+02761+02081101571ADDMA1101561999999OC100821REMMET115MOBOB8 METAR XM22 //001 022409 170652Z AUTO 17009G16KT 9999 28/21 A2999      RMK A02 SLP157 T02760208 PA-54 DA1715=
0177008416999992015071707524-02200+040900FM-15+001099999V0201701N003619999999N009000199+02721+02131101571ADDAA101000021AW1611MA1101561999999OC100771REMMET125MOBOB8 METAR XM22 //001 022409 170752Z AUTO 17007G15KT 9000 -RA 27/21      A2999 RMK A02 SLP157 P0000 T02720213 PA-54 DA1680=
0150008416999992015071708524-02200+040900FM-15+001099999V0201701N004619999999N009999199+02851+02011101511ADDMA1101491999999OC100931REMMET115MOBOB8 METAR XM22 //001 022409 170852Z AUTO 17009G18KT 9999 29/20 A2997      RMK A02 SLP151 T02850201 PA-36 DA1826=
0150008416999992015071709524-02200+040900FM-15+001099999V0201701N004119999999N009999199+02871+02121101471ADDMA1101461999999OC100881REMMET115MOBOB8 METAR XM22 //001 022409 170952Z AUTO 17008G17KT 9999 29/21 A2996      RMK A02 SLP147 T02870212 PA-27 DA1880=
0150008416999992015071710524-02200+040900FM-15+001099999V0201701N005119999999N009999199+02831+02071101371ADDMA1101351999999OC100931REMMET115MOBOB8 METAR XM22 //001 022409 171052Z AUTO 17010G18KT 9999 28/21 A2993      RMK A02 SLP137 T02830207 PA001 DA1860=
0150008416999992015071711524-02200+040900FM-15+001099999V0201701N005119999999N009999199+02791+02051101301ADDMA1101291999999OC100931REMMET115MOBOB8 METAR XM22 //001 022409 171152Z AUTO 17010G18KT 9999 28/21 A2991      RMK A02 SLP130 T02790205 PA020 DA1835=
0150008416999992015071712524-02200+040900FM-15+001099999V0201701N004119999999N009999199+02761+02071101231ADDMA1101221999999OC100771REMMET115MOBOB8 METAR XM22 //001 022409 171252Z AUTO 17008G15KT 9999 28/21 A2989      RMK A02 SLP123 T02760207 PA038 DA1828=
0150008416999992015071713524-02200+040900FM-15+001099999V0201701N003619999999N009999199+02691+02111101231ADDMA1101221999999OC100881REMMET115MOBOB8 METAR XM22 //001 022409 171352Z AUTO 17007G17KT 9999 27/21 A2989      RMK A02 SLP123 T02690211 PA038 DA1756=
0150008416999992015071714524-02200+040900FM-15+001099999V0201701N004119999999N009999199+02621+02031101271ADDMA1101251999999OC100881REMMET115MOBOB8 METAR XM22 //001 022409 171452Z AUTO 17008G17KT 9999 26/20 A2990      RMK A02 SLP127 T02620203 PA029 DA1652=
0139008416999992015071715524-02200+040900FM-15+001099999V0201701N003119999999N009999199+02581+02111101341ADDMA1101321999999REMMET112MOBOB8 METAR XM22 //001 022409 171552Z AUTO 17006KT 9999 26/21 A2992      RMK A02 SLP134 T02580211 PA010 DA1599=
0150008416999992015071716524-02200+040900FM-15+001099999V0201701N004119999999N009999199+02591+02021101371ADDMA1101351999999OC100771REMMET115MOBOB8 METAR XM22 //001 022409 171652Z AUTO 17008G15KT 9999 26/20 A2993      RMK A02 SLP137 T02590202 PA001 DA1582=
0139008416999992015071717524-02200+040900FM-15+001099999V0201701N003119999999N009999199+02561+02101101441ADDMA1101421999999REMMET112MOBOB8 METAR XM22 //001 022409 171752Z AUTO 17006KT 9999 26/21 A2995      RMK A02 SLP144 T02560210 PA-17 DA1540=
0150008416999992015071718524-02200+040900FM-15+001099999V0201701N004119999999N009999199+02571+02121101511ADDMA1101491999999OC100671REMMET115MOBOB8 METAR XM22 //001 022409 171852Z AUTO 17008G13KT 9999 26/21 A2997      RMK A02 SLP151 T02570212 PA-36 DA1532=
0150008416999992015071719524-02200+040900FM-15+001099999V0201701N004119999999N009999199+02551+02141101441ADDMA1101421999999OC100621REMMET115MOBOB8 METAR XM22 //001 022409 171952Z AUTO 17008G12KT 9999 26/21 A2995      RMK A02 SLP144 T02550214 PA-17 DA1535=
0139008416999992015071720524-02200+040900FM-15+001099999V0201701N003619999999N009999199+02511+02081101441ADDMA1101421999999REMMET112MOBOB8 METAR XM22 //001 022409 172052Z AUTO 17007KT 9999 25/21 A2995      RMK A02 SLP144 T02510208 PA-17 DA1479=
0139008416999992015071721524-02200+040900FM-15+001099999V0201601N002619999999N009999199+02501+02131101401ADDMA1101391999999REMMET112MOBOB8 METAR XM22 //001 022409 172152Z AUTO 16005KT 9999 25/21 A2994      RMK A02 SLP140 T02500213 PA-08 DA1490=
0139008416999992015071722524-02200+040900FM-15+001099999V0201701N002119999999N009999199+02491+02151101371ADDMA1101351999999REMMET112MOBOB8 METAR XM22 //001 022409 172252Z AUTO 17004KT 9999 25/21 A2993      RMK A02 SLP137 T02490215 PA001 DA1493=
0139008416999992015071723524-02200+040900FM-15+001099999V0201701N002619999999N009999199+02491+02151101341ADDMA1101321999999REMMET112MOBOB8 METAR XM22 //001 022409 172352Z AUTO 17005KT 9999 25/21 A2992      RMK A02 SLP134 T02490215 PA010 DA1504=
0139008416999992015071800524-02200+040900FM-15+001099999V0201701N002619999999N009999199+02471+02121101371ADDMA1101351999999REMMET112MOBOB8 METAR XM22 //001 022409 180052Z AUTO 17005KT 9999 25/21 A2993      RMK A02 SLP137 T02470212 PA001 DA1464=
0139008416999992015071801524-02200+040900FM-15+001099999V0201701N002619999999N009999199+02461+02101101401ADDMA1101391999999REMMET112MOBOB8 METAR XM22 //001 022409 180152Z AUTO 17005KT 9999 25/21 A2994      RMK A02 SLP140 T02460210 PA-08 DA1438=
0139008416999992015071802524-02200+040900FM-15+001099999V0201701N002119999999N009999199+02431+02071101401ADDMA1101391999999REMMET112MOBOB8 METAR XM22 //001 022409 180252Z AUTO 17004KT 9999 24/21 A2994      RMK A02 SLP140 T02430207 PA-08 DA1398=
0139008416999992015071803524-02200+040900FM-15+001099999V0201601N002619999999N009999199+02441+02151101471ADDMA1101461999999REMMET112MOBOB8 METAR XM22 //001 022409 180352Z AUTO 16005KT 9999 24/21 A2996      RMK A02 SLP147 T02440215 PA-27 DA1401=
0139008416999992015071804524-02200+040900FM-15+001099999V0201701N002119999999N009999199+02531+02201101511ADDMA1101491999999REMMET112MOBOB8 METAR XM22 //001 022409 180452Z AUTO 17004KT 9999 25/22 A2997      RMK A02 SLP151 T02530220 PA-36 DA1504=
0177008416999992015071805524-02200+040900FM-15+001099999V0201701N003619999999N005000199+02421+02111101571ADDAA101000021AW1611MA1101561999999OC100671REMMET125MOBOB8 METAR XM22 //001 022409 180552Z AUTO 17007G13KT 5000 -RA 24/21      A2999 RMK A02 SLP157 P0000 T02420211 PA-54 DA1337=
0150008416999992015071806524-02200+040900FM-15+001099999V0201701N004119999999N009999199+02701+02201101571ADDMA1101561999999OC100821REMMET115MOBOB8 METAR XM22 //001 022409 180652Z AUTO 17008G16KT 9999 27/22 A2999      RMK A02 SLP157 T02700220 PA-54 DA1673=
0150008416999992015071807524-02200+040900FM-15+001099999V0201701N005119999999N009999199+02781+02151101541ADDMA1101521999999OC100931REMMET115MOBOB8 METAR XM22 //001 022409 180752Z AUTO 17010G18KT 9999 28/22 A2998      RMK A02 SLP154 T02780215 PA-45 DA1764=
0150008416999992015071808524-02200+040900FM-15+001099999V0201601N006219999999N009999199+02821+02141101511ADDMA1101491999999OC101081REMMET115MOBOB8 METAR XM22 //001 022409 180852Z AUTO 16012G21KT 9999 28/21 A2997      RMK A02 SLP151 T02820214 PA-36 DA1818=
0150008416999992015071809524-02200+040900FM-15+001099999V0201701N005719999999N009999199+02831+02121101471ADDMA1101461999999OC100931REMMET115MOBOB8 METAR XM22 //001 022409 180952Z AUTO 17011G18KT 9999 28/21 A2996      RMK A02 SLP147 T02830212 PA-27 DA1835=
0150008416999992015071810524-02200+040900FM-15+001099999V0201701N005719999999N009999199+02851+02141101401ADDMA1101391999999OC100881REMMET115MOBOB8 METAR XM22 //001 022409 181052Z AUTO 17011G17KT 9999 29/21 A2994      RMK A02 SLP140 T02850214 PA-08 DA1886=
0150008416999992015071811524-02200+040900FM-15+001099999V0201601N006219999999N009999199+02771+02051101341ADDMA1101321999999OC101081REMMET115MOBOB8 METAR XM22 //001 022409 181152Z AUTO 16012G21KT 9999 28/20 A2992      RMK A02 SLP134 T02770205 PA010 DA1800=
0177008416999992015071812524-02200+040900FM-15+001099999V0201701N004619999999N009000199+02751+02111101341ADDAA101000021AW1611MA1101321999999OC100771REMMET125MOBOB8 METAR XM22 //001 022409 181252Z AUTO 17009G15KT 9000 -RA 28/21      A2992 RMK A02 SLP134 P0000 T02750211 PA010 DA1790=
0150008416999992015071813524-02200+040900FM-15+001099999V0201701N004119999999N009999199+02701+02091101341ADDMA1101321999999OC100721REMMET115MOBOB8 METAR XM22 //001 022409 181352Z AUTO 17008G14KT 9999 27/21 A2992      RMK A02 SLP134 T02700209 PA010 DA1731=
0139008416999992015071814524-02200+040900FM-15+001099999V0201601N003619999999N009999199+02601+02111101371ADDMA1101351999999REMMET112MOBOB8 METAR XM22 //001 022409 181452Z AUTO 16007KT 9999 26/21 A2993      RMK A02 SLP137 T02600211 PA001 DA1609=
0139008416999992015071815524-02200+040900FM-15+001099999V0201701N003119999999N009999199+02581+02141101371ADDMA1101351999999REMMET112MOBOB8 METAR XM22 //001 022409 181552Z AUTO 17006KT 9999 26/21 A2993      RMK A02 SLP137 T02580214 PA001 DA1594=
0139008416999992015071816524-02200+040900FM-15+001099999V0201501N002619999999N009999199+02581+02171101441ADDMA1101421999999REMMET112MOBOB8 METAR XM22 //001 022409 181652Z AUTO 15005KT 9999 26/22 A2995      RMK A02 SLP144 T02580217 PA-17 DA1576=
0139008416999992015071817524-02200+040900FM-15+001099999V0201601N003619999999N009999199+02601+02061101471ADDMA1101461999999REMMET112MOBOB8 METAR XM22 //001 022409 181752Z AUTO 16007KT 9999 26/21 A2996      RMK A02 SLP147 T02600206 PA-27 DA1566=
0139008416999992015071818524-02200+040900FM-15+001099999V0201601N003619999999N009999199+02561+02071101541ADDMA1101521999999REMMET112MOBOB8 METAR XM22 //001 022409 181852Z AUTO 16007KT 9999 26/21 A2998      RMK A02 SLP154 T02560207 PA-45 DA1501=
0139008416999992015071819524-02200+040900FM-15+001099999V0201501N004119999999N009999199+02581+02031101541ADDMA1101521999999REMMET112MOBOB8 METAR XM22 //001 022409 181952Z AUTO 15008KT 9999 26/20 A2998      RMK A02 SLP154 T02580203 PA-45 DA1515=
0139008416999992015071820524-02200+040900FM-15+001099999V0201601N003119999999N009999199+02531+02071101511ADDMA1101491999999REMMET112MOBOB8 METAR XM22 //001 022409 182052Z AUTO 16006KT 9999 25/21 A2997      RMK A02 SLP151 T02530207 PA-36 DA1476=
0139008416999992015071821524-02200+040900FM-15+001099999V0201601N003619999999N009999199+02501+02041101471ADDMA1101461999999REMMET112MOBOB8 METAR XM22 //001 022409 182152Z AUTO 16007KT 9999 25/20 A2996      RMK A02 SLP147 T02500204 PA-27 DA1448=
0139008416999992015071822524-02200+040900FM-15+001099999V0201601N003119999999N009999199+02481+02051101441ADDMA1101421999999REMMET112MOBOB8 METAR XM22 //001 022409 182252Z AUTO 16006KT 9999 25/21 A2995      RMK A02 SLP144 T02480205 PA-17 DA1440=
0139008416999992015071823524-02200+040900FM-15+001099999V0201601N003119999999N009999199+02481+02031101401ADDMA1101391999999REMMET112MOBOB8 METAR XM22 //001 022409 182352Z AUTO 16006KT 9999 25/20 A2994      RMK A02 SLP140 T02480203 PA-08 DA1447=
0139008416999992015071900524-02200+040900FM-15+001099999V0201701N002619999999N009999199+02441+02061101401ADDMA1101391999999REMMET112MOBOB8 METAR XM22 //001 022409 190052Z AUTO 17005KT 9999 24/21 A2994      RMK A02 SLP140 T02440206 PA-08 DA1407=
0139008416999992015071901524-02200+040900FM-15+001099999V0201601N002119999999N009999199+02461+02091101441ADDMA1101421999999REMMET112MOBOB8 METAR XM22 //001 022409 190152Z AUTO 16004KT 9999 25/21 A2995      RMK A02 SLP144 T02460209 PA-17 DA1424=
0139008416999992015071902524-02200+040900FM-15+001099999V0201701N001519999999N009999199+02451+02121101511ADDMA1101491999999REMMET112MOBOB8 METAR XM22 //001 022409 190252Z AUTO 17003KT 9999 25/21 A2997      RMK A02 SLP151 T02450212 PA-36 DA1397=
0166008416999992015071903524-02200+040900FM-15+001099999V0201601N002119999999N009000199+02471+02171101541ADDAA101000021AW1611MA1101521999999REMMET122MOBOB8 METAR XM22 //001 022409 190352Z AUTO 16004KT 9000 -RA 25/22      A2998 RMK A02 SLP154 P0000 T02470217 PA-45 DA1418=
0166008416999992015071904524-02200+040900FM-15+001099999V0201501N002619999999N009000199+02471+02161101611ADDAA101000231AW1611MA1101591999999REMMET122MOBOB8 METAR XM22 //001 022409 190452Z AUTO 15005KT 9000 -RA 25/22      A3000 RMK A02 SLP161 P0001 T02470216 PA-64 DA1392=
0150008416999992015071905524-02200+040900FM-15+001099999V0201501N005119999999N009999199+02641+02151101641ADDMA1101631999999OC100671REMMET115MOBOB8 METAR XM22 //001 022409 190552Z AUTO 15010G13KT 9999 26/21 A3001      RMK A02 SLP164 T02640215 PA-73 DA1571=
0150008416999992015071906524-02200+040900FM-15+001099999V0201601N006219999999N009999199+02731+02071101711ADDMA1101691999999OC101031REMMET115MOBOB8 METAR XM22 //001 022409 190652Z AUTO 16012G20KT 9999 27/21 A3003      RMK A02 SLP171 T02730207 PA-91 DA1636=
0150008416999992015071907524-02200+040900FM-15+001099999V0201601N006719999999N009999199+02791+02061101711ADDMA1101691999999OC100981REMMET115MOBOB8 METAR XM22 //001 022409 190752Z AUTO 16013G19KT 9999 28/21 A3003      RMK A02 SLP171 T02790206 PA-91 DA1699=
0150008416999992015071908524-02200+040900FM-15+001099999V0201601N004619999999N009999199+02791+02121101641ADDMA1101631999999OC100821REMMET115MOBOB8 METAR XM22 //001 022409 190852Z AUTO 16009G16KT 9999 28/21 A3001      RMK A02 SLP164 T02790212 PA-73 DA1734=
0150008416999992015071909524-02200+040900FM-15+001099999V0201601N005119999999N009999199+02851+02121101541ADDMA1101521999999OC100881REMMET115MOBOB8 METAR XM22 //001 022409 190952Z AUTO 16010G17KT 9999 29/21 A2998      RMK A02 SLP154 T02850212 PA-45 DA1836=
0150008416999992015071910524-02200+040900FM-15+001099999V0201601N005719999999N009999199+02831+02051101471ADDMA1101461999999OC100821REMMET115MOBOB8 METAR XM22 //001 022409 191052Z AUTO 16011G16KT 9999 28/21 A2996      RMK A02 SLP147 T02830205 PA-27 DA1823=
0150008416999992015071911524-02200+040900FM-15+001099999V0201701N004619999999N009999199+02741+02061101441ADDMA1101421999999OC100881REMMET115MOBOB8 METAR XM22 //001 022409 191152Z AUTO 17009G17KT 9999 27/21 A2995      RMK A02 SLP144 T02740206 PA-17 DA1735=
0150008416999992015071912524-02200+040900FM-15+001099999V0201701N004619999999N009999199+02711+02031101371ADDMA1101351999999OC100821REMMET115MOBOB8 METAR XM22 //001 022409 191252Z AUTO 17009G16KT 9999 27/20 A2993      RMK A02 SLP137 T02710203 PA001 DA1719=
0139008416999992015071913524-02200+040900FM-15+001099999V0201701N003619999999N009999199+02641+01971101371ADDMA1101351999999REMMET112MOBOB8 METAR XM22 //001 022409 191352Z AUTO 17007KT 9999 26/20 A2993      RMK A02 SLP137 T02640197 PA001 DA1629=
0139008416999992015071914524-02200+040900FM-15+001099999V0201701N002619999999N009999199+02601+02021101401ADDMA1101391999999REMMET112MOBOB8 METAR XM22 //001 022409 191452Z AUTO 17005KT 9999 26/20 A2994      RMK A02 SLP140 T02600202 PA-08 DA1581=
0139008416999992015071915524-02200+040900FM-15+001099999V0201701N002619999999N009999199+02581+02041101441ADDMA1101421999999REMMET112MOBOB8 METAR XM22 //001 022409 191552Z AUTO 17005KT 9999 26/20 A2995      RMK A02 SLP144 T02580204 PA-17 DA1551=
0139008416999992015071916524-02200+040900FM-15+001099999V0201601N003119999999N009999199+02571+02081101441ADDMA1101421999999REMMET112MOBOB8 METAR XM22 //001 022409 191652Z AUTO 16006KT 9999 26/21 A2995      RMK A02 SLP144 T02570208 PA-17 DA1548=
0139008416999992015071917524-02200+040900FM-15+001099999V0201601N003619999999N009999199+02571+02081101441ADDMA1101421999999REMMET112MOBOB8 METAR XM22 //001 022409 191752Z AUTO 16007KT 9999 26/21 A2995      RMK A02 SLP144 T02570208 PA-17 DA1548=
0139008416999992015071918524-02200+040900FM-15+001099999V0201601N003619999999N009999199+02571+02071101511ADDMA1101491999999REMMET112MOBOB8 METAR XM22 //001 022409 191852Z AUTO 16007KT 9999 26/21 A2997      RMK A02 SLP151 T02570207 PA-36 DA1523=
0139008416999992015071919524-02200+040900FM-15+001099999V0201601N003619999999N009999199+02561+02081101511ADDMA1101491999999REMMET112MOBOB8 METAR XM22 //001 022409 191952Z AUTO 16007KT 9999 26/21 A2997      RMK A02 SLP151 T02560208 PA-36 DA1512=
0139008416999992015071920524-02200+040900FM-15+001099999V0201601N003619999999N009999199+02561+02121101471ADDMA1101461999999REMMET112MOBOB8 METAR XM22 //001 022409 192052Z AUTO 16007KT 9999 26/21 A2996      RMK A02 SLP147 T02560212 PA-27 DA1533=
0139008416999992015071921524-02200+040900FM-15+001099999V0201701N003119999999N009999199+02531+02111101441ADDMA1101421999999REMMET112MOBOB8 METAR XM22 //001 022409 192152Z AUTO 17006KT 9999 25/21 A2995      RMK A02 SLP144 T02530211 PA-17 DA1507=
0139008416999992015071922524-02200+040900FM-15+001099999V0201701N003119999999N009999199+02521+02131101401ADDMA1101391999999REMMET112MOBOB8 METAR XM22 //001 022409 192252Z AUTO 17006KT 9999 25/21 A2994      RMK A02 SLP140 T02520213 PA-08 DA1512=
0150008416999992015071923524-02200+040900FM-15+001099999V0201701N003619999999N009999199+02531+02091101371ADDMA1101351999999OC100621REMMET115MOBOB8 METAR XM22 //001 022409 192352Z AUTO 17007G12KT 9999 25/21 A2993      RMK A02 SLP137 T02530209 PA001 DA1527=
0166008416999992015072000524-02200+040900FM-15+001099999V0201601N003619999999N009000199+02451+02091101401ADDAA101000021AW1611MA1101391999999REMMET122MOBOB8 METAR XM22 //001 022409 200052Z AUTO 16007KT 9000 -RA 25/21      A2994 RMK A02 SLP140 P0000 T02450209 PA-08 DA1425=
0139008416999992015072001524-02200+040900FM-15+001099999V0201701N003119999999N009999199+02431+02131101401ADDMA1101391999999REMMET112MOBOB8 METAR XM22 //001 022409 200152Z AUTO 17006KT 9999 24/21 A2994      RMK A02 SLP140 T02430213 PA-08 DA1409=
0139008416999992015072002524-02200+040900FM-15+001099999V0201701N003119999999N009999199+02411+02101101441ADDMA1101421999999REMMET112MOBOB8 METAR XM22 //001 022409 200252Z AUTO 17006KT 9999 24/21 A2995      RMK A02 SLP144 T02410210 PA-17 DA1369=
0139008416999992015072003524-02200+040900FM-15+001099999V0201601N003619999999N009999199+02461+02111101471ADDMA1101461999999REMMET112MOBOB8 METAR XM22 //001 022409 200352Z AUTO 16007KT 9999 25/21 A2996      RMK A02 SLP147 T02460211 PA-27 DA1417=
0150008416999992015072004524-02200+040900FM-15+001099999V0201601N004619999999N009999199+02591+02091101511ADDMA1101491999999OC100821REMMET115MOBOB8 METAR XM22 //001 022409 200452Z AUTO 16009G16KT 9999 26/21 A2997      RMK A02 SLP151 T02590209 PA-36 DA1549=
0150008416999992015072005524-02200+040900FM-15+001099999V0201701N006219999999N009999199+02711+02091101571ADDMA1101561999999OC100931REMMET115MOBOB8 METAR XM22 //001 022409 200552Z AUTO 17012G18KT 9999 27/21 A2999      RMK A02 SLP157 T02710209 PA-54 DA1661=
0159008416999992015072006524-02200+040900FM-15+001099999V0201601N007219999999N009000199+02801+02071101571ADDAW1051MA1101561999999OC101081REMMET118MOBOB8 METAR XM22 //001 022409 200652Z AUTO 16014G21KT 9000 HZ 28/21      A2999 RMK A02 SLP157 T02800207 PA-54 DA1759=
0150008416999992015072007524-02200+040900FM-15+001099999V0201701N005719999999N009999199+02791+02051101571ADDMA1101561999999OC100931REMMET115MOBOB8 METAR XM22 //001 022409 200752Z AUTO 17011G18KT 9999 28/21 A2999      RMK A02 SLP157 T02790205 PA-54 DA1744=
0150008416999992015072008524-02200+040900FM-15+001099999V0201601N005719999999N009999199+02831+02051101511ADDMA1101491999999OC100981REMMET115MOBOB8 METAR XM22 //001 022409 200852Z AUTO 16011G19KT 9999 28/21 A2997      RMK A02 SLP151 T02830205 PA-36 DA1812=
0150008416999992015072009524-02200+040900FM-15+001099999V0201701N005719999999N009999199+02821+01981101471ADDMA1101461999999OC101031REMMET115MOBOB8 METAR XM22 //001 022409 200952Z AUTO 17011G20KT 9999 28/20 A2996      RMK A02 SLP147 T02820198 PA-27 DA1799=
0150008416999992015072010524-02200+040900FM-15+001099999V0201601N006219999999N009999199+02811+02011101441ADDMA1101421999999OC100981REMMET115MOBOB8 METAR XM22 //001 022409 201052Z AUTO 16012G19KT 9999 28/20 A2995      RMK A02 SLP144 T02810201 PA-17 DA1804=
0150008416999992015072011524-02200+040900FM-15+001099999V0201701N004619999999N009999199+02801+02051101341ADDMA1101321999999OC100821REMMET115MOBOB8 METAR XM22 //001 022409 201152Z AUTO 17009G16KT 9999 28/21 A2992      RMK A02 SLP134 T02800205 PA010 DA1835=
0150008416999992015072012524-02200+040900FM-15+001099999V0201701N004619999999N009999199+02761+01981101271ADDMA1101251999999OC100881REMMET115MOBOB8 METAR XM22 //001 022409 201252Z AUTO 17009G17KT 9999 28/20 A2990      RMK A02 SLP127 T02760198 PA029 DA1800=
0150008416999992015072013524-02200+040900FM-15+001099999V0201701N004619999999N009999199+02671+01991101301ADDMA1101291999999OC100771REMMET115MOBOB8 METAR XM22 //001 022409 201352Z AUTO 17009G15KT 9999 27/20 A2991      RMK A02 SLP130 T02670199 PA020 DA1689=
0150008416999992015072014524-02200+040900FM-15+001099999V0201701N003619999999N009999199+02591+02021101301ADDMA1101291999999OC100721REMMET115MOBOB8 METAR XM22 //001 022409 201452Z AUTO 17007G14KT 9999 26/20 A2991      RMK A02 SLP130 T02590202 PA020 DA1603=
0139008416999992015072015524-02200+040900FM-15+001099999V0201701N002619999999N009999199+02521+02041101301ADDMA1101291999999REMMET112MOBOB8 METAR XM22 //001 022409 201552Z AUTO 17005KT 9999 25/20 A2991      RMK A02 SLP130 T02520204 PA020 DA1529=
0139008416999992015072016524-02200+040900FM-15+001099999V0201701N003119999999N009999199+02511+02011101371ADDMA1101351999999REMMET112MOBOB8 METAR XM22 //001 022409 201652Z AUTO 17006KT 9999 25/20 A2993      RMK A02 SLP137 T02510201 PA001 DA1489=
0139008416999992015072017524-02200+040900FM-15+001099999V0201701N003119999999N009999199+02531+02021101441ADDMA1101421999999REMMET112MOBOB8 METAR XM22 //001 022409 201752Z AUTO 17006KT 9999 25/20 A2995      RMK A02 SLP144 T02530202 PA-17 DA1491=
0139008416999992015072018524-02200+040900FM-15+001099999V0201701N003119999999N009999199+02521+02041101441ADDMA1101421999999REMMET112MOBOB8 METAR XM22 //001 022409 201852Z AUTO 17006KT 9999 25/20 A2995      RMK A02 SLP144 T02520204 PA-17 DA1483=
0150008416999992015072019524-02200+040900FM-15+001099999V0201701N003619999999N009999199+02511+02031101441ADDMA1101421999999OC100671REMMET115MOBOB8 METAR XM22 //001 022409 201952Z AUTO 17007G13KT 9999 25/20 A2995      RMK A02 SLP144 T02510203 PA-17 DA1470=
0139008416999992015072020524-02200+040900FM-15+001099999V0201701N003619999999N009999199+02501+02061101441ADDMA1101421999999REMMET112MOBOB8 METAR XM22 //001 022409 202052Z AUTO 17007KT 9999 25/21 A2995      RMK A02 SLP144 T02500206 PA-17 DA1464=
0139008416999992015072021524-02200+040900FM-15+001099999V0201701N003619999999N009999199+02491+02041101441ADDMA1101421999999REMMET112MOBOB8 METAR XM22 //001 022409 202152Z AUTO 17007KT 9999 25/20 A2995      RMK A02 SLP144 T02490204 PA-17 DA1450=
0150008416999992015072022524-02200+040900FM-15+001099999V0201701N004119999999N009999199+02511+02051101401ADDMA1101391999999OC100771REMMET115MOBOB8 METAR XM22 //001 022409 202252Z AUTO 17008G15KT 9999 25/20 A2994      RMK A02 SLP140 T02510205 PA-08 DA1484=
0150008416999992015072023524-02200+040900FM-15+001099999V0201701N004119999999N009999199+02521+02071101401ADDMA1101391999999OC100771REMMET115MOBOB8 METAR XM22 //001 022409 202352Z AUTO 17008G15KT 9999 25/21 A2994      RMK A02 SLP140 T02520207 PA-08 DA1499=
0166008416999992015072100524-02200+040900FM-15+001099999V0201701N003619999999N009000199+02471+02131101371ADDAA101001231AW1611MA1101351999999REMMET122MOBOB8 METAR XM22 //001 022409 210052Z AUTO 17007KT 9000 -RA 25/21      A2993 RMK A02 SLP137 P0005 T02470213 PA001 DA1466=
0139008416999992015072101524-02200+040900FM-15+001099999V0201701N002619999999N009999199+02401+02121101401ADDMA1101391999999REMMET112MOBOB8 METAR XM22 //001 022409 210152Z AUTO 17005KT 9999 24/21 A2994      RMK A02 SLP140 T02400212 PA-08 DA1374=
0139008416999992015072102524-02200+040900FM-15+001099999V0201701N002119999999N009999199+02381+02051101441ADDMA1101421999999REMMET112MOBOB8 METAR XM22 //001 022409 210252Z AUTO 17004KT 9999 24/21 A2995      RMK A02 SLP144 T02380205 PA-17 DA1326=
0139008416999992015072103524-02200+040900FM-15+001099999V0201701N002119999999N009999199+02371+02071101471ADDMA1101461999999REMMET112MOBOB8 METAR XM22 //001 022409 210352Z AUTO 17004KT 9999 24/21 A2996      RMK A02 SLP147 T02370207 PA-27 DA1307=
0150008416999992015072104524-02200+040900FM-15+001099999V0201601N003619999999N009999199+02571+02081101541ADDMA1101521999999OC100621REMMET115MOBOB8 METAR XM22 //001 022409 210452Z AUTO 16007G12KT 9999 26/21 A2998      RMK A02 SLP154 T02570208 PA-45 DA1512=
0150008416999992015072105524-02200+040900FM-15+001099999V0201601N004619999999N009999199+02661+02071101611ADDMA1101591999999OC100821REMMET115MOBOB8 METAR XM22 //001 022409 210552Z AUTO 16009G16KT 9999 27/21 A3000      RMK A02 SLP161 T02660207 PA-64 DA1590=
0150008416999992015072106524-02200+040900FM-15+001099999V0201701N004119999999N009999199+02761+02041101671ADDMA1101661999999OC100881REMMET115MOBOB8 METAR XM22 //001 022409 210652Z AUTO 17008G17KT 9999 28/20 A3002      RMK A02 SLP167 T02760204 PA-82 DA1674=
0150008416999992015072107524-02200+040900FM-15+001099999V0201701N006219999999N009999199+02761+01951101641ADDMA1101631999999OC101031REMMET115MOBOB8 METAR XM22 //001 022409 210752Z AUTO 17012G20KT 9999 28/19 A3001      RMK A02 SLP164 T02760195 PA-73 DA1669=
0150008416999992015072108524-02200+040900FM-15+001099999V0201701N004619999999N009999199+02801+01971101611ADDMA1101591999999OC100931REMMET115MOBOB8 METAR XM22 //001 022409 210852Z AUTO 17009G18KT 9999 28/20 A3000      RMK A02 SLP161 T02800197 PA-64 DA1730=
0177008416999992015072109524-02200+040900FM-15+001099999V0201701N004619999999N009000199+02781+02081101571ADDAA101000021AW1611MA1101561999999OC100821REMMET125MOBOB8 METAR XM22 //001 022409 210952Z AUTO 17009G16KT 9000 -RA 28/21      A2999 RMK A02 SLP157 P0000 T02780208 PA-54 DA1738=
0177008416999992015072110524-02200+040900FM-15+001099999V0201701N004119999999N009000199+02541+02181101511ADDAA101000021AW1611MA1101491999999OC100671REMMET125MOBOB8 METAR XM22 //001 022409 211052Z AUTO 17008G13KT 9000 -RA 25/22      A2997 RMK A02 SLP151 P0000 T02540218 PA-36 DA1511=
0150008416999992015072111524-02200+040900FM-15+001099999V0201701N004619999999N009999199+02801+01861101441ADDMA1101421999999OC100931REMMET115MOBOB8 METAR XM22 //001 022409 211152Z AUTO 17009G18KT 9999 28/19 A2995      RMK A02 SLP144 T02800186 PA-17 DA1766=
0150008416999992015072112524-02200+040900FM-15+001099999V0201701N003619999999N009999199+02731+02021101401ADDMA1101391999999OC100771REMMET115MOBOB8 METAR XM22 //001 022409 211252Z AUTO 17007G15KT 9999 27/20 A2994      RMK A02 SLP140 T02730202 PA-08 DA1727=
0150008416999992015072113524-02200+040900FM-15+001099999V0201701N003619999999N009999199+02661+02021101401ADDMA1101391999999OC100771REMMET115MOBOB8 METAR XM22 //001 022409 211352Z AUTO 17007G15KT 9999 27/20 A2994      RMK A02 SLP140 T02660202 PA-08 DA1648=
0150008416999992015072114524-02200+040900FM-15+001099999V0201701N004119999999N009999199+02581+01991101441ADDMA1101421999999OC100671REMMET115MOBOB8 METAR XM22 //001 022409 211452Z AUTO 17008G13KT 9999 26/20 A2995      RMK A02 SLP144 T02580199 PA-17 DA1542=
0139008416999992015072115524-02200+040900FM-15+001099999V0201701N002619999999N009999199+02501+02001101441ADDMA1101421999999REMMET112MOBOB8 METAR XM22 //001 022409 211552Z AUTO 17005KT 9999 25/20 A2995      RMK A02 SLP144 T02500200 PA-17 DA1452=
0139008416999992015072116524-02200+040900FM-15+001099999V0201701N002619999999N009999199+02511+02051101441ADDMA1101421999999REMMET112MOBOB8 METAR XM22 //001 022409 211652Z AUTO 17005KT 9999 25/21 A2995      RMK A02 SLP144 T02510205 PA-17 DA1474=
0177008416999992015072117524-02200+040900FM-15+001099999V0201701N004119999999N009000199+02531+02101101511ADDAA101000021AW1611MA1101491999999OC100771REMMET125MOBOB8 METAR XM22 //001 022409 211752Z AUTO 17008G15KT 9000 -RA 25/21      A2997 RMK A02 SLP151 P0000 T02530210 PA-36 DA1482=
0150008416999992015072118524-02200+040900FM-15+001099999V0201701N003619999999N009999199+02511+02021101541ADDMA1101521999999OC100671REMMET115MOBOB8 METAR XM22 //001 022409 211852Z AUTO 17007G13KT 9999 25/20 A2998      RMK A02 SLP154 T02510202 PA-45 DA1433=
0139008416999992015072119524-02200+040900FM-15+001099999V0201701N003119999999N009999199+02501+02021101541ADDMA1101521999999REMMET112MOBOB8 METAR XM22 //001 022409 211952Z AUTO 17006KT 9999 25/20 A2998      RMK A02 SLP154 T02500202 PA-45 DA1423=
0139008416999992015072120524-02200+040900FM-15+001099999V0201701N003119999999N009999199+02521+01981101541ADDMA1101521999999REMMET112MOBOB8 METAR XM22 //001 022409 212052Z AUTO 17006KT 9999 25/20 A2998      RMK A02 SLP154 T02520198 PA-45 DA1437=
0150008416999992015072121524-02200+040900FM-15+001099999V0201601N004119999999N009999199+02501+01941101511ADDMA1101491999999OC100671REMMET115MOBOB8 METAR XM22 //001 022409 212152Z AUTO 16008G13KT 9999 25/19 A2997      RMK A02 SLP151 T02500194 PA-36 DA1419=
0150008416999992015072122524-02200+040900FM-15+001099999V0201701N004119999999N009999199+02501+01911101441ADDMA1101421999999OC100671REMMET115MOBOB8 METAR XM22 //001 022409 212252Z AUTO 17008G13KT 9999 25/19 A2995      RMK A02 SLP144 T02500191 PA-17 DA1437=
0139008416999992015072123524-02200+040900FM-15+001099999V0201601N003619999999N009999199+02461+01961101441ADDMA1101421999999REMMET112MOBOB8 METAR XM22 //001 022409 212352Z AUTO 16007KT 9999 25/20 A2995      RMK A02 SLP144 T02460196 PA-17 DA1400=
0139008416999992015072200524-02200+040900FM-15+001099999V0201701N003119999999N009999199+02451+01961101441ADDMA1101421999999REMMET112MOBOB8 METAR XM22 //001 022409 220052Z AUTO 17006KT 9999 25/20 A2995      RMK A02 SLP144 T02450196 PA-17 DA1390=
0139008416999992015072201524-02200+040900FM-15+001099999V0201701N003619999999N009999199+02461+01971101471ADDMA1101461999999REMMET112MOBOB8 METAR XM22 //001 022409 220152Z AUTO 17007KT 9999 25/20 A2996      RMK A02 SLP147 T02460197 PA-27 DA1391=
0139008416999992015072202524-02200+040900FM-15+001099999V0201601N002619999999N009999199+02421+01991101511ADDMA1101491999999REMMET112MOBOB8 METAR XM22 //001 022409 220252Z AUTO 16005KT 9999 24/20 A2997      RMK A02 SLP151 T02420199 PA-36 DA1337=
0139008416999992015072203524-02200+040900FM-15+001099999V0201701N002119999999N009999199+02481+02011101571ADDMA1101561999999REMMET112MOBOB8 METAR XM22 //001 022409 220352Z AUTO 17004KT 9999 25/20 A2999      RMK A02 SLP157 T02480201 PA-54 DA1387=
0139008416999992015072204524-02200+040900FM-15+001099999V0201701N002619999999N009999199+02571+02051101641ADDMA1101631999999REMMET112MOBOB8 METAR XM22 //001 022409 220452Z AUTO 17005KT 9999 26/21 A3001      RMK A02 SLP164 T02570205 PA-73 DA1474=
0150008416999992015072205524-02200+040900FM-15+001099999V0201701N004119999999N009999199+02651+02091101711ADDMA1101691999999OC100771REMMET115MOBOB8 METAR XM22 //001 022409 220552Z AUTO 17008G15KT 9999 27/21 A3003      RMK A02 SLP171 T02650209 PA-91 DA1548=
0151008416999992015072206524-02200+040900FM-15+001099999V0201601N005119999999N009999199+02731+02081101741ADDMA1101731999999OC100771REMMET116MOBOB8 METAR XM22 //001 022409 220652Z AUTO 16010G15KT 9999 27/21 A3004      RMK A02 SLP174 T02730208 PA-100 DA1626=
0177008416999992015072207524-02200+040900FM-15+001099999V0201401N005119999999N009000199+02581+02161101711ADDAA101000231AW1611MA1101691999999OC100821REMMET125MOBOB8 METAR XM22 //001 022409 220752Z AUTO 14010G16KT 9000 -RA 26/22      A3003 RMK A02 SLP171 P0001 T02580216 PA-91 DA1482=
0177008416999992015072208524-02200+040900FM-15+001099999V0201701N004119999999N009000199+02541+02121101671ADDAA101000021AW1611MA1101661999999OC100821REMMET125MOBOB8 METAR XM22 //001 022409 220852Z AUTO 17008G16KT 9000 -RA 25/21      A3002 RMK A02 SLP167 P0000 T02540212 PA-82 DA1442=
0150008416999992015072209524-02200+040900FM-15+001099999V0201601N004119999999N009999199+02691+02191101611ADDMA1101591999999OC100721REMMET115MOBOB8 METAR XM22 //001 022409 220952Z AUTO 16008G14KT 9999 27/22 A3000      RMK A02 SLP161 T02690219 PA-64 DA1648=
0139008416999992015072210524-02200+040900FM-15+001099999V0201801N003119999999N009999199+02651+02011101541ADDMA1101521999999REMMET112MOBOB8 METAR XM22 //001 022409 221052Z AUTO 18006KT 9999 27/20 A2998      RMK A02 SLP154 T02650201 PA-45 DA1590=
0150008416999992015072211524-02200+040900FM-15+001099999V0201601N005119999999N009999199+02781+01971101511ADDMA1101491999999OC100931REMMET115MOBOB8 METAR XM22 //001 022409 221152Z AUTO 16010G18KT 9999 28/20 A2997      RMK A02 SLP151 T02780197 PA-36 DA1741=
0150008416999992015072212524-02200+040900FM-15+001099999V0201701N004119999999N009999199+02721+02091101471ADDMA1101461999999OC100721REMMET115MOBOB8 METAR XM22 //001 022409 221252Z AUTO 17008G14KT 9999 27/21 A2996      RMK A02 SLP147 T02720209 PA-27 DA1706=
0166008416999992015072213524-02200+040900FM-15+001099999V0201701N002619999999N009000199+02541+02241101441ADDAA101000531AW1611MA1101421999999REMMET122MOBOB8 METAR XM22 //001 022409 221352Z AUTO 17005KT 9000 -RA 25/22      A2995 RMK A02 SLP144 P0002 T02540224 PA-17 DA1545=
0139008416999992015072214524-02200+040900FM-15+001099999V0201801N002619999999N009999199+02511+02171101471ADDMA1101461999999REMMET112MOBOB8 METAR XM22 //001 022409 221452Z AUTO 18005KT 9999 25/22 A2996      RMK A02 SLP147 T02510217 PA-27 DA1486=
0139008416999992015072215524-02200+040900FM-15+001099999V0201701N003119999999N009999199+02511+02071101511ADDMA1101491999999REMMET112MOBOB8 METAR XM22 //001 022409 221552Z AUTO 17006KT 9999 25/21 A2997      RMK A02 SLP151 T02510207 PA-36 DA1454=
0150008416999992015072216524-02200+040900FM-15+001099999V0201701N004619999999N009999199+02521+02011101541ADDMA1101521999999OC100821REMMET115MOBOB8 METAR XM22 //001 022409 221652Z AUTO 17009G16KT 9999 25/20 A2998      RMK A02 SLP154 T02520201 PA-45 DA1442=
0150008416999992015072217524-02200+040900FM-15+001099999V0201701N003619999999N009999199+02511+02021101541ADDMA1101521999999OC100721REMMET115MOBOB8 METAR XM22 //001 022409 221752Z AUTO 17007G14KT 9999 25/20 A2998      RMK A02 SLP154 T02510202 PA-45 DA1433=
0139008416999992015072218524-02200+040900FM-15+001099999V0201701N003119999999N009999199+02511+02071101611ADDMA1101591999999REMMET112MOBOB8 METAR XM22 //001 022409 221852Z AUTO 17006KT 9999 25/21 A3000      RMK A02 SLP161 T02510207 PA-64 DA1420=
0150008416999992015072219524-02200+040900FM-15+001099999V0201701N004119999999N009999199+02501+02031101611ADDMA1101591999999OC100671REMMET115MOBOB8 METAR XM22 //001 022409 221952Z AUTO 17008G13KT 9999 25/20 A3000      RMK A02 SLP161 T02500203 PA-64 DA1402=
0139008416999992015072220524-02200+040900FM-15+001099999V0201601N003119999999N009999199+02481+02081101541ADDMA1101521999999REMMET112MOBOB8 METAR XM22 //001 022409 222052Z AUTO 16006KT 9999 25/21 A2998      RMK A02 SLP154 T02480208 PA-45 DA1411=
0150008416999992015072221524-02200+040900FM-15+001099999V0201601N004619999999N009999199+02501+02051101511ADDMA1101491999999OC100771REMMET115MOBOB8 METAR XM22 //001 022409 222152Z AUTO 16009G15KT 9999 25/20 A2997      RMK A02 SLP151 T02500205 PA-36 DA1439=
0139008416999992015072222524-02200+040900FM-15+001099999V0201701N003119999999N009999199+02471+02051101471ADDMA1101461999999REMMET112MOBOB8 METAR XM22 //001 022409 222252Z AUTO 17006KT 9999 25/21 A2996      RMK A02 SLP147 T02470205 PA-27 DA1417=
0150008416999992015072223524-02200+040900FM-15+001099999V0201601N004119999999N009999199+02511+02021101441ADDMA1101421999999OC100671REMMET115MOBOB8 METAR XM22 //001 022409 222352Z AUTO 16008G13KT 9999 25/20 A2995      RMK A02 SLP144 T02510202 PA-17 DA1469=
0166008416999992015072300524-02200+040900FM-15+001099999V0201701N002619999999N009000199+02381+02091101471ADDAA101000021AW1611MA1101461999999REMMET122MOBOB8 METAR XM22 //001 022409 230052Z AUTO 17005KT 9000 -RA 24/21      A2996 RMK A02 SLP147 P0000 T02380209 PA-27 DA1321=
0139008416999992015072301524-02200+040900FM-15+001099999V0201701N003119999999N009999199+02421+02041101511ADDMA1101491999999REMMET112MOBOB8 METAR XM22 //001 022409 230152Z AUTO 17006KT 9999 24/20 A2997      RMK A02 SLP151 T02420204 PA-36 DA1347=
0139008416999992015072303524-02200+040900FM-15+001099999V0201701N002119999999N009999199+02441+02071101611ADDMA1101591999999REMMET112MOBOB8 METAR XM22 //001 022409 230352Z AUTO 17004KT 9999 24/21 A3000      RMK A02 SLP161 T02440207 PA-64 DA1341=
0139008416999992015072304524-02200+040900FM-15+001099999V0201701N003119999999N009999199+02531+02161101671ADDMA1101661999999REMMET112MOBOB8 METAR XM22 //001 022409 230452Z AUTO 17006KT 9999 25/22 A3002      RMK A02 SLP167 T02530216 PA-82 DA1438=
0150008416999992015072305524-02200+040900FM-15+001099999V0201701N004119999999N009999199+02711+02061101711ADDMA1101691999999OC100721REMMET115MOBOB8 METAR XM22 //001 022409 230552Z AUTO 17008G14KT 9999 27/21 A3003      RMK A02 SLP171 T02710206 PA-91 DA1611=
0151008416999992015072306524-02200+040900FM-15+001099999V0201601N005119999999N009999199+02751+02071101741ADDMA1101731999999OC100881REMMET116MOBOB8 METAR XM22 //001 022409 230652Z AUTO 16010G17KT 9999 28/21 A3004      RMK A02 SLP174 T02750207 PA-100 DA1646=
0150008416999992015072307524-02200+040900FM-15+001099999V0201701N004119999999N009999199+02771+02071101711ADDMA1101691999999OC100721REMMET115MOBOB8 METAR XM22 //001 022409 230752Z AUTO 17008G14KT 9999 28/21 A3003      RMK A02 SLP171 T02770207 PA-91 DA1680=
0150008416999992015072308524-02200+040900FM-15+001099999V0201601N005119999999N009999199+02821+02041101641ADDMA1101631999999OC100881REMMET115MOBOB8 METAR XM22 //001 022409 230852Z AUTO 16010G17KT 9999 28/20 A3001      RMK A02 SLP164 T02820204 PA-73 DA1752=
0150008416999992015072309524-02200+040900FM-15+001099999V0201701N004619999999N009999199+02801+02091101571ADDMA1101561999999OC100881REMMET115MOBOB8 METAR XM22 //001 022409 230952Z AUTO 17009G17KT 9999 28/21 A2999      RMK A02 SLP157 T02800209 PA-54 DA1762=
0150008416999992015072310524-02200+040900FM-15+001099999V0201701N004119999999N009999199+02721+02061101511ADDMA1101491999999OC100721REMMET115MOBOB8 METAR XM22 //001 022409 231052Z AUTO 17008G14KT 9999 27/21 A2997      RMK A02 SLP151 T02720206 PA-36 DA1689=
0150008416999992015072311524-02200+040900FM-15+001099999V0201701N004619999999N009999199+02741+02041101441ADDMA1101421999999OC100821REMMET115MOBOB8 METAR XM22 //001 022409 231152Z AUTO 17009G16KT 9999 27/20 A2995      RMK A02 SLP144 T02740204 PA-17 DA1732=
0150008416999992015072312524-02200+040900FM-15+001099999V0201701N004119999999N009999199+02741+02071101441ADDMA1101421999999OC100671REMMET115MOBOB8 METAR XM22 //001 022409 231252Z AUTO 17008G13KT 9999 27/21 A2995      RMK A02 SLP144 T02740207 PA-17 DA1737=
0177008416999992015072313524-02200+040900FM-15+001099999V0201701N003619999999N009000199+02591+02071101441ADDAA101000021AW1611MA1101421999999OC100721REMMET125MOBOB8 METAR XM22 //001 022409 231352Z AUTO 17007G14KT 9000 -RA 26/21      A2995 RMK A02 SLP144 P0000 T02590207 PA-17 DA1568=
0165008416999992015072314524-02200+040900FM-15+001099999V0201701N002619999999N009000199+02461+02091999999ADDAA101000021AW1611MA1101421999999REMMET121MOBOB8 METAR XM22 //001 022409 231452Z AUTO 17005KT 9000 -RA 25/21      A2995 RMK A02 SLPNO P0000 T02460209 PA-17 DA1424=
0139008416999992015072315524-02200+040900FM-15+001099999V0201701N002619999999N009999199+02451+02071101441ADDMA1101421999999REMMET112MOBOB8 METAR XM22 //001 022409 231552Z AUTO 17005KT 9999 25/21 A2995      RMK A02 SLP144 T02450207 PA-17 DA1409=
0150008416999992015072316524-02200+040900FM-15+001099999V0201601N003619999999N009999199+02521+02061101471ADDMA1101461999999OC100671REMMET115MOBOB8 METAR XM22 //001 022409 231652Z AUTO 16007G13KT 9999 25/21 A2996      RMK A02 SLP147 T02520206 PA-27 DA1475=
0139008416999992015072317524-02200+040900FM-15+001099999V0201701N003119999999N009999199+02461+02001101511ADDMA1101491999999REMMET112MOBOB8 METAR XM22 //001 022409 231752Z AUTO 17006KT 9999 25/20 A2997      RMK A02 SLP151 T02460200 PA-36 DA1385=
0139008416999992015072318524-02200+040900FM-15+001099999V0201601N003619999999N009999199+02451+01991101541ADDMA1101521999999REMMET112MOBOB8 METAR XM22 //001 022409 231852Z AUTO 16007KT 9999 25/20 A2998      RMK A02 SLP154 T02450199 PA-45 DA1360=
0139008416999992015072319524-02200+040900FM-15+001099999V0201701N003119999999N009999199+02441+01951101571ADDMA1101561999999REMMET112MOBOB8 METAR XM22 //001 022409 231952Z AUTO 17006KT 9999 24/19 A2999      RMK A02 SLP157 T02440195 PA-54 DA1329=
0139008416999992015072320524-02200+040900FM-15+001099999V0201701N002119999999N009999199+02381+01941101541ADDMA1101521999999REMMET112MOBOB8 METAR XM22 //001 022409 232052Z AUTO 17004KT 9999 24/19 A2998      RMK A02 SLP154 T02380194 PA-45 DA1272=
0139008416999992015072321524-02200+040900FM-15+001099999V0201701N002119999999N009999199+02331+01911101471ADDMA1101461999999REMMET112MOBOB8 METAR XM22 //001 022409 232152Z AUTO 17004KT 9999 23/19 A2996      RMK A02 SLP147 T02330191 PA-27 DA1232=
0139008416999992015072322524-02200+040900FM-15+001099999V0201601N002619999999N009999199+02351+01961101441ADDMA1101421999999REMMET112MOBOB8 METAR XM22 //001 022409 232252Z AUTO 16005KT 9999 24/20 A2995      RMK A02 SLP144 T02350196 PA-17 DA1274=
0139008416999992015072323524-02200+040900FM-15+001099999V0201601N001519999999N009999199+02361+01961101471ADDMA1101461999999REMMET112MOBOB8 METAR XM22 //001 022409 232352Z AUTO 16003KT 9999 24/20 A2996      RMK A02 SLP147 T02360196 PA-27 DA1274=
0139008416999992015072400524-02200+040900FM-15+001099999V0201701N001519999999N009999199+02311+01961101471ADDMA1101461999999REMMET112MOBOB8 METAR XM22 //001 022409 240052Z AUTO 17003KT 9999 23/20 A2996      RMK A02 SLP147 T02310196 PA-27 DA1218=
0139008416999992015072401524-02200+040900FM-15+001099999V0201701N002119999999N009999199+02311+01971101441ADDMA1101421999999REMMET112MOBOB8 METAR XM22 //001 022409 240152Z AUTO 17004KT 9999 23/20 A2995      RMK A02 SLP144 T02310197 PA-17 DA1231=
0139008416999992015072402524-02200+040900FM-15+001099999V0201701N002619999999N009999199+02361+01961101511ADDMA1101491999999REMMET112MOBOB8 METAR XM22 //001 022409 240252Z AUTO 17005KT 9999 24/20 A2997      RMK A02 SLP151 T02360196 PA-36 DA1263=
0139008416999992015072403524-02200+040900FM-15+001099999V0201701N002619999999N009999199+02401+01971101541ADDMA1101521999999REMMET112MOBOB8 METAR XM22 //001 022409 240352Z AUTO 17005KT 9999 24/20 A2998      RMK A02 SLP154 T02400197 PA-45 DA1299=
0139008416999992015072404524-02200+040900FM-15+001099999V0201701N003119999999N009999199+02591+02041101611ADDMA1101591999999REMMET112MOBOB8 METAR XM22 //001 022409 240452Z AUTO 17006KT 9999 26/20 A3000      RMK A02 SLP161 T02590204 PA-64 DA1506=
0150008416999992015072405524-02200+040900FM-15+001099999V0201701N004119999999N009999199+02671+02061101671ADDMA1101661999999OC100721REMMET115MOBOB8 METAR XM22 //001 022409 240552Z AUTO 17008G14KT 9999 27/21 A3002      RMK A02 SLP167 T02670206 PA-82 DA1576=
0150008416999992015072406524-02200+040900FM-15+001099999V0201701N005119999999N009999199+02721+01991101711ADDMA1101691999999OC100881REMMET115MOBOB8 METAR XM22 //001 022409 240652Z AUTO 17010G17KT 9999 27/20 A3003      RMK A02 SLP171 T02720199 PA-91 DA1609=
0150008416999992015072407524-02200+040900FM-15+001099999V0201701N005119999999N009999199+02771+01981101671ADDMA1101661999999OC100931REMMET115MOBOB8 METAR XM22 //001 022409 240752Z AUTO 17010G18KT 9999 28/20 A3002      RMK A02 SLP167 T02770198 PA-82 DA1675=
0150008416999992015072408524-02200+040900FM-15+001099999V0201701N004619999999N009999199+02841+02011101611ADDMA1101591999999OC100771REMMET115MOBOB8 METAR XM22 //001 022409 240852Z AUTO 17009G15KT 9999 28/20 A3000      RMK A02 SLP161 T02840201 PA-64 DA1780=
0177008416999992015072409524-02200+040900FM-15+001099999V0201701N004619999999N009000199+02801+01971101541ADDAA101000021AW1611MA1101521999999OC100931REMMET125MOBOB8 METAR XM22 //001 022409 240952Z AUTO 17009G18KT 9000 -RA 28/20      A2998 RMK A02 SLP154 P0000 T02800197 PA-45 DA1752=
0150008416999992015072410524-02200+040900FM-15+001099999V0201601N006219999999N009999199+02781+01941101511ADDMA1101491999999OC100981REMMET115MOBOB8 METAR XM22 //001 022409 241052Z AUTO 16012G19KT 9999 28/19 A2997      RMK A02 SLP151 T02780194 PA-36 DA1735=
0139008416999992015072411524-02200+040900FM-15+001099999V0201701N003119999999N009999199+02601+02001101441ADDMA1101421999999REMMET112MOBOB8 METAR XM22 //001 022409 241152Z AUTO 17006KT 9999 26/20 A2995      RMK A02 SLP144 T02600200 PA-17 DA1567=
0150008416999992015072412524-02200+040900FM-15+001099999V0201701N004119999999N009999199+02671+02011101401ADDMA1101391999999OC100821REMMET115MOBOB8 METAR XM22 //001 022409 241252Z AUTO 17008G16KT 9999 27/20 A2994      RMK A02 SLP140 T02670201 PA-08 DA1658=
0150008416999992015072413524-02200+040900FM-15+001099999V0201701N004119999999N009999199+02641+01971101401ADDMA1101391999999OC100771REMMET115MOBOB8 METAR XM22 //001 022409 241352Z AUTO 17008G15KT 9999 26/20 A2994      RMK A02 SLP140 T02640197 PA-08 DA1617=
0150008416999992015072414524-02200+040900FM-15+001099999V0201701N004119999999N009999199+02601+02011101401ADDMA1101391999999OC100671REMMET115MOBOB8 METAR XM22 //001 022409 241452Z AUTO 17008G13KT 9999 26/20 A2994      RMK A02 SLP140 T02600201 PA-08 DA1579=
0166008416999992015072415524-02200+040900FM-15+001099999V0201701N002619999999N009000199+02391+01951101401ADDAA101000021AW1611MA1101391999999REMMET122MOBOB8 METAR XM22 //001 022409 241552Z AUTO 17005KT 9000 -RA 24/20      A2994 RMK A02 SLP140 P0000 T02390195 PA-08 DA1330=
0139008416999992015072416524-02200+040900FM-15+001099999V0201601N002619999999N009999199+02471+02061101471ADDMA1101461999999REMMET112MOBOB8 METAR XM22 //001 022409 241652Z AUTO 16005KT 9999 25/21 A2996      RMK A02 SLP147 T02470206 PA-27 DA1419=
0139008416999992015072417524-02200+040900FM-15+001099999V0201601N003119999999N009999199+02511+01991101511ADDMA1101491999999REMMET112MOBOB8 METAR XM22 //001 022409 241752Z AUTO 16006KT 9999 25/20 A2997      RMK A02 SLP151 T02510199 PA-36 DA1439=
0139008416999992015072418524-02200+040900FM-15+001099999V0201601N003119999999N009999199+02491+01991101541ADDMA1101521999999REMMET112MOBOB8 METAR XM22 //001 022409 241852Z AUTO 16006KT 9999 25/20 A2998      RMK A02 SLP154 T02490199 PA-45 DA1405=
0139008416999992015072419524-02200+040900FM-15+001099999V0201601N003119999999N009999199+02471+01971101541ADDMA1101521999999REMMET112MOBOB8 METAR XM22 //001 022409 241952Z AUTO 16006KT 9999 25/20 A2998      RMK A02 SLP154 T02470197 PA-45 DA1379=
0139008416999992015072420524-02200+040900FM-15+001099999V0201701N002119999999N009999199+02391+01971101541ADDMA1101521999999REMMET112MOBOB8 METAR XM22 //001 022409 242052Z AUTO 17004KT 9999 24/20 A2998      RMK A02 SLP154 T02390197 PA-45 DA1288=
0139008416999992015072421524-02200+040900FM-15+001099999V0201601N001519999999N009999199+02361+01971101511ADDMA1101491999999REMMET112MOBOB8 METAR XM22 //001 022409 242152Z AUTO 16003KT 9999 24/20 A2997      RMK A02 SLP151 T02360197 PA-36 DA1265=
0139008416999992015072422524-02200+040900FM-15+001099999V0201701N002119999999N009999199+02341+01951101441ADDMA1101421999999REMMET112MOBOB8 METAR XM22 //001 022409 242252Z AUTO 17004KT 9999 23/19 A2995      RMK A02 SLP144 T02340195 PA-17 DA1261=
0139008416999992015072423524-02200+040900FM-15+001099999V0201601N002119999999N009999199+02321+01891101401ADDMA1101391999999REMMET112MOBOB8 METAR XM22 //001 022409 242352Z AUTO 16004KT 9999 23/19 A2994      RMK A02 SLP140 T02320189 PA-08 DA1240=
0139008416999992015072500524-02200+040900FM-15+001099999V0201701N002119999999N009999199+02331+01931101371ADDMA1101351999999REMMET112MOBOB8 METAR XM22 //001 022409 250052Z AUTO 17004KT 9999 23/19 A2993      RMK A02 SLP137 T02330193 PA001 DA1269=
0139008416999992015072501524-02200+040900FM-15+001099999V0201701N001019999999N009999199+02281+01911101441ADDMA1101421999999REMMET112MOBOB8 METAR XM22 //001 022409 250152Z AUTO 17002KT 9999 23/19 A2995      RMK A02 SLP144 T02280191 PA-17 DA1187=
0139008416999992015072502524-02200+040900FM-15+001099999V0201701N001019999999N009999199+02261+01921101471ADDMA1101461999999REMMET112MOBOB8 METAR XM22 //001 022409 250252Z AUTO 17002KT 9999 23/19 A2996      RMK A02 SLP147 T02260192 PA-27 DA1153=
0139008416999992015072503524-02200+040900FM-15+001099999V0201801N001019999999N009999199+02271+01931101541ADDMA1101521999999REMMET112MOBOB8 METAR XM22 //001 022409 250352Z AUTO 18002KT 9999 23/19 A2998      RMK A02 SLP154 T02270193 PA-45 DA1143=
0139008416999992015072504524-02200+040900FM-15+001099999V0201601N003119999999N009999199+02561+02011101611ADDMA1101591999999REMMET112MOBOB8 METAR XM22 //001 022409 250452Z AUTO 16006KT 9999 26/20 A3000      RMK A02 SLP161 T02560201 PA-64 DA1466=
0150008416999992015072505524-02200+040900FM-15+001099999V0201701N003619999999N009999199+02701+01971101671ADDMA1101661999999OC100821REMMET115MOBOB8 METAR XM22 //001 022409 250552Z AUTO 17007G16KT 9999 27/20 A3002      RMK A02 SLP167 T02700197 PA-82 DA1594=
0150008416999992015072506524-02200+040900FM-15+001099999V0201701N004119999999N009999199+02621+01951101711ADDMA1101691999999OC100771REMMET115MOBOB8 METAR XM22 //001 022409 250652Z AUTO 17008G15KT 9999 26/20 A3003      RMK A02 SLP171 T02620195 PA-91 DA1489=
0177008416999992015072507524-02200+040900FM-15+001099999V0201701N004119999999N009000199+02771+02011101671ADDAA101000021AW1611MA1101661999999OC100771REMMET125MOBOB8 METAR XM22 //001 022409 250752Z AUTO 17008G15KT 9000 -RA 28/20      A3002 RMK A02 SLP167 P0000 T02770201 PA-82 DA1680=
0150008416999992015072508524-02200+040900FM-15+001099999V0201701N004619999999N009999199+02781+02001101611ADDMA1101591999999OC100881REMMET115MOBOB8 METAR XM22 //001 022409 250852Z AUTO 17009G17KT 9999 28/20 A3000      RMK A02 SLP161 T02780200 PA-64 DA1711=
0150008416999992015072509524-02200+040900FM-15+001099999V0201801N003619999999N009999199+02821+01991101541ADDMA1101521999999OC100671REMMET115MOBOB8 METAR XM22 //001 022409 250952Z AUTO 18007G13KT 9999 28/20 A2998      RMK A02 SLP154 T02820199 PA-45 DA1778=
0150008416999992015072510524-02200+040900FM-15+001099999V0201701N004119999999N009999199+02811+01901101471ADDMA1101461999999OC100771REMMET115MOBOB8 METAR XM22 //001 022409 251052Z AUTO 17008G15KT 9999 28/19 A2996      RMK A02 SLP147 T02810190 PA-27 DA1773=
0150008416999992015072511524-02200+040900FM-15+001099999V0201701N004619999999N009999199+02791+01861101371ADDMA1101351999999OC100881REMMET115MOBOB8 METAR XM22 //001 022409 251152Z AUTO 17009G17KT 9999 28/19 A2993      RMK A02 SLP137 T02790186 PA001 DA1779=
0150008416999992015072512524-02200+040900FM-15+001099999V0201701N003619999999N009999199+02711+01941101341ADDMA1101321999999OC100621REMMET115MOBOB8 METAR XM22 //001 022409 251252Z AUTO 17007G12KT 9999 27/19 A2992      RMK A02 SLP134 T02710194 PA010 DA1713=
0139008416999992015072513524-02200+040900FM-15+001099999V0201701N003119999999N009999199+02641+01961101341ADDMA1101321999999REMMET112MOBOB8 METAR XM22 //001 022409 251352Z AUTO 17006KT 9999 26/20 A2992      RMK A02 SLP134 T02640196 PA010 DA1639=
0139008416999992015072514524-02200+040900FM-15+001099999V0201801N003119999999N009999199+02561+02011101341ADDMA1101321999999REMMET112MOBOB8 METAR XM22 //001 022409 251452Z AUTO 18006KT 9999 26/20 A2992      RMK A02 SLP134 T02560201 PA010 DA1557=
0139008416999992015072515524-02200+040900FM-15+001099999V0201701N002619999999N009999199+02481+02001101341ADDMA1101321999999REMMET112MOBOB8 METAR XM22 //001 022409 251552Z AUTO 17005KT 9999 25/20 A2992      RMK A02 SLP134 T02480200 PA010 DA1465=
0139008416999992015072516524-02200+040900FM-15+001099999V0201701N002119999999N009999199+02461+02031101401ADDMA1101391999999REMMET112MOBOB8 METAR XM22 //001 022409 251652Z AUTO 17004KT 9999 25/20 A2994      RMK A02 SLP140 T02460203 PA-08 DA1424=
0139008416999992015072517524-02200+040900FM-15+001099999V0201801N001519999999N009999199+02441+02041101511ADDMA1101491999999REMMET112MOBOB8 METAR XM22 //001 022409 251752Z AUTO 18003KT 9999 24/20 A2997      RMK A02 SLP151 T02440204 PA-36 DA1369=
0139008416999992015072518524-02200+040900FM-15+001099999V0201801N001019999999N009999199+02421+02051101541ADDMA1101521999999REMMET112MOBOB8 METAR XM22 //001 022409 251852Z AUTO 18002KT 9999 24/20 A2998      RMK A02 SLP154 T02420205 PA-45 DA1336=
0139008416999992015072519524-02200+040900FM-15+001099999V0201801N001519999999N009999199+02411+02031101511ADDMA1101491999999REMMET112MOBOB8 METAR XM22 //001 022409 251952Z AUTO 18003KT 9999 24/20 A2997      RMK A02 SLP151 T02410203 PA-36 DA1333=
0139008416999992015072520524-02200+040900FM-15+001099999V0201801N001519999999N009999199+02381+02041101471ADDMA1101461999999REMMET112MOBOB8 METAR XM22 //001 022409 252052Z AUTO 18003KT 9999 24/20 A2996      RMK A02 SLP147 T02380204 PA-27 DA1313=
0139008416999992015072521524-02200+040900FM-15+001099999V0201701N001519999999N009999199+02371+02061101401ADDMA1101391999999REMMET112MOBOB8 METAR XM22 //001 022409 252152Z AUTO 17003KT 9999 24/21 A2994      RMK A02 SLP140 T02370206 PA-08 DA1327=
0139008416999992015072522524-02200+040900FM-15+001099999V0201701N002119999999N009999199+02391+02071101301ADDMA1101291999999REMMET112MOBOB8 METAR XM22 //001 022409 252252Z AUTO 17004KT 9999 24/21 A2991      RMK A02 SLP130 T02390207 PA020 DA1386=
0139008416999992015072523524-02200+040900FM-15+001099999V0201701N002119999999N009999199+02401+02071101271ADDMA1101251999999REMMET112MOBOB8 METAR XM22 //001 022409 252352Z AUTO 17004KT 9999 24/21 A2990      RMK A02 SLP127 T02400207 PA029 DA1409=
0139008416999992015072600524-02200+040900FM-15+001099999V0201701N002619999999N009999199+02411+02081101271ADDMA1101251999999REMMET112MOBOB8 METAR XM22 //001 022409 260052Z AUTO 17005KT 9999 24/21 A2990      RMK A02 SLP127 T02410208 PA029 DA1423=
0139008416999992015072601524-02200+040900FM-15+001099999V0201701N002619999999N009999199+02431+02081101341ADDMA1101321999999REMMET112MOBOB8 METAR XM22 //001 022409 260152Z AUTO 17005KT 9999 24/21 A2992      RMK A02 SLP134 T02430208 PA010 DA1424=
0139008416999992015072602524-02200+040900FM-15+001099999V0201801N001519999999N009999199+02411+02091101371ADDMA1101351999999REMMET112MOBOB8 METAR XM22 //001 022409 260252Z AUTO 18003KT 9999 24/21 A2993      RMK A02 SLP137 T02410209 PA001 DA1390=
0139008416999992015072603524-02200+040900FM-15+001099999V0201701N001519999999N009999199+02471+02121101441ADDMA1101421999999REMMET112MOBOB8 METAR XM22 //001 022409 260352Z AUTO 17003KT 9999 25/21 A2995      RMK A02 SLP144 T02470212 PA-17 DA1442=
0139008416999992015072604524-02200+040900FM-15+001099999V0201701N003119999999N009999199+02541+02171101511ADDMA1101491999999REMMET112MOBOB8 METAR XM22 //001 022409 260452Z AUTO 17006KT 9999 25/22 A2997      RMK A02 SLP151 T02540217 PA-36 DA1507=
0150008416999992015072605524-02200+040900FM-15+001099999V0201601N005719999999N009999199+02691+02101101571ADDMA1101561999999OC100881REMMET115MOBOB8 METAR XM22 //001 022409 260552Z AUTO 16011G17KT 9999 27/21 A2999      RMK A02 SLP157 T02690210 PA-54 DA1641=
0150008416999992015072606524-02200+040900FM-15+001099999V0201701N004619999999N009999199+02731+02091101611ADDMA1101591999999OC100821REMMET115MOBOB8 METAR XM22 //001 022409 260652Z AUTO 17009G16KT 9999 27/21 A3000      RMK A02 SLP161 T02730209 PA-64 DA1672=
0150008416999992015072607524-02200+040900FM-15+001099999V0201701N005119999999N009999199+02761+02071101541ADDMA1101521999999OC100881REMMET115MOBOB8 METAR XM22 //001 022409 260752Z AUTO 17010G17KT 9999 28/21 A2998      RMK A02 SLP154 T02760207 PA-45 DA1725=
0150008416999992015072608524-02200+040900FM-15+001099999V0201601N005719999999N009999199+02841+02141101511ADDMA1101491999999OC100881REMMET115MOBOB8 METAR XM22 //001 022409 260852Z AUTO 16011G17KT 9999 28/21 A2997      RMK A02 SLP151 T02840214 PA-36 DA1840=
0150008416999992015072609524-02200+040900FM-15+001099999V0201601N005719999999N009999199+02811+02051101401ADDMA1101391999999OC100821REMMET115MOBOB8 METAR XM22 //001 022409 260952Z AUTO 16011G16KT 9999 28/21 A2994      RMK A02 SLP140 T02810205 PA-08 DA1824=
0150008416999992015072610524-02200+040900FM-15+001099999V0201601N005119999999N009999199+02821+02151101341ADDMA1101321999999OC100821REMMET115MOBOB8 METAR XM22 //001 022409 261052Z AUTO 16010G16KT 9999 28/21 A2992      RMK A02 SLP134 T02820215 PA010 DA1876=
0150008416999992015072611524-02200+040900FM-15+001099999V0201701N005119999999N009999199+02781+02121101301ADDMA1101291999999OC100771REMMET115MOBOB8 METAR XM22 //001 022409 261152Z AUTO 17010G15KT 9999 28/21 A2991      RMK A02 SLP130 T02780212 PA020 DA1838=
0177008416999992015072612524-02200+040900FM-15+001099999V0201701N003619999999N009000199+02711+02101101231ADDAA101000021AW1611MA1101221999999OC100721REMMET125MOBOB8 METAR XM22 //001 022409 261252Z AUTO 17007G14KT 9000 -RA 27/21      A2989 RMK A02 SLP123 P0000 T02710210 PA038 DA1777=
0150008416999992015072613524-02200+040900FM-15+001099999V0201701N004119999999N009999199+02631+02131101201ADDMA1101181999999OC100671REMMET115MOBOB8 METAR XM22 //001 022409 261352Z AUTO 17008G13KT 9999 26/21 A2988      RMK A02 SLP120 T02630213 PA047 DA1705=
0139008416999992015072614524-02200+040900FM-15+001099999V0201701N003619999999N009999199+02611+02141101231ADDMA1101221999999REMMET112MOBOB8 METAR XM22 //001 022409 261452Z AUTO 17007KT 9999 26/21 A2989      RMK A02 SLP123 T02610214 PA038 DA1673=
0139008416999992015072615524-02200+040900FM-15+001099999V0201601N002619999999N009999199+02571+02111101271ADDMA1101251999999REMMET112MOBOB8 METAR XM22 //001 022409 261552Z AUTO 16005KT 9999 26/21 A2990      RMK A02 SLP127 T02570211 PA029 DA1611=
0166008416999992015072616524-02200+040900FM-15+001099999V0201701N002619999999N009000199+02511+02041101271ADDAA101000021AW1611MA1101251999999REMMET122MOBOB8 METAR XM22 //001 022409 261652Z AUTO 17005KT 9000 -RA 25/20      A2990 RMK A02 SLP127 P0000 T02510204 PA029 DA1529=
0139008416999992015072617524-02200+040900FM-15+001099999V0201601N002119999999N009999199+02421+02051101341ADDMA1101321999999REMMET112MOBOB8 METAR XM22 //001 022409 261752Z AUTO 16004KT 9999 24/20 A2992      RMK A02 SLP134 T02420205 PA010 DA1405=
0139008416999992015072618524-02200+040900FM-15+001099999V0201601N002119999999N009999199+02421+02051101341ADDMA1101321999999REMMET112MOBOB8 METAR XM22 //001 022409 261852Z AUTO 16004KT 9999 24/20 A2992      RMK A02 SLP134 T02420205 PA010 DA1405=
0139008416999992015072619524-02200+040900FM-15+001099999V0201701N001519999999N009999199+02391+02051101341ADDMA1101321999999REMMET112MOBOB8 METAR XM22 //001 022409 261952Z AUTO 17003KT 9999 24/20 A2992      RMK A02 SLP134 T02390205 PA010 DA1371=
0139008416999992015072620524-02200+040900FM-15+001099999V0201601N001519999999N009999199+02361+02051101271ADDMA1101251999999REMMET112MOBOB8 METAR XM22 //001 022409 262052Z AUTO 16003KT 9999 24/21 A2990      RMK A02 SLP127 T02360205 PA029 DA1361=
0139008416999992015072621524-02200+040900FM-15+001099999V0201701N002119999999N009999199+02391+02071101271ADDMA1101251999999REMMET112MOBOB8 METAR XM22 //001 022409 262152Z AUTO 17004KT 9999 24/21 A2990      RMK A02 SLP127 T02390207 PA029 DA1398=
0139008416999992015072622524-02200+040900FM-15+001099999V0201701N001519999999N009999199+02391+02091101231ADDMA1101221999999REMMET112MOBOB8 METAR XM22 //001 022409 262252Z AUTO 17003KT 9999 24/21 A2989      RMK A02 SLP123 T02390209 PA038 DA1413=
0139008416999992015072623524-02200+040900FM-15+001099999V0201701N002119999999N009999199+02401+02041101231ADDMA1101221999999REMMET112MOBOB8 METAR XM22 //001 022409 262352Z AUTO 17004KT 9999 24/20 A2989      RMK A02 SLP123 T02400204 PA038 DA1414=
0139008416999992015072700524-02200+040900FM-15+001099999V0201701N001019999999N009999199+02331+02041101231ADDMA1101221999999REMMET112MOBOB8 METAR XM22 //001 022409 270052Z AUTO 17002KT 9999 23/20 A2989      RMK A02 SLP123 T02330204 PA038 DA1336=
0139008416999992015072701524-02200+040900FM-15+001099999V0201701N002119999999N009999199+02321+02011101271ADDMA1101251999999REMMET112MOBOB8 METAR XM22 //001 022409 270152Z AUTO 17004KT 9999 23/20 A2990      RMK A02 SLP127 T02320201 PA029 DA1306=
0139008416999992015072702524-02200+040900FM-15+001099999V0201601N002119999999N009999199+02361+02011101371ADDMA1101351999999REMMET112MOBOB8 METAR XM22 //001 022409 270252Z AUTO 16004KT 9999 24/20 A2993      RMK A02 SLP137 T02360201 PA001 DA1319=
0139008416999992015072703524-02200+040900FM-15+001099999V0201701N001019999999N009999199+02331+02021101441ADDMA1101421999999REMMET112MOBOB8 METAR XM22 //001 022409 270352Z AUTO 17002KT 9999 23/20 A2995      RMK A02 SLP144 T02330202 PA-17 DA1264=
0139008416999992015072704524-02200+040900FM-15+001099999V0201601N003119999999N009999199+02571+02051101471ADDMA1101461999999REMMET112MOBOB8 METAR XM22 //001 022409 270452Z AUTO 16006KT 9999 26/20 A2996      RMK A02 SLP147 T02570205 PA-27 DA1530=
0139008416999992015072705524-02200+040900FM-15+001099999V0201701N003119999999N009999199+02641+02091101541ADDMA1101521999999REMMET112MOBOB8 METAR XM22 //001 022409 270552Z AUTO 17006KT 9999 26/21 A2998      RMK A02 SLP154 T02640209 PA-45 DA1595=
0150008416999992015072706524-02200+040900FM-15+001099999V0201601N005119999999N009999199+02751+02001101541ADDMA1101521999999OC100881REMMET115MOBOB8 METAR XM22 //001 022409 270652Z AUTO 16010G17KT 9999 28/20 A2998      RMK A02 SLP154 T02750200 PA-45 DA1702=
0150008416999992015072707524-02200+040900FM-15+001099999V0201601N005119999999N009999199+02771+02011101541ADDMA1101521999999OC100931REMMET115MOBOB8 METAR XM22 //001 022409 270752Z AUTO 16010G18KT 9999 28/20 A2998      RMK A02 SLP154 T02770201 PA-45 DA1725=
0150008416999992015072708524-02200+040900FM-15+001099999V0201601N005719999999N009999199+02821+01931101511ADDMA1101491999999OC100881REMMET115MOBOB8 METAR XM22 //001 022409 270852Z AUTO 16011G17KT 9999 28/19 A2997      RMK A02 SLP151 T02820193 PA-36 DA1777=
0150008416999992015072709524-02200+040900FM-15+001099999V0201701N004119999999N009999199+02801+01951101441ADDMA1101421999999OC100821REMMET115MOBOB8 METAR XM22 //001 022409 270952Z AUTO 17008G16KT 9999 28/19 A2995      RMK A02 SLP144 T02800195 PA-17 DA1782=
0150008416999992015072710524-02200+040900FM-15+001099999V0201701N004619999999N009999199+02811+02051101371ADDMA1101351999999OC100771REMMET115MOBOB8 METAR XM22 //001 022409 271052Z AUTO 17009G15KT 9999 28/20 A2993      RMK A02 SLP137 T02810205 PA001 DA1834=
0150008416999992015072711524-02200+040900FM-15+001099999V0201701N003619999999N009999199+02771+02051101271ADDMA1101251999999OC100721REMMET115MOBOB8 METAR XM22 //001 022409 271152Z AUTO 17007G14KT 9999 28/21 A2990      RMK A02 SLP127 T02770205 PA029 DA1824=
0150008416999992015072712524-02200+040900FM-15+001099999V0201701N004119999999N009999199+02711+02001101231ADDMA1101221999999OC100821REMMET115MOBOB8 METAR XM22 //001 022409 271252Z AUTO 17008G16KT 9999 27/20 A2989      RMK A02 SLP123 T02710200 PA038 DA1758=
0150008416999992015072713524-02200+040900FM-15+001099999V0201701N004619999999N009999199+02651+02021101231ADDMA1101221999999OC100821REMMET115MOBOB8 METAR XM22 //001 022409 271352Z AUTO 17009G16KT 9999 27/20 A2989      RMK A02 SLP123 T02650202 PA038 DA1695=
0150008416999992015072714524-02200+040900FM-15+001099999V0201701N003619999999N009999199+02581+02071101231ADDMA1101221999999OC100771REMMET115MOBOB8 METAR XM22 //001 022409 271452Z AUTO 17007G15KT 9999 26/21 A2989      RMK A02 SLP123 T02580207 PA038 DA1625=
0139008416999992015072715524-02200+040900FM-15+001099999V0201701N003119999999N009999199+02511+02061101271ADDMA1101251999999REMMET112MOBOB8 METAR XM22 //001 022409 271552Z AUTO 17006KT 9999 25/21 A2990      RMK A02 SLP127 T02510206 PA029 DA1532=
0139008416999992015072716524-02200+040900FM-15+001099999V0201701N003119999999N009999199+02501+02071101301ADDMA1101291999999REMMET112MOBOB8 METAR XM22 //001 022409 271652Z AUTO 17006KT 9999 25/21 A2991      RMK A02 SLP130 T02500207 PA020 DA1512=
0139008416999992015072717524-02200+040900FM-15+001099999V0201701N003119999999N009999199+02491+02041101341ADDMA1101321999999REMMET112MOBOB8 METAR XM22 //001 022409 271752Z AUTO 17006KT 9999 25/20 A2992      RMK A02 SLP134 T02490204 PA010 DA1482=
0139008416999992015072718524-02200+040900FM-15+001099999V0201701N003119999999N009999199+02481+02041101401ADDMA1101391999999REMMET112MOBOB8 METAR XM22 //001 022409 271852Z AUTO 17006KT 9999 25/20 A2994      RMK A02 SLP140 T02480204 PA-08 DA1449=
0139008416999992015072719534-02200+040900FM-15+001099999V0201701N002619999999N009999199+02471+02061101401ADDMA1101391999999REMMET112MOBOB8 METAR XM22 //001 022409 271953Z AUTO 17005KT 9999 25/21 A2994      RMK A02 SLP140 T02470206 PA-08 DA1441=
0139008416999992015072720524-02200+040900FM-15+001099999V0201601N002619999999N009999199+02441+02061101371ADDMA1101351999999REMMET112MOBOB8 METAR XM22 //001 022409 272052Z AUTO 16005KT 9999 24/21 A2993      RMK A02 SLP137 T02440206 PA001 DA1420=
0139008416999992015072721524-02200+040900FM-15+001099999V0201701N002619999999N009999199+02451+02061101371ADDMA1101351999999REMMET112MOBOB8 METAR XM22 //001 022409 272152Z AUTO 17005KT 9999 25/21 A2993      RMK A02 SLP137 T02450206 PA001 DA1430=
0139008416999992015072722524-02200+040900FM-15+001099999V0201701N002619999999N009999199+02441+02101101301ADDMA1101291999999REMMET112MOBOB8 METAR XM22 //001 022409 272252Z AUTO 17005KT 9999 24/21 A2991      RMK A02 SLP130 T02440210 PA020 DA1449=
0139008416999992015072723524-02200+040900FM-15+001099999V0201701N002119999999N009999199+02441+02091101301ADDMA1101291999999REMMET112MOBOB8 METAR XM22 //001 022409 272352Z AUTO 17004KT 9999 24/21 A2991      RMK A02 SLP130 T02440209 PA020 DA1447=
0139008416999992015072800524-02200+040900FM-15+001099999V0201801N002119999999N009999199+02421+02101101301ADDMA1101291999999REMMET112MOBOB8 METAR XM22 //001 022409 280052Z AUTO 18004KT 9999 24/21 A2991      RMK A02 SLP130 T02420210 PA020 DA1427=
0139008416999992015072801524-02200+040900FM-15+001099999V0209999C000019999999N009999199+02341+02081101341ADDMA1101321999999REMMET112MOBOB8 METAR XM22 //001 022409 280152Z AUTO 00000KT 9999 23/21 A2992      RMK A02 SLP134 T02340208 PA010 DA1321=
0139008416999992015072802524-02200+040900FM-15+001099999V0203201N000519999999N009999199+02261+02051101401ADDMA1101391999999REMMET112MOBOB8 METAR XM22 //001 022409 280252Z AUTO 32001KT 9999 23/21 A2994      RMK A02 SLP140 T02260205 PA-08 DA1200=
0139008416999992015072803524-02200+040900FM-15+001099999V0203101N000519999999N009999199+02221+02041101441ADDMA1101421999999REMMET112MOBOB8 METAR XM22 //001 022409 280352Z AUTO 31001KT 9999 22/20 A2995      RMK A02 SLP144 T02220204 PA-17 DA1140=
0139008416999992015072804524-02200+040900FM-15+001099999V0203001N001019999999N009999199+02331+02071101511ADDMA1101491999999REMMET112MOBOB8 METAR XM22 //001 022409 280452Z AUTO 30002KT 9999 23/21 A2997      RMK A02 SLP151 T02330207 PA-36 DA1251=
0139008416999992015072805524-02200+040900FM-15+001099999V0201901N001019999999N009999199+02601+02171101571ADDMA1101561999999REMMET112MOBOB8 METAR XM22 //001 022409 280552Z AUTO 19002KT 9999 26/22 A2999      RMK A02 SLP157 T02600217 PA-54 DA1552=
0150008416999992015072806524-02200+040900FM-15+001099999V0201701N004619999999N009999199+02801+02121101571ADDMA1101561999999OC100881REMMET115MOBOB8 METAR XM22 //001 022409 280652Z AUTO 17009G17KT 9999 28/21 A2999      RMK A02 SLP157 T02800212 PA-54 DA1768=
0150008416999992015072807524-02200+040900FM-15+001099999V0201701N004619999999N009999199+02831+02131101541ADDMA1101521999999OC100771REMMET115MOBOB8 METAR XM22 //001 022409 280752Z AUTO 17009G15KT 9999 28/21 A2998      RMK A02 SLP154 T02830213 PA-45 DA1816=
0150008416999992015072808524-02200+040900FM-15+001099999V0201701N003619999999N009999199+02831+02171101511ADDMA1101491999999OC100721REMMET115MOBOB8 METAR XM22 //001 022409 280852Z AUTO 17007G14KT 9999 28/22 A2997      RMK A02 SLP151 T02830217 PA-36 DA1835=
0150008416999992015072809524-02200+040900FM-15+001099999V0201701N004619999999N009999199+02841+02111101441ADDMA1101421999999OC100881REMMET115MOBOB8 METAR XM22 //001 022409 280952Z AUTO 17009G17KT 9999 28/21 A2995      RMK A02 SLP144 T02840211 PA-17 DA1856=
0139008416999992015072810524-02200+040900FM-15+001099999V0201701N003619999999N009999199+02811+02141101341ADDMA1101321999999REMMET112MOBOB8 METAR XM22 //001 022409 281052Z AUTO 17007KT 9999 28/21 A2992      RMK A02 SLP134 T02810214 PA010 DA1864=
0150008416999992015072811524-02200+040900FM-15+001099999V0201701N003619999999N009999199+02671+02031101301ADDMA1101291999999OC100721REMMET115MOBOB8 METAR XM22 //001 022409 281152Z AUTO 17007G14KT 9999 27/20 A2991      RMK A02 SLP130 T02670203 PA020 DA1696=
0139008416999992015072812524-02200+040900FM-15+001099999V0201901N001519999999N009999199+02551+02151101271ADDMA1101251999999REMMET112MOBOB8 METAR XM22 //001 022409 281252Z AUTO 19003KT 9999 26/21 A2990      RMK A02 SLP127 T02550215 PA029 DA1594=
0139008416999992015072813524-02200+040900FM-15+001099999V0201701N002619999999N009999199+02651+02091101271ADDMA1101251999999REMMET112MOBOB8 METAR XM22 //001 022409 281352Z AUTO 17005KT 9999 27/21 A2990      RMK A02 SLP127 T02650209 PA029 DA1695=
0139008416999992015072814524-02200+040900FM-15+001099999V0201701N002619999999N009999199+02611+02101101301ADDMA1101291999999REMMET112MOBOB8 METAR XM22 //001 022409 281452Z AUTO 17005KT 9999 26/21 A2991      RMK A02 SLP130 T02610210 PA020 DA1642=
0139008416999992015072815524-02200+040900FM-15+001099999V0201701N002119999999N009999199+02551+02141101341ADDMA1101321999999REMMET112MOBOB8 METAR XM22 //001 022409 281552Z AUTO 17004KT 9999 26/21 A2992      RMK A02 SLP134 T02550214 PA010 DA1570=
0139008416999992015072816524-02200+040900FM-15+001099999V0201701N001519999999N009999199+02491+02131101371ADDMA1101351999999REMMET112MOBOB8 METAR XM22 //001 022409 281652Z AUTO 17003KT 9999 25/21 A2993      RMK A02 SLP137 T02490213 PA001 DA1489=
0139008416999992015072817524-02200+040900FM-15+001099999V0201801N001519999999N009999199+02481+02181101441ADDMA1101421999999REMMET112MOBOB8 METAR XM22 //001 022409 281752Z AUTO 18003KT 9999 25/22 A2995      RMK A02 SLP144 T02480218 PA-17 DA1466=
0139008416999992015072818524-02200+040900FM-15+001099999V0201701N000519999999N009999199+02421+02191101511ADDMA1101491999999REMMET112MOBOB8 METAR XM22 //001 022409 281852Z AUTO 17001KT 9999 24/22 A2997      RMK A02 SLP151 T02420219 PA-36 DA1376=
0139008416999992015072819524-02200+040900FM-15+001099999V0201701N001019999999N009999199+02411+02211101471ADDMA1101461999999REMMET112MOBOB8 METAR XM22 //001 022409 281952Z AUTO 17002KT 9999 24/22 A2996      RMK A02 SLP147 T02410221 PA-27 DA1380=
0139008416999992015072820524-02200+040900FM-15+001099999V0201701N002119999999N009999199+02511+02201101441ADDMA1101421999999REMMET112MOBOB8 METAR XM22 //001 022409 282052Z AUTO 17004KT 9999 25/22 A2995      RMK A02 SLP144 T02510220 PA-17 DA1503=
0139008416999992015072821524-02200+040900FM-15+001099999V0201701N002119999999N009999199+02491+02211101371ADDMA1101351999999REMMET112MOBOB8 METAR XM22 //001 022409 282152Z AUTO 17004KT 9999 25/22 A2993      RMK A02 SLP137 T02490221 PA001 DA1505=
0139008416999992015072822524-02200+040900FM-15+001099999V0201701N002119999999N009999199+02461+02181101341ADDMA1101321999999REMMET112MOBOB8 METAR XM22 //001 022409 282252Z AUTO 17004KT 9999 25/22 A2992      RMK A02 SLP134 T02460218 PA010 DA1476=
0139008416999992015072823524-02200+040900FM-15+001099999V0201701N002119999999N009999199+02481+02191101301ADDMA1101291999999REMMET112MOBOB8 METAR XM22 //001 022409 282352Z AUTO 17004KT 9999 25/22 A2991      RMK A02 SLP130 T02480219 PA020 DA1514=
0139008416999992015072900524-02200+040900FM-15+001099999V0201701N001019999999N009999199+02471+02191101301ADDMA1101291999999REMMET112MOBOB8 METAR XM22 //001 022409 290052Z AUTO 17002KT 9999 25/22 A2991      RMK A02 SLP130 T02470219 PA020 DA1501=
0139008416999992015072901524-02200+040900FM-15+001099999V0201701N002119999999N009999199+02451+02171101341ADDMA1101321999999REMMET112MOBOB8 METAR XM22 //001 022409 290152Z AUTO 17004KT 9999 25/22 A2992      RMK A02 SLP134 T02450217 PA010 DA1463=
0139008416999992015072903524-02200+040900FM-15+001099999V0209999C000019999999N009999199+02331+02151101401ADDMA1101391999999REMMET112MOBOB8 METAR XM22 //001 022409 290352Z AUTO 00000KT 9999 23/22 A2994      RMK A02 SLP140 T02330215 PA-08 DA1300=
0139008416999992015072904524-02200+040900FM-15+001099999V0202201N000519999999N009999199+02511+02251101471ADDMA1101461999999REMMET112MOBOB8 METAR XM22 //001 022409 290452Z AUTO 22001KT 9999 25/22 A2996      RMK A02 SLP147 T02510225 PA-27 DA1501=
0166008416999992015072905524-02200+040900FM-15+001099999V0201801N001519999999N009000199+02471+02261101571ADDAA101003531AW1611MA1101561999999REMMET122MOBOB8 METAR XM22 //001 022409 290552Z AUTO 18003KT 9000 -RA 25/23      A2999 RMK A02 SLP157 P0014 T02470226 PA-54 DA1425=
0186008416999992015072906524-02200+040900FM-15+001099999V0201701N003619999999N005000199+02451+02281101611ADDAA101000021AW1101AW2611MA1101591999999OC100721REMMET128MOBOB8 METAR XM22 //001 022409 290652Z AUTO 17007G14KT 5000 -RA BR      25/23 A3000 RMK A02 SLP161 P0000 T02450228 PA-64 DA1394=
0150008416999992015072907524-02200+040900FM-15+001099999V0201701N004119999999N009999199+02551+02241101611ADDMA1101591999999OC100721REMMET115MOBOB8 METAR XM22 //001 022409 290752Z AUTO 17008G14KT 9999 26/22 A3000      RMK A02 SLP161 T02550224 PA-64 DA1500=
0150008416999992015072908524-02200+040900FM-15+001099999V0201701N004119999999N009999199+02651+02211101541ADDMA1101521999999OC100721REMMET115MOBOB8 METAR XM22 //001 022409 290852Z AUTO 17008G14KT 9999 27/22 A2998      RMK A02 SLP154 T02650221 PA-45 DA1629=
0150008416999992015072909524-02200+040900FM-15+001099999V0201701N004619999999N009999199+02701+02191101441ADDMA1101421999999OC100771REMMET115MOBOB8 METAR XM22 //001 022409 290952Z AUTO 17009G15KT 9999 27/22 A2995      RMK A02 SLP144 T02700219 PA-17 DA1715=
0177008416999992015072910524-02200+040900FM-15+001099999V0201701N004619999999N009000199+02661+02241101341ADDAA101000021AW1611MA1101321999999OC100821REMMET125MOBOB8 METAR XM22 //001 022409 291052Z AUTO 17009G16KT 9000 -RA 27/22      A2992 RMK A02 SLP134 P0000 T02660224 PA010 DA1715=
0150008416999992015072911524-02200+040900FM-15+001099999V0201601N006219999999N009999199+02761+02171101271ADDMA1101251999999OC101081REMMET115MOBOB8 METAR XM22 //001 022409 291152Z AUTO 16012G21KT 9999 28/22 A2990      RMK A02 SLP127 T02760217 PA029 DA1835=
0150008416999992015072912524-02200+040900FM-15+001099999V0201601N006219999999N009999199+02711+02171101271ADDMA1101251999999OC100981REMMET115MOBOB8 METAR XM22 //001 022409 291252Z AUTO 16012G19KT 9999 27/22 A2990      RMK A02 SLP127 T02710217 PA029 DA1779=
0150008416999992015072913524-02200+040900FM-15+001099999V0201701N005119999999N009999199+02671+02141101301ADDMA1101291999999OC100821REMMET115MOBOB8 METAR XM22 //001 022409 291352Z AUTO 17010G16KT 9999 27/21 A2991      RMK A02 SLP130 T02670214 PA020 DA1717=
0149008416999992015072914524-02200+040900FM-15+001099999V0201601N004119999999N009999199+02601+02141999999ADDMA1101321999999OC100671REMMET114MOBOB8 METAR XM22 //001 022409 291452Z AUTO 16008G13KT 9999 26/21 A2992      RMK A02 SLPNO T02600214 PA010 DA1626=
0139008416999992015072915524-02200+040900FM-15+001099999V0201601N003619999999N009999199+02531+02061101371ADDMA1101351999999REMMET112MOBOB8 METAR XM22 //001 022409 291552Z AUTO 16007KT 9999 25/21 A2993      RMK A02 SLP137 T02530206 PA001 DA1521=
0139008416999992015072916524-02200+040900FM-15+001099999V0201601N003619999999N009999199+02531+02081101401ADDMA1101391999999REMMET112MOBOB8 METAR XM22 //001 022409 291652Z AUTO 16007KT 9999 25/21 A2994      RMK A02 SLP140 T02530208 PA-08 DA1513=
0139008416999992015072917524-02200+040900FM-15+001099999V0201701N003119999999N009999199+02521+02081101511ADDMA1101491999999REMMET112MOBOB8 METAR XM22 //001 022409 291752Z AUTO 17006KT 9999 25/21 A2997      RMK A02 SLP151 T02520208 PA-36 DA1468=
0139008416999992015072918524-02200+040900FM-15+001099999V0201701N002619999999N009999199+02511+02081101541ADDMA1101521999999REMMET112MOBOB8 METAR XM22 //001 022409 291852Z AUTO 17005KT 9999 25/21 A2998      RMK A02 SLP154 T02510208 PA-45 DA1446=
0139008416999992015072919524-02200+040900FM-15+001099999V0201701N002619999999N009999199+02501+02081101571ADDMA1101561999999REMMET112MOBOB8 METAR XM22 //001 022409 291952Z AUTO 17005KT 9999 25/21 A2999      RMK A02 SLP157 T02500208 PA-54 DA1422=
0139008416999992015072920524-02200+040900FM-15+001099999V0201701N002119999999N009999199+02451+02081101511ADDMA1101491999999REMMET112MOBOB8 METAR XM22 //001 022409 292052Z AUTO 17004KT 9999 25/21 A2997      RMK A02 SLP151 T02450208 PA-36 DA1388=
0139008416999992015072921524-02200+040900FM-15+001099999V0201701N002119999999N009999199+02471+02051101471ADDMA1101461999999REMMET112MOBOB8 METAR XM22 //001 022409 292152Z AUTO 17004KT 9999 25/21 A2996      RMK A02 SLP147 T02470205 PA-27 DA1417=
0139008416999992015072922524-02200+040900FM-15+001099999V0201801N001519999999N009999199+02421+02081101441ADDMA1101421999999REMMET112MOBOB8 METAR XM22 //001 022409 292252Z AUTO 18003KT 9999 24/21 A2995      RMK A02 SLP144 T02420208 PA-17 DA1376=
0139008416999992015072923524-02200+040900FM-15+001099999V0201701N002619999999N009999199+02461+02091101401ADDMA1101391999999REMMET112MOBOB8 METAR XM22 //001 022409 292352Z AUTO 17005KT 9999 25/21 A2994      RMK A02 SLP140 T02460209 PA-08 DA1435=
0139008416999992015073000524-02200+040900FM-15+001099999V0201701N002119999999N009999199+02461+02071101401ADDMA1101391999999REMMET112MOBOB8 METAR XM22 //001 022409 300052Z AUTO 17004KT 9999 25/21 A2994      RMK A02 SLP140 T02460207 PA-08 DA1431=
0139008416999992015073001524-02200+040900FM-15+001099999V0201701N002119999999N009999199+02441+02051101441ADDMA1101421999999REMMET112MOBOB8 METAR XM22 //001 022409 300152Z AUTO 17004KT 9999 24/21 A2995      RMK A02 SLP144 T02440205 PA-17 DA1394=
0139008416999992015073002524-02200+040900FM-15+001099999V0201801N001519999999N009999199+02451+02091101471ADDMA1101461999999REMMET112MOBOB8 METAR XM22 //001 022409 300252Z AUTO 18003KT 9999 25/21 A2996      RMK A02 SLP147 T02450209 PA-27 DA1402=
0139008416999992015073003524-02200+040900FM-15+001099999V0201701N002119999999N009999199+02441+02101101471ADDMA1101461999999REMMET112MOBOB8 METAR XM22 //001 022409 300352Z AUTO 17004KT 9999 24/21 A2996      RMK A02 SLP147 T02440210 PA-27 DA1392=
0139008416999992015073004524-02200+040900FM-15+001099999V0201701N001519999999N009999199+02541+02161101611ADDMA1101591999999REMMET112MOBOB8 METAR XM22 //001 022409 300452Z AUTO 17003KT 9999 25/22 A3000      RMK A02 SLP161 T02540216 PA-64 DA1473=
0139008416999992015073005524-02200+040900FM-15+001099999V0201701N003119999999N009999199+02621+02121101641ADDMA1101631999999REMMET112MOBOB8 METAR XM22 //001 022409 300552Z AUTO 17006KT 9999 26/21 A3001      RMK A02 SLP164 T02620212 PA-73 DA1543=
0139008416999992015073006524-02200+040900FM-15+001099999V0201701N004119999999N009999199+02741+02131101711ADDMA1101691999999REMMET112MOBOB8 METAR XM22 //001 022409 300652Z AUTO 17008KT 9999 27/21 A3003      RMK A02 SLP171 T02740213 PA-91 DA1658=
0150008416999992015073007524-02200+040900FM-15+001099999V0201701N004119999999N009999199+02731+02081101711ADDMA1101691999999OC100671REMMET115MOBOB8 METAR XM22 //001 022409 300752Z AUTO 17008G13KT 9999 27/21 A3003      RMK A02 SLP171 T02730208 PA-91 DA1637=
0150008416999992015073008524-02200+040900FM-15+001099999V0201701N004119999999N009999199+02831+02071101611ADDMA1101591999999OC100721REMMET115MOBOB8 METAR XM22 //001 022409 300852Z AUTO 17008G14KT 9999 28/21 A3000      RMK A02 SLP161 T02830207 PA-64 DA1780=
0150008416999992015073009524-02200+040900FM-15+001099999V0201701N004119999999N009999199+02881+02131101511ADDMA1101491999999OC100771REMMET115MOBOB8 METAR XM22 //001 022409 300952Z AUTO 17008G15KT 9999 29/21 A2997      RMK A02 SLP151 T02880213 PA-36 DA1883=
0150008416999992015073010524-02200+040900FM-15+001099999V0201601N004119999999N009999199+02851+02061101401ADDMA1101391999999OC100771REMMET115MOBOB8 METAR XM22 //001 022409 301052Z AUTO 16008G15KT 9999 29/21 A2994      RMK A02 SLP140 T02850206 PA-08 DA1869=
0150008416999992015073011524-02200+040900FM-15+001099999V0201701N004119999999N009999199+02751+02071101341ADDMA1101321999999OC100721REMMET115MOBOB8 METAR XM22 //001 022409 301152Z AUTO 17008G14KT 9999 28/21 A2992      RMK A02 SLP134 T02750207 PA010 DA1783=
0150008416999992015073012524-02200+040900FM-15+001099999V0201601N005119999999N009999199+02811+02061101301ADDMA1101291999999OC100721REMMET115MOBOB8 METAR XM22 //001 022409 301252Z AUTO 16010G14KT 9999 28/21 A2991      RMK A02 SLP130 T02810206 PA020 DA1858=
0150008416999992015073013524-02200+040900FM-15+001099999V0201601N004619999999N009999199+02691+02091101301ADDMA1101291999999OC100621REMMET115MOBOB8 METAR XM22 //001 022409 301352Z AUTO 16009G12KT 9999 27/21 A2991      RMK A02 SLP130 T02690209 PA020 DA1729=
0148008416999992015073014524-02200+040900FM-15+001099999V0201701N004119999999N009000199+02611+02101101341ADDAW1051MA1101321999999REMMET115MOBOB8 METAR XM22 //001 022409 301452Z AUTO 17008KT 9000 HZ 26/21 A2992      RMK A02 SLP134 T02610210 PA010 DA1630=
0139008416999992015073015524-02200+040900FM-15+001099999V0201701N002119999999N009999199+02521+02111101371ADDMA1101351999999REMMET112MOBOB8 METAR XM22 //001 022409 301552Z AUTO 17004KT 9999 25/21 A2993      RMK A02 SLP137 T02520211 PA001 DA1520=
0139008416999992015073016524-02200+040900FM-15+001099999V0201501N002619999999N009999199+02451+02101101371ADDMA1101351999999REMMET112MOBOB8 METAR XM22 //001 022409 301652Z AUTO 15005KT 9999 25/21 A2993      RMK A02 SLP137 T02450210 PA001 DA1438=
0139008416999992015073017524-02200+040900FM-15+001099999V0201501N003119999999N009999199+02481+02111101401ADDMA1101391999999REMMET112MOBOB8 METAR XM22 //001 022409 301752Z AUTO 15006KT 9999 25/21 A2994      RMK A02 SLP140 T02480211 PA-08 DA1463=
0139008416999992015073018524-02200+040900FM-15+001099999V0201601N002119999999N009999199+02401+02061101441ADDMA1101421999999REMMET112MOBOB8 METAR XM22 //001 022409 301852Z AUTO 16004KT 9999 24/21 A2995      RMK A02 SLP144 T02400206 PA-17 DA1350=
0139008416999992015073019524-02200+040900FM-15+001099999V0201501N001519999999N009999199+02391+02061101441ADDMA1101421999999REMMET112MOBOB8 METAR XM22 //001 022409 301952Z AUTO 15003KT 9999 24/21 A2995      RMK A02 SLP144 T02390206 PA-17 DA1338=
0139008416999992015073020524-02200+040900FM-15+001099999V0201601N001019999999N009999199+02351+02061101401ADDMA1101391999999REMMET112MOBOB8 METAR XM22 //001 022409 302052Z AUTO 16002KT 9999 24/21 A2994      RMK A02 SLP140 T02350206 PA-08 DA1304=
0139008416999992015073021524-02200+040900FM-15+001099999V0201701N001019999999N009999199+02271+02051101341ADDMA1101321999999REMMET112MOBOB8 METAR XM22 //001 022409 302152Z AUTO 17002KT 9999 23/20 A2992      RMK A02 SLP134 T02270205 PA010 DA1234=
0139008416999992015073022524-02200+040900FM-15+001099999V0201701N001019999999N009999199+02241+02001101271ADDMA1101251999999REMMET112MOBOB8 METAR XM22 //001 022409 302252Z AUTO 17002KT 9999 22/20 A2990      RMK A02 SLP127 T02240200 PA029 DA1213=
0139008416999992015073023524-02200+040900FM-15+001099999V0209999C000019999999N009999199+02211+01971101271ADDMA1101251999999REMMET112MOBOB8 METAR XM22 //001 022409 302352Z AUTO 00000KT 9999 22/20 A2990      RMK A02 SLP127 T02210197 PA029 DA1174=
0139008416999992015073100524-02200+040900FM-15+001099999V0203201N000519999999N009999199+02141+01951101301ADDMA1101291999999REMMET112MOBOB8 METAR XM22 //001 022409 310052Z AUTO 32001KT 9999 21/20 A2991      RMK A02 SLP130 T02140195 PA020 DA1079=
0139008416999992015073101524-02200+040900FM-15+001099999V0202701N000519999999N009999199+02071+01891101341ADDMA1101321999999REMMET112MOBOB8 METAR XM22 //001 022409 310152Z AUTO 27001KT 9999 21/19 A2992      RMK A02 SLP134 T02070189 PA010 DA0975=
0139008416999992015073102524-02200+040900FM-15+001099999V0203301N000519999999N009999199+02051+01891101371ADDMA1101351999999REMMET112MOBOB8 METAR XM22 //001 022409 310252Z AUTO 33001KT 9999 21/19 A2993      RMK A02 SLP137 T02050189 PA001 DA0940=
0139008416999992015073103524-02200+040900FM-15+001099999V0209999C000019999999N009999199+02041+01891101401ADDMA1101391999999REMMET112MOBOB8 METAR XM22 //001 022409 310352Z AUTO 00000KT 9999 20/19 A2994      RMK A02 SLP140 T02040189 PA-08 DA0917=
0139008416999992015073104524-02200+040900FM-15+001099999V0209999C000019999999N009999199+02451+02201101471ADDMA1101461999999REMMET112MOBOB8 METAR XM22 //001 022409 310452Z AUTO 00000KT 9999 25/22 A2996      RMK A02 SLP147 T02450220 PA-27 DA1424=
0150008416999992015073105524-02200+040900FM-15+001099999V0201601N003619999999N009999199+02681+02081101541ADDMA1101521999999OC100621REMMET115MOBOB8 METAR XM22 //001 022409 310552Z AUTO 16007G12KT 9999 27/21 A2998      RMK A02 SLP154 T02680208 PA-45 DA1637=
0150008416999992015073106524-02200+040900FM-15+001099999V0201701N003619999999N009999199+02751+02021101571ADDMA1101561999999OC100621REMMET115MOBOB8 METAR XM22 //001 022409 310652Z AUTO 17007G12KT 9999 28/20 A2999      RMK A02 SLP157 T02750202 PA-54 DA1692=
0150008416999992015073107524-02200+040900FM-15+001099999V0201601N004119999999N009999199+02801+02001101541ADDMA1101521999999OC100821REMMET115MOBOB8 METAR XM22 //001 022409 310752Z AUTO 16008G16KT 9999 28/20 A2998      RMK A02 SLP154 T02800200 PA-45 DA1757=
0150008416999992015073108524-02200+040900FM-15+001099999V0201601N005119999999N009999199+02841+02001101471ADDMA1101461999999OC100931REMMET115MOBOB8 METAR XM22 //001 022409 310852Z AUTO 16010G18KT 9999 28/20 A2996      RMK A02 SLP147 T02840200 PA-27 DA1824=
0150008416999992015073109524-02200+040900FM-15+001099999V0201701N004119999999N009999199+02821+02001101371ADDMA1101351999999OC100721REMMET115MOBOB8 METAR XM22 //001 022409 310952Z AUTO 17008G14KT 9999 28/20 A2993      RMK A02 SLP137 T02820200 PA001 DA1835=
0150008416999992015073110524-02200+040900FM-15+001099999V0201601N004619999999N009999199+02871+02011101271ADDMA1101251999999OC100821REMMET115MOBOB8 METAR XM22 //001 022409 311052Z AUTO 16009G16KT 9999 29/20 A2990      RMK A02 SLP127 T02870201 PA029 DA1927=
0150008416999992015073111524-02200+040900FM-15+001099999V0201701N004619999999N009999199+02811+02031101201ADDMA1101181999999OC100821REMMET115MOBOB8 METAR XM22 //001 022409 311152Z AUTO 17009G16KT 9999 28/20 A2988      RMK A02 SLP120 T02810203 PA047 DA1888=
0150008416999992015073112524-02200+040900FM-15+001099999V0201701N004119999999N009999199+02751+02051101131ADDMA1101121999999OC100771REMMET115MOBOB8 METAR XM22 //001 022409 311252Z AUTO 17008G15KT 9999 28/21 A2986      RMK A02 SLP113 T02750205 PA066 DA1848=
0150008416999992015073113524-02200+040900FM-15+001099999V0201701N003619999999N009999199+02681+02081101131ADDMA1101121999999OC100621REMMET115MOBOB8 METAR XM22 //001 022409 311352Z AUTO 17007G12KT 9999 27/21 A2986      RMK A02 SLP113 T02680208 PA066 DA1774=
0150008416999992015073114524-02200+040900FM-15+001099999V0201701N003619999999N009999199+02581+02051101171ADDMA1101151999999OC100671REMMET115MOBOB8 METAR XM22 //001 022409 311452Z AUTO 17007G13KT 9999 26/21 A2987      RMK A02 SLP117 T02580205 PA057 DA1644=
0139008416999992015073115524-02200+040900FM-15+001099999V0201601N002619999999N009999199+02521+02051101171ADDMA1101151999999REMMET112MOBOB8 METAR XM22 //001 022409 311552Z AUTO 16005KT 9999 25/21 A2987      RMK A02 SLP117 T02520205 PA057 DA1577=
0139008416999992015073116524-02200+040900FM-15+001099999V0201601N002119999999N009999199+02471+02041101231ADDMA1101221999999REMMET112MOBOB8 METAR XM22 //001 022409 311652Z AUTO 16004KT 9999 25/20 A2989      RMK A02 SLP123 T02470204 PA038 DA1495=
0139008416999992015073117524-02200+040900FM-15+001099999V0201501N001519999999N009999199+02441+02061101301ADDMA1101291999999REMMET112MOBOB8 METAR XM22 //001 022409 311752Z AUTO 15003KT 9999 24/21 A2991      RMK A02 SLP130 T02440206 PA020 DA1441=
0139008416999992015073118524-02200+040900FM-15+001099999V0201601N001519999999N009999199+02381+02051101371ADDMA1101351999999REMMET112MOBOB8 METAR XM22 //001 022409 311852Z AUTO 16003KT 9999 24/21 A2993      RMK A02 SLP137 T02380205 PA001 DA1349=
0139008416999992015073119524-02200+040900FM-15+001099999V0201601N002119999999N009999199+02401+02061101401ADDMA1101391999999REMMET112MOBOB8 METAR XM22 //001 022409 311952Z AUTO 16004KT 9999 24/21 A2994      RMK A02 SLP140 T02400206 PA-08 DA1362=
0139008416999992015073120524-02200+040900FM-15+001099999V0201701N001019999999N009999199+02351+02041101401ADDMA1101391999999REMMET112MOBOB8 METAR XM22 //001 022409 312052Z AUTO 17002KT 9999 24/20 A2994      RMK A02 SLP140 T02350204 PA-08 DA1301=
0139008416999992015073121524-02200+040900FM-15+001099999V0201801N001019999999N009999199+02331+02051101371ADDMA1101351999999REMMET112MOBOB8 METAR XM22 //001 022409 312152Z AUTO 18002KT 9999 23/20 A2993      RMK A02 SLP137 T02330205 PA001 DA1291=
0139008416999992015073122524-02200+040900FM-15+001099999V0201801N001019999999N009999199+02331+02051101301ADDMA1101291999999REMMET112MOBOB8 METAR XM22 //001 022409 312252Z AUTO 18002KT 9999 23/20 A2991      RMK A02 SLP130 T02330205 PA020 DA1314=
0139008416999992015073123524-02200+040900FM-15+001099999V0201901N000519999999N009999199+02271+02041101271ADDMA1101251999999REMMET112MOBOB8 METAR XM22 //001 022409 312352Z AUTO 19001KT 9999 23/20 A2990      RMK A02 SLP127 T02270204 PA029 DA1256=
0139008416999992015080100524-02200+040900FM-15+001099999V0209999C000019999999N009999199+02291+02061101231ADDMA1101221999999REMMET112MOBOB8 METAR XM22 //001 022409 010052Z AUTO 00000KT 9999 23/21 A2989      RMK A02 SLP123 T02290206 PA038 DA1294=
0139008416999992015080101524-02200+040900FM-15+001099999V0202901N000519999999N009999199+02191+01991101271ADDMA1101251999999REMMET112MOBOB8 METAR XM22 //001 022409 010152Z AUTO 29001KT 9999 22/20 A2990      RMK A02 SLP127 T02190199 PA029 DA1154=
0139008416999992015080102524-02200+040900FM-15+001099999V0203301N000519999999N009999199+02141+01971101341ADDMA1101321999999REMMET112MOBOB8 METAR XM22 //001 022409 010252Z AUTO 33001KT 9999 21/20 A2992      RMK A02 SLP134 T02140197 PA010 DA1070=
0139008416999992015080103524-02200+040900FM-15+001099999V0203201N000519999999N009999199+02131+01971101371ADDMA1101351999999REMMET112MOBOB8 METAR XM22 //001 022409 010352Z AUTO 32001KT 9999 21/20 A2993      RMK A02 SLP137 T02130197 PA001 DA1048=
0139008416999992015080104524-02200+040900FM-15+001099999V0202101N000519999999N009999199+02341+02131101441ADDMA1101421999999REMMET112MOBOB8 METAR XM22 //001 022409 010452Z AUTO 21001KT 9999 23/21 A2995      RMK A02 SLP144 T02340213 PA-17 DA1295=
0150008416999992015080105524-02200+040900FM-15+001099999V0201701N003619999999N009999199+02681+02111101541ADDMA1101521999999OC100621REMMET115MOBOB8 METAR XM22 //001 022409 010552Z AUTO 17007G12KT 9999 27/21 A2998      RMK A02 SLP154 T02680211 PA-45 DA1644=
0150008416999992015080106524-02200+040900FM-15+001099999V0201701N003619999999N009999199+02771+02111101541ADDMA1101521999999OC100721REMMET115MOBOB8 METAR XM22 //001 022409 010652Z AUTO 17007G14KT 9999 28/21 A2998      RMK A02 SLP154 T02770211 PA-45 DA1744=
0150008416999992015080107524-02200+040900FM-15+001099999V0201701N004119999999N009999199+02811+02111101541ADDMA1101521999999OC100771REMMET115MOBOB8 METAR XM22 //001 022409 010752Z AUTO 17008G15KT 9999 28/21 A2998      RMK A02 SLP154 T02810211 PA-45 DA1788=
0150008416999992015080108524-02200+040900FM-15+001099999V0201701N004119999999N009999199+02811+02121101511ADDMA1101491999999OC100821REMMET115MOBOB8 METAR XM22 //001 022409 010852Z AUTO 17008G16KT 9999 28/21 A2997      RMK A02 SLP151 T02810212 PA-36 DA1802=
0150008416999992015080109524-02200+040900FM-15+001099999V0201701N003619999999N009999199+02861+02121101441ADDMA1101421999999OC100721REMMET115MOBOB8 METAR XM22 //001 022409 010952Z AUTO 17007G14KT 9999 29/21 A2995      RMK A02 SLP144 T02860212 PA-17 DA1882=
0139008416999992015080110524-02200+040900FM-15+001099999V0201801N003619999999N009999199+02871+02091101371ADDMA1101351999999REMMET112MOBOB8 METAR XM22 //001 022409 011052Z AUTO 18007KT 9999 29/21 A2993      RMK A02 SLP137 T02870209 PA001 DA1909=
0150008416999992015080111524-02200+040900FM-15+001099999V0201601N005119999999N009999199+02741+02141101341ADDMA1101321999999OC100881REMMET115MOBOB8 METAR XM22 //001 022409 011152Z AUTO 16010G17KT 9999 27/21 A2992      RMK A02 SLP134 T02740214 PA010 DA1784=
0150008416999992015080112524-02200+040900FM-15+001099999V0201701N004619999999N009999199+02781+02101101271ADDMA1101251999999OC100771REMMET115MOBOB8 METAR XM22 //001 022409 011252Z AUTO 17009G15KT 9999 28/21 A2990      RMK A02 SLP127 T02780210 PA029 DA1844=
0150008416999992015080113524-02200+040900FM-15+001099999V0201601N004619999999N009999199+02711+02111101271ADDMA1101251999999OC100721REMMET115MOBOB8 METAR XM22 //001 022409 011352Z AUTO 16009G14KT 9999 27/21 A2990      RMK A02 SLP127 T02710211 PA029 DA1767=
0139008416999992015080114524-02200+040900FM-15+001099999V0201701N002619999999N009999199+02601+02141101301ADDMA1101291999999REMMET112MOBOB8 METAR XM22 //001 022409 011452Z AUTO 17005KT 9999 26/21 A2991      RMK A02 SLP130 T02600214 PA020 DA1637=
0139008416999992015080115524-02200+040900FM-15+001099999V0201801N002119999999N009999199+02521+02141101341ADDMA1101321999999REMMET112MOBOB8 METAR XM22 //001 022409 011552Z AUTO 18004KT 9999 25/21 A2992      RMK A02 SLP134 T02520214 PA010 DA1537=
0139008416999992015080116524-02200+040900FM-15+001099999V0201801N001019999999N009999199+02441+02141101371ADDMA1101351999999REMMET112MOBOB8 METAR XM22 //001 022409 011652Z AUTO 18002KT 9999 24/21 A2993      RMK A02 SLP137 T02440214 PA001 DA1435=
0139008416999992015080117524-02200+040900FM-15+001099999V0201701N002119999999N009999199+02471+02151101441ADDMA1101421999999REMMET112MOBOB8 METAR XM22 //001 022409 011752Z AUTO 17004KT 9999 25/22 A2995      RMK A02 SLP144 T02470215 PA-17 DA1448=
0139008416999992015080118524-02200+040900FM-15+001099999V0201701N001519999999N009999199+02441+02171101511ADDMA1101491999999REMMET112MOBOB8 METAR XM22 //001 022409 011852Z AUTO 17003KT 9999 24/22 A2997      RMK A02 SLP151 T02440217 PA-36 DA1394=
0139008416999992015080119524-02200+040900FM-15+001099999V0201801N002119999999N009999199+02441+02151101541ADDMA1101521999999REMMET112MOBOB8 METAR XM22 //001 022409 011952Z AUTO 18004KT 9999 24/22 A2998      RMK A02 SLP154 T02440215 PA-45 DA1380=
0139008416999992015080120524-02200+040900FM-15+001099999V0201701N001519999999N009999199+02391+02151101541ADDMA1101521999999REMMET112MOBOB8 METAR XM22 //001 022409 012052Z AUTO 17003KT 9999 24/21 A2998      RMK A02 SLP154 T02390215 PA-45 DA1321=
0139008416999992015080121524-02200+040900FM-15+001099999V0201801N001519999999N009999199+02391+02141101471ADDMA1101461999999REMMET112MOBOB8 METAR XM22 //001 022409 012152Z AUTO 18003KT 9999 24/21 A2996      RMK A02 SLP147 T02390214 PA-27 DA1343=
0139008416999992015080122524-02200+040900FM-15+001099999V0201701N001519999999N009999199+02401+02151101441ADDMA1101421999999REMMET112MOBOB8 METAR XM22 //001 022409 012252Z AUTO 17003KT 9999 24/21 A2995      RMK A02 SLP144 T02400215 PA-17 DA1367=
0139008416999992015080123524-02200+040900FM-15+001099999V0201701N001519999999N009999199+02411+02171101371ADDMA1101351999999REMMET112MOBOB8 METAR XM22 //001 022409 012352Z AUTO 17003KT 9999 24/22 A2993      RMK A02 SLP137 T02410217 PA001 DA1406=
0139008416999992015080200524-02200+040900FM-15+001099999V0201801N001019999999N009999199+02391+02151101371ADDMA1101351999999REMMET112MOBOB8 METAR XM22 //001 022409 020052Z AUTO 18002KT 9999 24/22 A2993      RMK A02 SLP137 T02390215 PA001 DA1380=
0166008416999992015080201524-02200+040900FM-15+001099999V0201701N001019999999N009000199+02371+02191101371ADDAA101000021AW1611MA1101351999999REMMET122MOBOB8 METAR XM22 //001 022409 020152Z AUTO 17002KT 9000 -RA 24/22      A2993 RMK A02 SLP137 P0000 T02370219 PA001 DA1364=
0139008416999992015080202524-02200+040900FM-15+001099999V0201701N000519999999N009999199+02341+02181101401ADDMA1101391999999REMMET112MOBOB8 METAR XM22 //001 022409 020252Z AUTO 17001KT 9999 23/22 A2994      RMK A02 SLP140 T02340218 PA-08 DA1317=
0139008416999992015080203524-02200+040900FM-15+001099999V0201801N001019999999N009999199+02381+02231101441ADDMA1101421999999REMMET112MOBOB8 METAR XM22 //001 022409 020352Z AUTO 18002KT 9999 24/22 A2995      RMK A02 SLP144 T02380223 PA-17 DA1361=
0166008416999992015080204524-02200+040900FM-15+001099999V0201801N002119999999N009000199+02471+02291101511ADDAA101003331AW1611MA1101491999999REMMET122MOBOB8 METAR XM22 //001 022409 020452Z AUTO 18004KT 9000 -RA 25/23      A2997 RMK A02 SLP151 P0013 T02470229 PA-36 DA1453=
0150008416999992015080205524-02200+040900FM-15+001099999V0201701N004119999999N009999199+02591+02251101611ADDMA1101591999999OC100721REMMET115MOBOB8 METAR XM22 //001 022409 020552Z AUTO 17008G14KT 9999 26/23 A3000      RMK A02 SLP161 T02590225 PA-64 DA1548=
0186008416999992015080206524-02200+040900FM-15+001099999V0201701N003619999999N001200199+02441+02281101681ADDAA101002731AW1101AW2611MA1101661999999OC100671REMMET128MOBOB8 METAR XM22 //001 022409 020652Z AUTO 17007G13KT 1200 -RA BR      24/23 A3002 RMK A02 SLP168 P0011 T02440228 PA-82 DA1360=
0175008416999992015080207524-02200+040900FM-15+001099999V0201701N003119999999N003200199+02431+02261101681ADDAA101000021AW1101AW2611MA1101661999999REMMET125MOBOB8 METAR XM22 //001 022409 020752Z AUTO 17006KT 3200 -RA BR 24/23      A3002 RMK A02 SLP168 P0000 T02430226 PA-82 DA1345=
0186008416999992015080208524-02200+040900FM-15+001099999V0201701N005719999999N000600199+02311+02181101681ADDAA101016231AW1301AW2631MA1101661999999OC100931REMMET128MOBOB8 METAR XM22 //001 022409 020852Z AUTO 17011G18KT 0600 +RA FG      23/22 A3002 RMK A02 SLP168 P0064 T02310218 PA-82 DA1192=
0166008416999992015080209524-02200+040900FM-15+001099999V0201701N003119999999N009000199+02351+02211101571ADDAA101002531AW1611MA1101561999999REMMET122MOBOB8 METAR XM22 //001 022409 020952Z AUTO 17006KT 9000 -RA 24/22      A2999 RMK A02 SLP157 P0010 T02350221 PA-54 DA1277=
0139008416999992015080210524-02200+040900FM-15+001099999V0201801N001519999999N009999199+02481+02231101471ADDMA1101461999999REMMET112MOBOB8 METAR XM22 //001 022409 021052Z AUTO 18003KT 9999 25/22 A2996      RMK A02 SLP147 T02480223 PA-27 DA1463=
0139008416999992015080211524-02200+040900FM-15+001099999V0201801N002619999999N009999199+02631+02341101401ADDMA1101391999999REMMET112MOBOB8 METAR XM22 //001 022409 021152Z AUTO 18005KT 9999 26/23 A2994      RMK A02 SLP140 T02630234 PA-08 DA1679=
0150008416999992015080212524-02200+040900FM-15+001099999V0201701N004119999999N009999199+02641+02201101371ADDMA1101351999999OC100821REMMET115MOBOB8 METAR XM22 //001 022409 021252Z AUTO 17008G16KT 9999 26/22 A2993      RMK A02 SLP137 T02640220 PA001 DA1672=
0177008416999992015080213524-02200+040900FM-15+001099999V0201701N004619999999N009000199+02571+02221101371ADDAA101000021AW1611MA1101351999999OC100771REMMET125MOBOB8 METAR XM22 //001 022409 021352Z AUTO 17009G15KT 9000 -RA 26/22      A2993 RMK A02 SLP137 P0000 T02570222 PA001 DA1597=
0166008416999992015080214524-02200+040900FM-15+001099999V0201701N002619999999N009000199+02451+02231101401ADDAA101000531AW1611MA1101391999999REMMET122MOBOB8 METAR XM22 //001 022409 021452Z AUTO 17005KT 9000 -RA 25/22      A2994 RMK A02 SLP140 P0002 T02450223 PA-08 DA1453=
0186008416999992015080215524-02200+040900FM-15+001099999V0201501N006719999999N002000199+02341+02151101471ADDAA101002231AW1101AW2611MA1101461999999OC101031REMMET128MOBOB8 METAR XM22 //001 022409 021552Z AUTO 15013G20KT 2000 -RA BR      23/21 A2996 RMK A02 SLP147 P0009 T02340215 PA-27 DA1287=
0166008416999992015080216524-02200+040900FM-15+001099999V0201701N003119999999N009000199+02341+02161101511ADDAA101000231AW1611MA1101491999999REMMET122MOBOB8 METAR XM22 //001 022409 021652Z AUTO 17006KT 9000 -RA 23/22      A2997 RMK A02 SLP151 P0001 T02340216 PA-36 DA1279=
0166008416999992015080217524-02200+040900FM-15+001099999V0201701N002119999999N009000199+02361+02161101541ADDAA101000021AW1611MA1101521999999REMMET122MOBOB8 METAR XM22 //001 022409 021752Z AUTO 17004KT 9000 -RA 24/22      A2998 RMK A02 SLP154 P0000 T02360216 PA-45 DA1291=
0139008416999992015080218524-02200+040900FM-15+001099999V0201701N003119999999N009999199+02451+02191101611ADDMA1101591999999REMMET112MOBOB8 METAR XM22 //001 022409 021852Z AUTO 17006KT 9999 25/22 A3000      RMK A02 SLP161 T02450219 PA-64 DA1375=
0139008416999992015080219524-02200+040900FM-15+001099999V0201701N003619999999N009999199+02471+02141101611ADDMA1101591999999REMMET112MOBOB8 METAR XM22 //001 022409 021952Z AUTO 17007KT 9999 25/21 A3000      RMK A02 SLP161 T02470214 PA-64 DA1388=
0139008416999992015080220524-02200+040900FM-15+001099999V0201701N003119999999N009999199+02481+02151101611ADDMA1101591999999REMMET112MOBOB8 METAR XM22 //001 022409 022052Z AUTO 17006KT 9999 25/21 A3000      RMK A02 SLP161 T02480215 PA-64 DA1402=
0139008416999992015080221524-02200+040900FM-15+001099999V0201701N003619999999N009999199+02501+02161101571ADDMA1101561999999REMMET112MOBOB8 METAR XM22 //001 022409 022152Z AUTO 17007KT 9999 25/22 A2999      RMK A02 SLP157 T02500216 PA-54 DA1438=
0139008416999992015080222524-02200+040900FM-15+001099999V0201701N002619999999N009999199+02491+02171101511ADDMA1101491999999REMMET112MOBOB8 METAR XM22 //001 022409 022252Z AUTO 17005KT 9999 25/22 A2997      RMK A02 SLP151 T02490217 PA-36 DA1452=
0139008416999992015080223524-02200+040900FM-15+001099999V0201701N003119999999N009999199+02481+02191101471ADDMA1101461999999REMMET112MOBOB8 METAR XM22 //001 022409 022352Z AUTO 17006KT 9999 25/22 A2996      RMK A02 SLP147 T02480219 PA-27 DA1456=
0177008416999992015080300524-02200+040900FM-15+001099999V0201401N004119999999N009000199+02411+02111101441ADDAA101000231AW1611MA1101421999999OC100721REMMET125MOBOB8 METAR XM22 //001 022409 030052Z AUTO 14008G14KT 9000 -RA 24/21      A2995 RMK A02 SLP144 P0001 T02410211 PA-17 DA1372=
0139008416999992015080301524-02200+040900FM-15+001099999V0201601N002619999999N009999199+02441+02161101441ADDMA1101421999999REMMET112MOBOB8 METAR XM22 //001 022409 030152Z AUTO 16005KT 9999 24/22 A2995      RMK A02 SLP144 T02440216 PA-17 DA1416=
0139008416999992015080302524-02200+040900FM-15+001099999V0201701N002119999999N009999199+02451+02231101511ADDMA1101491999999REMMET112MOBOB8 METAR XM22 //001 022409 030252Z AUTO 17004KT 9999 25/22 A2997      RMK A02 SLP151 T02450223 PA-36 DA1419=
0166008416999992015080303524-02200+040900FM-15+001099999V0201701N002119999999N009000199+02441+02201101541ADDAA101000021AW1611MA1101521999999REMMET122MOBOB8 METAR XM22 //001 022409 030352Z AUTO 17004KT 9000 -RA 24/22      A2998 RMK A02 SLP154 P0000 T02440220 PA-45 DA1390=
0166008416999992015080304524-02200+040900FM-15+001099999V0201701N002619999999N009000199+02491+02261101611ADDAA101000021AW1611MA1101591999999REMMET122MOBOB8 METAR XM22 //001 022409 030452Z AUTO 17005KT 9000 -RA 25/23      A3000 RMK A02 SLP161 P0000 T02490226 PA-64 DA1436=
0139008416999992015080305524-02200+040900FM-15+001099999V0201601N003619999999N009999199+02611+02271101681ADDMA1101661999999REMMET112MOBOB8 METAR XM22 //001 022409 030552Z AUTO 16007KT 9999 26/23 A3002      RMK A02 SLP168 T02610227 PA-82 DA1551=
0150008416999992015080306524-02200+040900FM-15+001099999V0201701N005119999999N009999199+02651+02201101641ADDMA1101631999999OC100931REMMET115MOBOB8 METAR XM22 //001 022409 030652Z AUTO 17010G18KT 9999 27/22 A3001      RMK A02 SLP164 T02650220 PA-73 DA1593=
0150008416999992015080307524-02200+040900FM-15+001099999V0201701N006219999999N009999199+02751+02201101671ADDMA1101661999999OC100931REMMET115MOBOB8 METAR XM22 //001 022409 030752Z AUTO 17012G18KT 9999 28/22 A3002      RMK A02 SLP167 T02750220 PA-82 DA1695=
0150008416999992015080308524-02200+040900FM-15+001099999V0201701N006219999999N009999199+02791+02251101571ADDMA1101561999999OC101081REMMET115MOBOB8 METAR XM22 //001 022409 030852Z AUTO 17012G21KT 9999 28/23 A2999      RMK A02 SLP157 T02790225 PA-54 DA1784=
0150008416999992015080309524-02200+040900FM-15+001099999V0201701N006719999999N009999199+02781+02161101541ADDMA1101521999999OC101131REMMET115MOBOB8 METAR XM22 //001 022409 030952Z AUTO 17013G22KT 9999 28/22 A2998      RMK A02 SLP154 T02780216 PA-45 DA1765=
0150008416999992015080310524-02200+040900FM-15+001099999V0201701N006219999999N009999199+02781+02171101471ADDMA1101461999999OC101241REMMET115MOBOB8 METAR XM22 //001 022409 031052Z AUTO 17012G24KT 9999 28/22 A2996      RMK A02 SLP147 T02780217 PA-27 DA1790=
0150008416999992015080311524-02200+040900FM-15+001099999V0201701N006219999999N009999199+02751+02211101371ADDMA1101351999999OC101031REMMET115MOBOB8 METAR XM22 //001 022409 031152Z AUTO 17012G20KT 9999 28/22 A2993      RMK A02 SLP137 T02750221 PA001 DA1799=
0150008416999992015080312524-02200+040900FM-15+001099999V0201601N006219999999N009999199+02681+02131101371ADDMA1101351999999OC101081REMMET115MOBOB8 METAR XM22 //001 022409 031252Z AUTO 16012G21KT 9999 27/21 A2993      RMK A02 SLP137 T02680213 PA001 DA1704=
0150008416999992015080313524-02200+040900FM-15+001099999V0201701N005119999999N009999199+02631+02101101401ADDMA1101391999999OC100931REMMET115MOBOB8 METAR XM22 //001 022409 031352Z AUTO 17010G18KT 9999 26/21 A2994      RMK A02 SLP140 T02630210 PA-08 DA1629=
0139008416999992015080314524-02200+040900FM-15+001099999V0201701N003119999999N009999199+02561+02161101441ADDMA1101421999999REMMET112MOBOB8 METAR XM22 //001 022409 031452Z AUTO 17006KT 9999 26/22 A2995      RMK A02 SLP144 T02560216 PA-17 DA1552=
0150008416999992015080315524-02200+040900FM-15+001099999V0201701N004619999999N009999199+02551+02091101511ADDMA1101491999999OC100881REMMET115MOBOB8 METAR XM22 //001 022409 031552Z AUTO 17009G17KT 9999 26/21 A2997      RMK A02 SLP151 T02550209 PA-36 DA1504=
0139008416999992015080316524-02200+040900FM-15+001099999V0201701N003619999999N009999199+02541+02081101511ADDMA1101491999999REMMET112MOBOB8 METAR XM22 //001 022409 031652Z AUTO 17007KT 9999 25/21 A2997      RMK A02 SLP151 T02540208 PA-36 DA1491=
0150008416999992015080317524-02200+040900FM-15+001099999V0201701N003619999999N009999199+02541+02071101611ADDMA1101591999999OC100721REMMET115MOBOB8 METAR XM22 //001 022409 031752Z AUTO 17007G14KT 9999 25/21 A3000      RMK A02 SLP161 T02540207 PA-64 DA1455=
0150008416999992015080318524-02200+040900FM-15+001099999V0201701N004119999999N009999199+02541+02081101611ADDMA1101591999999OC100881REMMET115MOBOB8 METAR XM22 //001 022409 031852Z AUTO 17008G17KT 9999 25/21 A3000      RMK A02 SLP161 T02540208 PA-64 DA1456=
0150008416999992015080319524-02200+040900FM-15+001099999V0201701N003619999999N009999199+02531+02151101571ADDMA1101561999999OC100621REMMET115MOBOB8 METAR XM22 //001 022409 031952Z AUTO 17007G12KT 9999 25/21 A2999      RMK A02 SLP157 T02530215 PA-54 DA1470=
0150008416999992015080320524-02200+040900FM-15+001099999V0201701N004119999999N009999199+02521+02121101571ADDMA1101561999999OC100881REMMET115MOBOB8 METAR XM22 //001 022409 032052Z AUTO 17008G17KT 9999 25/21 A2999      RMK A02 SLP157 T02520212 PA-54 DA1452=
0150008416999992015080321524-02200+040900FM-15+001099999V0201701N004619999999N009999199+02531+02081101541ADDMA1101521999999OC100821REMMET115MOBOB8 METAR XM22 //001 022409 032152Z AUTO 17009G16KT 9999 25/21 A2998      RMK A02 SLP154 T02530208 PA-45 DA1467=
0150008416999992015080322524-02200+040900FM-15+001099999V0201701N004619999999N009999199+02511+02041101471ADDMA1101461999999OC100821REMMET115MOBOB8 METAR XM22 //001 022409 032252Z AUTO 17009G16KT 9999 25/20 A2996      RMK A02 SLP147 T02510204 PA-27 DA1460=
0150008416999992015080323524-02200+040900FM-15+001099999V0201701N004619999999N009999199+02511+02071101471ADDMA1101461999999OC100881REMMET115MOBOB8 METAR XM22 //001 022409 032352Z AUTO 17009G17KT 9999 25/21 A2996      RMK A02 SLP147 T02510207 PA-27 DA1466=
0150008416999992015080400524-02200+040900FM-15+001099999V0201701N004619999999N009999199+02501+02081101441ADDMA1101421999999OC100771REMMET115MOBOB8 METAR XM22 //001 022409 040052Z AUTO 17009G15KT 9999 25/21 A2995      RMK A02 SLP144 T02500208 PA-17 DA1468=
0150008416999992015080401524-02200+040900FM-15+001099999V0201701N004619999999N009999199+02501+02061101471ADDMA1101461999999OC100821REMMET115MOBOB8 METAR XM22 //001 022409 040152Z AUTO 17009G16KT 9999 25/21 A2996      RMK A02 SLP147 T02500206 PA-27 DA1453=
0139008416999992015080402524-02200+040900FM-15+001099999V0201701N003619999999N009999199+02491+02091101541ADDMA1101521999999REMMET112MOBOB8 METAR XM22 //001 022409 040252Z AUTO 17007KT 9999 25/21 A2998      RMK A02 SLP154 T02490209 PA-45 DA1424=
0139008416999992015080403524-02200+040900FM-15+001099999V0201701N003619999999N009999199+02511+02071101611ADDMA1101591999999REMMET112MOBOB8 METAR XM22 //001 022409 040352Z AUTO 17007KT 9999 25/21 A3000      RMK A02 SLP161 T02510207 PA-64 DA1420=
0150008416999992015080404524-02200+040900FM-15+001099999V0201701N004119999999N009999199+02611+02071101671ADDMA1101661999999OC100771REMMET115MOBOB8 METAR XM22 //001 022409 040452Z AUTO 17008G15KT 9999 26/21 A3002      RMK A02 SLP167 T02610207 PA-82 DA1510=
0140008416999992015080405524-02200+040900FM-15+001099999V0201801N003619999999N009999199+02651+02091101741ADDMA1101731999999REMMET113MOBOB8 METAR XM22 //001 022409 040552Z AUTO 18007KT 9999 27/21 A3004      RMK A02 SLP174 T02650209 PA-100 DA1536=
0151008416999992015080406524-02200+040900FM-15+001099999V0201701N004619999999N009999199+02741+02051101741ADDMA1101731999999OC100881REMMET116MOBOB8 METAR XM22 //001 022409 040652Z AUTO 17009G17KT 9999 27/21 A3004      RMK A02 SLP174 T02740205 PA-100 DA1631=
0150008416999992015080407524-02200+040900FM-15+001099999V0201701N005719999999N009999199+02761+01951101711ADDMA1101691999999OC101031REMMET115MOBOB8 METAR XM22 //001 022409 040752Z AUTO 17011G20KT 9999 28/20 A3003      RMK A02 SLP171 T02760195 PA-91 DA1647=
0150008416999992015080408524-02200+040900FM-15+001099999V0201701N004619999999N009999199+02811+02021101671ADDMA1101661999999OC100931REMMET115MOBOB8 METAR XM22 //001 022409 040852Z AUTO 17009G18KT 9999 28/20 A3002      RMK A02 SLP167 T02810202 PA-82 DA1726=
0150008416999992015080409524-02200+040900FM-15+001099999V0201701N004619999999N009999199+02751+02001101611ADDMA1101591999999OC100931REMMET115MOBOB8 METAR XM22 //001 022409 040952Z AUTO 17009G18KT 9999 28/20 A3000      RMK A02 SLP161 T02750200 PA-64 DA1679=
0139008416999992015080410524-02200+040900FM-15+001099999V0201801N003119999999N009999199+02681+02101101541ADDMA1101521999999REMMET112MOBOB8 METAR XM22 //001 022409 041052Z AUTO 18006KT 9999 27/21 A2998      RMK A02 SLP154 T02680210 PA-45 DA1642=
0150008416999992015080411524-02200+040900FM-15+001099999V0201701N004619999999N009999199+02731+02071101511ADDMA1101491999999OC100821REMMET115MOBOB8 METAR XM22 //001 022409 041152Z AUTO 17009G16KT 9999 27/21 A2997      RMK A02 SLP151 T02730207 PA-36 DA1702=
0150008416999992015080412524-02200+040900FM-15+001099999V0201701N004619999999N009999199+02681+02051101441ADDMA1101421999999OC100821REMMET115MOBOB8 METAR XM22 //001 022409 041252Z AUTO 17009G16KT 9999 27/21 A2995      RMK A02 SLP144 T02680205 PA-17 DA1666=
0150008416999992015080413524-02200+040900FM-15+001099999V0201701N004119999999N009999199+02671+02011101441ADDMA1101421999999OC100771REMMET115MOBOB8 METAR XM22 //001 022409 041352Z AUTO 17008G15KT 9999 27/20 A2995      RMK A02 SLP144 T02670201 PA-17 DA1647=
0139008416999992015080414524-02200+040900FM-15+001099999V0201701N003619999999N009999199+02591+02071101471ADDMA1101461999999REMMET112MOBOB8 METAR XM22 //001 022409 041452Z AUTO 17007KT 9999 26/21 A2996      RMK A02 SLP147 T02590207 PA-27 DA1556=
0139008416999992015080415524-02200+040900FM-15+001099999V0201701N002119999999N009999199+02521+02071101471ADDMA1101461999999REMMET112MOBOB8 METAR XM22 //001 022409 041552Z AUTO 17004KT 9999 25/21 A2996      RMK A02 SLP147 T02520207 PA-27 DA1478=
0166008416999992015080416524-02200+040900FM-15+001099999V0201801N003119999999N009000199+02521+02101101511ADDAA101000021AW1611MA1101491999999REMMET122MOBOB8 METAR XM22 //001 022409 041652Z AUTO 18006KT 9000 -RA 25/21      A2997 RMK A02 SLP151 P0000 T02520210 PA-36 DA1472=
0150008416999992015080417524-02200+040900FM-15+001099999V0201701N004119999999N009999199+02521+02141101541ADDMA1101521999999OC100821REMMET115MOBOB8 METAR XM22 //001 022409 041752Z AUTO 17008G16KT 9999 25/21 A2998      RMK A02 SLP154 T02520214 PA-45 DA1468=
0150008416999992015080418524-02200+040900FM-15+001099999V0201701N004619999999N009999199+02481+02121101571ADDMA1101561999999OC100771REMMET115MOBOB8 METAR XM22 //001 022409 041852Z AUTO 17009G15KT 9999 25/21 A2999      RMK A02 SLP157 T02480212 PA-54 DA1407=
0139008416999992015080419524-02200+040900FM-15+001099999V0201701N003619999999N009999199+02511+02101101571ADDMA1101561999999REMMET112MOBOB8 METAR XM22 //001 022409 041952Z AUTO 17007KT 9999 25/21 A2999      RMK A02 SLP157 T02510210 PA-54 DA1437=
0150008416999992015080420524-02200+040900FM-15+001099999V0201701N004119999999N009999199+02521+02131101571ADDMA1101561999999OC100821REMMET115MOBOB8 METAR XM22 //001 022409 042052Z AUTO 17008G16KT 9999 25/21 A2999      RMK A02 SLP157 T02520213 PA-54 DA1454=
0186008416999992015080421524-02200+040900FM-15+001099999V0201701N004619999999N006000199+02361+02141101541ADDAA101000021AW1101AW2611MA1101521999999OC100771REMMET128MOBOB8 METAR XM22 //001 022409 042152Z AUTO 17009G15KT 6000 -RA BR      24/21 A2998 RMK A02 SLP154 P0000 T02360214 PA-45 DA1286=
0177008416999992015080422524-02200+040900FM-15+001099999V0201701N004119999999N009000199+02381+02161101471ADDAA101000021AW1611MA1101461999999OC100881REMMET125MOBOB8 METAR XM22 //001 022409 042252Z AUTO 17008G17KT 9000 -RA 24/22      A2996 RMK A02 SLP147 P0000 T02380216 PA-27 DA1336=
0177008416999992015080423524-02200+040900FM-15+001099999V0201701N004619999999N003200199+02341+02111101441ADDAA101000021AW1611MA1101421999999OC100771REMMET125MOBOB8 METAR XM22 //001 022409 042352Z AUTO 17009G15KT 3200 -RA 23/21      A2995 RMK A02 SLP144 P0000 T02340211 PA-17 DA1293=
0148008416999992015080500524-02200+040900FM-15+001099999V0201701N003119999999N009000199+02401+02191101401ADDAW1101MA1101391999999REMMET115MOBOB8 METAR XM22 //001 022409 050052Z AUTO 17006KT 9000 BR 24/22 A2994      RMK A02 SLP140 T02400219 PA-08 DA1387=
0150008416999992015080501524-02200+040900FM-15+001099999V0201701N003619999999N009999199+02431+02131101401ADDMA1101391999999OC100821REMMET115MOBOB8 METAR XM22 //001 022409 050152Z AUTO 17007G16KT 9999 24/21 A2994      RMK A02 SLP140 T02430213 PA-08 DA1410=
0139008416999992015080502524-02200+040900FM-15+001099999V0201701N003119999999N009999199+02441+02141101471ADDMA1101461999999REMMET112MOBOB8 METAR XM22 //001 022409 050252Z AUTO 17006KT 9999 24/21 A2996      RMK A02 SLP147 T02440214 PA-27 DA1400=
0139008416999992015080503524-02200+040900FM-15+001099999V0201701N003119999999N009999199+02451+02161101511ADDMA1101491999999REMMET112MOBOB8 METAR XM22 //001 022409 050352Z AUTO 17006KT 9999 25/22 A2997      RMK A02 SLP151 T02450216 PA-36 DA1404=
0150008416999992015080504524-02200+040900FM-15+001099999V0201701N004619999999N009999199+02561+02091101611ADDMA1101591999999OC100721REMMET115MOBOB8 METAR XM22 //001 022409 050452Z AUTO 17009G14KT 9999 26/21 A3000      RMK A02 SLP161 T02560209 PA-64 DA1481=
0150008416999992015080505524-02200+040900FM-15+001099999V0201701N004119999999N009999199+02601+02111101641ADDMA1101631999999OC100671REMMET115MOBOB8 METAR XM22 //001 022409 050552Z AUTO 17008G13KT 9999 26/21 A3001      RMK A02 SLP164 T02600211 PA-73 DA1518=
0177008416999992015080506524-02200+040900FM-15+001099999V0201701N004119999999N009000199+02651+02141101641ADDAA101000021AW1611MA1101631999999OC100671REMMET125MOBOB8 METAR XM22 //001 022409 050652Z AUTO 17008G13KT 9000 -RA 27/21      A3001 RMK A02 SLP164 P0000 T02650214 PA-73 DA1581=
0177008416999992015080507524-02200+040900FM-15+001099999V0201701N004119999999N009000199+02691+02191101611ADDAA101000021AW1611MA1101591999999OC100771REMMET125MOBOB8 METAR XM22 //001 022409 050752Z AUTO 17008G15KT 9000 -RA 27/22      A3000 RMK A02 SLP161 P0000 T02690219 PA-64 DA1648=
0150008416999992015080508524-02200+040900FM-15+001099999V0201801N004119999999N009999199+02781+02221101541ADDMA1101521999999OC100881REMMET115MOBOB8 METAR XM22 //001 022409 050852Z AUTO 18008G17KT 9999 28/22 A2998      RMK A02 SLP154 T02780222 PA-45 DA1778=
0150008416999992015080509524-02200+040900FM-15+001099999V0201701N004619999999N009999199+02801+02141101511ADDMA1101491999999OC100821REMMET115MOBOB8 METAR XM22 //001 022409 050952Z AUTO 17009G16KT 9999 28/21 A2997      RMK A02 SLP151 T02800214 PA-36 DA1795=
0150008416999992015080510524-02200+040900FM-15+001099999V0201701N004619999999N009999199+02661+02151101441ADDMA1101421999999OC100821REMMET115MOBOB8 METAR XM22 //001 022409 051052Z AUTO 17009G16KT 9999 27/21 A2995      RMK A02 SLP144 T02660215 PA-17 DA1662=
0166008416999992015080511524-02200+040900FM-15+001099999V0201501N003119999999N009000199+02541+02261101401ADDAA101000021AW1611MA1101391999999REMMET122MOBOB8 METAR XM22 //001 022409 051152Z AUTO 15006KT 9000 -RA 25/23      A2994 RMK A02 SLP140 P0000 T02540226 PA-08 DA1561=
0150008416999992015080512524-02200+040900FM-15+001099999V0201701N004619999999N009999199+02641+02141101341ADDMA1101321999999OC100771REMMET115MOBOB8 METAR XM22 //001 022409 051252Z AUTO 17009G15KT 9999 26/21 A2992      RMK A02 SLP134 T02640214 PA010 DA1673=
0150008416999992015080513524-02200+040900FM-15+001099999V0201701N003619999999N009999199+02641+02111101371ADDMA1101351999999OC100771REMMET115MOBOB8 METAR XM22 //001 022409 051352Z AUTO 17007G15KT 9999 26/21 A2993      RMK A02 SLP137 T02640211 PA001 DA1654=
0139008416999992015080514524-02200+040900FM-15+001099999V0201701N003619999999N009999199+02591+02131101401ADDMA1101391999999REMMET112MOBOB8 METAR XM22 //001 022409 051452Z AUTO 17007KT 9999 26/21 A2994      RMK A02 SLP140 T02590213 PA-08 DA1591=
0166008416999992015080515524-02200+040900FM-15+001099999V0201801N002119999999N009000199+02401+02171101441ADDAA101000231AW1611MA1101421999999REMMET122MOBOB8 METAR XM22 //001 022409 051552Z AUTO 18004KT 9000 -RA 24/22      A2995 RMK A02 SLP144 P0001 T02400217 PA-17 DA1372=
0139008416999992015080516524-02200+040900FM-15+001099999V0201701N002119999999N009999199+02381+02141101441ADDMA1101421999999REMMET112MOBOB8 METAR XM22 //001 022409 051652Z AUTO 17004KT 9999 24/21 A2995      RMK A02 SLP144 T02380214 PA-17 DA1344=
0139008416999992015080517524-02200+040900FM-15+001099999V0201701N001519999999N009999199+02361+02121101471ADDMA1101461999999REMMET112MOBOB8 METAR XM22 //001 022409 051752Z AUTO 17003KT 9999 24/21 A2996      RMK A02 SLP147 T02360212 PA-27 DA1305=
0139008416999992015080518524-02200+040900FM-15+001099999V0201701N002619999999N009999199+02421+02171101511ADDMA1101491999999REMMET112MOBOB8 METAR XM22 //001 022409 051852Z AUTO 17005KT 9999 24/22 A2997      RMK A02 SLP151 T02420217 PA-36 DA1372=
0139008416999992015080519524-02200+040900FM-15+001099999V0201701N002619999999N009999199+02371+02081101511ADDMA1101491999999REMMET112MOBOB8 METAR XM22 //001 022409 051952Z AUTO 17005KT 9999 24/21 A2997      RMK A02 SLP151 T02370208 PA-36 DA1298=
0139008416999992015080520524-02200+040900FM-15+001099999V0201701N002119999999N009999199+02421+02171101511ADDMA1101491999999REMMET112MOBOB8 METAR XM22 //001 022409 052052Z AUTO 17004KT 9999 24/22 A2997      RMK A02 SLP151 T02420217 PA-36 DA1372=
0139008416999992015080521524-02200+040900FM-15+001099999V0201601N002119999999N009999199+02421+02141101471ADDMA1101461999999REMMET112MOBOB8 METAR XM22 //001 022409 052152Z AUTO 16004KT 9999 24/21 A2996      RMK A02 SLP147 T02420214 PA-27 DA1377=
0139008416999992015080522524-02200+040900FM-15+001099999V0201701N002119999999N009999199+02441+02161101401ADDMA1101391999999REMMET112MOBOB8 METAR XM22 //001 022409 052252Z AUTO 17004KT 9999 24/22 A2994      RMK A02 SLP140 T02440216 PA-08 DA1426=
0139008416999992015080523524-02200+040900FM-15+001099999V0201701N002619999999N009999199+02411+02121101371ADDMA1101351999999REMMET112MOBOB8 METAR XM22 //001 022409 052352Z AUTO 17005KT 9999 24/21 A2993      RMK A02 SLP137 T02410212 PA001 DA1396=
0139008416999992015080600524-02200+040900FM-15+001099999V0201901N001019999999N009999199+02321+02081101371ADDMA1101351999999REMMET112MOBOB8 METAR XM22 //001 022409 060052Z AUTO 19002KT 9999 23/21 A2993      RMK A02 SLP137 T02320208 PA001 DA1286=
0139008416999992015080601524-02200+040900FM-15+001099999V0201901N000519999999N009999199+02331+02151101441ADDMA1101421999999REMMET112MOBOB8 METAR XM22 //001 022409 060152Z AUTO 19001KT 9999 23/22 A2995      RMK A02 SLP144 T02330215 PA-17 DA1288=
0139008416999992015080602524-02200+040900FM-15+001099999V0201901N000519999999N009999199+02311+02141101471ADDMA1101461999999REMMET112MOBOB8 METAR XM22 //001 022409 060252Z AUTO 19001KT 9999 23/21 A2996      RMK A02 SLP147 T02310214 PA-27 DA1253=
0139008416999992015080603524-02200+040900FM-15+001099999V0201601N001519999999N009999199+02351+02171101511ADDMA1101491999999REMMET112MOBOB8 METAR XM22 //001 022409 060352Z AUTO 16003KT 9999 24/22 A2997      RMK A02 SLP151 T02350217 PA-36 DA1293=
0139008416999992015080604524-02200+040900FM-15+001099999V0201601N004119999999N009999199+02471+02171101571ADDMA1101561999999REMMET112MOBOB8 METAR XM22 //001 022409 060452Z AUTO 16008KT 9999 25/22 A2999      RMK A02 SLP157 T02470217 PA-54 DA1406=
0150008416999992015080605524-02200+040900FM-15+001099999V0201501N003619999999N009999199+02621+02211101611ADDMA1101591999999OC100721REMMET115MOBOB8 METAR XM22 //001 022409 060552Z AUTO 15007G14KT 9999 26/22 A3000      RMK A02 SLP161 T02620221 PA-64 DA1572=
0150008416999992015080606524-02200+040900FM-15+001099999V0201601N005119999999N009999199+02681+02141101641ADDMA1101631999999OC100821REMMET115MOBOB8 METAR XM22 //001 022409 060652Z AUTO 16010G16KT 9999 27/21 A3001      RMK A02 SLP164 T02680214 PA-73 DA1615=
0177008416999992015080607524-02200+040900FM-15+001099999V0201601N005119999999N009000199+02751+02181101641ADDAA101000021AW1611MA1101631999999OC100931REMMET125MOBOB8 METAR XM22 //001 022409 060752Z AUTO 16010G18KT 9000 -RA 28/22      A3001 RMK A02 SLP164 P0000 T02750218 PA-73 DA1702=
0150008416999992015080608524-02200+040900FM-15+001099999V0201601N006219999999N009999199+02771+02111101611ADDMA1101591999999OC100931REMMET115MOBOB8 METAR XM22 //001 022409 060852Z AUTO 16012G18KT 9999 28/21 A3000      RMK A02 SLP161 T02770211 PA-64 DA1721=
0150008416999992015080609524-02200+040900FM-15+001099999V0201601N005719999999N009999199+02761+02141101541ADDMA1101521999999OC101031REMMET115MOBOB8 METAR XM22 //001 022409 060952Z AUTO 16011G20KT 9999 28/21 A2998      RMK A02 SLP154 T02760214 PA-45 DA1738=
0150008416999992015080610524-02200+040900FM-15+001099999V0201701N005119999999N009999199+02771+02121101471ADDMA1101461999999OC100821REMMET115MOBOB8 METAR XM22 //001 022409 061052Z AUTO 17010G16KT 9999 28/21 A2996      RMK A02 SLP147 T02770212 PA-27 DA1769=
0150008416999992015080611524-02200+040900FM-15+001099999V0201701N004619999999N009999199+02791+02151101441ADDMA1101421999999OC100931REMMET115MOBOB8 METAR XM22 //001 022409 061152Z AUTO 17009G18KT 9999 28/22 A2995      RMK A02 SLP144 T02790215 PA-17 DA1809=
0150008416999992015080612524-02200+040900FM-15+001099999V0201601N005719999999N009999199+02721+02081101401ADDMA1101391999999OC100881REMMET115MOBOB8 METAR XM22 //001 022409 061252Z AUTO 16011G17KT 9999 27/21 A2994      RMK A02 SLP140 T02720208 PA-08 DA1729=
0150008416999992015080613524-02200+040900FM-15+001099999V0201701N003619999999N009999199+02681+02151101441ADDMA1101421999999OC100721REMMET115MOBOB8 METAR XM22 //001 022409 061352Z AUTO 17007G14KT 9999 27/22 A2995      RMK A02 SLP144 T02680215 PA-17 DA1686=
0139008416999992015080614524-02200+040900FM-15+001099999V0201501N003119999999N009999199+02531+02161101471ADDMA1101461999999REMMET112MOBOB8 METAR XM22 //001 022409 061452Z AUTO 15006KT 9999 25/22 A2996      RMK A02 SLP147 T02530216 PA-27 DA1505=
0166008416999992015080615524-02200+040900FM-15+001099999V0201601N003119999999N009000199+02461+02171101471ADDAA101000731AW1611MA1101461999999REMMET122MOBOB8 METAR XM22 //001 022409 061552Z AUTO 16006KT 9000 -RA 25/22      A2996 RMK A02 SLP147 P0003 T02460217 PA-27 DA1428=
0139008416999992015080616524-02200+040900FM-15+001099999V0201701N002619999999N009999199+02421+02141101471ADDMA1101461999999REMMET112MOBOB8 METAR XM22 //001 022409 061652Z AUTO 17005KT 9999 24/21 A2996      RMK A02 SLP147 T02420214 PA-27 DA1378=
0139008416999992015080617524-02200+040900FM-15+001099999V0201701N002619999999N009999199+02431+02121101511ADDMA1101491999999REMMET112MOBOB8 METAR XM22 //001 022409 061752Z AUTO 17005KT 9999 24/21 A2997      RMK A02 SLP151 T02430212 PA-36 DA1373=
0139008416999992015080618524-02200+040900FM-15+001099999V0201601N003119999999N009999199+02451+02111101541ADDMA1101521999999REMMET112MOBOB8 METAR XM22 //001 022409 061852Z AUTO 16006KT 9999 25/21 A2998      RMK A02 SLP154 T02450211 PA-45 DA1384=
0139008416999992015080619524-02200+040900FM-15+001099999V0201601N002619999999N009999199+02421+02101101541ADDMA1101521999999REMMET112MOBOB8 METAR XM22 //001 022409 061952Z AUTO 16005KT 9999 24/21 A2998      RMK A02 SLP154 T02420210 PA-45 DA1347=
0139008416999992015080620524-02200+040900FM-15+001099999V0201601N002619999999N009999199+02411+02081101511ADDMA1101491999999REMMET112MOBOB8 METAR XM22 //001 022409 062052Z AUTO 16005KT 9999 24/21 A2997      RMK A02 SLP151 T02410208 PA-36 DA1343=
0139008416999992015080621524-02200+040900FM-15+001099999V0201701N003119999999N009999199+02411+02041101441ADDMA1101421999999REMMET112MOBOB8 METAR XM22 //001 022409 062152Z AUTO 17006KT 9999 24/20 A2995      RMK A02 SLP144 T02410204 PA-17 DA1358=
0139008416999992015080622524-02200+040900FM-15+001099999V0201601N003119999999N009999199+02401+02021101401ADDMA1101391999999REMMET112MOBOB8 METAR XM22 //001 022409 062252Z AUTO 16006KT 9999 24/20 A2994      RMK A02 SLP140 T02400202 PA-08 DA1354=
0139008416999992015080623524-02200+040900FM-15+001099999V0201601N002119999999N009999199+02391+01991101401ADDMA1101391999999REMMET112MOBOB8 METAR XM22 //001 022409 062352Z AUTO 16004KT 9999 24/20 A2994      RMK A02 SLP140 T02390199 PA-08 DA1338=
0139008416999992015080700524-02200+040900FM-15+001099999V0201601N002619999999N009999199+02361+02011101371ADDMA1101351999999REMMET112MOBOB8 METAR XM22 //001 022409 070052Z AUTO 16005KT 9999 24/20 A2993      RMK A02 SLP137 T02360201 PA001 DA1318=
0139008416999992015080701524-02200+040900FM-15+001099999V0201701N002119999999N009999199+02331+02001101441ADDMA1101421999999REMMET112MOBOB8 METAR XM22 //001 022409 070152Z AUTO 17004KT 9999 23/20 A2995      RMK A02 SLP144 T02330200 PA-17 DA1259=
0139008416999992015080702524-02200+040900FM-15+001099999V0201701N001519999999N009999199+02341+02021101471ADDMA1101461999999REMMET112MOBOB8 METAR XM22 //001 022409 070252Z AUTO 17003KT 9999 23/20 A2996      RMK A02 SLP147 T02340202 PA-27 DA1264=
0166008416999992015080703524-02200+040900FM-15+001099999V0201701N002119999999N009000199+02361+02091101511ADDAA101000021AW1611MA1101491999999REMMET122MOBOB8 METAR XM22 //001 022409 070352Z AUTO 17004KT 9000 -RA 24/21      A2997 RMK A02 SLP151 P0000 T02360209 PA-36 DA1287=
0177008416999992015080704524-02200+040900FM-15+001099999V0201601N004619999999N009000199+02481+02041101571ADDAA101000231AW1611MA1101561999999OC100721REMMET125MOBOB8 METAR XM22 //001 022409 070452Z AUTO 16009G14KT 9000 -RA 25/20      A2999 RMK A02 SLP157 P0001 T02480204 PA-54 DA1393=
0150008416999992015080705524-02200+040900FM-15+001099999V0201701N004619999999N009999199+02621+02071101611ADDMA1101591999999OC100881REMMET115MOBOB8 METAR XM22 //001 022409 070552Z AUTO 17009G17KT 9999 26/21 A3000      RMK A02 SLP161 T02620207 PA-64 DA1546=
0150008416999992015080706524-02200+040900FM-15+001099999V0201601N005119999999N009999199+02691+02021101671ADDMA1101661999999OC100771REMMET115MOBOB8 METAR XM22 //001 022409 070652Z AUTO 16010G15KT 9999 27/20 A3002      RMK A02 SLP167 T02690202 PA-82 DA1591=
0150008416999992015080707524-02200+040900FM-15+001099999V0201701N004119999999N009999199+02761+02021101671ADDMA1101661999999OC100881REMMET115MOBOB8 METAR XM22 //001 022409 070752Z AUTO 17008G17KT 9999 28/20 A3002      RMK A02 SLP167 T02760202 PA-82 DA1670=
0150008416999992015080708524-02200+040900FM-15+001099999V0201601N004619999999N009999199+02801+01971101611ADDMA1101591999999OC100881REMMET115MOBOB8 METAR XM22 //001 022409 070852Z AUTO 16009G17KT 9999 28/20 A3000      RMK A02 SLP161 T02800197 PA-64 DA1729=
0150008416999992015080709524-02200+040900FM-15+001099999V0201701N004619999999N009999199+02791+01951101541ADDMA1101521999999OC100771REMMET115MOBOB8 METAR XM22 //001 022409 070952Z AUTO 17009G15KT 9999 28/20 A2998      RMK A02 SLP154 T02790195 PA-45 DA1737=
0150008416999992015080710524-02200+040900FM-15+001099999V0201701N004619999999N009999199+02741+01831101511ADDMA1101491999999OC100821REMMET115MOBOB8 METAR XM22 //001 022409 071052Z AUTO 17009G16KT 9999 27/18 A2997      RMK A02 SLP151 T02740183 PA-36 DA1671=
0150008416999992015080711524-02200+040900FM-15+001099999V0201601N005119999999N009999199+02731+01871101441ADDMA1101421999999OC100881REMMET115MOBOB8 METAR XM22 //001 022409 071152Z AUTO 16010G17KT 9999 27/19 A2995      RMK A02 SLP144 T02730187 PA-17 DA1690=
0150008416999992015080712524-02200+040900FM-15+001099999V0201701N004119999999N009999199+02661+01911101401ADDMA1101391999999OC100821REMMET115MOBOB8 METAR XM22 //001 022409 071252Z AUTO 17008G16KT 9999 27/19 A2994      RMK A02 SLP140 T02660191 PA-08 DA1629=
0150008416999992015080713524-02200+040900FM-15+001099999V0201601N004119999999N009999199+02591+01951101441ADDMA1101421999999OC100621REMMET115MOBOB8 METAR XM22 //001 022409 071352Z AUTO 16008G12KT 9999 26/19 A2995      RMK A02 SLP144 T02590195 PA-17 DA1545=
0139008416999992015080714524-02200+040900FM-15+001099999V0201701N003119999999N009999199+02551+01981101441ADDMA1101421999999REMMET112MOBOB8 METAR XM22 //001 022409 071452Z AUTO 17006KT 9999 26/20 A2995      RMK A02 SLP144 T02550198 PA-17 DA1506=
0139008416999992015080715524-02200+040900FM-15+001099999V0201701N002619999999N009999199+02481+01971101511ADDMA1101491999999REMMET112MOBOB8 METAR XM22 //001 022409 071552Z AUTO 17005KT 9999 25/20 A2997      RMK A02 SLP151 T02480197 PA-36 DA1402=
0139008416999992015080716524-02200+040900FM-15+001099999V0201701N003119999999N009999199+02461+01991101541ADDMA1101521999999REMMET112MOBOB8 METAR XM22 //001 022409 071652Z AUTO 17006KT 9999 25/20 A2998      RMK A02 SLP154 T02460199 PA-45 DA1371=
0139008416999992015080717524-02200+040900FM-15+001099999V0201601N003619999999N009999199+02431+01961101511ADDMA1101491999999REMMET112MOBOB8 METAR XM22 //001 022409 071752Z AUTO 16007KT 9999 24/20 A2997      RMK A02 SLP151 T02430196 PA-36 DA1344=
0139008416999992015080718524-02200+040900FM-15+001099999V0201601N003619999999N009999199+02431+01961101571ADDMA1101561999999REMMET112MOBOB8 METAR XM22 //001 022409 071852Z AUTO 16007KT 9999 24/20 A2999      RMK A02 SLP157 T02430196 PA-54 DA1321=
0139008416999992015080719524-02200+040900FM-15+001099999V0201601N003619999999N009999199+02441+01911101541ADDMA1101521999999REMMET112MOBOB8 METAR XM22 //001 022409 071952Z AUTO 16007KT 9999 24/19 A2998      RMK A02 SLP154 T02440191 PA-45 DA1335=
0139008416999992015080720524-02200+040900FM-15+001099999V0201701N003619999999N009999199+02431+01881101511ADDMA1101491999999REMMET112MOBOB8 METAR XM22 //001 022409 072052Z AUTO 17007KT 9999 24/19 A2997      RMK A02 SLP151 T02430188 PA-36 DA1329=
0139008416999992015080721524-02200+040900FM-15+001099999V0201601N003619999999N009999199+02421+01901101511ADDMA1101491999999REMMET112MOBOB8 METAR XM22 //001 022409 072152Z AUTO 16007KT 9999 24/19 A2997      RMK A02 SLP151 T02420190 PA-36 DA1321=
0139008416999992015080722524-02200+040900FM-15+001099999V0201701N003619999999N009999199+02421+01901101441ADDMA1101421999999REMMET112MOBOB8 METAR XM22 //001 022409 072252Z AUTO 17007KT 9999 24/19 A2995      RMK A02 SLP144 T02420190 PA-17 DA1345=
0139008416999992015080723524-02200+040900FM-15+001099999V0201701N002119999999N009999199+02361+01921101441ADDMA1101421999999REMMET112MOBOB8 METAR XM22 //001 022409 072352Z AUTO 17004KT 9999 24/19 A2995      RMK A02 SLP144 T02360192 PA-17 DA1279=
0139008416999992015080800524-02200+040900FM-15+001099999V0201601N003619999999N009999199+02421+01891101441ADDMA1101421999999REMMET112MOBOB8 METAR XM22 //001 022409 080052Z AUTO 16007KT 9999 24/19 A2995      RMK A02 SLP144 T02420189 PA-17 DA1343=
0139008416999992015080801524-02200+040900FM-15+001099999V0201601N003619999999N009999199+02401+01851101471ADDMA1101461999999REMMET112MOBOB8 METAR XM22 //001 022409 080152Z AUTO 16007KT 9999 24/19 A2996      RMK A02 SLP147 T02400185 PA-27 DA1302=
0139008416999992015080802524-02200+040900FM-15+001099999V0201601N003119999999N009999199+02361+01831101541ADDMA1101521999999REMMET112MOBOB8 METAR XM22 //001 022409 080252Z AUTO 16006KT 9999 24/18 A2998      RMK A02 SLP154 T02360183 PA-45 DA1230=
0139008416999992015080803524-02200+040900FM-15+001099999V0201601N001019999999N009999199+02301+01811101611ADDMA1101591999999REMMET112MOBOB8 METAR XM22 //001 022409 080352Z AUTO 16002KT 9999 23/18 A3000      RMK A02 SLP161 T02300181 PA-64 DA1135=
0139008416999992015080804524-02200+040900FM-15+001099999V0201601N002619999999N009999199+02531+01901101711ADDMA1101691999999REMMET112MOBOB8 METAR XM22 //001 022409 080452Z AUTO 16005KT 9999 25/19 A3003      RMK A02 SLP171 T02530190 PA-91 DA1377=
0151008416999992015080805524-02200+040900FM-15+001099999V0201501N004619999999N009999199+02671+01871101781ADDMA1101761999999OC100771REMMET116MOBOB8 METAR XM22 //001 022409 080552Z AUTO 15009G15KT 9999 27/19 A3005      RMK A02 SLP178 T02670187 PA-110 DA1508=
0151008416999992015080806524-02200+040900FM-15+001099999V0201601N004619999999N009999199+02711+01861101811ADDMA1101791999999OC100721REMMET116MOBOB8 METAR XM22 //001 022409 080652Z AUTO 16009G14KT 9999 27/19 A3006      RMK A02 SLP181 T02710186 PA-119 DA1541=
0151008416999992015080807524-02200+040900FM-15+001099999V0201701N003619999999N009999199+02751+01881101781ADDMA1101761999999OC100671REMMET116MOBOB8 METAR XM22 //001 022409 080752Z AUTO 17007G13KT 9999 28/19 A3005      RMK A02 SLP178 T02750188 PA-110 DA1601=
0150008416999992015080808524-02200+040900FM-15+001099999V0201701N004119999999N009999199+02731+01881101711ADDMA1101691999999OC100771REMMET115MOBOB8 METAR XM22 //001 022409 080852Z AUTO 17008G15KT 9999 27/19 A3003      RMK A02 SLP171 T02730188 PA-91 DA1601=
0150008416999992015080809524-02200+040900FM-15+001099999V0201601N005119999999N009999199+02751+01871101641ADDMA1101631999999OC100981REMMET115MOBOB8 METAR XM22 //001 022409 080952Z AUTO 16010G19KT 9999 28/19 A3001      RMK A02 SLP164 T02750187 PA-73 DA1644=
0150008416999992015080810524-02200+040900FM-15+001099999V0201601N004619999999N009999199+02741+01971101571ADDMA1101561999999OC100771REMMET115MOBOB8 METAR XM22 //001 022409 081052Z AUTO 16009G15KT 9999 27/20 A2999      RMK A02 SLP157 T02740197 PA-54 DA1672=
0150008416999992015080811524-02200+040900FM-15+001099999V0201701N004119999999N009999199+02701+01941101511ADDMA1101491999999OC100821REMMET115MOBOB8 METAR XM22 //001 022409 081152Z AUTO 17008G16KT 9999 27/19 A2997      RMK A02 SLP151 T02700194 PA-36 DA1645=
0150008416999992015080812524-02200+040900FM-15+001099999V0201701N004619999999N009999199+02671+01861101471ADDMA1101461999999OC100821REMMET115MOBOB8 METAR XM22 //001 022409 081252Z AUTO 17009G16KT 9999 27/19 A2996      RMK A02 SLP147 T02670186 PA-27 DA1609=
0150008416999992015080813524-02200+040900FM-15+001099999V0201701N004619999999N009999199+02591+01941101441ADDMA1101421999999OC100821REMMET115MOBOB8 METAR XM22 //001 022409 081352Z AUTO 17009G16KT 9999 26/19 A2995      RMK A02 SLP144 T02590194 PA-17 DA1544=
0150008416999992015080814524-02200+040900FM-15+001099999V0201701N003619999999N009999199+02541+01941101471ADDMA1101461999999OC100771REMMET115MOBOB8 METAR XM22 //001 022409 081452Z AUTO 17007G15KT 9999 25/19 A2996      RMK A02 SLP147 T02540194 PA-27 DA1476=
0139008416999992015080815524-02200+040900FM-15+001099999V0201701N002619999999N009999199+02471+01921101511ADDMA1101491999999REMMET112MOBOB8 METAR XM22 //001 022409 081552Z AUTO 17005KT 9999 25/19 A2997      RMK A02 SLP151 T02470192 PA-36 DA1382=
0139008416999992015080816524-02200+040900FM-15+001099999V0201701N003119999999N009999199+02461+01921101541ADDMA1101521999999REMMET112MOBOB8 METAR XM22 //001 022409 081652Z AUTO 17006KT 9999 25/19 A2998      RMK A02 SLP154 T02460192 PA-45 DA1359=
0150008416999992015080817524-02200+040900FM-15+001099999V0201701N004619999999N009999199+02481+01901101571ADDMA1101561999999OC100721REMMET115MOBOB8 METAR XM22 //001 022409 081752Z AUTO 17009G14KT 9999 25/19 A2999      RMK A02 SLP157 T02480190 PA-54 DA1367=
0139008416999992015080818524-02200+040900FM-15+001099999V0201601N003119999999N009999199+02451+01931101611ADDMA1101591999999REMMET112MOBOB8 METAR XM22 //001 022409 081852Z AUTO 16006KT 9999 25/19 A3000      RMK A02 SLP161 T02450193 PA-64 DA1327=
0139008416999992015080819524-02200+040900FM-15+001099999V0201701N003119999999N009999199+02431+01931101611ADDMA1101591999999REMMET112MOBOB8 METAR XM22 //001 022409 081952Z AUTO 17006KT 9999 24/19 A3000      RMK A02 SLP161 T02430193 PA-64 DA1304=
0139008416999992015080820524-02200+040900FM-15+001099999V0201601N003619999999N009999199+02451+01921101611ADDMA1101591999999REMMET112MOBOB8 METAR XM22 //001 022409 082052Z AUTO 16007KT 9999 25/19 A3000      RMK A02 SLP161 T02450192 PA-64 DA1325=
0139008416999992015080821524-02200+040900FM-15+001099999V0201701N003619999999N009999199+02421+01881101571ADDMA1101561999999REMMET112MOBOB8 METAR XM22 //001 022409 082152Z AUTO 17007KT 9999 24/19 A2999      RMK A02 SLP157 T02420188 PA-54 DA1295=
0139008416999992015080822524-02200+040900FM-15+001099999V0201701N002619999999N009999199+02411+01921101541ADDMA1101521999999REMMET112MOBOB8 METAR XM22 //001 022409 082252Z AUTO 17005KT 9999 24/19 A2998      RMK A02 SLP154 T02410192 PA-45 DA1302=
0139008416999992015080823524-02200+040900FM-15+001099999V0201701N002119999999N009999199+02391+01921101511ADDMA1101491999999REMMET112MOBOB8 METAR XM22 //001 022409 082352Z AUTO 17004KT 9999 24/19 A2997      RMK A02 SLP151 T02390192 PA-36 DA1291=
0139008416999992015080900524-02200+040900FM-15+001099999V0201701N002119999999N009999199+02351+01931101541ADDMA1101521999999REMMET112MOBOB8 METAR XM22 //001 022409 090052Z AUTO 17004KT 9999 24/19 A2998      RMK A02 SLP154 T02350193 PA-45 DA1236=
0139008416999992015080901524-02200+040900FM-15+001099999V0201701N002119999999N009999199+02391+01971101541ADDMA1101521999999REMMET112MOBOB8 METAR XM22 //001 022409 090152Z AUTO 17004KT 9999 24/20 A2998      RMK A02 SLP154 T02390197 PA-45 DA1289=
0139008416999992015080902524-02200+040900FM-15+001099999V0201701N002119999999N009999199+02331+01901101611ADDMA1101591999999REMMET112MOBOB8 METAR XM22 //001 022409 090252Z AUTO 17004KT 9999 23/19 A3000      RMK A02 SLP161 T02330190 PA-64 DA1184=
0139008416999992015080903524-02200+040900FM-15+001099999V0201701N002119999999N009999199+02331+01951101681ADDMA1101661999999REMMET112MOBOB8 METAR XM22 //001 022409 090352Z AUTO 17004KT 9999 23/19 A3002      RMK A02 SLP168 T02330195 PA-82 DA1170=
0150008416999992015080904524-02200+040900FM-15+001099999V0201701N003619999999N009999199+02581+02001101711ADDMA1101691999999OC100671REMMET115MOBOB8 METAR XM22 //001 022409 090452Z AUTO 17007G13KT 9999 26/20 A3003      RMK A02 SLP171 T02580200 PA-91 DA1453=
0151008416999992015080905524-02200+040900FM-15+001099999V0201701N004619999999N009999199+02651+01971101781ADDMA1101761999999OC100721REMMET116MOBOB8 METAR XM22 //001 022409 090552Z AUTO 17009G14KT 9999 27/20 A3005      RMK A02 SLP178 T02650197 PA-110 DA1503=
0151008416999992015080906524-02200+040900FM-15+001099999V0201601N004619999999N009999199+02641+01971101811ADDMA1101791999999OC100821REMMET116MOBOB8 METAR XM22 //001 022409 090652Z AUTO 16009G16KT 9999 26/20 A3006      RMK A02 SLP181 T02640197 PA-119 DA1480=
0151008416999992015080907524-02200+040900FM-15+001099999V0201701N004619999999N009999199+02781+01921101741ADDMA1101731999999OC100821REMMET116MOBOB8 METAR XM22 //001 022409 090752Z AUTO 17009G16KT 9999 28/19 A3004      RMK A02 SLP174 T02780192 PA-100 DA1652=
0150008416999992015080908524-02200+040900FM-15+001099999V0201701N004119999999N009999199+02771+01921101671ADDMA1101661999999OC100771REMMET115MOBOB8 METAR XM22 //001 022409 090852Z AUTO 17008G15KT 9999 28/19 A3002      RMK A02 SLP167 T02770192 PA-82 DA1663=
0150008416999992015080909524-02200+040900FM-15+001099999V0201601N005119999999N009999199+02821+01951101611ADDMA1101591999999OC100881REMMET115MOBOB8 METAR XM22 //001 022409 090952Z AUTO 16010G17KT 9999 28/20 A3000      RMK A02 SLP161 T02820195 PA-64 DA1748=
0150008416999992015080910524-02200+040900FM-15+001099999V0201701N004119999999N009999199+02811+01991101541ADDMA1101521999999OC100671REMMET115MOBOB8 METAR XM22 //001 022409 091052Z AUTO 17008G13KT 9999 28/20 A2998      RMK A02 SLP154 T02810199 PA-45 DA1766=
0150008416999992015080911524-02200+040900FM-15+001099999V0201701N004619999999N009999199+02731+01871101471ADDMA1101461999999OC100771REMMET115MOBOB8 METAR XM22 //001 022409 091152Z AUTO 17009G15KT 9999 27/19 A2996      RMK A02 SLP147 T02730187 PA-27 DA1678=
0177008416999992015080912524-02200+040900FM-15+001099999V0201701N004619999999N009000199+02711+01901101441ADDAA101000021AW1611MA1101421999999OC100771REMMET125MOBOB8 METAR XM22 //001 022409 091252Z AUTO 17009G15KT 9000 -RA 27/19      A2995 RMK A02 SLP144 P0000 T02710190 PA-17 DA1671=
0139008416999992015080913524-02200+040900FM-15+001099999V0201701N003619999999N009999199+02641+01931101441ADDMA1101421999999REMMET112MOBOB8 METAR XM22 //001 022409 091352Z AUTO 17007KT 9999 26/19 A2995      RMK A02 SLP144 T02640193 PA-17 DA1598=
0139008416999992015080914524-02200+040900FM-15+001099999V0201701N003119999999N009999199+02541+01971101471ADDMA1101461999999REMMET112MOBOB8 METAR XM22 //001 022409 091452Z AUTO 17006KT 9999 25/20 A2996      RMK A02 SLP147 T02540197 PA-27 DA1481=
0139008416999992015080915524-02200+040900FM-15+001099999V0201701N002619999999N009999199+02461+01971101511ADDMA1101491999999REMMET112MOBOB8 METAR XM22 //001 022409 091552Z AUTO 17005KT 9999 25/20 A2997      RMK A02 SLP151 T02460197 PA-36 DA1379=
0139008416999992015080916524-02200+040900FM-15+001099999V0201701N002119999999N009999199+02411+02001101511ADDMA1101491999999REMMET112MOBOB8 METAR XM22 //001 022409 091652Z AUTO 17004KT 9999 24/20 A2997      RMK A02 SLP151 T02410200 PA-36 DA1328=
0139008416999992015080917524-02200+040900FM-15+001099999V0201701N003119999999N009999199+02421+01991101541ADDMA1101521999999REMMET112MOBOB8 METAR XM22 //001 022409 091752Z AUTO 17006KT 9999 24/20 A2998      RMK A02 SLP154 T02420199 PA-45 DA1326=
0139008416999992015080918524-02200+040900FM-15+001099999V0201701N002619999999N009999199+02381+02011101571ADDMA1101561999999REMMET112MOBOB8 METAR XM22 //001 022409 091852Z AUTO 17005KT 9999 24/20 A2999      RMK A02 SLP157 T02380201 PA-54 DA1273=
0139008416999992015080919524-02200+040900FM-15+001099999V0201701N002619999999N009999199+02401+02021101541ADDMA1101521999999REMMET112MOBOB8 METAR XM22 //001 022409 091952Z AUTO 17005KT 9999 24/20 A2998      RMK A02 SLP154 T02400202 PA-45 DA1308=
0139008416999992015080920524-02200+040900FM-15+001099999V0201701N002619999999N009999199+02381+02041101511ADDMA1101491999999REMMET112MOBOB8 METAR XM22 //001 022409 092052Z AUTO 17005KT 9999 24/20 A2997      RMK A02 SLP151 T02380204 PA-36 DA1301=
0139008416999992015080921524-02200+040900FM-15+001099999V0201701N002619999999N009999199+02391+02071101441ADDMA1101421999999REMMET112MOBOB8 METAR XM22 //001 022409 092152Z AUTO 17005KT 9999 24/21 A2995      RMK A02 SLP144 T02390207 PA-17 DA1340=
0139008416999992015080922524-02200+040900FM-15+001099999V0201701N002119999999N009999199+02401+02081101341ADDMA1101321999999REMMET112MOBOB8 METAR XM22 //001 022409 092252Z AUTO 17004KT 9999 24/21 A2992      RMK A02 SLP134 T02400208 PA010 DA1388=
0139008416999992015080923524-02200+040900FM-15+001099999V0201701N002619999999N009999199+02391+02061101341ADDMA1101321999999REMMET112MOBOB8 METAR XM22 //001 022409 092352Z AUTO 17005KT 9999 24/21 A2992      RMK A02 SLP134 T02390206 PA010 DA1373=
0139008416999992015081000524-02200+040900FM-15+001099999V0201701N002619999999N009999199+02371+02061101301ADDMA1101291999999REMMET112MOBOB8 METAR XM22 //001 022409 100052Z AUTO 17005KT 9999 24/21 A2991      RMK A02 SLP130 T02370206 PA020 DA1361=
0139008416999992015081001524-02200+040900FM-15+001099999V0201701N002119999999N009999199+02381+02081101341ADDMA1101321999999REMMET112MOBOB8 METAR XM22 //001 022409 100152Z AUTO 17004KT 9999 24/21 A2992      RMK A02 SLP134 T02380208 PA010 DA1365=
0139008416999992015081002524-02200+040900FM-15+001099999V0201701N002619999999N009999199+02401+02081101401ADDMA1101391999999REMMET112MOBOB8 METAR XM22 //001 022409 100252Z AUTO 17005KT 9999 24/21 A2994      RMK A02 SLP140 T02400208 PA-08 DA1366=
0139008416999992015081003524-02200+040900FM-15+001099999V0201701N002119999999N009999199+02421+02091101441ADDMA1101421999999REMMET112MOBOB8 METAR XM22 //001 022409 100352Z AUTO 17004KT 9999 24/21 A2995      RMK A02 SLP144 T02420209 PA-17 DA1380=
0150008416999992015081004524-02200+040900FM-15+001099999V0201701N004119999999N009999199+02591+02111101511ADDMA1101491999999OC100771REMMET115MOBOB8 METAR XM22 //001 022409 100452Z AUTO 17008G15KT 9999 26/21 A2997      RMK A02 SLP151 T02590211 PA-36 DA1552=
0150008416999992015081005524-02200+040900FM-15+001099999V0201701N004119999999N009999199+02651+02111101611ADDMA1101591999999OC100721REMMET115MOBOB8 METAR XM22 //001 022409 100552Z AUTO 17008G14KT 9999 27/21 A3000      RMK A02 SLP161 T02650211 PA-64 DA1587=
0150008416999992015081006524-02200+040900FM-15+001099999V0201701N004119999999N009999199+02711+02131101611ADDMA1101591999999OC100671REMMET115MOBOB8 METAR XM22 //001 022409 100652Z AUTO 17008G13KT 9999 27/21 A3000      RMK A02 SLP161 T02710213 PA-64 DA1658=
0150008416999992015081007524-02200+040900FM-15+001099999V0201601N004619999999N009999199+02811+02041101611ADDMA1101591999999OC100721REMMET115MOBOB8 METAR XM22 //001 022409 100752Z AUTO 16009G14KT 9999 28/20 A3000      RMK A02 SLP161 T02810204 PA-64 DA1752=
0150008416999992015081008524-02200+040900FM-15+001099999V0201601N004619999999N009999199+02821+02021101541ADDMA1101521999999OC100721REMMET115MOBOB8 METAR XM22 //001 022409 100852Z AUTO 16009G14KT 9999 28/20 A2998      RMK A02 SLP154 T02820202 PA-45 DA1783=
0150008416999992015081009524-02200+040900FM-15+001099999V0201701N004119999999N009999199+02801+02051101471ADDMA1101461999999OC100771REMMET115MOBOB8 METAR XM22 //001 022409 100952Z AUTO 17008G15KT 9999 28/20 A2996      RMK A02 SLP147 T02800205 PA-27 DA1789=
0150008416999992015081010524-02200+040900FM-15+001099999V0201701N004619999999N009999199+02771+02051101441ADDMA1101421999999OC100771REMMET115MOBOB8 METAR XM22 //001 022409 101052Z AUTO 17009G15KT 9999 28/20 A2995      RMK A02 SLP144 T02770205 PA-17 DA1766=
0150008416999992015081011524-02200+040900FM-15+001099999V0201701N004119999999N009999199+02771+02031101341ADDMA1101321999999OC100821REMMET115MOBOB8 METAR XM22 //001 022409 101152Z AUTO 17008G16KT 9999 28/20 A2992      RMK A02 SLP134 T02770203 PA010 DA1797=
0150008416999992015081012524-02200+040900FM-15+001099999V0201601N005119999999N009999199+02711+02001101301ADDMA1101291999999OC100771REMMET115MOBOB8 METAR XM22 //001 022409 101252Z AUTO 16010G15KT 9999 27/20 A2991      RMK A02 SLP130 T02710200 PA020 DA1735=
0139008416999992015081013524-02200+040900FM-15+001099999V0201701N003119999999N009999199+02641+02021101341ADDMA1101321999999REMMET112MOBOB8 METAR XM22 //001 022409 101352Z AUTO 17006KT 9999 26/20 A2992      RMK A02 SLP134 T02640202 PA010 DA1650=
0150008416999992015081014524-02200+040900FM-15+001099999V0201701N004119999999N009999199+02561+02041101341ADDMA1101321999999OC100671REMMET115MOBOB8 METAR XM22 //001 022409 101452Z AUTO 17008G13KT 9999 26/20 A2992      RMK A02 SLP134 T02560204 PA010 DA1562=
0139008416999992015081015524-02200+040900FM-15+001099999V0201701N002619999999N009999199+02481+02061101371ADDMA1101351999999REMMET112MOBOB8 METAR XM22 //001 022409 101552Z AUTO 17005KT 9999 25/21 A2993      RMK A02 SLP137 T02480206 PA001 DA1464=
0139008416999992015081016524-02200+040900FM-15+001099999V0201701N002619999999N009999199+02451+02081101401ADDMA1101391999999REMMET112MOBOB8 METAR XM22 //001 022409 101652Z AUTO 17005KT 9999 25/21 A2994      RMK A02 SLP140 T02450208 PA-08 DA1423=
0139008416999992015081017524-02200+040900FM-15+001099999V0201701N003619999999N009999199+02441+02061101401ADDMA1101391999999REMMET112MOBOB8 METAR XM22 //001 022409 101752Z AUTO 17007KT 9999 24/21 A2994      RMK A02 SLP140 T02440206 PA-08 DA1407=
0150008416999992015081018524-02200+040900FM-15+001099999V0201601N004619999999N009999199+02471+02061101441ADDMA1101421999999OC100771REMMET115MOBOB8 METAR XM22 //001 022409 101852Z AUTO 16009G15KT 9999 25/21 A2995      RMK A02 SLP144 T02470206 PA-17 DA1431=
0139008416999992015081019524-02200+040900FM-15+001099999V0201701N003119999999N009999199+02451+02081101441ADDMA1101421999999REMMET112MOBOB8 METAR XM22 //001 022409 101952Z AUTO 17006KT 9999 25/21 A2995      RMK A02 SLP144 T02450208 PA-17 DA1411=
0139008416999992015081020524-02200+040900FM-15+001099999V0201701N003619999999N009999199+02461+02091101441ADDMA1101421999999REMMET112MOBOB8 METAR XM22 //001 022409 102052Z AUTO 17007KT 9999 25/21 A2995      RMK A02 SLP144 T02460209 PA-17 DA1424=
0150008416999992015081021524-02200+040900FM-15+001099999V0201601N004119999999N009999199+02481+02071101371ADDMA1101351999999OC100671REMMET115MOBOB8 METAR XM22 //001 022409 102152Z AUTO 16008G13KT 9999 25/21 A2993      RMK A02 SLP137 T02480207 PA001 DA1465=
0150008416999992015081022524-02200+040900FM-15+001099999V0201601N004119999999N009999199+02471+02071101341ADDMA1101321999999OC100721REMMET115MOBOB8 METAR XM22 //001 022409 102252Z AUTO 16008G14KT 9999 25/21 A2992      RMK A02 SLP134 T02470207 PA010 DA1467=
0139008416999992015081023524-02200+040900FM-15+001099999V0201501N003619999999N009999199+02481+02071101301ADDMA1101291999999REMMET112MOBOB8 METAR XM22 //001 022409 102352Z AUTO 15007KT 9999 25/21 A2991      RMK A02 SLP130 T02480207 PA020 DA1489=
0139008416999992015081100524-02200+040900FM-15+001099999V0201701N003619999999N009999199+02451+02051101341ADDMA1101321999999REMMET112MOBOB8 METAR XM22 //001 022409 110052Z AUTO 17007KT 9999 25/20 A2992      RMK A02 SLP134 T02450205 PA010 DA1439=
0139008416999992015081101524-02200+040900FM-15+001099999V0201701N002619999999N009999199+02441+02011101401ADDMA1101391999999REMMET112MOBOB8 METAR XM22 //001 022409 110152Z AUTO 17005KT 9999 24/20 A2994      RMK A02 SLP140 T02440201 PA-08 DA1398=
0166008416999992015081102524-02200+040900FM-15+001099999V0201701N002119999999N009000199+02371+02091101471ADDAA101000531AW1611MA1101461999999REMMET122MOBOB8 METAR XM22 //001 022409 110252Z AUTO 17004KT 9000 -RA 24/21      A2996 RMK A02 SLP147 P0002 T02370209 PA-27 DA1311=
0139008416999992015081103524-02200+040900FM-15+001099999V0201701N001519999999N009999199+02361+02091101541ADDMA1101521999999REMMET112MOBOB8 METAR XM22 //001 022409 110352Z AUTO 17003KT 9999 24/21 A2998      RMK A02 SLP154 T02360209 PA-45 DA1277=
0150008416999992015081104524-02200+040900FM-15+001099999V0201601N004619999999N009999199+02581+02101101571ADDMA1101561999999OC100671REMMET115MOBOB8 METAR XM22 //001 022409 110452Z AUTO 16009G13KT 9999 26/21 A2999      RMK A02 SLP157 T02580210 PA-54 DA1517=
0150008416999992015081105524-02200+040900FM-15+001099999V0201701N004119999999N009999199+02641+02131101671ADDMA1101661999999OC100671REMMET115MOBOB8 METAR XM22 //001 022409 110552Z AUTO 17008G13KT 9999 26/21 A3002      RMK A02 SLP167 T02640213 PA-82 DA1557=
0177008416999992015081106524-02200+040900FM-15+001099999V0201601N005719999999N009000199+02681+02121101711ADDAA101000021AW1611MA1101691999999OC100881REMMET125MOBOB8 METAR XM22 //001 022409 110652Z AUTO 16011G17KT 9000 -RA 27/21      A3003 RMK A02 SLP171 P0000 T02680212 PA-91 DA1588=
0150008416999992015081107524-02200+040900FM-15+001099999V0201701N005119999999N009999199+02781+02121101711ADDMA1101691999999OC100881REMMET115MOBOB8 METAR XM22 //001 022409 110752Z AUTO 17010G17KT 9999 28/21 A3003      RMK A02 SLP171 T02780212 PA-91 DA1700=
0150008416999992015081108524-02200+040900FM-15+001099999V0201701N005119999999N009999199+02821+02091101671ADDMA1101661999999OC100931REMMET115MOBOB8 METAR XM22 //001 022409 110852Z AUTO 17010G18KT 9999 28/21 A3002      RMK A02 SLP167 T02820209 PA-82 DA1751=
0150008416999992015081109524-02200+040900FM-15+001099999V0201701N005119999999N009999199+02841+02061101611ADDMA1101591999999OC100881REMMET115MOBOB8 METAR XM22 //001 022409 110952Z AUTO 17010G17KT 9999 28/21 A3000      RMK A02 SLP161 T02840206 PA-64 DA1790=
0150008416999992015081110524-02200+040900FM-15+001099999V0201701N005119999999N009999199+02801+01981101511ADDMA1101491999999OC100881REMMET115MOBOB8 METAR XM22 //001 022409 111052Z AUTO 17010G17KT 9999 28/20 A2997      RMK A02 SLP151 T02800198 PA-36 DA1764=
0150008416999992015081111524-02200+040900FM-15+001099999V0201701N005719999999N009999199+02721+02041101441ADDMA1101421999999OC100881REMMET115MOBOB8 METAR XM22 //001 022409 111152Z AUTO 17011G17KT 9999 27/20 A2995      RMK A02 SLP144 T02720204 PA-17 DA1708=
0150008416999992015081112524-02200+040900FM-15+001099999V0201701N004119999999N009999199+02671+02001101441ADDMA1101421999999OC100771REMMET115MOBOB8 METAR XM22 //001 022409 111252Z AUTO 17008G15KT 9999 27/20 A2995      RMK A02 SLP144 T02670200 PA-17 DA1644=
0150008416999992015081113524-02200+040900FM-15+001099999V0201701N003619999999N009999199+02671+01991101471ADDMA1101461999999OC100671REMMET115MOBOB8 METAR XM22 //001 022409 111352Z AUTO 17007G13KT 9999 27/20 A2996      RMK A02 SLP147 T02670199 PA-27 DA1632=
0139008416999992015081114524-02200+040900FM-15+001099999V0201701N003619999999N009999199+02571+02031101511ADDMA1101491999999REMMET112MOBOB8 METAR XM22 //001 022409 111452Z AUTO 17007KT 9999 26/20 A2997      RMK A02 SLP151 T02570203 PA-36 DA1514=
0150008416999992015081115524-02200+040900FM-15+001099999V0201701N004119999999N009999199+02521+02031101541ADDMA1101521999999OC100621REMMET115MOBOB8 METAR XM22 //001 022409 111552Z AUTO 17008G12KT 9999 25/20 A2998      RMK A02 SLP154 T02520203 PA-45 DA1446=
0139008416999992015081116524-02200+040900FM-15+001099999V0201701N003119999999N009999199+02491+02031101541ADDMA1101521999999REMMET112MOBOB8 METAR XM22 //001 022409 111652Z AUTO 17006KT 9999 25/20 A2998      RMK A02 SLP154 T02490203 PA-45 DA1412=
0139008416999992015081117524-02200+040900FM-15+001099999V0201701N003119999999N009999199+02441+02031101611ADDMA1101591999999REMMET112MOBOB8 METAR XM22 //001 022409 111752Z AUTO 17006KT 9999 24/20 A3000      RMK A02 SLP161 T02440203 PA-64 DA1333=
0139008416999992015081118524-02200+040900FM-15+001099999V0201701N003119999999N009999199+02471+02051101641ADDMA1101631999999REMMET112MOBOB8 METAR XM22 //001 022409 111852Z AUTO 17006KT 9999 25/21 A3001      RMK A02 SLP164 T02470205 PA-73 DA1361=
0139008416999992015081119524-02200+040900FM-15+001099999V0201701N003619999999N009999199+02451+02041101671ADDMA1101661999999REMMET112MOBOB8 METAR XM22 //001 022409 111952Z AUTO 17007KT 9999 25/20 A3002      RMK A02 SLP167 T02450204 PA-82 DA1324=
0139008416999992015081120524-02200+040900FM-15+001099999V0201701N003119999999N009999199+02421+02041101641ADDMA1101631999999REMMET112MOBOB8 METAR XM22 //001 022409 112052Z AUTO 17006KT 9999 24/20 A3001      RMK A02 SLP164 T02420204 PA-73 DA1301=
0139008416999992015081121524-02200+040900FM-15+001099999V0201701N003619999999N009999199+02431+02031101571ADDMA1101561999999REMMET112MOBOB8 METAR XM22 //001 022409 112152Z AUTO 17007KT 9999 24/20 A2999      RMK A02 SLP157 T02430203 PA-54 DA1333=
0139008416999992015081122524-02200+040900FM-15+001099999V0201601N003619999999N009999199+02411+02021101471ADDMA1101461999999REMMET112MOBOB8 METAR XM22 //001 022409 112252Z AUTO 16007KT 9999 24/20 A2996      RMK A02 SLP147 T02410202 PA-27 DA1344=
0139008416999992015081123524-02200+040900FM-15+001099999V0201701N003119999999N009999199+02421+02031101441ADDMA1101421999999REMMET112MOBOB8 METAR XM22 //001 022409 112352Z AUTO 17006KT 9999 24/20 A2995      RMK A02 SLP144 T02420203 PA-17 DA1367=
0139008416999992015081200524-02200+040900FM-15+001099999V0201701N003119999999N009999199+02421+02031101471ADDMA1101461999999REMMET112MOBOB8 METAR XM22 //001 022409 120052Z AUTO 17006KT 9999 24/20 A2996      RMK A02 SLP147 T02420203 PA-27 DA1355=
0139008416999992015081201524-02200+040900FM-15+001099999V0201601N002619999999N009999199+02381+02011101511ADDMA1101491999999REMMET112MOBOB8 METAR XM22 //001 022409 120152Z AUTO 16005KT 9999 24/20 A2997      RMK A02 SLP151 T02380201 PA-36 DA1296=
0139008416999992015081202524-02200+040900FM-15+001099999V0201701N002619999999N009999199+02371+01951101571ADDMA1101561999999REMMET112MOBOB8 METAR XM22 //001 022409 120252Z AUTO 17005KT 9999 24/20 A2999      RMK A02 SLP157 T02370195 PA-54 DA1251=
0139008416999992015081203524-02200+040900FM-15+001099999V0201801N002119999999N009999199+02401+01981101641ADDMA1101631999999REMMET112MOBOB8 METAR XM22 //001 022409 120352Z AUTO 18004KT 9999 24/20 A3001      RMK A02 SLP164 T02400198 PA-73 DA1266=
0139008416999992015081204524-02200+040900FM-15+001099999V0201701N003119999999N009999199+02571+02011101711ADDMA1101691999999REMMET112MOBOB8 METAR XM22 //001 022409 120452Z AUTO 17006KT 9999 26/20 A3003      RMK A02 SLP171 T02570201 PA-91 DA1442=
0178008416999992015081205524-02200+040900FM-15+001099999V0201701N004119999999N009000199+02641+01991101811ADDAA101000021AW1611MA1101791999999OC100671REMMET126MOBOB8 METAR XM22 //001 022409 120552Z AUTO 17008G13KT 9000 -RA 26/20      A3006 RMK A02 SLP181 P0000 T02640199 PA-119 DA1485=
0151008416999992015081206524-02200+040900FM-15+001099999V0201701N004119999999N009999199+02771+02031101841ADDMA1101831999999OC100671REMMET116MOBOB8 METAR XM22 //001 022409 120652Z AUTO 17008G13KT 9999 28/20 A3007      RMK A02 SLP184 T02770203 PA-128 DA1627=
0151008416999992015081207524-02200+040900FM-15+001099999V0201601N005119999999N009999199+02801+01991101811ADDMA1101791999999OC101031REMMET116MOBOB8 METAR XM22 //001 022409 120752Z AUTO 16010G20KT 9999 28/20 A3006      RMK A02 SLP181 T02800199 PA-119 DA1665=
0151008416999992015081208524-02200+040900FM-15+001099999V0201601N005119999999N009999199+02811+02021101781ADDMA1101761999999OC100771REMMET116MOBOB8 METAR XM22 //001 022409 120852Z AUTO 16010G15KT 9999 28/20 A3005      RMK A02 SLP178 T02810202 PA-110 DA1692=
0150008416999992015081209524-02200+040900FM-15+001099999V0201701N005119999999N009999199+02831+01971101641ADDMA1101631999999OC101031REMMET115MOBOB8 METAR XM22 //001 022409 120952Z AUTO 17010G20KT 9999 28/20 A3001      RMK A02 SLP164 T02830197 PA-73 DA1752=
0150008416999992015081210524-02200+040900FM-15+001099999V0201801N004619999999N009999199+02801+01971101571ADDMA1101561999999OC100881REMMET115MOBOB8 METAR XM22 //001 022409 121052Z AUTO 18009G17KT 9999 28/20 A2999      RMK A02 SLP157 T02800197 PA-54 DA1740=
0150008416999992015081211524-02200+040900FM-15+001099999V0201701N004619999999N009999199+02761+01991101511ADDMA1101491999999OC100881REMMET115MOBOB8 METAR XM22 //001 022409 121152Z AUTO 17009G17KT 9999 28/20 A2997      RMK A02 SLP151 T02760199 PA-36 DA1721=
0150008416999992015081212524-02200+040900FM-15+001099999V0201701N004119999999N009999199+02721+02021101511ADDMA1101491999999OC100721REMMET115MOBOB8 METAR XM22 //001 022409 121252Z AUTO 17008G14KT 9999 27/20 A2997      RMK A02 SLP151 T02720202 PA-36 DA1682=
0150008416999992015081213524-02200+040900FM-15+001099999V0201701N004619999999N009999199+02611+02021101471ADDMA1101461999999OC100721REMMET115MOBOB8 METAR XM22 //001 022409 121352Z AUTO 17009G14KT 9999 26/20 A2996      RMK A02 SLP147 T02610202 PA-27 DA1569=
0139008416999992015081214524-02200+040900FM-15+001099999V0201701N003619999999N009999199+02551+02021101511ADDMA1101491999999REMMET112MOBOB8 METAR XM22 //001 022409 121452Z AUTO 17007KT 9999 26/20 A2997      RMK A02 SLP151 T02550202 PA-36 DA1491=
0139008416999992015081215524-02200+040900FM-15+001099999V0201701N003119999999N009999199+02491+02011101511ADDMA1101491999999REMMET112MOBOB8 METAR XM22 //001 022409 121552Z AUTO 17006KT 9999 25/20 A2997      RMK A02 SLP151 T02490201 PA-36 DA1421=
0139008416999992015081216524-02200+040900FM-15+001099999V0201701N002619999999N009999199+02481+02071101541ADDMA1101521999999REMMET112MOBOB8 METAR XM22 //001 022409 121652Z AUTO 17005KT 9999 25/21 A2998      RMK A02 SLP154 T02480207 PA-45 DA1410=
0139008416999992015081217524-02200+040900FM-15+001099999V0201701N003119999999N009999199+02461+02021101611ADDMA1101591999999REMMET112MOBOB8 METAR XM22 //001 022409 121752Z AUTO 17006KT 9999 25/20 A3000      RMK A02 SLP161 T02460202 PA-64 DA1355=
0139008416999992015081218524-02200+040900FM-15+001099999V0201701N003119999999N009999199+02481+02021101611ADDMA1101591999999REMMET112MOBOB8 METAR XM22 //001 022409 121852Z AUTO 17006KT 9999 25/20 A3000      RMK A02 SLP161 T02480202 PA-64 DA1376=
0139008416999992015081219524-02200+040900FM-15+001099999V0201701N003119999999N009999199+02471+02011101611ADDMA1101591999999REMMET112MOBOB8 METAR XM22 //001 022409 121952Z AUTO 17006KT 9999 25/20 A3000      RMK A02 SLP161 T02470201 PA-64 DA1364=
0139008416999992015081220524-02200+040900FM-15+001099999V0201701N002619999999N009999199+02441+02011101571ADDMA1101561999999REMMET112MOBOB8 METAR XM22 //001 022409 122052Z AUTO 17005KT 9999 24/20 A2999      RMK A02 SLP157 T02440201 PA-54 DA1340=
0139008416999992015081221524-02200+040900FM-15+001099999V0201701N002119999999N009999199+02421+02031101511ADDMA1101491999999REMMET112MOBOB8 METAR XM22 //001 022409 122152Z AUTO 17004KT 9999 24/20 A2997      RMK A02 SLP151 T02420203 PA-36 DA1345=
0139008416999992015081222524-02200+040900FM-15+001099999V0201701N002619999999N009999199+02461+02051101441ADDMA1101421999999REMMET112MOBOB8 METAR XM22 //001 022409 122252Z AUTO 17005KT 9999 25/21 A2995      RMK A02 SLP144 T02460205 PA-17 DA1418=
0139008416999992015081223524-02200+040900FM-15+001099999V0201701N003119999999N009999199+02451+02061101371ADDMA1101351999999REMMET112MOBOB8 METAR XM22 //001 022409 122352Z AUTO 17006KT 9999 25/21 A2993      RMK A02 SLP137 T02450206 PA001 DA1431=
0139008416999992015081300524-02200+040900FM-15+001099999V0201701N003119999999N009999199+02471+02051101371ADDMA1101351999999REMMET112MOBOB8 METAR XM22 //001 022409 130052Z AUTO 17006KT 9999 25/21 A2993      RMK A02 SLP137 T02470205 PA001 DA1452=
0150008416999992015081301524-02200+040900FM-15+001099999V0201701N004119999999N009999199+02491+02081101401ADDMA1101391999999OC100721REMMET115MOBOB8 METAR XM22 //001 022409 130152Z AUTO 17008G14KT 9999 25/21 A2994      RMK A02 SLP140 T02490208 PA-08 DA1467=
0139008416999992015081302524-02200+040900FM-15+001099999V0201701N003619999999N009999199+02491+02121101441ADDMA1101421999999REMMET112MOBOB8 METAR XM22 //001 022409 130252Z AUTO 17007KT 9999 25/21 A2995      RMK A02 SLP144 T02490212 PA-17 DA1465=
0139008416999992015081303524-02200+040900FM-15+001099999V0201701N003119999999N009999199+02501+02111101511ADDMA1101491999999REMMET112MOBOB8 METAR XM22 //001 022409 130352Z AUTO 17006KT 9999 25/21 A2997      RMK A02 SLP151 T02500211 PA-36 DA1451=
0166008416999992015081304524-02200+040900FM-15+001099999V0201701N002119999999N009000199+02331+02171101641ADDAA101002031AW1611MA1101631999999REMMET122MOBOB8 METAR XM22 //001 022409 130452Z AUTO 17004KT 9000 -RA 23/22      A3001 RMK A02 SLP164 P0008 T02330217 PA-73 DA1224=
0139008416999992015081305524-02200+040900FM-15+001099999V0201701N002619999999N009999199+02441+02231101711ADDMA1101691999999REMMET112MOBOB8 METAR XM22 //001 022409 130552Z AUTO 17005KT 9999 24/22 A3003      RMK A02 SLP171 T02440223 PA-91 DA1339=
0178008416999992015081306524-02200+040900FM-15+001099999V0201701N005119999999N009000199+02581+02201101741ADDAA101000021AW1611MA1101731999999OC100821REMMET126MOBOB8 METAR XM22 //001 022409 130652Z AUTO 17010G16KT 9000 -RA 26/22      A3004 RMK A02 SLP174 P0000 T02580220 PA-100 DA1480=
0151008416999992015081307524-02200+040900FM-15+001099999V0201701N004619999999N009999199+02731+02221101781ADDMA1101761999999OC100881REMMET116MOBOB8 METAR XM22 //001 022409 130752Z AUTO 17009G17KT 9999 27/22 A3005      RMK A02 SLP178 T02730222 PA-110 DA1642=
0150008416999992015081308524-02200+040900FM-15+001099999V0201701N004619999999N009999199+02771+02151101711ADDMA1101691999999OC100881REMMET115MOBOB8 METAR XM22 //001 022409 130852Z AUTO 17009G17KT 9999 28/22 A3003      RMK A02 SLP171 T02770215 PA-91 DA1696=
0150008416999992015081309524-02200+040900FM-15+001099999V0201601N005719999999N009999199+02841+02091101641ADDMA1101631999999OC100931REMMET115MOBOB8 METAR XM22 //001 022409 130952Z AUTO 16011G18KT 9999 28/21 A3001      RMK A02 SLP164 T02840209 PA-73 DA1785=
0150008416999992015081310524-02200+040900FM-15+001099999V0201701N005119999999N009999199+02801+02101101571ADDMA1101561999999OC100881REMMET115MOBOB8 METAR XM22 //001 022409 131052Z AUTO 17010G17KT 9999 28/21 A2999      RMK A02 SLP157 T02800210 PA-54 DA1764=
0150008416999992015081311524-02200+040900FM-15+001099999V0201701N004619999999N009999199+02701+02061101511ADDMA1101491999999OC100771REMMET115MOBOB8 METAR XM22 //001 022409 131152Z AUTO 17009G15KT 9999 27/21 A2997      RMK A02 SLP151 T02700206 PA-36 DA1667=
0150008416999992015081312524-02200+040900FM-15+001099999V0201701N004619999999N009999199+02681+02041101471ADDMA1101461999999OC100821REMMET115MOBOB8 METAR XM22 //001 022409 131252Z AUTO 17009G16KT 9999 27/20 A2996      RMK A02 SLP147 T02680204 PA-27 DA1653=
0150008416999992015081313524-02200+040900FM-15+001099999V0201601N004619999999N009999199+02661+02081101441ADDMA1101421999999OC100821REMMET115MOBOB8 METAR XM22 //001 022409 131352Z AUTO 16009G16KT 9999 27/21 A2995      RMK A02 SLP144 T02660208 PA-17 DA1648=
0139008416999992015081314524-02200+040900FM-15+001099999V0201701N003119999999N009999199+02551+02061101401ADDMA1101391999999REMMET112MOBOB8 METAR XM22 //001 022409 131452Z AUTO 17006KT 9999 26/21 A2994      RMK A02 SLP140 T02550206 PA-08 DA1531=
0139008416999992015081315524-02200+040900FM-15+001099999V0201701N003119999999N009999199+02491+02091101441ADDMA1101421999999REMMET112MOBOB8 METAR XM22 //001 022409 131552Z AUTO 17006KT 9999 25/21 A2995      RMK A02 SLP144 T02490209 PA-17 DA1458=
0139008416999992015081316524-02200+040900FM-15+001099999V0201701N003119999999N009999199+02471+02101101471ADDMA1101461999999REMMET112MOBOB8 METAR XM22 //001 022409 131652Z AUTO 17006KT 9999 25/21 A2996      RMK A02 SLP147 T02470210 PA-27 DA1427=
0139008416999992015081317524-02200+040900FM-15+001099999V0201701N003619999999N009999199+02481+02081101541ADDMA1101521999999REMMET112MOBOB8 METAR XM22 //001 022409 131752Z AUTO 17007KT 9999 25/21 A2998      RMK A02 SLP154 T02480208 PA-45 DA1411=
0139008416999992015081318524-02200+040900FM-15+001099999V0201701N003119999999N009999199+02471+02031101611ADDMA1101591999999REMMET112MOBOB8 METAR XM22 //001 022409 131852Z AUTO 17006KT 9999 25/20 A3000      RMK A02 SLP161 T02470203 PA-64 DA1367=
0139008416999992015081319524-02200+040900FM-15+001099999V0201701N002619999999N009999199+02461+02031101611ADDMA1101591999999REMMET112MOBOB8 METAR XM22 //001 022409 131952Z AUTO 17005KT 9999 25/20 A3000      RMK A02 SLP161 T02460203 PA-64 DA1356=
0139008416999992015081320524-02200+040900FM-15+001099999V0201701N002619999999N009999199+02491+02041101541ADDMA1101521999999REMMET112MOBOB8 METAR XM22 //001 022409 132052Z AUTO 17005KT 9999 25/20 A2998      RMK A02 SLP154 T02490204 PA-45 DA1415=
0139008416999992015081321524-02200+040900FM-15+001099999V0201801N002119999999N009999199+02441+02071101511ADDMA1101491999999REMMET112MOBOB8 METAR XM22 //001 022409 132152Z AUTO 18004KT 9999 24/21 A2997      RMK A02 SLP151 T02440207 PA-36 DA1375=
0139008416999992015081322524-02200+040900FM-15+001099999V0201701N002619999999N009999199+02451+02071101441ADDMA1101421999999REMMET112MOBOB8 METAR XM22 //001 022409 132252Z AUTO 17005KT 9999 25/21 A2995      RMK A02 SLP144 T02450207 PA-17 DA1410=
0139008416999992015081323524-02200+040900FM-15+001099999V0201801N002619999999N009999199+02451+02081101401ADDMA1101391999999REMMET112MOBOB8 METAR XM22 //001 022409 132352Z AUTO 18005KT 9999 25/21 A2994      RMK A02 SLP140 T02450208 PA-08 DA1422=
0139008416999992015081400524-02200+040900FM-15+001099999V0201701N002619999999N009999199+02431+02081101371ADDMA1101351999999REMMET112MOBOB8 METAR XM22 //001 022409 140052Z AUTO 17005KT 9999 24/21 A2993      RMK A02 SLP137 T02430208 PA001 DA1412=
0139008416999992015081401524-02200+040900FM-15+001099999V0201701N002619999999N009999199+02461+02091101341ADDMA1101321999999REMMET112MOBOB8 METAR XM22 //001 022409 140152Z AUTO 17005KT 9999 25/21 A2992      RMK A02 SLP134 T02460209 PA010 DA1459=
0150008416999992015081402524-02200+040900FM-15+001099999V0201701N003619999999N009999199+02511+02121101401ADDMA1101391999999OC100621REMMET115MOBOB8 METAR XM22 //001 022409 140252Z AUTO 17007G12KT 9999 25/21 A2994      RMK A02 SLP140 T02510212 PA-08 DA1499=
0139008416999992015081403524-02200+040900FM-15+001099999V0201701N003119999999N009999199+02501+02131101511ADDMA1101491999999REMMET112MOBOB8 METAR XM22 //001 022409 140352Z AUTO 17006KT 9999 25/21 A2997      RMK A02 SLP151 T02500213 PA-36 DA1455=
0177008416999992015081404524-02200+040900FM-15+001099999V0201701N003619999999N009000199+02551+02161101571ADDAA101000021AW1611MA1101561999999OC100621REMMET125MOBOB8 METAR XM22 //001 022409 140452Z AUTO 17007G12KT 9000 -RA 26/22      A2999 RMK A02 SLP157 P0000 T02550216 PA-54 DA1494=
0150008416999992015081405524-02200+040900FM-15+001099999V0201701N004119999999N009999199+02671+02161101711ADDMA1101691999999OC100721REMMET115MOBOB8 METAR XM22 //001 022409 140552Z AUTO 17008G14KT 9999 27/22 A3003      RMK A02 SLP171 T02670216 PA-91 DA1585=
0150008416999992015081406524-02200+040900FM-15+001099999V0201701N005119999999N009999199+02701+02151101711ADDMA1101691999999OC100881REMMET115MOBOB8 METAR XM22 //001 022409 140652Z AUTO 17010G17KT 9999 27/21 A3003      RMK A02 SLP171 T02700215 PA-91 DA1616=
0150008416999992015081407524-02200+040900FM-15+001099999V0201701N004619999999N009999199+02831+02131101711ADDMA1101691999999OC100881REMMET115MOBOB8 METAR XM22 //001 022409 140752Z AUTO 17009G17KT 9999 28/21 A3003      RMK A02 SLP171 T02830213 PA-91 DA1758=
0150008416999992015081408524-02200+040900FM-15+001099999V0201601N005119999999N009999199+02821+02181101671ADDMA1101661999999OC101031REMMET115MOBOB8 METAR XM22 //001 022409 140852Z AUTO 16010G20KT 9999 28/22 A3002      RMK A02 SLP167 T02820218 PA-82 DA1768=
0177008416999992015081409524-02200+040900FM-15+001099999V0201601N003619999999N009000199+02651+02261101611ADDAA101000021AW1611MA1101591999999OC100671REMMET125MOBOB8 METAR XM22 //001 022409 140952Z AUTO 16007G13KT 9000 -RA 27/23      A3000 RMK A02 SLP161 P0000 T02650226 PA-64 DA1617=
0150008416999992015081410524-02200+040900FM-15+001099999V0201701N005119999999N009999199+02801+02161101511ADDMA1101491999999OC100931REMMET115MOBOB8 METAR XM22 //001 022409 141052Z AUTO 17010G18KT 9999 28/22 A2997      RMK A02 SLP151 T02800216 PA-36 DA1799=
0150008416999992015081411524-02200+040900FM-15+001099999V0201701N004619999999N009999199+02701+02111101471ADDMA1101461999999OC100821REMMET115MOBOB8 METAR XM22 //001 022409 141152Z AUTO 17009G16KT 9999 27/21 A2996      RMK A02 SLP147 T02700211 PA-27 DA1687=
0150008416999992015081412524-02200+040900FM-15+001099999V0201701N005719999999N009999199+02661+02091101441ADDMA1101421999999OC100881REMMET115MOBOB8 METAR XM22 //001 022409 141252Z AUTO 17011G17KT 9999 27/21 A2995      RMK A02 SLP144 T02660209 PA-17 DA1651=
0150008416999992015081413524-02200+040900FM-15+001099999V0201701N005119999999N009999199+02621+02091101401ADDMA1101391999999OC100821REMMET115MOBOB8 METAR XM22 //001 022409 141352Z AUTO 17010G16KT 9999 26/21 A2994      RMK A02 SLP140 T02620209 PA-08 DA1617=
0150008416999992015081414524-02200+040900FM-15+001099999V0201701N004119999999N009999199+02571+02051101471ADDMA1101461999999OC100671REMMET115MOBOB8 METAR XM22 //001 022409 141452Z AUTO 17008G13KT 9999 26/20 A2996      RMK A02 SLP147 T02570205 PA-27 DA1529=
0139008416999992015081415524-02200+040900FM-15+001099999V0201701N003119999999N009999199+02501+02051101511ADDMA1101491999999REMMET112MOBOB8 METAR XM22 //001 022409 141552Z AUTO 17006KT 9999 25/20 A2997      RMK A02 SLP151 T02500205 PA-36 DA1439=
0139008416999992015081416524-02200+040900FM-15+001099999V0201601N003119999999N009999199+02501+02071101511ADDMA1101491999999REMMET112MOBOB8 METAR XM22 //001 022409 141652Z AUTO 16006KT 9999 25/21 A2997      RMK A02 SLP151 T02500207 PA-36 DA1442=
0139008416999992015081417524-02200+040900FM-15+001099999V0201701N003119999999N009999199+02471+02071101541ADDMA1101521999999REMMET112MOBOB8 METAR XM22 //001 022409 141752Z AUTO 17006KT 9999 25/21 A2998      RMK A02 SLP154 T02470207 PA-45 DA1399=
0139008416999992015081418524-02200+040900FM-15+001099999V0201701N003119999999N009999199+02471+02061101611ADDMA1101591999999REMMET112MOBOB8 METAR XM22 //001 022409 141852Z AUTO 17006KT 9999 25/21 A3000      RMK A02 SLP161 T02470206 PA-64 DA1372=
0139008416999992015081419524-02200+040900FM-15+001099999V0201701N002619999999N009999199+02431+02061101641ADDMA1101631999999REMMET112MOBOB8 METAR XM22 //001 022409 141952Z AUTO 17005KT 9999 24/21 A3001      RMK A02 SLP164 T02430206 PA-73 DA1317=
0139008416999992015081420524-02200+040900FM-15+001099999V0201701N002619999999N009999199+02431+02071101611ADDMA1101591999999REMMET112MOBOB8 METAR XM22 //001 022409 142052Z AUTO 17005KT 9999 24/21 A3000      RMK A02 SLP161 T02430207 PA-64 DA1330=
0139008416999992015081421524-02200+040900FM-15+001099999V0201701N003119999999N009999199+02461+02061101541ADDMA1101521999999REMMET112MOBOB8 METAR XM22 //001 022409 142152Z AUTO 17006KT 9999 25/21 A2998      RMK A02 SLP154 T02460206 PA-45 DA1385=
0139008416999992015081422524-02200+040900FM-15+001099999V0201701N003119999999N009999199+02421+02011101471ADDMA1101461999999REMMET112MOBOB8 METAR XM22 //001 022409 142252Z AUTO 17006KT 9999 24/20 A2996      RMK A02 SLP147 T02420201 PA-27 DA1353=
0139008416999992015081423524-02200+040900FM-15+001099999V0201701N003619999999N009999199+02421+02001101441ADDMA1101421999999REMMET112MOBOB8 METAR XM22 //001 022409 142352Z AUTO 17007KT 9999 24/20 A2995      RMK A02 SLP144 T02420200 PA-17 DA1361=
0139008416999992015081500524-02200+040900FM-15+001099999V0201701N003119999999N009999199+02421+02021101441ADDMA1101421999999REMMET112MOBOB8 METAR XM22 //001 022409 150052Z AUTO 17006KT 9999 24/20 A2995      RMK A02 SLP144 T02420202 PA-17 DA1365=
0139008416999992015081501524-02200+040900FM-15+001099999V0201701N002619999999N009999199+02441+02031101471ADDMA1101461999999REMMET112MOBOB8 METAR XM22 //001 022409 150152Z AUTO 17005KT 9999 24/20 A2996      RMK A02 SLP147 T02440203 PA-27 DA1378=
0139008416999992015081502524-02200+040900FM-15+001099999V0201701N002619999999N009999199+02441+02051101541ADDMA1101521999999REMMET112MOBOB8 METAR XM22 //001 022409 150252Z AUTO 17005KT 9999 24/20 A2998      RMK A02 SLP154 T02440205 PA-45 DA1359=
0139008416999992015081503524-02200+040900FM-15+001099999V0201701N002119999999N009999199+02441+02041101611ADDMA1101591999999REMMET112MOBOB8 METAR XM22 //001 022409 150352Z AUTO 17004KT 9999 24/20 A3000      RMK A02 SLP161 T02440204 PA-64 DA1336=
0139008416999992015081504524-02200+040900FM-15+001099999V0201701N003119999999N009999199+02571+02081101641ADDMA1101631999999REMMET112MOBOB8 METAR XM22 //001 022409 150452Z AUTO 17006KT 9999 26/21 A3001      RMK A02 SLP164 T02570208 PA-73 DA1479=
0150008416999992015081505524-02200+040900FM-15+001099999V0201701N004619999999N009999199+02661+02091101711ADDMA1101691999999OC100821REMMET115MOBOB8 METAR XM22 //001 022409 150552Z AUTO 17009G16KT 9999 27/21 A3003      RMK A02 SLP171 T02660209 PA-91 DA1560=
0151008416999992015081506524-02200+040900FM-15+001099999V0201701N004619999999N009999199+02741+02121101741ADDMA1101731999999OC100821REMMET116MOBOB8 METAR XM22 //001 022409 150652Z AUTO 17009G16KT 9999 27/21 A3004      RMK A02 SLP174 T02740212 PA-100 DA1643=
0151008416999992015081507524-02200+040900FM-15+001099999V0201701N004619999999N009999199+02801+02101101741ADDMA1101731999999OC100931REMMET116MOBOB8 METAR XM22 //001 022409 150752Z AUTO 17009G18KT 9999 28/21 A3004      RMK A02 SLP174 T02800210 PA-100 DA1709=
0150008416999992015081508524-02200+040900FM-15+001099999V0201701N004619999999N009999199+02811+02071101711ADDMA1101691999999OC100821REMMET115MOBOB8 METAR XM22 //001 022409 150852Z AUTO 17009G16KT 9999 28/21 A3003      RMK A02 SLP171 T02810207 PA-91 DA1724=
0177008416999992015081509524-02200+040900FM-15+001099999V0201801N004119999999N009000199+02821+02081101641ADDAA101000021AW1611MA1101631999999OC100931REMMET125MOBOB8 METAR XM22 //001 022409 150952Z AUTO 18008G18KT 9000 -RA 28/21      A3001 RMK A02 SLP164 P0000 T02820208 PA-73 DA1760=
0150008416999992015081510524-02200+040900FM-15+001099999V0201701N005119999999N009999199+02821+02041101571ADDMA1101561999999OC100981REMMET115MOBOB8 METAR XM22 //001 022409 151052Z AUTO 17010G19KT 9999 28/20 A2999      RMK A02 SLP157 T02820204 PA-54 DA1774=
0150008416999992015081511524-02200+040900FM-15+001099999V0201701N005119999999N009999199+02811+01991101511ADDMA1101491999999OC100881REMMET115MOBOB8 METAR XM22 //001 022409 151152Z AUTO 17010G17KT 9999 28/20 A2997      RMK A02 SLP151 T02810199 PA-36 DA1778=
0177008416999992015081512524-02200+040900FM-15+001099999V0201701N004119999999N009000199+02751+01971101471ADDAA101000021AW1611MA1101461999999OC100671REMMET125MOBOB8 METAR XM22 //001 022409 151252Z AUTO 17008G13KT 9000 -RA 28/20      A2996 RMK A02 SLP147 P0000 T02750197 PA-27 DA1718=
0150008416999992015081513524-02200+040900FM-15+001099999V0201701N003619999999N009999199+02681+01991101471ADDMA1101461999999OC100771REMMET115MOBOB8 METAR XM22 //001 022409 151352Z AUTO 17007G15KT 9999 27/20 A2996      RMK A02 SLP147 T02680199 PA-27 DA1644=
0166008416999992015081514524-02200+040900FM-15+001099999V0201701N003619999999N009000199+02581+02091101471ADDAA101000021AW1611MA1101461999999REMMET122MOBOB8 METAR XM22 //001 022409 151452Z AUTO 17007KT 9000 -RA 26/21      A2996 RMK A02 SLP147 P0000 T02580209 PA-27 DA1549=
0139008416999992015081515524-02200+040900FM-15+001099999V0201701N003619999999N009999199+02511+02101101511ADDMA1101491999999REMMET112MOBOB8 METAR XM22 //001 022409 151552Z AUTO 17007KT 9999 25/21 A2997      RMK A02 SLP151 T02510210 PA-36 DA1461=
0139008416999992015081516524-02200+040900FM-15+001099999V0201701N003619999999N009999199+02501+02091101541ADDMA1101521999999REMMET112MOBOB8 METAR XM22 //001 022409 151652Z AUTO 17007KT 9999 25/21 A2998      RMK A02 SLP154 T02500209 PA-45 DA1435=
0139008416999992015081517524-02200+040900FM-15+001099999V0201701N003119999999N009999199+02491+02121101571ADDMA1101561999999REMMET112MOBOB8 METAR XM22 //001 022409 151752Z AUTO 17006KT 9999 25/21 A2999      RMK A02 SLP157 T02490212 PA-54 DA1419=
0139008416999992015081518524-02200+040900FM-15+001099999V0201701N002619999999N009999199+02481+02061101671ADDMA1101661999999REMMET112MOBOB8 METAR XM22 //001 022409 151852Z AUTO 17005KT 9999 25/21 A3002      RMK A02 SLP167 T02480206 PA-82 DA1362=
0139008416999992015081519524-02200+040900FM-15+001099999V0201701N003119999999N009999199+02501+02141101671ADDMA1101661999999REMMET112MOBOB8 METAR XM22 //001 022409 151952Z AUTO 17006KT 9999 25/21 A3002      RMK A02 SLP167 T02500214 PA-82 DA1400=
0150008416999992015081520524-02200+040900FM-15+001099999V0201701N004119999999N009999199+02521+02121101641ADDMA1101631999999OC100771REMMET115MOBOB8 METAR XM22 //001 022409 152052Z AUTO 17008G15KT 9999 25/21 A3001      RMK A02 SLP164 T02520212 PA-73 DA1431=
0150008416999992015081521524-02200+040900FM-15+001099999V0201701N004119999999N009999199+02541+02161101571ADDMA1101561999999OC100721REMMET115MOBOB8 METAR XM22 //001 022409 152152Z AUTO 17008G14KT 9999 25/22 A2999      RMK A02 SLP157 T02540216 PA-54 DA1483=
0150008416999992015081522524-02200+040900FM-15+001099999V0201701N004619999999N009999199+02521+02111101541ADDMA1101521999999OC100721REMMET115MOBOB8 METAR XM22 //001 022409 152252Z AUTO 17009G14KT 9999 25/21 A2998      RMK A02 SLP154 T02520211 PA-45 DA1462=
0166008416999992015081523524-02200+040900FM-15+001099999V0201701N003619999999N009000199+02521+02131101511ADDAA101000021AW1611MA1101491999999REMMET122MOBOB8 METAR XM22 //001 022409 152352Z AUTO 17007KT 9000 -RA 25/21      A2997 RMK A02 SLP151 P0000 T02520213 PA-36 DA1478=
0178008416999992015081606524-02200+040900FM-15+001099999V0201701N005719999999N009000199+02761+01981101781ADDAA101000021AW1611MA1101761999999OC100981REMMET126MOBOB8 METAR XM22 //001 022409 160652Z AUTO 17011G19KT 9000 -RA 28/20      A3005 RMK A02 SLP178 P0000 T02760198 PA-110 DA1629=
0178008416999992015081607524-02200+040900FM-15+001099999V0201701N004619999999N009000199+02791+02051101741ADDAA101000021AW1611MA1101731999999OC100881REMMET126MOBOB8 METAR XM22 //001 022409 160752Z AUTO 17009G17KT 9000 -RA 28/20      A3004 RMK A02 SLP174 P0000 T02790205 PA-100 DA1686=
0177008416999992015081608524-02200+040900FM-15+001099999V0201601N005119999999N009000199+02851+02091101711ADDAA101000021AW1611MA1101691999999OC101131REMMET125MOBOB8 METAR XM22 //001 022409 160852Z AUTO 16010G22KT 9000 -RA 29/21      A3003 RMK A02 SLP171 P0000 T02850209 PA-91 DA1774=
0150008416999992015081609524-02200+040900FM-15+001099999V0201701N005119999999N009999199+02801+02091101611ADDMA1101591999999OC100771REMMET115MOBOB8 METAR XM22 //001 022409 160952Z AUTO 17010G15KT 9999 28/21 A3000      RMK A02 SLP161 T02800209 PA-64 DA1752=
0177008416999992015081610524-02200+040900FM-15+001099999V0201701N004619999999N009000199+02761+02071101571ADDAA101000021AW1611MA1101561999999OC100881REMMET125MOBOB8 METAR XM22 //001 022409 161052Z AUTO 17009G17KT 9000 -RA 28/21      A2999 RMK A02 SLP157 P0000 T02760207 PA-54 DA1713=
0150008416999992015081611524-02200+040900FM-15+001099999V0201701N004119999999N009999199+02811+02041101471ADDMA1101461999999OC100981REMMET115MOBOB8 METAR XM22 //001 022409 161152Z AUTO 17008G19KT 9999 28/20 A2996      RMK A02 SLP147 T02810204 PA-27 DA1799=
0150008416999992015081612524-02200+040900FM-15+001099999V0201701N005119999999N009999199+02721+02021101441ADDMA1101421999999OC100931REMMET115MOBOB8 METAR XM22 //001 022409 161252Z AUTO 17010G18KT 9999 27/20 A2995      RMK A02 SLP144 T02720202 PA-17 DA1705=
0177008416999992015081613524-02200+040900FM-15+001099999V0201701N004619999999N009000199+02681+02081101441ADDAA101000021AW1611MA1101421999999OC100821REMMET125MOBOB8 METAR XM22 //001 022409 161352Z AUTO 17009G16KT 9000 -RA 27/21      A2995 RMK A02 SLP144 P0000 T02680208 PA-17 DA1672=
0139008416999992015081614524-02200+040900FM-15+001099999V0201701N003119999999N009999199+02551+02091101471ADDMA1101461999999REMMET112MOBOB8 METAR XM22 //001 022409 161452Z AUTO 17006KT 9999 26/21 A2996      RMK A02 SLP147 T02550209 PA-27 DA1516=
0166008416999992015081615524-02200+040900FM-15+001099999V0201701N003619999999N009000199+02501+02051101511ADDAA101000021AW1611MA1101491999999REMMET122MOBOB8 METAR XM22 //001 022409 161552Z AUTO 17007KT 9000 -RA 25/20      A2997 RMK A02 SLP151 P0000 T02500205 PA-36 DA1439=
0177008416999992015081616524-02200+040900FM-15+001099999V0201701N003619999999N009000199+02391+02021101571ADDAA101000231AW1611MA1101561999999OC100771REMMET125MOBOB8 METAR XM22 //001 022409 161652Z AUTO 17007G15KT 9000 -RA 24/20      A2999 RMK A02 SLP157 P0001 T02390202 PA-54 DA1286=
0177008416999992015081617524-02200+040900FM-15+001099999V0201601N005119999999N009000199+02351+02121101611ADDAA101000021AW1611MA1101591999999OC101081REMMET125MOBOB8 METAR XM22 //001 022409 161752Z AUTO 16010G21KT 9000 -RA 24/21      A3000 RMK A02 SLP161 P0000 T02350212 PA-64 DA1249=
0166008416999992015081618524-02200+040900FM-15+001099999V0201701N003119999999N009000199+02251+02051101571ADDAA101000531AW1611MA1101561999999REMMET122MOBOB8 METAR XM22 //001 022409 161852Z AUTO 17006KT 9000 -RA 23/20      A2999 RMK A02 SLP157 P0002 T02250205 PA-54 DA1131=
0139008416999992015081619524-02200+040900FM-15+001099999V0201801N001519999999N009999199+02331+02171101611ADDMA1101591999999REMMET112MOBOB8 METAR XM22 //001 022409 161952Z AUTO 18003KT 9999 23/22 A3000      RMK A02 SLP161 T02330217 PA-64 DA1235=
0177008416999992015081620524-02200+040900FM-15+001099999V0201701N003619999999N009000199+02321+02141101611ADDAA101000021AW1611MA1101591999999OC100671REMMET125MOBOB8 METAR XM22 //001 022409 162052Z AUTO 17007G13KT 9000 -RA 23/21      A3000 RMK A02 SLP161 P0000 T02320214 PA-64 DA1218=
0139008416999992015081621524-02200+040900FM-15+001099999V0201701N003119999999N009999199+02351+02181101571ADDMA1101561999999REMMET112MOBOB8 METAR XM22 //001 022409 162152Z AUTO 17006KT 9999 24/22 A2999      RMK A02 SLP157 T02350218 PA-54 DA1271=
0139008416999992015081622524-02200+040900FM-15+001099999V0201701N002619999999N009999199+02351+02141101471ADDMA1101461999999REMMET112MOBOB8 METAR XM22 //001 022409 162252Z AUTO 17005KT 9999 24/21 A2996      RMK A02 SLP147 T02350214 PA-27 DA1297=
0166008416999992015081623524-02200+040900FM-15+001099999V0201501N002619999999N009000199+02261+02091101441ADDAA101000021AW1611MA1101421999999REMMET122MOBOB8 METAR XM22 //001 022409 162352Z AUTO 15005KT 9000 -RA 23/21      A2995 RMK A02 SLP144 P0000 T02260209 PA-17 DA1195=
0166008416999992015081700524-02200+040900FM-15+001099999V0201701N003119999999N009000199+02381+02161101441ADDAA101000021AW1611MA1101421999999REMMET122MOBOB8 METAR XM22 //001 022409 170052Z AUTO 17006KT 9000 -RA 24/22      A2995 RMK A02 SLP144 P0000 T02380216 PA-17 DA1348=
0139008416999992015081701524-02200+040900FM-15+001099999V0201701N003119999999N009999199+02411+02141101441ADDMA1101421999999REMMET112MOBOB8 METAR XM22 //001 022409 170152Z AUTO 17006KT 9999 24/21 A2995      RMK A02 SLP144 T02410214 PA-17 DA1377=
0139008416999992015081702524-02200+040900FM-15+001099999V0201701N002619999999N009999199+02411+02111101471ADDMA1101461999999REMMET112MOBOB8 METAR XM22 //001 022409 170252Z AUTO 17005KT 9999 24/21 A2996      RMK A02 SLP147 T02410211 PA-27 DA1359=
0166008416999992015081703524-02200+040900FM-15+001099999V0201701N002619999999N009000199+02431+02111101511ADDAA101000021AW1611MA1101491999999REMMET122MOBOB8 METAR XM22 //001 022409 170352Z AUTO 17005KT 9000 -RA 24/21      A2997 RMK A02 SLP151 P0000 T02430211 PA-36 DA1372=
0139008416999992015081704524-02200+040900FM-15+001099999V0201701N003619999999N009999199+02551+02121101611ADDMA1101591999999REMMET112MOBOB8 METAR XM22 //001 022409 170452Z AUTO 17007KT 9999 26/21 A3000      RMK A02 SLP161 T02550212 PA-64 DA1476=
0150008416999992015081705524-02200+040900FM-15+001099999V0201701N005719999999N009999199+02661+02101101641ADDMA1101631999999OC101031REMMET115MOBOB8 METAR XM22 //001 022409 170552Z AUTO 17011G20KT 9999 27/21 A3001      RMK A02 SLP164 T02660210 PA-73 DA1584=
0150008416999992015081706524-02200+040900FM-15+001099999V0201701N004619999999N009999199+02731+02121101711ADDMA1101691999999OC100981REMMET115MOBOB8 METAR XM22 //001 022409 170652Z AUTO 17009G19KT 9999 27/21 A3003      RMK A02 SLP171 T02730212 PA-91 DA1645=
0150008416999992015081707524-02200+040900FM-15+001099999V0201701N004119999999N009999199+02781+02111101641ADDMA1101631999999OC100771REMMET115MOBOB8 METAR XM22 //001 022409 170752Z AUTO 17008G15KT 9999 28/21 A3001      RMK A02 SLP164 T02780211 PA-73 DA1721=
0177008416999992015081708524-02200+040900FM-15+001099999V0201601N005119999999N009000199+02761+02101101611ADDAA101000021AW1611MA1101591999999OC101031REMMET125MOBOB8 METAR XM22 //001 022409 170852Z AUTO 16010G20KT 9000 -RA 28/21      A3000 RMK A02 SLP161 P0000 T02760210 PA-64 DA1707=
0150008416999992015081709524-02200+040900FM-15+001099999V0201701N004619999999N009999199+02821+02071101571ADDMA1101561999999OC100881REMMET115MOBOB8 METAR XM22 //001 022409 170952Z AUTO 17009G17KT 9999 28/21 A2999      RMK A02 SLP157 T02820207 PA-54 DA1782=
0150008416999992015081710524-02200+040900FM-15+001099999V0201701N004619999999N009999199+02841+02021101441ADDMA1101421999999OC100981REMMET115MOBOB8 METAR XM22 //001 022409 171052Z AUTO 17009G19KT 9999 28/20 A2995      RMK A02 SLP144 T02840202 PA-17 DA1840=
0150008416999992015081711524-02200+040900FM-15+001099999V0201701N004619999999N009999199+02791+02021101371ADDMA1101351999999OC100821REMMET115MOBOB8 METAR XM22 //001 022409 171152Z AUTO 17009G16KT 9999 28/20 A2993      RMK A02 SLP137 T02790202 PA001 DA1807=
0150008416999992015081712524-02200+040900FM-15+001099999V0201601N004619999999N009999199+02741+02031101341ADDMA1101321999999OC100931REMMET115MOBOB8 METAR XM22 //001 022409 171252Z AUTO 16009G18KT 9999 27/20 A2992      RMK A02 SLP134 T02740203 PA010 DA1764=
0150008416999992015081713524-02200+040900FM-15+001099999V0201601N004119999999N009999199+02671+02071101341ADDMA1101321999999OC100771REMMET115MOBOB8 METAR XM22 //001 022409 171352Z AUTO 16008G15KT 9999 27/21 A2992      RMK A02 SLP134 T02670207 PA010 DA1693=
0139008416999992015081714524-02200+040900FM-15+001099999V0201701N003619999999N009999199+02581+02061101341ADDMA1101321999999REMMET112MOBOB8 METAR XM22 //001 022409 171452Z AUTO 17007KT 9999 26/21 A2992      RMK A02 SLP134 T02580206 PA010 DA1589=
0139008416999992015081715524-02200+040900FM-15+001099999V0201701N002619999999N009999199+02471+02071101371ADDMA1101351999999REMMET112MOBOB8 METAR XM22 //001 022409 171552Z AUTO 17005KT 9999 25/21 A2993      RMK A02 SLP137 T02470207 PA001 DA1455=
0139008416999992015081716524-02200+040900FM-15+001099999V0201701N002119999999N009999199+02441+02071101441ADDMA1101421999999REMMET112MOBOB8 METAR XM22 //001 022409 171652Z AUTO 17004KT 9999 24/21 A2995      RMK A02 SLP144 T02440207 PA-17 DA1397=
0139008416999992015081717524-02200+040900FM-15+001099999V0201701N002619999999N009999199+02451+02061101471ADDMA1101461999999REMMET112MOBOB8 METAR XM22 //001 022409 171752Z AUTO 17005KT 9999 25/21 A2996      RMK A02 SLP147 T02450206 PA-27 DA1395=
0150008416999992015081718524-02200+040900FM-15+001099999V0201701N003619999999N009999199+02481+02041101511ADDMA1101491999999OC100721REMMET115MOBOB8 METAR XM22 //001 022409 171852Z AUTO 17007G14KT 9999 25/20 A2997      RMK A02 SLP151 T02480204 PA-36 DA1414=
0139008416999992015081719524-02200+040900FM-15+001099999V0201701N002119999999N009999199+02431+02071101511ADDMA1101491999999REMMET112MOBOB8 METAR XM22 //001 022409 171952Z AUTO 17004KT 9999 24/21 A2997      RMK A02 SLP151 T02430207 PA-36 DA1363=
0139008416999992015081720524-02200+040900FM-15+001099999V0201701N002119999999N009999199+02411+02071101471ADDMA1101461999999REMMET112MOBOB8 METAR XM22 //001 022409 172052Z AUTO 17004KT 9999 24/21 A2996      RMK A02 SLP147 T02410207 PA-27 DA1351=
0139008416999992015081721524-02200+040900FM-15+001099999V0201701N002119999999N009999199+02441+02101101401ADDMA1101391999999REMMET112MOBOB8 METAR XM22 //001 022409 172152Z AUTO 17004KT 9999 24/21 A2994      RMK A02 SLP140 T02440210 PA-08 DA1415=
0139008416999992015081722524-02200+040900FM-15+001099999V0201701N002119999999N009999199+02471+02121101341ADDMA1101321999999REMMET112MOBOB8 METAR XM22 //001 022409 172252Z AUTO 17004KT 9999 25/21 A2992      RMK A02 SLP134 T02470212 PA010 DA1476=
0139008416999992015081723524-02200+040900FM-15+001099999V0201701N002619999999N009999199+02461+02101101301ADDMA1101291999999REMMET112MOBOB8 METAR XM22 //001 022409 172352Z AUTO 17005KT 9999 25/21 A2991      RMK A02 SLP130 T02460210 PA020 DA1473=
0166008416999992015081800524-02200+040900FM-15+001099999V0201701N003119999999N009000199+02451+02121101301ADDAA101000021AW1611MA1101291999999REMMET122MOBOB8 METAR XM22 //001 022409 180052Z AUTO 17006KT 9000 -RA 25/21      A2991 RMK A02 SLP130 P0000 T02450212 PA020 DA1465=
0150008416999992015081801524-02200+040900FM-15+001099999V0201701N003619999999N009999199+02481+02091101301ADDMA1101291999999OC100621REMMET115MOBOB8 METAR XM22 //001 022409 180152Z AUTO 17007G12KT 9999 25/21 A2991      RMK A02 SLP130 T02480209 PA020 DA1493=
0150008416999992015081802524-02200+040900FM-15+001099999V0201701N003619999999N009999199+02441+02071101301ADDMA1101291999999OC100671REMMET115MOBOB8 METAR XM22 //001 022409 180252Z AUTO 17007G13KT 9999 24/21 A2991      RMK A02 SLP130 T02440207 PA020 DA1443=
0150008416999992015081803524-02200+040900FM-15+001099999V0201601N004119999999N009999199+02461+02071101341ADDMA1101321999999OC100671REMMET115MOBOB8 METAR XM22 //001 022409 180352Z AUTO 16008G13KT 9999 25/21 A2992      RMK A02 SLP134 T02460207 PA010 DA1455=
0150008416999992015081804524-02200+040900FM-15+001099999V0201601N004619999999N009999199+02631+02031101441ADDMA1101421999999OC100671REMMET115MOBOB8 METAR XM22 //001 022409 180452Z AUTO 16009G13KT 9999 26/20 A2995      RMK A02 SLP144 T02630203 PA-17 DA1606=
0150008416999992015081805524-02200+040900FM-15+001099999V0201601N005119999999N009999199+02721+02061101471ADDMA1101461999999OC100931REMMET115MOBOB8 METAR XM22 //001 022409 180552Z AUTO 16010G18KT 9999 27/21 A2996      RMK A02 SLP147 T02720206 PA-27 DA1700=
0150008416999992015081806524-02200+040900FM-15+001099999V0201601N005119999999N009999199+02771+01951101511ADDMA1101491999999OC101031REMMET115MOBOB8 METAR XM22 //001 022409 180652Z AUTO 16010G20KT 9999 28/20 A2997      RMK A02 SLP151 T02770195 PA-36 DA1726=
0150008416999992015081807524-02200+040900FM-15+001099999V0201701N005719999999N009999199+02821+02001101511ADDMA1101491999999OC100981REMMET115MOBOB8 METAR XM22 //001 022409 180752Z AUTO 17011G19KT 9999 28/20 A2997      RMK A02 SLP151 T02820200 PA-36 DA1791=
0150008416999992015081808524-02200+040900FM-15+001099999V0201701N005119999999N009999199+02811+02001101441ADDMA1101421999999OC100881REMMET115MOBOB8 METAR XM22 //001 022409 180852Z AUTO 17010G17KT 9999 28/20 A2995      RMK A02 SLP144 T02810200 PA-17 DA1803=
0150008416999992015081809524-02200+040900FM-15+001099999V0201701N004619999999N009999199+02871+01961101341ADDMA1101321999999OC100931REMMET115MOBOB8 METAR XM22 //001 022409 180952Z AUTO 17009G18KT 9999 29/20 A2992      RMK A02 SLP134 T02870196 PA010 DA1896=
0150008416999992015081810524-02200+040900FM-15+001099999V0201701N004619999999N009999199+02871+01961101271ADDMA1101251999999OC100821REMMET115MOBOB8 METAR XM22 //001 022409 181052Z AUTO 17009G16KT 9999 29/20 A2990      RMK A02 SLP127 T02870196 PA029 DA1919=
0150008416999992015081811524-02200+040900FM-15+001099999V0201701N003619999999N009999199+02791+02021101231ADDMA1101221999999OC100721REMMET115MOBOB8 METAR XM22 //001 022409 181152Z AUTO 17007G14KT 9999 28/20 A2989      RMK A02 SLP123 T02790202 PA038 DA1852=
0150008416999992015081812524-02200+040900FM-15+001099999V0201601N005119999999N009999199+02711+01941101171ADDMA1101151999999OC100821REMMET115MOBOB8 METAR XM22 //001 022409 181252Z AUTO 16010G16KT 9999 27/19 A2987      RMK A02 SLP117 T02710194 PA057 DA1770=
0150008416999992015081813524-02200+040900FM-15+001099999V0201701N004619999999N009999199+02681+01981101171ADDMA1101151999999OC100821REMMET115MOBOB8 METAR XM22 //001 022409 181352Z AUTO 17009G16KT 9999 27/20 A2987      RMK A02 SLP117 T02680198 PA057 DA1743=
0150008416999992015081814524-02200+040900FM-15+001099999V0201701N004119999999N009999199+02581+02001101201ADDMA1101181999999OC100721REMMET115MOBOB8 METAR XM22 //001 022409 181452Z AUTO 17008G14KT 9999 26/20 A2988      RMK A02 SLP120 T02580200 PA047 DA1624=
0139008416999992015081815524-02200+040900FM-15+001099999V0201601N003619999999N009999199+02491+02001101231ADDMA1101221999999REMMET112MOBOB8 METAR XM22 //001 022409 181552Z AUTO 16007KT 9999 25/20 A2989      RMK A02 SLP123 T02490200 PA038 DA1510=
0150008416999992015081816524-02200+040900FM-15+001099999V0201601N003619999999N009999199+02481+02021101271ADDMA1101251999999OC100671REMMET115MOBOB8 METAR XM22 //001 022409 181652Z AUTO 16007G13KT 9999 25/20 A2990      RMK A02 SLP127 T02480202 PA029 DA1491=
0139008416999992015081817524-02200+040900FM-15+001099999V0201601N003619999999N009999199+02461+02001101301ADDMA1101291999999REMMET112MOBOB8 METAR XM22 //001 022409 181752Z AUTO 16007KT 9999 25/20 A2991      RMK A02 SLP130 T02460200 PA020 DA1453=
0139008416999992015081818524-02200+040900FM-15+001099999V0201701N003119999999N009999199+02421+02011101341ADDMA1101321999999REMMET112MOBOB8 METAR XM22 //001 022409 181852Z AUTO 17006KT 9999 24/20 A2992      RMK A02 SLP134 T02420201 PA010 DA1397=
0139008416999992015081819524-02200+040900FM-15+001099999V0201601N003619999999N009999199+02411+01971101341ADDMA1101321999999REMMET112MOBOB8 METAR XM22 //001 022409 181952Z AUTO 16007KT 9999 24/20 A2992      RMK A02 SLP134 T02410197 PA010 DA1379=
0139008416999992015081820524-02200+040900FM-15+001099999V0201601N003119999999N009999199+02401+02001101341ADDMA1101321999999REMMET112MOBOB8 METAR XM22 //001 022409 182052Z AUTO 16006KT 9999 24/20 A2992      RMK A02 SLP134 T02400200 PA010 DA1373=
0139008416999992015081821524-02200+040900FM-15+001099999V0201701N002619999999N009999199+02391+02001101271ADDMA1101251999999REMMET112MOBOB8 METAR XM22 //001 022409 182152Z AUTO 17005KT 9999 24/20 A2990      RMK A02 SLP127 T02390200 PA029 DA1384=
0139008416999992015081822524-02200+040900FM-15+001099999V0201601N002619999999N009999199+02371+02001101201ADDMA1101181999999REMMET112MOBOB8 METAR XM22 //001 022409 182252Z AUTO 16005KT 9999 24/20 A2988      RMK A02 SLP120 T02370200 PA047 DA1384=
0139008416999992015081823524-02200+040900FM-15+001099999V0201701N003119999999N009999199+02401+01981101201ADDMA1101181999999REMMET112MOBOB8 METAR XM22 //001 022409 182352Z AUTO 17006KT 9999 24/20 A2988      RMK A02 SLP120 T02400198 PA047 DA1416=
0139008416999992015081900524-02200+040900FM-15+001099999V0201701N002619999999N009999199+02371+01941101201ADDMA1101181999999REMMET112MOBOB8 METAR XM22 //001 022409 190052Z AUTO 17005KT 9999 24/19 A2988      RMK A02 SLP120 T02370194 PA047 DA1373=
0139008416999992015081901524-02200+040900FM-15+001099999V0201701N002119999999N009999199+02341+01941101271ADDMA1101251999999REMMET112MOBOB8 METAR XM22 //001 022409 190152Z AUTO 17004KT 9999 23/19 A2990      RMK A02 SLP127 T02340194 PA029 DA1318=
0139008416999992015081902524-02200+040900FM-15+001099999V0201701N001519999999N009999199+02331+01951101341ADDMA1101321999999REMMET112MOBOB8 METAR XM22 //001 022409 190252Z AUTO 17003KT 9999 23/20 A2992      RMK A02 SLP134 T02330195 PA010 DA1285=
0139008416999992015081903524-02200+040900FM-15+001099999V0201601N001519999999N009999199+02331+01981101401ADDMA1101391999999REMMET112MOBOB8 METAR XM22 //001 022409 190352Z AUTO 16003KT 9999 23/20 A2994      RMK A02 SLP140 T02330198 PA-08 DA1267=
0139008416999992015081904524-02200+040900FM-15+001099999V0201601N004119999999N009999199+02591+02021101441ADDMA1101421999999REMMET112MOBOB8 METAR XM22 //001 022409 190452Z AUTO 16008KT 9999 26/20 A2995      RMK A02 SLP144 T02590202 PA-17 DA1558=
0177008416999992015081905524-02200+040900FM-15+001099999V0201701N005119999999N009000199+02701+01881101511ADDAA101000021AW1611MA1101491999999OC100821REMMET125MOBOB8 METAR XM22 //001 022409 190552Z AUTO 17010G16KT 9000 -RA 27/19      A2997 RMK A02 SLP151 P0000 T02700188 PA-36 DA1634=
0150008416999992015081906524-02200+040900FM-15+001099999V0201601N004619999999N009999199+02801+01991101511ADDMA1101491999999OC100821REMMET115MOBOB8 METAR XM22 //001 022409 190652Z AUTO 16009G16KT 9999 28/20 A2997      RMK A02 SLP151 T02800199 PA-36 DA1767=
0150008416999992015081907524-02200+040900FM-15+001099999V0201701N004619999999N009999199+02751+01931101511ADDMA1101491999999OC100931REMMET115MOBOB8 METAR XM22 //001 022409 190752Z AUTO 17009G18KT 9999 28/19 A2997      RMK A02 SLP151 T02750193 PA-36 DA1700=
0150008416999992015081908524-02200+040900FM-15+001099999V0201701N005119999999N009999199+02801+01951101441ADDMA1101421999999OC100931REMMET115MOBOB8 METAR XM22 //001 022409 190852Z AUTO 17010G18KT 9999 28/19 A2995      RMK A02 SLP144 T02800195 PA-17 DA1782=
0150008416999992015081909524-02200+040900FM-15+001099999V0201701N004619999999N009999199+02831+01941101341ADDMA1101321999999OC100721REMMET115MOBOB8 METAR XM22 //001 022409 190952Z AUTO 17009G14KT 9999 28/19 A2992      RMK A02 SLP134 T02830194 PA010 DA1847=
0150008416999992015081910524-02200+040900FM-15+001099999V0201701N004619999999N009999199+02841+01911101271ADDMA1101251999999OC100771REMMET115MOBOB8 METAR XM22 //001 022409 191052Z AUTO 17009G15KT 9999 28/19 A2990      RMK A02 SLP127 T02840191 PA029 DA1876=
0150008416999992015081911524-02200+040900FM-15+001099999V0201701N003619999999N009999199+02811+01941101231ADDMA1101221999999OC100671REMMET115MOBOB8 METAR XM22 //001 022409 191152Z AUTO 17007G13KT 9999 28/19 A2989      RMK A02 SLP123 T02810194 PA038 DA1859=
0150008416999992015081912524-02200+040900FM-15+001099999V0201701N004119999999N009999199+02771+01961101171ADDMA1101151999999OC100721REMMET115MOBOB8 METAR XM22 //001 022409 191252Z AUTO 17008G14KT 9999 28/20 A2987      RMK A02 SLP117 T02770196 PA057 DA1841=
0150008416999992015081913524-02200+040900FM-15+001099999V0201601N004619999999N009999199+02671+01911101201ADDMA1101181999999OC100721REMMET115MOBOB8 METAR XM22 //001 022409 191352Z AUTO 16009G14KT 9999 27/19 A2988      RMK A02 SLP120 T02670191 PA047 DA1708=
0139008416999992015081914524-02200+040900FM-15+001099999V0201701N003619999999N009999199+02571+01991101231ADDMA1101221999999REMMET112MOBOB8 METAR XM22 //001 022409 191452Z AUTO 17007KT 9999 26/20 A2989      RMK A02 SLP123 T02570199 PA038 DA1598=
0139008416999992015081915524-02200+040900FM-15+001099999V0201601N002619999999N009999199+02481+02001101271ADDMA1101251999999REMMET112MOBOB8 METAR XM22 //001 022409 191552Z AUTO 16005KT 9999 25/20 A2990      RMK A02 SLP127 T02480200 PA029 DA1488=
0139008416999992015081916524-02200+040900FM-15+001099999V0201501N002619999999N009999199+02441+02001101301ADDMA1101291999999REMMET112MOBOB8 METAR XM22 //001 022409 191652Z AUTO 15005KT 9999 24/20 A2991      RMK A02 SLP130 T02440200 PA020 DA1431=
0139008416999992015081917524-02200+040900FM-15+001099999V0201701N002119999999N009999199+02391+01981101341ADDMA1101321999999REMMET112MOBOB8 METAR XM22 //001 022409 191752Z AUTO 17004KT 9999 24/20 A2992      RMK A02 SLP134 T02390198 PA010 DA1359=
0139008416999992015081918524-02200+040900FM-15+001099999V0201701N002119999999N009999199+02371+01981101401ADDMA1101391999999REMMET112MOBOB8 METAR XM22 //001 022409 191852Z AUTO 17004KT 9999 24/20 A2994      RMK A02 SLP140 T02370198 PA-08 DA1312=
0139008416999992015081919524-02200+040900FM-15+001099999V0201601N002119999999N009999199+02371+01981101441ADDMA1101421999999REMMET112MOBOB8 METAR XM22 //001 022409 191952Z AUTO 16004KT 9999 24/20 A2995      RMK A02 SLP144 T02370198 PA-17 DA1301=
0139008416999992015081920524-02200+040900FM-15+001099999V0201601N002119999999N009999199+02351+01941101371ADDMA1101351999999REMMET112MOBOB8 METAR XM22 //001 022409 192052Z AUTO 16004KT 9999 24/19 A2993      RMK A02 SLP137 T02350194 PA001 DA1295=
0139008416999992015081921524-02200+040900FM-15+001099999V0201601N002119999999N009999199+02361+01981101301ADDMA1101291999999REMMET112MOBOB8 METAR XM22 //001 022409 192152Z AUTO 16004KT 9999 24/20 A2991      RMK A02 SLP130 T02360198 PA020 DA1335=
0139008416999992015081922524-02200+040900FM-15+001099999V0201601N002619999999N009999199+02361+01971101231ADDMA1101221999999REMMET112MOBOB8 METAR XM22 //001 022409 192252Z AUTO 16005KT 9999 24/20 A2989      RMK A02 SLP123 T02360197 PA038 DA1356=
0139008416999992015081923524-02200+040900FM-15+001099999V0201601N002119999999N009999199+02331+01971101271ADDMA1101251999999REMMET112MOBOB8 METAR XM22 //001 022409 192352Z AUTO 16004KT 9999 23/20 A2990      RMK A02 SLP127 T02330197 PA029 DA1310=
0139008416999992015082000524-02200+040900FM-15+001099999V0201701N001519999999N009999199+02321+01951101271ADDMA1101251999999REMMET112MOBOB8 METAR XM22 //001 022409 200052Z AUTO 17003KT 9999 23/20 A2990      RMK A02 SLP127 T02320195 PA029 DA1297=
0139008416999992015082001524-02200+040900FM-15+001099999V0201701N001019999999N009999199+02251+01941101341ADDMA1101321999999REMMET112MOBOB8 METAR XM22 //001 022409 200152Z AUTO 17002KT 9999 23/19 A2992      RMK A02 SLP134 T02250194 PA010 DA1192=
0139008416999992015082002524-02200+040900FM-15+001099999V0201801N000519999999N009999199+02201+01931101371ADDMA1101351999999REMMET112MOBOB8 METAR XM22 //001 022409 200252Z AUTO 18001KT 9999 22/19 A2993      RMK A02 SLP137 T02200193 PA001 DA1120=
0139008416999992015082003524-02200+040900FM-15+001099999V0201901N000519999999N009999199+02181+01961101441ADDMA1101421999999REMMET112MOBOB8 METAR XM22 //001 022409 200352Z AUTO 19001KT 9999 22/20 A2995      RMK A02 SLP144 T02180196 PA-17 DA1079=
0139008416999992015082004524-02200+040900FM-15+001099999V0201801N001519999999N009999199+02431+02031101541ADDMA1101521999999REMMET112MOBOB8 METAR XM22 //001 022409 200452Z AUTO 18003KT 9999 24/20 A2998      RMK A02 SLP154 T02430203 PA-45 DA1345=
0139008416999992015082005524-02200+040900FM-15+001099999V0201701N002619999999N009999199+02561+01971101611ADDMA1101591999999REMMET112MOBOB8 METAR XM22 //001 022409 200552Z AUTO 17005KT 9999 26/20 A3000      RMK A02 SLP161 T02560197 PA-64 DA1459=
0139008416999992015082006524-02200+040900FM-15+001099999V0201701N004119999999N009999199+02641+01991101611ADDMA1101591999999REMMET112MOBOB8 METAR XM22 //001 022409 200652Z AUTO 17008KT 9999 26/20 A3000      RMK A02 SLP161 T02640199 PA-64 DA1552=
0150008416999992015082007524-02200+040900FM-15+001099999V0201501N004619999999N009999199+02721+01881101571ADDMA1101561999999OC100721REMMET115MOBOB8 METAR XM22 //001 022409 200752Z AUTO 15009G14KT 9999 27/19 A2999      RMK A02 SLP157 T02720188 PA-54 DA1634=
0150008416999992015082008524-02200+040900FM-15+001099999V0201701N004119999999N009999199+02761+01901101511ADDMA1101491999999OC100671REMMET115MOBOB8 METAR XM22 //001 022409 200852Z AUTO 17008G13KT 9999 28/19 A2997      RMK A02 SLP151 T02760190 PA-36 DA1706=
0150008416999992015082009524-02200+040900FM-15+001099999V0201601N004619999999N009999199+02781+01901101441ADDMA1101421999999OC100881REMMET115MOBOB8 METAR XM22 //001 022409 200952Z AUTO 16009G17KT 9999 28/19 A2995      RMK A02 SLP144 T02780190 PA-17 DA1751=
0150008416999992015082010524-02200+040900FM-15+001099999V0201701N004619999999N009999199+02751+01851101371ADDMA1101351999999OC100671REMMET115MOBOB8 METAR XM22 //001 022409 201052Z AUTO 17009G13KT 9999 28/19 A2993      RMK A02 SLP137 T02750185 PA001 DA1732=
0150008416999992015082011524-02200+040900FM-15+001099999V0201601N004619999999N009999199+02751+01951101341ADDMA1101321999999OC100821REMMET115MOBOB8 METAR XM22 //001 022409 201152Z AUTO 16009G16KT 9999 28/19 A2992      RMK A02 SLP134 T02750195 PA010 DA1760=
0150008416999992015082012524-02200+040900FM-15+001099999V0201701N004119999999N009999199+02751+01901101301ADDMA1101291999999OC100881REMMET115MOBOB8 METAR XM22 //001 022409 201252Z AUTO 17008G17KT 9999 28/19 A2991      RMK A02 SLP130 T02750190 PA020 DA1762=
0150008416999992015082013524-02200+040900FM-15+001099999V0201701N004619999999N009999199+02611+01941101301ADDMA1101291999999OC100671REMMET115MOBOB8 METAR XM22 //001 022409 201352Z AUTO 17009G13KT 9999 26/19 A2991      RMK A02 SLP130 T02610194 PA020 DA1612=
0139008416999992015082014524-02200+040900FM-15+001099999V0201701N003119999999N009999199+02561+01991101341ADDMA1101321999999REMMET112MOBOB8 METAR XM22 //001 022409 201452Z AUTO 17006KT 9999 26/20 A2992      RMK A02 SLP134 T02560199 PA010 DA1554=
0139008416999992015082015524-02200+040900FM-15+001099999V0201701N002119999999N009999199+02471+02011101371ADDMA1101351999999REMMET112MOBOB8 METAR XM22 //001 022409 201552Z AUTO 17004KT 9999 25/20 A2993      RMK A02 SLP137 T02470201 PA001 DA1443=
0139008416999992015082016524-02200+040900FM-15+001099999V0201701N002619999999N009999199+02441+02031101401ADDMA1101391999999REMMET112MOBOB8 METAR XM22 //001 022409 201652Z AUTO 17005KT 9999 24/20 A2994      RMK A02 SLP140 T02440203 PA-08 DA1401=
0139008416999992015082017524-02200+040900FM-15+001099999V0201701N002619999999N009999199+02431+01991101441ADDMA1101421999999REMMET112MOBOB8 METAR XM22 //001 022409 201752Z AUTO 17005KT 9999 24/20 A2995      RMK A02 SLP144 T02430199 PA-17 DA1371=
0139008416999992015082018524-02200+040900FM-15+001099999V0201801N001519999999N009999199+02401+02021101471ADDMA1101461999999REMMET112MOBOB8 METAR XM22 //001 022409 201852Z AUTO 18003KT 9999 24/20 A2996      RMK A02 SLP147 T02400202 PA-27 DA1332=
0139008416999992015082019524-02200+040900FM-15+001099999V0201701N002119999999N009999199+02391+02031101471ADDMA1101461999999REMMET112MOBOB8 METAR XM22 //001 022409 201952Z AUTO 17004KT 9999 24/20 A2996      RMK A02 SLP147 T02390203 PA-27 DA1321=
0139008416999992015082020524-02200+040900FM-15+001099999V0201701N002119999999N009999199+02361+02011101441ADDMA1101421999999REMMET112MOBOB8 METAR XM22 //001 022409 202052Z AUTO 17004KT 9999 24/20 A2995      RMK A02 SLP144 T02360201 PA-17 DA1296=
0139008416999992015082021524-02200+040900FM-15+001099999V0201701N001519999999N009999199+02331+01991101401ADDMA1101391999999REMMET112MOBOB8 METAR XM22 //001 022409 202152Z AUTO 17003KT 9999 23/20 A2994      RMK A02 SLP140 T02330199 PA-08 DA1268=
0139008416999992015082022524-02200+040900FM-15+001099999V0201701N001519999999N009999199+02321+01961101341ADDMA1101321999999REMMET112MOBOB8 METAR XM22 //001 022409 202252Z AUTO 17003KT 9999 23/20 A2992      RMK A02 SLP134 T02320196 PA010 DA1274=
0139008416999992015082023524-02200+040900FM-15+001099999V0201801N000519999999N009999199+02241+01941101341ADDMA1101321999999REMMET112MOBOB8 METAR XM22 //001 022409 202352Z AUTO 18001KT 9999 22/19 A2992      RMK A02 SLP134 T02240194 PA010 DA1181=
0139008416999992015082100524-02200+040900FM-15+001099999V0201801N000519999999N009999199+02271+01931101341ADDMA1101321999999REMMET112MOBOB8 METAR XM22 //001 022409 210052Z AUTO 18001KT 9999 23/19 A2992      RMK A02 SLP134 T02270193 PA010 DA1213=
0139008416999992015082101524-02200+040900FM-15+001099999V0209999C000019999999N009999199+02161+01911101441ADDMA1101421999999REMMET112MOBOB8 METAR XM22 //001 022409 210152Z AUTO 00000KT 9999 22/19 A2995      RMK A02 SLP144 T02160191 PA-17 DA1049=
0139008416999992015082102524-02200+040900FM-15+001099999V0203401N000519999999N009999199+02061+01851101471ADDMA1101461999999REMMET112MOBOB8 METAR XM22 //001 022409 210252Z AUTO 34001KT 9999 21/19 A2996      RMK A02 SLP147 T02060185 PA-27 DA0912=
0139008416999992015082103524-02200+040900FM-15+001099999V0209999C000019999999N009999199+02081+01901101541ADDMA1101521999999REMMET112MOBOB8 METAR XM22 //001 022409 210352Z AUTO 00000KT 9999 21/19 A2998      RMK A02 SLP154 T02080190 PA-45 DA0921=
0139008416999992015082104524-02200+040900FM-15+001099999V0202801N000519999999N009999199+02331+02011101571ADDMA1101561999999REMMET112MOBOB8 METAR XM22 //001 022409 210452Z AUTO 28001KT 9999 23/20 A2999      RMK A02 SLP157 T02330201 PA-54 DA1216=
0139008416999992015082105524-02200+040900FM-15+001099999V0201901N000519999999N009999199+02551+02111101641ADDMA1101631999999REMMET112MOBOB8 METAR XM22 //001 022409 210552Z AUTO 19001KT 9999 26/21 A3001      RMK A02 SLP164 T02550211 PA-73 DA1463=
0139008416999992015082106524-02200+040900FM-15+001099999V0201701N002619999999N009999199+02741+02051101641ADDMA1101631999999REMMET112MOBOB8 METAR XM22 //001 022409 210652Z AUTO 17005KT 9999 27/20 A3001      RMK A02 SLP164 T02740205 PA-73 DA1664=
0139008416999992015082107524-02200+040900FM-15+001099999V0201801N003119999999N009999199+02791+01961101611ADDMA1101591999999REMMET112MOBOB8 METAR XM22 //001 022409 210752Z AUTO 18006KT 9999 28/20 A3000      RMK A02 SLP161 T02790196 PA-64 DA1716=
0150008416999992015082108524-02200+040900FM-15+001099999V0201701N004119999999N009999199+02801+01931101541ADDMA1101521999999OC100671REMMET115MOBOB8 METAR XM22 //001 022409 210852Z AUTO 17008G13KT 9999 28/19 A2998      RMK A02 SLP154 T02800193 PA-45 DA1744=
0150008416999992015082109524-02200+040900FM-15+001099999V0201601N004619999999N009999199+02901+01941101471ADDMA1101461999999OC100821REMMET115MOBOB8 METAR XM22 //001 022409 210952Z AUTO 16009G16KT 9999 29/19 A2996      RMK A02 SLP147 T02900194 PA-27 DA1880=
0150008416999992015082110524-02200+040900FM-15+001099999V0201701N004119999999N009999199+02791+02011101401ADDMA1101391999999OC100721REMMET115MOBOB8 METAR XM22 //001 022409 211052Z AUTO 17008G14KT 9999 28/20 A2994      RMK A02 SLP140 T02790201 PA-08 DA1793=
0139008416999992015082111524-02200+040900FM-15+001099999V0201801N002619999999N009999199+02691+02071101341ADDMA1101321999999REMMET112MOBOB8 METAR XM22 //001 022409 211152Z AUTO 18005KT 9999 27/21 A2992      RMK A02 SLP134 T02690207 PA010 DA1715=
0139008416999992015082112524-02200+040900FM-15+001099999V0202001N001019999999N009999199+02741+02101101301ADDMA1101291999999REMMET112MOBOB8 METAR XM22 //001 022409 211252Z AUTO 20002KT 9999 27/21 A2991      RMK A02 SLP130 T02740210 PA020 DA1788=
0150008416999992015082113524-02200+040900FM-15+001099999V0201701N004119999999N009999199+02681+01881101341ADDMA1101321999999OC100721REMMET115MOBOB8 METAR XM22 //001 022409 211352Z AUTO 17008G14KT 9999 27/19 A2992      RMK A02 SLP134 T02680188 PA010 DA1669=
0139008416999992015082114524-02200+040900FM-15+001099999V0201701N002619999999N009999199+02561+01991101371ADDMA1101351999999REMMET112MOBOB8 METAR XM22 //001 022409 211452Z AUTO 17005KT 9999 26/20 A2993      RMK A02 SLP137 T02560199 PA001 DA1541=
0139008416999992015082115524-02200+040900FM-15+001099999V0201701N002119999999N009999199+02471+02101101401ADDMA1101391999999REMMET112MOBOB8 METAR XM22 //001 022409 211552Z AUTO 17004KT 9999 25/21 A2994      RMK A02 SLP140 T02470210 PA-08 DA1449=
0139008416999992015082116524-02200+040900FM-15+001099999V0201701N001519999999N009999199+02411+02121101441ADDMA1101421999999REMMET112MOBOB8 METAR XM22 //001 022409 211652Z AUTO 17003KT 9999 24/21 A2995      RMK A02 SLP144 T02410212 PA-17 DA1374=
0139008416999992015082117524-02200+040900FM-15+001099999V0201801N001519999999N009999199+02401+02111101441ADDMA1101421999999REMMET112MOBOB8 METAR XM22 //001 022409 211752Z AUTO 18003KT 9999 24/21 A2995      RMK A02 SLP144 T02400211 PA-17 DA1360=
0139008416999992015082118524-02200+040900FM-15+001099999V0201701N002619999999N009999199+02451+02161101471ADDMA1101461999999REMMET112MOBOB8 METAR XM22 //001 022409 211852Z AUTO 17005KT 9999 25/22 A2996      RMK A02 SLP147 T02450216 PA-27 DA1416=
0139008416999992015082119524-02200+040900FM-15+001099999V0201701N002619999999N009999199+02431+02101101441ADDMA1101421999999REMMET112MOBOB8 METAR XM22 //001 022409 211952Z AUTO 17005KT 9999 24/21 A2995      RMK A02 SLP144 T02430210 PA-17 DA1392=
0139008416999992015082120524-02200+040900FM-15+001099999V0201601N002619999999N009999199+02451+02131101401ADDMA1101391999999REMMET112MOBOB8 METAR XM22 //001 022409 212052Z AUTO 16005KT 9999 25/21 A2994      RMK A02 SLP140 T02450213 PA-08 DA1433=
0139008416999992015082121524-02200+040900FM-15+001099999V0201701N002119999999N009999199+02421+02081101371ADDMA1101351999999REMMET112MOBOB8 METAR XM22 //001 022409 212152Z AUTO 17004KT 9999 24/21 A2993      RMK A02 SLP137 T02420208 PA001 DA1400=
0139008416999992015082122524-02200+040900FM-15+001099999V0201901N001019999999N009999199+02391+02091101341ADDMA1101321999999REMMET112MOBOB8 METAR XM22 //001 022409 212252Z AUTO 19002KT 9999 24/21 A2992      RMK A02 SLP134 T02390209 PA010 DA1378=
0139008416999992015082123524-02200+040900FM-15+001099999V0201801N001019999999N009999199+02391+02131101271ADDMA1101251999999REMMET112MOBOB8 METAR XM22 //001 022409 212352Z AUTO 18002KT 9999 24/21 A2990      RMK A02 SLP127 T02390213 PA029 DA1409=
0139008416999992015082200524-02200+040900FM-15+001099999V0201601N002119999999N009999199+02381+02121101301ADDMA1101291999999REMMET112MOBOB8 METAR XM22 //001 022409 220052Z AUTO 16004KT 9999 24/21 A2991      RMK A02 SLP130 T02380212 PA020 DA1385=
0139008416999992015082201524-02200+040900FM-15+001099999V0201901N001019999999N009999199+02341+02121101341ADDMA1101321999999REMMET112MOBOB8 METAR XM22 //001 022409 220152Z AUTO 19002KT 9999 23/21 A2992      RMK A02 SLP134 T02340212 PA010 DA1328=
0139008416999992015082202524-02200+040900FM-15+001099999V0202101N000519999999N009999199+02311+02111101371ADDMA1101351999999REMMET112MOBOB8 METAR XM22 //001 022409 220252Z AUTO 21001KT 9999 23/21 A2993      RMK A02 SLP137 T02310211 PA001 DA1279=
0139008416999992015082203524-02200+040900FM-15+001099999V0201801N001019999999N009999199+02331+02131101401ADDMA1101391999999REMMET112MOBOB8 METAR XM22 //001 022409 220352Z AUTO 18002KT 9999 23/21 A2994      RMK A02 SLP140 T02330213 PA-08 DA1295=
0150008416999992015082204524-02200+040900FM-15+001099999V0201401N004619999999N009999199+02611+02081101471ADDMA1101461999999OC100821REMMET115MOBOB8 METAR XM22 //001 022409 220452Z AUTO 14009G16KT 9999 26/21 A2996      RMK A02 SLP147 T02610208 PA-27 DA1581=
0150008416999992015082205524-02200+040900FM-15+001099999V0201401N005719999999N009999199+02691+02071101541ADDMA1101521999999OC100821REMMET115MOBOB8 METAR XM22 //001 022409 220552Z AUTO 14011G16KT 9999 27/21 A2998      RMK A02 SLP154 T02690207 PA-45 DA1647=
0150008416999992015082206524-02200+040900FM-15+001099999V0201401N005719999999N009999199+02731+02061101611ADDMA1101591999999OC100821REMMET115MOBOB8 METAR XM22 //001 022409 220652Z AUTO 14011G16KT 9999 27/21 A3000      RMK A02 SLP161 T02730206 PA-64 DA1667=
0150008416999992015082207524-02200+040900FM-15+001099999V0201501N006719999999N009999199+02801+01981101611ADDMA1101591999999OC100931REMMET115MOBOB8 METAR XM22 //001 022409 220752Z AUTO 15013G18KT 9999 28/20 A3000      RMK A02 SLP161 T02800198 PA-64 DA1730=
0150008416999992015082208524-02200+040900FM-15+001099999V0201501N007219999999N009999199+02821+01931101511ADDMA1101491999999OC101031REMMET115MOBOB8 METAR XM22 //001 022409 220852Z AUTO 15014G20KT 9999 28/19 A2997      RMK A02 SLP151 T02820193 PA-36 DA1777=
0150008416999992015082209524-02200+040900FM-15+001099999V0201601N006219999999N009999199+02881+01881101471ADDMA1101461999999OC101031REMMET115MOBOB8 METAR XM22 //001 022409 220952Z AUTO 16012G20KT 9999 29/19 A2996      RMK A02 SLP147 T02880188 PA-27 DA1848=
0150008416999992015082210524-02200+040900FM-15+001099999V0201501N006219999999N009999199+02811+01931101401ADDMA1101391999999OC100881REMMET115MOBOB8 METAR XM22 //001 022409 221052Z AUTO 15012G17KT 9999 28/19 A2994      RMK A02 SLP140 T02810193 PA-08 DA1801=
0150008416999992015082211524-02200+040900FM-15+001099999V0201601N006719999999N009999199+02801+01941101341ADDMA1101321999999OC100981REMMET115MOBOB8 METAR XM22 //001 022409 221152Z AUTO 16013G19KT 9999 28/19 A2992      RMK A02 SLP134 T02800194 PA010 DA1815=
0150008416999992015082212524-02200+040900FM-15+001099999V0201601N004619999999N009999199+02791+01981101301ADDMA1101291999999OC100671REMMET115MOBOB8 METAR XM22 //001 022409 221252Z AUTO 16009G13KT 9999 28/20 A2991      RMK A02 SLP130 T02790198 PA020 DA1822=
0150008416999992015082213524-02200+040900FM-15+001099999V0201701N004619999999N009999199+02671+01991101341ADDMA1101321999999OC100821REMMET115MOBOB8 METAR XM22 //001 022409 221352Z AUTO 17009G16KT 9999 27/20 A2992      RMK A02 SLP134 T02670199 PA010 DA1677=
0150008416999992015082214524-02200+040900FM-15+001099999V0201701N005719999999N009999199+02621+01961101371ADDMA1101351999999OC100821REMMET115MOBOB8 METAR XM22 //001 022409 221452Z AUTO 17011G16KT 9999 26/20 A2993      RMK A02 SLP137 T02620196 PA001 DA1603=
0139008416999992015082215524-02200+040900FM-15+001099999V0201601N003619999999N009999199+02501+01941101401ADDMA1101391999999REMMET112MOBOB8 METAR XM22 //001 022409 221552Z AUTO 16007KT 9999 25/19 A2994      RMK A02 SLP140 T02500194 PA-08 DA1454=
0139008416999992015082216524-02200+040900FM-15+001099999V0201701N002619999999N009999199+02441+01881101401ADDMA1101391999999REMMET112MOBOB8 METAR XM22 //001 022409 221652Z AUTO 17005KT 9999 24/19 A2994      RMK A02 SLP140 T02440188 PA-08 DA1375=
0139008416999992015082217524-02200+040900FM-15+001099999V0201701N003119999999N009999199+02431+01851101441ADDMA1101421999999REMMET112MOBOB8 METAR XM22 //001 022409 221752Z AUTO 17006KT 9999 24/19 A2995      RMK A02 SLP144 T02430185 PA-17 DA1347=
0139008416999992015082218524-02200+040900FM-15+001099999V0201601N002619999999N009999199+02411+01831101511ADDMA1101491999999REMMET112MOBOB8 METAR XM22 //001 022409 221852Z AUTO 16005KT 9999 24/18 A2997      RMK A02 SLP151 T02410183 PA-36 DA1298=
0139008416999992015082219524-02200+040900FM-15+001099999V0201701N002119999999N009999199+02371+01841101511ADDMA1101491999999REMMET112MOBOB8 METAR XM22 //001 022409 221952Z AUTO 17004KT 9999 24/18 A2997      RMK A02 SLP151 T02370184 PA-36 DA1255=
0139008416999992015082220524-02200+040900FM-15+001099999V0201701N001519999999N009999199+02311+01841101471ADDMA1101461999999REMMET112MOBOB8 METAR XM22 //001 022409 222052Z AUTO 17003KT 9999 23/18 A2996      RMK A02 SLP147 T02310184 PA-27 DA1196=
0139008416999992015082221524-02200+040900FM-15+001099999V0201701N001019999999N009999199+02201+01831101441ADDMA1101421999999REMMET112MOBOB8 METAR XM22 //001 022409 222152Z AUTO 17002KT 9999 22/18 A2995      RMK A02 SLP144 T02200183 PA-17 DA1081=
0139008416999992015082222524-02200+040900FM-15+001099999V0201801N001019999999N009999199+02261+01921101401ADDMA1101391999999REMMET112MOBOB8 METAR XM22 //001 022409 222252Z AUTO 18002KT 9999 23/19 A2994      RMK A02 SLP140 T02260192 PA-08 DA1177=
0139008416999992015082223524-02200+040900FM-15+001099999V0201901N001019999999N009999199+02301+01981101371ADDMA1101351999999REMMET112MOBOB8 METAR XM22 //001 022409 222352Z AUTO 19002KT 9999 23/20 A2993      RMK A02 SLP137 T02300198 PA001 DA1245=
0139008416999992015082300524-02200+040900FM-15+001099999V0201901N001019999999N009999199+02251+01971101371ADDMA1101351999999REMMET112MOBOB8 METAR XM22 //001 022409 230052Z AUTO 19002KT 9999 23/20 A2993      RMK A02 SLP137 T02250197 PA001 DA1186=
0139008416999992015082301524-02200+040900FM-15+001099999V0209999C000019999999N009999199+02201+01961101441ADDMA1101421999999REMMET112MOBOB8 METAR XM22 //001 022409 230152Z AUTO 00000KT 9999 22/20 A2995      RMK A02 SLP144 T02200196 PA-17 DA1103=
0139008416999992015082302524-02200+040900FM-15+001099999V0209999C000019999999N009999199+02121+01901101471ADDMA1101461999999REMMET112MOBOB8 METAR XM22 //001 022409 230252Z AUTO 00000KT 9999 21/19 A2996      RMK A02 SLP147 T02120190 PA-27 DA0990=
0139008416999992015082303524-02200+040900FM-15+001099999V0209999C000019999999N009999199+02141+01941101511ADDMA1101491999999REMMET112MOBOB8 METAR XM22 //001 022409 230352Z AUTO 00000KT 9999 21/19 A2997      RMK A02 SLP151 T02140194 PA-36 DA1007=
0139008416999992015082304524-02200+040900FM-15+001099999V0201701N001519999999N009999199+02551+02061101611ADDMA1101591999999REMMET112MOBOB8 METAR XM22 //001 022409 230452Z AUTO 17003KT 9999 26/21 A3000      RMK A02 SLP161 T02550206 PA-64 DA1464=
0139008416999992015082305524-02200+040900FM-15+001099999V0201701N003119999999N009999199+02681+01981101671ADDMA1101661999999REMMET112MOBOB8 METAR XM22 //001 022409 230552Z AUTO 17006KT 9999 27/20 A3002      RMK A02 SLP167 T02680198 PA-82 DA1572=
0177008416999992015082306524-02200+040900FM-15+001099999V0201601N004619999999N009000199+02701+02011101711ADDAA101000021AW1611MA1101691999999OC100821REMMET125MOBOB8 METAR XM22 //001 022409 230652Z AUTO 16009G16KT 9000 -RA 27/20      A3003 RMK A02 SLP171 P0000 T02700201 PA-91 DA1589=
0166008416999992015082307524-02200+040900FM-15+001099999V0201901N001019999999N009000199+02501+02101101711ADDAA101000731AW1611MA1101691999999REMMET122MOBOB8 METAR XM22 //001 022409 230752Z AUTO 19002KT 9000 -RA 25/21      A3003 RMK A02 SLP171 P0003 T02500210 PA-91 DA1381=
0139008416999992015082308524-02200+040900FM-15+001099999V0201801N003119999999N009999199+02741+02081101641ADDMA1101631999999REMMET112MOBOB8 METAR XM22 //001 022409 230852Z AUTO 18006KT 9999 27/21 A3001      RMK A02 SLP164 T02740208 PA-73 DA1671=
0150008416999992015082309524-02200+040900FM-15+001099999V0201701N004619999999N009999199+02771+02041101541ADDMA1101521999999OC100821REMMET115MOBOB8 METAR XM22 //001 022409 230952Z AUTO 17009G16KT 9999 28/20 A2998      RMK A02 SLP154 T02770204 PA-45 DA1730=
0150008416999992015082310524-02200+040900FM-15+001099999V0201701N004119999999N009999199+02791+02021101471ADDMA1101461999999OC100721REMMET115MOBOB8 METAR XM22 //001 022409 231052Z AUTO 17008G14KT 9999 28/20 A2996      RMK A02 SLP147 T02790202 PA-27 DA1772=
0166008416999992015082311524-02200+040900FM-15+001099999V0201701N002119999999N009000199+02461+01861101441ADDAA101000021AW1611MA1101421999999REMMET122MOBOB8 METAR XM22 //001 022409 231152Z AUTO 17004KT 9000 -RA 25/19      A2995 RMK A02 SLP144 P0000 T02460186 PA-17 DA1383=
0139008416999992015082312524-02200+040900FM-15+001099999V0201801N002619999999N009999199+02581+01881101401ADDMA1101391999999REMMET112MOBOB8 METAR XM22 //001 022409 231252Z AUTO 18005KT 9999 26/19 A2994      RMK A02 SLP140 T02580188 PA-08 DA1533=
0139008416999992015082313524-02200+040900FM-15+001099999V0201801N003119999999N009999199+02531+01881101441ADDMA1101421999999REMMET112MOBOB8 METAR XM22 //001 022409 231352Z AUTO 18006KT 9999 25/19 A2995      RMK A02 SLP144 T02530188 PA-17 DA1466=
0150008416999992015082314524-02200+040900FM-15+001099999V0201701N003619999999N009999199+02531+01921101441ADDMA1101421999999OC100821REMMET115MOBOB8 METAR XM22 //001 022409 231452Z AUTO 17007G16KT 9999 25/19 A2995      RMK A02 SLP144 T02530192 PA-17 DA1472=
0139008416999992015082315524-02200+040900FM-15+001099999V0201701N002619999999N009999199+02511+01931101441ADDMA1101421999999REMMET112MOBOB8 METAR XM22 //001 022409 231552Z AUTO 17005KT 9999 25/19 A2995      RMK A02 SLP144 T02510193 PA-17 DA1452=
0150008416999992015082316524-02200+040900FM-15+001099999V0201701N006719999999N009999199+02381+02021101511ADDMA1101491999999OC101131REMMET115MOBOB8 METAR XM22 //001 022409 231652Z AUTO 17013G22KT 9999 24/20 A2997      RMK A02 SLP151 T02380202 PA-36 DA1297=
0139008416999992015082317524-02200+040900FM-15+001099999V0201701N001519999999N009999199+02311+01791101511ADDMA1101491999999REMMET112MOBOB8 METAR XM22 //001 022409 231752Z AUTO 17003KT 9999 23/18 A2997      RMK A02 SLP151 T02310179 PA-36 DA1176=
0139008416999992015082318524-02200+040900FM-15+001099999V0201701N002119999999N009999199+02331+01921101541ADDMA1101521999999REMMET112MOBOB8 METAR XM22 //001 022409 231852Z AUTO 17004KT 9999 23/19 A2998      RMK A02 SLP154 T02330192 PA-45 DA1210=
0166008416999992015082319524-02200+040900FM-15+001099999V0201801N002119999999N009000199+02241+01941101541ADDAA101000231AW1611MA1101521999999REMMET122MOBOB8 METAR XM22 //001 022409 231952Z AUTO 18004KT 9000 -RA 22/19      A2998 RMK A02 SLP154 P0001 T02240194 PA-45 DA1111=
0139008416999992015082320524-02200+040900FM-15+001099999V0201701N002619999999N009999199+02351+02141101511ADDMA1101491999999REMMET112MOBOB8 METAR XM22 //001 022409 232052Z AUTO 17005KT 9999 24/21 A2997      RMK A02 SLP151 T02350214 PA-36 DA1286=
0139008416999992015082321524-02200+040900FM-15+001099999V0201701N002619999999N009999199+02381+02071101441ADDMA1101421999999REMMET112MOBOB8 METAR XM22 //001 022409 232152Z AUTO 17005KT 9999 24/21 A2995      RMK A02 SLP144 T02380207 PA-17 DA1329=
0139008416999992015082322524-02200+040900FM-15+001099999V0201701N003119999999N009999199+02431+02091101401ADDMA1101391999999REMMET112MOBOB8 METAR XM22 //001 022409 232252Z AUTO 17006KT 9999 24/21 A2994      RMK A02 SLP140 T02430209 PA-08 DA1402=
0166008416999992015082323524-02200+040900FM-15+001099999V0201701N004119999999N009000199+02241+02021101401ADDAA101000531AW1611MA1101391999999REMMET122MOBOB8 METAR XM22 //001 022409 232352Z AUTO 17008KT 9000 -RA 22/20      A2994 RMK A02 SLP140 P0002 T02240202 PA-08 DA1171=
0139008416999992015082400524-02200+040900FM-15+001099999V0201701N002619999999N009999199+02251+01981101401ADDMA1101391999999REMMET112MOBOB8 METAR XM22 //001 022409 240052Z AUTO 17005KT 9999 23/20 A2994      RMK A02 SLP140 T02250198 PA-08 DA1176=
0139008416999992015082401524-02200+040900FM-15+001099999V0201801N000519999999N009999199+02221+01961101441ADDMA1101421999999REMMET112MOBOB8 METAR XM22 //001 022409 240152Z AUTO 18001KT 9999 22/20 A2995      RMK A02 SLP144 T02220196 PA-17 DA1126=
0139008416999992015082402524-02200+040900FM-15+001099999V0201801N000519999999N009999199+02221+01981101471ADDMA1101461999999REMMET112MOBOB8 METAR XM22 //001 022409 240252Z AUTO 18001KT 9999 22/20 A2996      RMK A02 SLP147 T02220198 PA-27 DA1119=
0139008416999992015082403524-02200+040900FM-15+001099999V0201801N001519999999N009999199+02271+02011101541ADDMA1101521999999REMMET112MOBOB8 METAR XM22 //001 022409 240352Z AUTO 18003KT 9999 23/20 A2998      RMK A02 SLP154 T02270201 PA-45 DA1159=
0139008416999992015082404524-02200+040900FM-15+001099999V0201701N003119999999N009999199+02511+02081101611ADDMA1101591999999REMMET112MOBOB8 METAR XM22 //001 022409 240452Z AUTO 17006KT 9999 25/21 A3000      RMK A02 SLP161 T02510208 PA-64 DA1422=
0139008416999992015082405524-02200+040900FM-15+001099999V0201701N003619999999N009999199+02661+02111101681ADDMA1101661999999REMMET112MOBOB8 METAR XM22 //001 022409 240552Z AUTO 17007KT 9999 27/21 A3002      RMK A02 SLP168 T02660211 PA-82 DA1575=
0151008416999992015082406524-02200+040900FM-15+001099999V0201701N004119999999N009999199+02651+02051101741ADDMA1101731999999OC100671REMMET116MOBOB8 METAR XM22 //001 022409 240652Z AUTO 17008G13KT 9999 27/20 A3004      RMK A02 SLP174 T02650205 PA-100 DA1529=
0151008416999992015082407524-02200+040900FM-15+001099999V0201701N004119999999N009999199+02721+02101101741ADDMA1101731999999OC100771REMMET116MOBOB8 METAR XM22 //001 022409 240752Z AUTO 17008G15KT 9999 27/21 A3004      RMK A02 SLP174 T02720210 PA-100 DA1618=
0150008416999992015082408524-02200+040900FM-15+001099999V0201601N005119999999N009999199+02681+02121101681ADDMA1101661999999OC100821REMMET115MOBOB8 METAR XM22 //001 022409 240852Z AUTO 16010G16KT 9999 27/21 A3002      RMK A02 SLP168 T02680212 PA-82 DA1599=
0177008416999992015082409524-02200+040900FM-15+001099999V0201701N004119999999N009000199+02581+02191101611ADDAA101000021AW1611MA1101591999999OC100671REMMET125MOBOB8 METAR XM22 //001 022409 240952Z AUTO 17008G13KT 9000 -RA 26/22      A3000 RMK A02 SLP161 P0000 T02580219 PA-64 DA1523=
0166008416999992015082410524-02200+040900FM-15+001099999V0201701N003619999999N009000199+02611+02111101511ADDAA101000231AW1611MA1101491999999REMMET122MOBOB8 METAR XM22 //001 022409 241052Z AUTO 17007KT 9000 -RA 26/21      A2997 RMK A02 SLP151 P0001 T02610211 PA-36 DA1576=
0166008416999992015082411524-02200+040900FM-15+001099999V0201801N002119999999N009000199+02501+02161101471ADDAA101000021AW1611MA1101461999999REMMET122MOBOB8 METAR XM22 //001 022409 241152Z AUTO 18004KT 9000 -RA 25/22      A2996 RMK A02 SLP147 P0000 T02500216 PA-27 DA1472=
0139008416999992015082412524-02200+040900FM-15+001099999V0201701N003119999999N009999199+02681+02211101441ADDMA1101421999999REMMET112MOBOB8 METAR XM22 //001 022409 241252Z AUTO 17006KT 9999 27/22 A2995      RMK A02 SLP144 T02680221 PA-17 DA1696=
0177008416999992015082413524-02200+040900FM-15+001099999V0201801N004119999999N009000199+02561+02111101471ADDAA101000021AW1611MA1101461999999OC100771REMMET125MOBOB8 METAR XM22 //001 022409 241352Z AUTO 18008G15KT 9000 -RA 26/21      A2996 RMK A02 SLP147 P0000 T02560211 PA-27 DA1530=
0166008416999992015082414524-02200+040900FM-15+001099999V0201701N002619999999N009000199+02401+02201101511ADDAA101000731AW1611MA1101491999999REMMET122MOBOB8 METAR XM22 //001 022409 241452Z AUTO 17005KT 9000 -RA 24/22      A2997 RMK A02 SLP151 P0003 T02400220 PA-36 DA1355=
0139008416999992015082415524-02200+040900FM-15+001099999V0201701N002119999999N009999199+02371+02191101541ADDMA1101521999999REMMET112MOBOB8 METAR XM22 //001 022409 241552Z AUTO 17004KT 9999 24/22 A2998      RMK A02 SLP154 T02370219 PA-45 DA1307=
0139008416999992015082416524-02200+040900FM-15+001099999V0201701N003119999999N009999199+02401+02131101611ADDMA1101591999999REMMET112MOBOB8 METAR XM22 //001 022409 241652Z AUTO 17006KT 9999 24/21 A3000      RMK A02 SLP161 T02400213 PA-64 DA1307=
0139008416999992015082417524-02200+040900FM-15+001099999V0201701N002619999999N009999199+02431+02131101641ADDMA1101631999999REMMET112MOBOB8 METAR XM22 //001 022409 241752Z AUTO 17005KT 9999 24/21 A3001      RMK A02 SLP164 T02430213 PA-73 DA1330=
0150008416999992015082418524-02200+040900FM-15+001099999V0201701N003619999999N009999199+02461+02131101641ADDMA1101631999999OC100931REMMET115MOBOB8 METAR XM22 //001 022409 241852Z AUTO 17007G18KT 9999 25/21 A3001      RMK A02 SLP164 T02460213 PA-73 DA1365=
0166008416999992015082419524-02200+040900FM-15+001099999V0201701N003119999999N009000199+02461+02141101671ADDAA101000021AW1611MA1101661999999REMMET122MOBOB8 METAR XM22 //001 022409 241952Z AUTO 17006KT 9000 -RA 25/21      A3002 RMK A02 SLP167 P0000 T02460214 PA-82 DA1354=
0139008416999992015082420524-02200+040900FM-15+001099999V0201701N003619999999N009999199+02451+02071101611ADDMA1101591999999REMMET112MOBOB8 METAR XM22 //001 022409 242052Z AUTO 17007KT 9999 25/21 A3000      RMK A02 SLP161 T02450207 PA-64 DA1351=
0139008416999992015082421524-02200+040900FM-15+001099999V0201701N003619999999N009999199+02441+02051101541ADDMA1101521999999REMMET112MOBOB8 METAR XM22 //001 022409 242152Z AUTO 17007KT 9999 24/20 A2998      RMK A02 SLP154 T02440205 PA-45 DA1360=
0139008416999992015082422524-02200+040900FM-15+001099999V0201601N003619999999N009999199+02431+02041101471ADDMA1101461999999REMMET112MOBOB8 METAR XM22 //001 022409 242252Z AUTO 16007KT 9999 24/20 A2996      RMK A02 SLP147 T02430204 PA-27 DA1369=
0150008416999992015082423524-02200+040900FM-15+001099999V0201701N004119999999N009999199+02431+02001101401ADDMA1101391999999OC100771REMMET115MOBOB8 METAR XM22 //001 022409 242352Z AUTO 17008G15KT 9999 24/20 A2994      RMK A02 SLP140 T02430200 PA-08 DA1384=
0139008416999992015082500524-02200+040900FM-15+001099999V0201701N003619999999N009999199+02421+01981101401ADDMA1101391999999REMMET112MOBOB8 METAR XM22 //001 022409 250052Z AUTO 17007KT 9999 24/20 A2994      RMK A02 SLP140 T02420198 PA-08 DA1371=
0139008416999992015082501524-02200+040900FM-15+001099999V0201701N003619999999N009999199+02431+01971101441ADDMA1101421999999REMMET112MOBOB8 METAR XM22 //001 022409 250152Z AUTO 17007KT 9999 24/20 A2995      RMK A02 SLP144 T02430197 PA-17 DA1368=
0139008416999992015082502524-02200+040900FM-15+001099999V0201701N003119999999N009999199+02421+01991101511ADDMA1101491999999REMMET112MOBOB8 METAR XM22 //001 022409 250252Z AUTO 17006KT 9999 24/20 A2997      RMK A02 SLP151 T02420199 PA-36 DA1338=
0139008416999992015082503524-02200+040900FM-15+001099999V0201701N003119999999N009999199+02461+02001101571ADDMA1101561999999REMMET112MOBOB8 METAR XM22 //001 022409 250352Z AUTO 17006KT 9999 25/20 A2999      RMK A02 SLP157 T02460200 PA-54 DA1363=
0150008416999992015082504524-02200+040900FM-15+001099999V0201701N003619999999N009999199+02591+02051101681ADDMA1101661999999OC100671REMMET115MOBOB8 METAR XM22 //001 022409 250452Z AUTO 17007G13KT 9999 26/21 A3002      RMK A02 SLP168 T02590205 PA-82 DA1484=
0151008416999992015082505524-02200+040900FM-15+001099999V0201701N004119999999N009999199+02631+02051101781ADDMA1101761999999OC100821REMMET116MOBOB8 METAR XM22 //001 022409 250552Z AUTO 17008G16KT 9999 26/20 A3005      RMK A02 SLP178 T02630205 PA-110 DA1495=
0151008416999992015082506524-02200+040900FM-15+001099999V0201601N005119999999N009999199+02701+02041101781ADDMA1101761999999OC100931REMMET116MOBOB8 METAR XM22 //001 022409 250652Z AUTO 16010G18KT 9999 27/20 A3005      RMK A02 SLP178 T02700204 PA-110 DA1573=
0151008416999992015082507524-02200+040900FM-15+001099999V0201701N005119999999N009999199+02751+02031101781ADDMA1101761999999OC100881REMMET116MOBOB8 METAR XM22 //001 022409 250752Z AUTO 17010G17KT 9999 28/20 A3005      RMK A02 SLP178 T02750203 PA-110 DA1627=
0150008416999992015082508524-02200+040900FM-15+001099999V0201701N004119999999N009999199+02751+02051101711ADDMA1101691999999OC100821REMMET115MOBOB8 METAR XM22 //001 022409 250852Z AUTO 17008G16KT 9999 28/20 A3003      RMK A02 SLP171 T02750205 PA-91 DA1653=
0150008416999992015082509524-02200+040900FM-15+001099999V0201701N006219999999N009999199+02751+02001101641ADDMA1101631999999OC100981REMMET115MOBOB8 METAR XM22 //001 022409 250952Z AUTO 17012G19KT 9999 28/20 A3001      RMK A02 SLP164 T02750200 PA-73 DA1666=
0150008416999992015082510524-02200+040900FM-15+001099999V0201701N004619999999N009999199+02791+01981101541ADDMA1101521999999OC100881REMMET115MOBOB8 METAR XM22 //001 022409 251052Z AUTO 17009G17KT 9999 28/20 A2998      RMK A02 SLP154 T02790198 PA-45 DA1743=
0150008416999992015082511524-02200+040900FM-15+001099999V0201701N005719999999N009999199+02711+01981101471ADDMA1101461999999OC100881REMMET115MOBOB8 METAR XM22 //001 022409 251152Z AUTO 17011G17KT 9999 27/20 A2996      RMK A02 SLP147 T02710198 PA-27 DA1676=
0150008416999992015082512524-02200+040900FM-15+001099999V0201701N004619999999N009999199+02771+01991101441ADDMA1101421999999OC100881REMMET115MOBOB8 METAR XM22 //001 022409 251252Z AUTO 17009G17KT 9999 28/20 A2995      RMK A02 SLP144 T02770199 PA-17 DA1756=
0150008416999992015082513524-02200+040900FM-15+001099999V0201701N004619999999N009999199+02671+02031101441ADDMA1101421999999OC100881REMMET115MOBOB8 METAR XM22 //001 022409 251352Z AUTO 17009G17KT 9999 27/20 A2995      RMK A02 SLP144 T02670203 PA-17 DA1650=
0139008416999992015082514524-02200+040900FM-15+001099999V0201701N003119999999N009999199+02581+02061101471ADDMA1101461999999REMMET112MOBOB8 METAR XM22 //001 022409 251452Z AUTO 17006KT 9999 26/21 A2996      RMK A02 SLP147 T02580206 PA-27 DA1544=
0139008416999992015082515524-02200+040900FM-15+001099999V0201701N003119999999N009999199+02521+02051101511ADDMA1101491999999REMMET112MOBOB8 METAR XM22 //001 022409 251552Z AUTO 17006KT 9999 25/20 A2997      RMK A02 SLP151 T02520205 PA-36 DA1462=
0139008416999992015082516524-02200+040900FM-15+001099999V0201701N003619999999N009999199+02531+02071101571ADDMA1101561999999REMMET112MOBOB8 METAR XM22 //001 022409 251652Z AUTO 17007KT 9999 25/21 A2999      RMK A02 SLP157 T02530207 PA-54 DA1454=
0139008416999992015082517524-02200+040900FM-15+001099999V0201701N003619999999N009999199+02501+02041101611ADDMA1101591999999REMMET112MOBOB8 METAR XM22 //001 022409 251752Z AUTO 17007KT 9999 25/20 A3000      RMK A02 SLP161 T02500204 PA-64 DA1403=
0150008416999992015082518524-02200+040900FM-15+001099999V0201701N003619999999N009999199+02511+02021101641ADDMA1101631999999OC100671REMMET115MOBOB8 METAR XM22 //001 022409 251852Z AUTO 17007G13KT 9999 25/20 A3001      RMK A02 SLP164 T02510202 PA-73 DA1400=
0150008416999992015082519524-02200+040900FM-15+001099999V0201701N005119999999N009999199+02511+02021101611ADDMA1101591999999OC100881REMMET115MOBOB8 METAR XM22 //001 022409 251952Z AUTO 17010G17KT 9999 25/20 A3000      RMK A02 SLP161 T02510202 PA-64 DA1411=
0150008416999992015082520524-02200+040900FM-15+001099999V0201701N004619999999N009999199+02501+02041101541ADDMA1101521999999OC100881REMMET115MOBOB8 METAR XM22 //001 022409 252052Z AUTO 17009G17KT 9999 25/20 A2998      RMK A02 SLP154 T02500204 PA-45 DA1425=
0150008416999992015082521524-02200+040900FM-15+001099999V0201701N004119999999N009999199+02471+02031101511ADDMA1101491999999OC100721REMMET115MOBOB8 METAR XM22 //001 022409 252152Z AUTO 17008G14KT 9999 25/20 A2997      RMK A02 SLP151 T02470203 PA-36 DA1401=
0139008416999992015082522524-02200+040900FM-15+001099999V0201701N003619999999N009999199+02471+02081101401ADDMA1101391999999REMMET112MOBOB8 METAR XM22 //001 022409 252252Z AUTO 17007KT 9999 25/21 A2994      RMK A02 SLP140 T02470208 PA-08 DA1446=
0139008416999992015082523524-02200+040900FM-15+001099999V0201701N003619999999N009999199+02451+02111101371ADDMA1101351999999REMMET112MOBOB8 METAR XM22 //001 022409 252352Z AUTO 17007KT 9999 25/21 A2993      RMK A02 SLP137 T02450211 PA001 DA1439=
0139008416999992015082600524-02200+040900FM-15+001099999V0201701N003619999999N009999199+02451+02081101371ADDMA1101351999999REMMET112MOBOB8 METAR XM22 //001 022409 260052Z AUTO 17007KT 9999 25/21 A2993      RMK A02 SLP137 T02450208 PA001 DA1433=
0139008416999992015082601524-02200+040900FM-15+001099999V0201701N003119999999N009999199+02431+02021101441ADDMA1101421999999REMMET112MOBOB8 METAR XM22 //001 022409 260152Z AUTO 17006KT 9999 24/20 A2995      RMK A02 SLP144 T02430202 PA-17 DA1377=
0139008416999992015082602524-02200+040900FM-15+001099999V0201701N003119999999N009999199+02421+02021101511ADDMA1101491999999REMMET112MOBOB8 METAR XM22 //001 022409 260252Z AUTO 17006KT 9999 24/20 A2997      RMK A02 SLP151 T02420202 PA-36 DA1342=
0139008416999992015082603524-02200+040900FM-15+001099999V0201701N002619999999N009999199+02461+02061101571ADDMA1101561999999REMMET112MOBOB8 METAR XM22 //001 022409 260352Z AUTO 17005KT 9999 25/21 A2999      RMK A02 SLP157 T02460206 PA-54 DA1373=
0150008416999992015082604524-02200+040900FM-15+001099999V0201701N004619999999N009999199+02571+02041101641ADDMA1101631999999OC100821REMMET115MOBOB8 METAR XM22 //001 022409 260452Z AUTO 17009G16KT 9999 26/20 A3001      RMK A02 SLP164 T02570204 PA-73 DA1471=
0150008416999992015082605524-02200+040900FM-15+001099999V0201701N005719999999N009999199+02661+01991101711ADDMA1101691999999OC100981REMMET115MOBOB8 METAR XM22 //001 022409 260552Z AUTO 17011G19KT 9999 27/20 A3003      RMK A02 SLP171 T02660199 PA-91 DA1541=
0151008416999992015082606524-02200+040900FM-15+001099999V0201701N004619999999N009999199+02761+02001101741ADDMA1101731999999OC100771REMMET116MOBOB8 METAR XM22 //001 022409 260652Z AUTO 17009G15KT 9999 28/20 A3004      RMK A02 SLP174 T02760200 PA-100 DA1643=
0150008416999992015082607524-02200+040900FM-15+001099999V0201601N006719999999N009999199+02791+02011101711ADDMA1101691999999OC101081REMMET115MOBOB8 METAR XM22 //001 022409 260752Z AUTO 16013G21KT 9999 28/20 A3003      RMK A02 SLP171 T02790201 PA-91 DA1691=
0150008416999992015082608524-02200+040900FM-15+001099999V0201601N006719999999N009999199+02811+02051101671ADDMA1101661999999OC101131REMMET115MOBOB8 METAR XM22 //001 022409 260852Z AUTO 16013G22KT 9999 28/20 A3002      RMK A02 SLP167 T02810205 PA-82 DA1731=
0159008416999992015082609524-02200+040900FM-15+001099999V0201701N005119999999N009000199+02781+02011101611ADDAW1051MA1101591999999OC101031REMMET118MOBOB8 METAR XM22 //001 022409 260952Z AUTO 17010G20KT 9000 HZ 28/20      A3000 RMK A02 SLP161 T02780201 PA-64 DA1713=
0177008416999992015082610524-02200+040900FM-15+001099999V0201701N005719999999N009000199+02811+02001101511ADDAA101000021AW1611MA1101491999999OC101131REMMET125MOBOB8 METAR XM22 //001 022409 261052Z AUTO 17011G22KT 9000 -RA 28/20      A2997 RMK A02 SLP151 P0000 T02810200 PA-36 DA1779=
0150008416999992015082611524-02200+040900FM-15+001099999V0201601N006719999999N009999199+02771+01981101441ADDMA1101421999999OC101081REMMET115MOBOB8 METAR XM22 //001 022409 261152Z AUTO 16013G21KT 9999 28/20 A2995      RMK A02 SLP144 T02770198 PA-17 DA1754=
0150008416999992015082612524-02200+040900FM-15+001099999V0201701N005119999999N009999199+02691+02041101401ADDMA1101391999999OC100881REMMET115MOBOB8 METAR XM22 //001 022409 261252Z AUTO 17010G17KT 9999 27/20 A2994      RMK A02 SLP140 T02690204 PA-08 DA1686=
0177008416999992015082613524-02200+040900FM-15+001099999V0201701N005719999999N009000199+02651+01961101401ADDAA101000021AW1611MA1101391999999OC100981REMMET125MOBOB8 METAR XM22 //001 022409 261352Z AUTO 17011G19KT 9000 -RA 27/20      A2994 RMK A02 SLP140 P0000 T02650196 PA-08 DA1626=
0150008416999992015082614524-02200+040900FM-15+001099999V0201701N004119999999N009999199+02581+02001101471ADDMA1101461999999OC100721REMMET115MOBOB8 METAR XM22 //001 022409 261452Z AUTO 17008G14KT 9999 26/20 A2996      RMK A02 SLP147 T02580200 PA-27 DA1533=
0139008416999992015082615524-02200+040900FM-15+001099999V0201701N003119999999N009999199+02511+02001101511ADDMA1101491999999REMMET112MOBOB8 METAR XM22 //001 022409 261552Z AUTO 17006KT 9999 25/20 A2997      RMK A02 SLP151 T02510200 PA-36 DA1442=
0139008416999992015082616524-02200+040900FM-15+001099999V0201701N003119999999N009999199+02461+01971101511ADDMA1101491999999REMMET112MOBOB8 METAR XM22 //001 022409 261652Z AUTO 17006KT 9999 25/20 A2997      RMK A02 SLP151 T02460197 PA-36 DA1380=
0139008416999992015082617524-02200+040900FM-15+001099999V0201701N003119999999N009999199+02421+01981101571ADDMA1101561999999REMMET112MOBOB8 METAR XM22 //001 022409 261752Z AUTO 17006KT 9999 24/20 A2999      RMK A02 SLP157 T02420198 PA-54 DA1313=
0139008416999992015082618524-02200+040900FM-15+001099999V0201701N003119999999N009999199+02421+02011101611ADDMA1101591999999REMMET112MOBOB8 METAR XM22 //001 022409 261852Z AUTO 17006KT 9999 24/20 A3000      RMK A02 SLP161 T02420201 PA-64 DA1306=
0139008416999992015082619524-02200+040900FM-15+001099999V0201701N003619999999N009999199+02431+02031101611ADDMA1101591999999REMMET112MOBOB8 METAR XM22 //001 022409 261952Z AUTO 17007KT 9999 24/20 A3000      RMK A02 SLP161 T02430203 PA-64 DA1321=
0139008416999992015082620524-02200+040900FM-15+001099999V0201701N003119999999N009999199+02421+02021101571ADDMA1101561999999REMMET112MOBOB8 METAR XM22 //001 022409 262052Z AUTO 17006KT 9999 24/20 A2999      RMK A02 SLP157 T02420202 PA-54 DA1320=
0139008416999992015082621524-02200+040900FM-15+001099999V0201701N003119999999N009999199+02401+02031101511ADDMA1101491999999REMMET112MOBOB8 METAR XM22 //001 022409 262152Z AUTO 17006KT 9999 24/20 A2997      RMK A02 SLP151 T02400203 PA-36 DA1322=
0139008416999992015082622524-02200+040900FM-15+001099999V0201701N003619999999N009999199+02441+02021101441ADDMA1101421999999REMMET112MOBOB8 METAR XM22 //001 022409 262252Z AUTO 17007KT 9999 24/20 A2995      RMK A02 SLP144 T02440202 PA-17 DA1388=
0139008416999992015082623524-02200+040900FM-15+001099999V0201701N003119999999N009999199+02431+02041101401ADDMA1101391999999REMMET112MOBOB8 METAR XM22 //001 022409 262352Z AUTO 17006KT 9999 24/20 A2994      RMK A02 SLP140 T02430204 PA-08 DA1392=
0139008416999992015082700524-02200+040900FM-15+001099999V0201701N002119999999N009999199+02401+02041101401ADDMA1101391999999REMMET112MOBOB8 METAR XM22 //001 022409 270052Z AUTO 17004KT 9999 24/20 A2994      RMK A02 SLP140 T02400204 PA-08 DA1358=
0139008416999992015082701524-02200+040900FM-15+001099999V0201701N003119999999N009999199+02421+02041101441ADDMA1101421999999REMMET112MOBOB8 METAR XM22 //001 022409 270152Z AUTO 17006KT 9999 24/20 A2995      RMK A02 SLP144 T02420204 PA-17 DA1369=
0139008416999992015082702524-02200+040900FM-15+001099999V0201701N002619999999N009999199+02421+02061101471ADDMA1101461999999REMMET112MOBOB8 METAR XM22 //001 022409 270252Z AUTO 17005KT 9999 24/21 A2996      RMK A02 SLP147 T02420206 PA-27 DA1361=
0139008416999992015082703524-02200+040900FM-15+001099999V0201701N001519999999N009999199+02441+02101101541ADDMA1101521999999REMMET112MOBOB8 METAR XM22 //001 022409 270352Z AUTO 17003KT 9999 24/21 A2998      RMK A02 SLP154 T02440210 PA-45 DA1370=
0139008416999992015082704524-02200+040900FM-15+001099999V0201701N003119999999N009999199+02621+02091101611ADDMA1101591999999REMMET112MOBOB8 METAR XM22 //001 022409 270452Z AUTO 17006KT 9999 26/21 A3000      RMK A02 SLP161 T02620209 PA-64 DA1549=
0150008416999992015082705524-02200+040900FM-15+001099999V0201601N004119999999N009999199+02711+02081101711ADDMA1101691999999OC100771REMMET115MOBOB8 METAR XM22 //001 022409 270552Z AUTO 16008G15KT 9999 27/21 A3003      RMK A02 SLP171 T02710208 PA-91 DA1613=
0151008416999992015082706524-02200+040900FM-15+001099999V0201701N005119999999N009999199+02711+02091101741ADDMA1101731999999OC100931REMMET116MOBOB8 METAR XM22 //001 022409 270652Z AUTO 17010G18KT 9999 27/21 A3004      RMK A02 SLP174 T02710209 PA-100 DA1605=
0150008416999992015082707524-02200+040900FM-15+001099999V0201701N005119999999N009999199+02781+02081101711ADDMA1101691999999OC100881REMMET115MOBOB8 METAR XM22 //001 022409 270752Z AUTO 17010G17KT 9999 28/21 A3003      RMK A02 SLP171 T02780208 PA-91 DA1693=
0150008416999992015082708524-02200+040900FM-15+001099999V0201701N004619999999N009999199+02911+02061101671ADDMA1101661999999OC100881REMMET115MOBOB8 METAR XM22 //001 022409 270852Z AUTO 17009G17KT 9999 29/21 A3002      RMK A02 SLP167 T02910206 PA-82 DA1846=
0150008416999992015082709524-02200+040900FM-15+001099999V0201701N004619999999N009999199+02891+02031101571ADDMA1101561999999OC100821REMMET115MOBOB8 METAR XM22 //001 022409 270952Z AUTO 17009G16KT 9999 29/20 A2999      RMK A02 SLP157 T02890203 PA-54 DA1852=
0177008416999992015082710524-02200+040900FM-15+001099999V0201701N003619999999N009000199+02891+02091101441ADDAA101000021AW1611MA1101421999999OC100771REMMET125MOBOB8 METAR XM22 //001 022409 271052Z AUTO 17007G15KT 9000 -RA 29/21      A2995 RMK A02 SLP144 P0000 T02890209 PA-17 DA1909=
0150008416999992015082711524-02200+040900FM-15+001099999V0201701N004119999999N009999199+02881+02051101401ADDMA1101391999999OC100721REMMET115MOBOB8 METAR XM22 //001 022409 271152Z AUTO 17008G14KT 9999 29/20 A2994      RMK A02 SLP140 T02880205 PA-08 DA1901=
0150008416999992015082712524-02200+040900FM-15+001099999V0201701N004619999999N009999199+02791+02071101341ADDMA1101321999999OC100931REMMET115MOBOB8 METAR XM22 //001 022409 271252Z AUTO 17009G18KT 9999 28/21 A2992      RMK A02 SLP134 T02790207 PA010 DA1826=
0150008416999992015082713524-02200+040900FM-15+001099999V0201701N004119999999N009999199+02701+02071101341ADDMA1101321999999OC100881REMMET115MOBOB8 METAR XM22 //001 022409 271352Z AUTO 17008G17KT 9999 27/21 A2992      RMK A02 SLP134 T02700207 PA010 DA1726=
0139008416999992015082714524-02200+040900FM-15+001099999V0201701N003119999999N009999199+02591+02081101341ADDMA1101321999999REMMET112MOBOB8 METAR XM22 //001 022409 271452Z AUTO 17006KT 9999 26/21 A2992      RMK A02 SLP134 T02590208 PA010 DA1605=
0139008416999992015082715524-02200+040900FM-15+001099999V0201701N002119999999N009999199+02491+02101101371ADDMA1101351999999REMMET112MOBOB8 METAR XM22 //001 022409 271552Z AUTO 17004KT 9999 25/21 A2993      RMK A02 SLP137 T02490210 PA001 DA1484=
0139008416999992015082716524-02200+040900FM-15+001099999V0201701N002619999999N009999199+02481+02121101441ADDMA1101421999999REMMET112MOBOB8 METAR XM22 //001 022409 271652Z AUTO 17005KT 9999 25/21 A2995      RMK A02 SLP144 T02480212 PA-17 DA1454=
0139008416999992015082717524-02200+040900FM-15+001099999V0201701N002619999999N009999199+02511+02131101511ADDMA1101491999999REMMET112MOBOB8 METAR XM22 //001 022409 271752Z AUTO 17005KT 9999 25/21 A2997      RMK A02 SLP151 T02510213 PA-36 DA1466=
0139008416999992015082718524-02200+040900FM-15+001099999V0201701N003119999999N009999199+02531+02161101511ADDMA1101491999999REMMET112MOBOB8 METAR XM22 //001 022409 271852Z AUTO 17006KT 9999 25/22 A2997      RMK A02 SLP151 T02530216 PA-36 DA1494=
0150008416999992015082719524-02200+040900FM-15+001099999V0201701N003619999999N009999199+02551+02181101541ADDMA1101521999999OC100621REMMET115MOBOB8 METAR XM22 //001 022409 271952Z AUTO 17007G12KT 9999 26/22 A2998      RMK A02 SLP154 T02550218 PA-45 DA1510=
0150008416999992015082720524-02200+040900FM-15+001099999V0201601N004119999999N009999199+02551+02171101471ADDMA1101461999999OC100721REMMET115MOBOB8 METAR XM22 //001 022409 272052Z AUTO 16008G14KT 9999 26/22 A2996      RMK A02 SLP147 T02550217 PA-27 DA1531=
0166008416999992015082721524-02200+040900FM-15+001099999V0201701N003619999999N009000199+02401+02161101441ADDAA101000021AW1611MA1101421999999REMMET122MOBOB8 METAR XM22 //001 022409 272152Z AUTO 17007KT 9000 -RA 24/22      A2995 RMK A02 SLP144 P0000 T02400216 PA-17 DA1369=
0139008416999992015082722524-02200+040900FM-15+001099999V0201701N003619999999N009999199+02471+02221101341ADDMA1101321999999REMMET112MOBOB8 METAR XM22 //001 022409 272252Z AUTO 17007KT 9999 25/22 A2992      RMK A02 SLP134 T02470222 PA010 DA1495=
0186008416999992015082723524-02200+040900FM-15+001099999V0201701N005119999999N006000199+02351+02171101341ADDAA101000731AW1101AW2611MA1101321999999OC100821REMMET128MOBOB8 METAR XM22 //001 022409 272352Z AUTO 17010G16KT 6000 -RA BR      24/22 A2992 RMK A02 SLP134 P0003 T02350217 PA010 DA1349=
0186008416999992015082800524-02200+040900FM-15+001099999V0201401N004619999999N000800199+02321+02141101341ADDAA101003031AW1301AW2611MA1101321999999OC100721REMMET128MOBOB8 METAR XM22 //001 022409 280052Z AUTO 14009G14KT 0800 -RA FG      23/21 A2992 RMK A02 SLP134 P0012 T02320214 PA010 DA1310=
0139008416999992015082801524-02200+040900FM-15+001099999V0201701N001519999999N009999199+02331+02151101371ADDMA1101351999999REMMET112MOBOB8 METAR XM22 //001 022409 280152Z AUTO 17003KT 9999 23/21 A2993      RMK A02 SLP137 T02330215 PA001 DA1310=
0139008416999992015082802524-02200+040900FM-15+001099999V0201801N001519999999N009999199+02371+02201101441ADDMA1101421999999REMMET112MOBOB8 METAR XM22 //001 022409 280252Z AUTO 18003KT 9999 24/22 A2995      RMK A02 SLP144 T02370220 PA-17 DA1345=
0139008416999992015082803524-02200+040900FM-15+001099999V0201801N001519999999N009999199+02401+02211101471ADDMA1101461999999REMMET112MOBOB8 METAR XM22 //001 022409 280352Z AUTO 18003KT 9999 24/22 A2996      RMK A02 SLP147 T02400221 PA-27 DA1370=
0166008416999992015082804524-02200+040900FM-15+001099999V0201701N003119999999N009000199+02371+02191101571ADDAA101001031AW1611MA1101561999999REMMET122MOBOB8 METAR XM22 //001 022409 280452Z AUTO 17006KT 9000 -RA 24/22      A2999 RMK A02 SLP157 P0004 T02370219 PA-54 DA1296=
0139008416999992015082805524-02200+040900FM-15+001099999V0201701N002619999999N009999199+02491+02211101681ADDMA1101661999999REMMET112MOBOB8 METAR XM22 //001 022409 280552Z AUTO 17005KT 9999 25/22 A3002      RMK A02 SLP168 T02490221 PA-82 DA1404=
0166008416999992015082806524-02200+040900FM-15+001099999V0201701N002619999999N009000199+02501+02271101711ADDAA101000531AW1611MA1101691999999REMMET122MOBOB8 METAR XM22 //001 022409 280652Z AUTO 17005KT 9000 -RA 25/23      A3003 RMK A02 SLP171 P0002 T02500227 PA-91 DA1416=
0177008416999992015082807524-02200+040900FM-15+001099999V0201701N005119999999N009000199+02581+02191101641ADDAA101000021AW1611MA1101631999999OC100881REMMET125MOBOB8 METAR XM22 //001 022409 280752Z AUTO 17010G17KT 9000 -RA 26/22      A3001 RMK A02 SLP164 P0000 T02580219 PA-73 DA1511=
0150008416999992015082808524-02200+040900FM-15+001099999V0201601N005719999999N009999199+02751+02181101571ADDMA1101561999999OC100931REMMET115MOBOB8 METAR XM22 //001 022409 280852Z AUTO 16011G18KT 9999 28/22 A2999      RMK A02 SLP157 T02750218 PA-54 DA1724=
0150008416999992015082809524-02200+040900FM-15+001099999V0201601N007219999999N009999199+02771+02101101471ADDMA1101461999999OC101031REMMET115MOBOB8 METAR XM22 //001 022409 280952Z AUTO 16014G20KT 9999 28/21 A2996      RMK A02 SLP147 T02770210 PA-27 DA1764=
0150008416999992015082810524-02200+040900FM-15+001099999V0201601N006719999999N009999199+02751+02041101401ADDMA1101391999999OC100931REMMET115MOBOB8 METAR XM22 //001 022409 281052Z AUTO 16013G18KT 9999 28/20 A2994      RMK A02 SLP140 T02750204 PA-08 DA1753=
0177008416999992015082811524-02200+040900FM-15+001099999V0201601N006219999999N009000199+02691+02101101371ADDAA101001031AW1611MA1101351999999OC101031REMMET125MOBOB8 METAR XM22 //001 022409 281152Z AUTO 16012G20KT 9000 -RA 27/21      A2993 RMK A02 SLP137 P0004 T02690210 PA001 DA1709=
0177008416999992015082812524-02200+040900FM-15+001099999V0201701N004119999999N009000199+02341+02111101341ADDAA101003031AW1611MA1101321999999OC100621REMMET125MOBOB8 METAR XM22 //001 022409 281252Z AUTO 17008G12KT 9000 -RA 23/21      A2992 RMK A02 SLP134 P0012 T02340211 PA010 DA1326=
0166008416999992015082813524-02200+040900FM-15+001099999V0201701N003119999999N009000199+02401+02191101371ADDAA101000021AW1611MA1101351999999REMMET122MOBOB8 METAR XM22 //001 022409 281352Z AUTO 17006KT 9000 -RA 24/22      A2993 RMK A02 SLP137 P0000 T02400219 PA001 DA1399=
0166008416999992015082814524-02200+040900FM-15+001099999V0201801N001519999999N009000199+02381+02181101371ADDAA101000021AW1611MA1101351999999REMMET122MOBOB8 METAR XM22 //001 022409 281452Z AUTO 18003KT 9000 -RA 24/22      A2993 RMK A02 SLP137 P0000 T02380218 PA001 DA1374=
0139008416999992015082815524-02200+040900FM-15+001099999V0201901N000519999999N009999199+02321+02141101401ADDMA1101391999999REMMET112MOBOB8 METAR XM22 //001 022409 281552Z AUTO 19001KT 9999 23/21 A2994      RMK A02 SLP140 T02320214 PA-08 DA1287=
0139008416999992015082816524-02200+040900FM-15+001099999V0201701N001519999999N009999199+02321+02131101471ADDMA1101461999999REMMET112MOBOB8 METAR XM22 //001 022409 281652Z AUTO 17003KT 9999 23/21 A2996      RMK A02 SLP147 T02320213 PA-27 DA1262=
0139008416999992015082817524-02200+040900FM-15+001099999V0201701N002119999999N009999199+02331+02111101511ADDMA1101491999999REMMET112MOBOB8 METAR XM22 //001 022409 281752Z AUTO 17004KT 9999 23/21 A2997      RMK A02 SLP151 T02330211 PA-36 DA1257=
0139008416999992015082818524-02200+040900FM-15+001099999V0201701N001519999999N009999199+02321+02091101541ADDMA1101521999999REMMET112MOBOB8 METAR XM22 //001 022409 281852Z AUTO 17003KT 9999 23/21 A2998      RMK A02 SLP154 T02320209 PA-45 DA1230=
0139008416999992015082819524-02200+040900FM-15+001099999V0201701N002119999999N009999199+02331+02081101571ADDMA1101561999999REMMET112MOBOB8 METAR XM22 //001 022409 281952Z AUTO 17004KT 9999 23/21 A2999      RMK A02 SLP157 T02330208 PA-54 DA1229=
0139008416999992015082820524-02200+040900FM-15+001099999V0201701N002619999999N009999199+02361+02101101511ADDMA1101491999999REMMET112MOBOB8 METAR XM22 //001 022409 282052Z AUTO 17005KT 9999 24/21 A2997      RMK A02 SLP151 T02360210 PA-36 DA1289=
0139008416999992015082821524-02200+040900FM-15+001099999V0201701N003119999999N009999199+02361+02071101441ADDMA1101421999999REMMET112MOBOB8 METAR XM22 //001 022409 282152Z AUTO 17006KT 9999 24/21 A2995      RMK A02 SLP144 T02360207 PA-17 DA1307=
0139008416999992015082822524-02200+040900FM-15+001099999V0201701N001519999999N009999199+02321+02051101371ADDMA1101351999999REMMET112MOBOB8 METAR XM22 //001 022409 282252Z AUTO 17003KT 9999 23/20 A2993      RMK A02 SLP137 T02320205 PA001 DA1280=
0139008416999992015082823524-02200+040900FM-15+001099999V0201701N002119999999N009999199+02331+02061101341ADDMA1101321999999REMMET112MOBOB8 METAR XM22 //001 022409 282352Z AUTO 17004KT 9999 23/21 A2992      RMK A02 SLP134 T02330206 PA010 DA1305=
0139008416999992015082900524-02200+040900FM-15+001099999V0201701N001019999999N009999199+02291+02071101371ADDMA1101351999999REMMET112MOBOB8 METAR XM22 //001 022409 290052Z AUTO 17002KT 9999 23/21 A2993      RMK A02 SLP137 T02290207 PA001 DA1249=
0139008416999992015082901524-02200+040900FM-15+001099999V0201801N000519999999N009999199+02241+02031101401ADDMA1101391999999REMMET112MOBOB8 METAR XM22 //001 022409 290152Z AUTO 18001KT 9999 22/20 A2994      RMK A02 SLP140 T02240203 PA-08 DA1173=
0139008416999992015082902524-02200+040900FM-15+001099999V0201801N001019999999N009999199+02211+02031101441ADDMA1101421999999REMMET112MOBOB8 METAR XM22 //001 022409 290252Z AUTO 18002KT 9999 22/20 A2995      RMK A02 SLP144 T02210203 PA-17 DA1128=
0139008416999992015082903524-02200+040900FM-15+001099999V0201801N001019999999N009999199+02261+02091101511ADDMA1101491999999REMMET112MOBOB8 METAR XM22 //001 022409 290352Z AUTO 18002KT 9999 23/21 A2997      RMK A02 SLP151 T02260209 PA-36 DA1173=
0166008416999992015082904524-02200+040900FM-15+001099999V0201801N001019999999N009000199+02491+02201101611ADDAA101000021AW1611MA1101591999999REMMET122MOBOB8 METAR XM22 //001 022409 290452Z AUTO 18002KT 9000 -RA 25/22      A3000 RMK A02 SLP161 P0000 T02490220 PA-64 DA1424=
0139008416999992015082905524-02200+040900FM-15+001099999V0201601N003619999999N009999199+02621+02111101681ADDMA1101661999999REMMET112MOBOB8 METAR XM22 //001 022409 290552Z AUTO 16007KT 9999 26/21 A3002      RMK A02 SLP168 T02620211 PA-82 DA1529=
0139008416999992015082906524-02200+040900FM-15+001099999V0201701N003619999999N009999199+02741+02121101711ADDMA1101691999999REMMET112MOBOB8 METAR XM22 //001 022409 290652Z AUTO 17007KT 9999 27/21 A3003      RMK A02 SLP171 T02740212 PA-91 DA1656=
0150008416999992015082907524-02200+040900FM-15+001099999V0201701N003619999999N009999199+02761+02081101671ADDMA1101661999999OC100621REMMET115MOBOB8 METAR XM22 //001 022409 290752Z AUTO 17007G12KT 9999 28/21 A3002      RMK A02 SLP167 T02760208 PA-82 DA1682=
0150008416999992015082908524-02200+040900FM-15+001099999V0201701N004119999999N009999199+02831+02051101641ADDMA1101631999999OC100821REMMET115MOBOB8 METAR XM22 //001 022409 290852Z AUTO 17008G16KT 9999 28/20 A3001      RMK A02 SLP164 T02830205 PA-73 DA1765=
0150008416999992015082909524-02200+040900FM-15+001099999V0201701N004119999999N009999199+02821+02031101571ADDMA1101561999999OC100771REMMET115MOBOB8 METAR XM22 //001 022409 290952Z AUTO 17008G15KT 9999 28/20 A2999      RMK A02 SLP157 T02820203 PA-54 DA1774=
0150008416999992015082910524-02200+040900FM-15+001099999V0201701N004119999999N009999199+02811+02001101471ADDMA1101461999999OC100821REMMET115MOBOB8 METAR XM22 //001 022409 291052Z AUTO 17008G16KT 9999 28/20 A2996      RMK A02 SLP147 T02810200 PA-27 DA1790=
0150008416999992015082911524-02200+040900FM-15+001099999V0201701N004119999999N009999199+02801+02001101441ADDMA1101421999999OC100671REMMET115MOBOB8 METAR XM22 //001 022409 291152Z AUTO 17008G13KT 9999 28/20 A2995      RMK A02 SLP144 T02800200 PA-17 DA1791=
0177008416999992015082912524-02200+040900FM-15+001099999V0201701N003619999999N009000199+02751+02071101371ADDAA101000021AW1611MA1101351999999OC100671REMMET125MOBOB8 METAR XM22 //001 022409 291252Z AUTO 17007G13KT 9000 -RA 28/21      A2993 RMK A02 SLP137 P0000 T02750207 PA001 DA1770=
0139008416999992015082913524-02200+040900FM-15+001099999V0201701N003619999999N009999199+02671+02061101401ADDMA1101391999999REMMET112MOBOB8 METAR XM22 //001 022409 291352Z AUTO 17007KT 9999 27/21 A2994      RMK A02 SLP140 T02670206 PA-08 DA1667=
0139008416999992015082914524-02200+040900FM-15+001099999V0201701N003619999999N009999199+02561+02081101401ADDMA1101391999999REMMET112MOBOB8 METAR XM22 //001 022409 291452Z AUTO 17007KT 9999 26/21 A2994      RMK A02 SLP140 T02560208 PA-08 DA1547=
0139008416999992015082915524-02200+040900FM-15+001099999V0201701N002619999999N009999199+02491+02121101471ADDMA1101461999999REMMET112MOBOB8 METAR XM22 //001 022409 291552Z AUTO 17005KT 9999 25/21 A2996      RMK A02 SLP147 T02490212 PA-27 DA1453=
0139008416999992015082916524-02200+040900FM-15+001099999V0201701N003119999999N009999199+02491+02121101511ADDMA1101491999999REMMET112MOBOB8 METAR XM22 //001 022409 291652Z AUTO 17006KT 9999 25/21 A2997      RMK A02 SLP151 T02490212 PA-36 DA1441=
0139008416999992015082917524-02200+040900FM-15+001099999V0201701N003619999999N009999199+02481+02111101571ADDMA1101561999999REMMET112MOBOB8 METAR XM22 //001 022409 291752Z AUTO 17007KT 9999 25/21 A2999      RMK A02 SLP157 T02480211 PA-54 DA1404=
0139008416999992015082918524-02200+040900FM-15+001099999V0201701N002619999999N009999199+02411+02091101611ADDMA1101591999999REMMET112MOBOB8 METAR XM22 //001 022409 291852Z AUTO 17005KT 9999 24/21 A3000      RMK A02 SLP161 T02410209 PA-64 DA1311=
0139008416999992015082919524-02200+040900FM-15+001099999V0201701N003119999999N009999199+02421+02091101611ADDMA1101591999999REMMET112MOBOB8 METAR XM22 //001 022409 291952Z AUTO 17006KT 9999 24/21 A3000      RMK A02 SLP161 T02420209 PA-64 DA1322=
0139008416999992015082920524-02200+040900FM-15+001099999V0201701N002119999999N009999199+02381+02081101571ADDMA1101561999999REMMET112MOBOB8 METAR XM22 //001 022409 292052Z AUTO 17004KT 9999 24/21 A2999      RMK A02 SLP157 T02380208 PA-54 DA1286=
0139008416999992015082921524-02200+040900FM-15+001099999V0201701N003119999999N009999199+02431+02091101471ADDMA1101461999999REMMET112MOBOB8 METAR XM22 //001 022409 292152Z AUTO 17006KT 9999 24/21 A2996      RMK A02 SLP147 T02430209 PA-27 DA1378=
0139008416999992015082922524-02200+040900FM-15+001099999V0201601N002119999999N009999199+02371+02081101441ADDMA1101421999999REMMET112MOBOB8 METAR XM22 //001 022409 292252Z AUTO 16004KT 9999 24/21 A2995      RMK A02 SLP144 T02370208 PA-17 DA1320=
0139008416999992015082923524-02200+040900FM-15+001099999V0201701N002119999999N009999199+02371+02071101401ADDMA1101391999999REMMET112MOBOB8 METAR XM22 //001 022409 292352Z AUTO 17004KT 9999 24/21 A2994      RMK A02 SLP140 T02370207 PA-08 DA1329=
0139008416999992015083000524-02200+040900FM-15+001099999V0201801N001519999999N009999199+02391+02091101441ADDMA1101421999999REMMET112MOBOB8 METAR XM22 //001 022409 300052Z AUTO 18003KT 9999 24/21 A2995      RMK A02 SLP144 T02390209 PA-17 DA1345=
0139008416999992015083001524-02200+040900FM-15+001099999V0201701N002119999999N009999199+02391+02121101471ADDMA1101461999999REMMET112MOBOB8 METAR XM22 //001 022409 300152Z AUTO 17004KT 9999 24/21 A2996      RMK A02 SLP147 T02390212 PA-27 DA1339=
0139008416999992015083002524-02200+040900FM-15+001099999V0201701N002119999999N009999199+02411+02141101511ADDMA1101491999999REMMET112MOBOB8 METAR XM22 //001 022409 300252Z AUTO 17004KT 9999 24/21 A2997      RMK A02 SLP151 T02410214 PA-36 DA1354=
0139008416999992015083003524-02200+040900FM-15+001099999V0201701N001519999999N009999199+02451+02181101611ADDMA1101591999999REMMET112MOBOB8 METAR XM22 //001 022409 300352Z AUTO 17003KT 9999 25/22 A3000      RMK A02 SLP161 T02450218 PA-64 DA1373=
0150008416999992015083004524-02200+040900FM-15+001099999V0201601N004619999999N009999199+02621+02151101641ADDMA1101631999999OC100821REMMET115MOBOB8 METAR XM22 //001 022409 300452Z AUTO 16009G16KT 9999 26/21 A3001      RMK A02 SLP164 T02620215 PA-73 DA1549=
0151008416999992015083005524-02200+040900FM-15+001099999V0201601N004619999999N009999199+02641+02161101741ADDMA1101731999999OC100721REMMET116MOBOB8 METAR XM22 //001 022409 300552Z AUTO 16009G14KT 9999 26/22 A3004      RMK A02 SLP174 T02640216 PA-100 DA1539=
0151008416999992015083006524-02200+040900FM-15+001099999V0201601N004619999999N009999199+02761+02131101781ADDMA1101761999999OC100771REMMET116MOBOB8 METAR XM22 //001 022409 300652Z AUTO 16009G15KT 9999 28/21 A3005      RMK A02 SLP178 T02760213 PA-110 DA1657=
0151008416999992015083007524-02200+040900FM-15+001099999V0201601N004619999999N009999199+02791+02121101741ADDMA1101731999999OC100881REMMET116MOBOB8 METAR XM22 //001 022409 300752Z AUTO 16009G17KT 9999 28/21 A3004      RMK A02 SLP174 T02790212 PA-100 DA1700=
0150008416999992015083008524-02200+040900FM-15+001099999V0201701N005119999999N009999199+02821+01991101671ADDMA1101661999999OC101031REMMET115MOBOB8 METAR XM22 //001 022409 300852Z AUTO 17010G20KT 9999 28/20 A3002      RMK A02 SLP167 T02820199 PA-82 DA1732=
0150008416999992015083010524-02200+040900FM-15+001099999V0201601N006219999999N009999199+02811+02021101441ADDMA1101421999999OC100981REMMET115MOBOB8 METAR XM22 //001 022409 301052Z AUTO 16012G19KT 9999 28/20 A2995      RMK A02 SLP144 T02810202 PA-17 DA1806=
0150008416999992015083011524-02200+040900FM-15+001099999V0201601N005719999999N009999199+02831+01991101401ADDMA1101391999999OC101031REMMET115MOBOB8 METAR XM22 //001 022409 301152Z AUTO 16011G20KT 9999 28/20 A2994      RMK A02 SLP140 T02830199 PA-08 DA1834=
0150008416999992015083012524-02200+040900FM-15+001099999V0201701N004619999999N009999199+02781+02061101341ADDMA1101321999999OC100771REMMET115MOBOB8 METAR XM22 //001 022409 301252Z AUTO 17009G15KT 9999 28/21 A2992      RMK A02 SLP134 T02780206 PA010 DA1814=
0150008416999992015083013524-02200+040900FM-15+001099999V0201601N005119999999N009999199+02691+01991101341ADDMA1101321999999OC100821REMMET115MOBOB8 METAR XM22 //001 022409 301352Z AUTO 16010G16KT 9999 27/20 A2992      RMK A02 SLP134 T02690199 PA010 DA1699=
0150008416999992015083014524-02200+040900FM-15+001099999V0201601N004619999999N009999199+02601+02051101371ADDMA1101351999999OC100771REMMET115MOBOB8 METAR XM22 //001 022409 301452Z AUTO 16009G15KT 9999 26/20 A2993      RMK A02 SLP137 T02600205 PA001 DA1597=
0139008416999992015083015524-02200+040900FM-15+001099999V0201701N002619999999N009999199+02491+02091101401ADDMA1101391999999REMMET112MOBOB8 METAR XM22 //001 022409 301552Z AUTO 17005KT 9999 25/21 A2994      RMK A02 SLP140 T02490209 PA-08 DA1470=
0139008416999992015083016524-02200+040900FM-15+001099999V0201701N002619999999N009999199+02441+02091101401ADDMA1101391999999REMMET112MOBOB8 METAR XM22 //001 022409 301652Z AUTO 17005KT 9999 24/21 A2994      RMK A02 SLP140 T02440209 PA-08 DA1413=
0139008416999992015083017524-02200+040900FM-15+001099999V0201601N003119999999N009999199+02451+02091101471ADDMA1101461999999REMMET112MOBOB8 METAR XM22 //001 022409 301752Z AUTO 16006KT 9999 25/21 A2996      RMK A02 SLP147 T02450209 PA-27 DA1402=
0139008416999992015083018524-02200+040900FM-15+001099999V0201701N002119999999N009999199+02421+02101101541ADDMA1101521999999REMMET112MOBOB8 METAR XM22 //001 022409 301852Z AUTO 17004KT 9999 24/21 A2998      RMK A02 SLP154 T02420210 PA-45 DA1346=
0139008416999992015083019524-02200+040900FM-15+001099999V0201501N002119999999N009999199+02431+02071101571ADDMA1101561999999REMMET112MOBOB8 METAR XM22 //001 022409 301952Z AUTO 15004KT 9999 24/21 A2999      RMK A02 SLP157 T02430207 PA-54 DA1342=
0139008416999992015083020524-02200+040900FM-15+001099999V0201701N002119999999N009999199+02401+02061101541ADDMA1101521999999REMMET112MOBOB8 METAR XM22 //001 022409 302052Z AUTO 17004KT 9999 24/21 A2998      RMK A02 SLP154 T02400206 PA-45 DA1315=
0138008416999992015083021524-02200+040900FM-15+001099999V0201701N002119999999N009999199+02391+02081999999ADDMA1101491999999REMMET111MOBOB8 METAR XM22 //001 022409 302152Z AUTO 17004KT 9999 24/21 A2997      RMK A02 SLPNO T02390208 PA-36 DA1320=
0139008416999992015083022524-02200+040900FM-15+001099999V0201601N002619999999N009999199+02411+02081101441ADDMA1101421999999REMMET112MOBOB8 METAR XM22 //001 022409 302252Z AUTO 16005KT 9999 24/21 A2995      RMK A02 SLP144 T02410208 PA-17 DA1365=
0139008416999992015083023524-02200+040900FM-15+001099999V0201701N003119999999N009999199+02391+02031101401ADDMA1101391999999REMMET112MOBOB8 METAR XM22 //001 022409 302352Z AUTO 17006KT 9999 24/20 A2994      RMK A02 SLP140 T02390203 PA-08 DA1344=
0139008416999992015083100524-02200+040900FM-15+001099999V0201701N002119999999N009999199+02371+02011101441ADDMA1101421999999REMMET112MOBOB8 METAR XM22 //001 022409 310052Z AUTO 17004KT 9999 24/20 A2995      RMK A02 SLP144 T02370201 PA-17 DA1307=
0139008416999992015083101524-02200+040900FM-15+001099999V0201701N001519999999N009999199+02351+02021101471ADDMA1101461999999REMMET112MOBOB8 METAR XM22 //001 022409 310152Z AUTO 17003KT 9999 24/20 A2996      RMK A02 SLP147 T02350202 PA-27 DA1274=
0139008416999992015083102524-02200+040900FM-15+001099999V0201701N001519999999N009999199+02331+02011101511ADDMA1101491999999REMMET112MOBOB8 METAR XM22 //001 022409 310252Z AUTO 17003KT 9999 23/20 A2997      RMK A02 SLP151 T02330201 PA-36 DA1239=
0139008416999992015083103524-02200+040900FM-15+001099999V0201701N001519999999N009999199+02351+02031101571ADDMA1101561999999REMMET112MOBOB8 METAR XM22 //001 022409 310352Z AUTO 17003KT 9999 24/20 A2999      RMK A02 SLP157 T02350203 PA-54 DA1242=
0150008416999992015083104524-02200+040900FM-15+001099999V0201701N003619999999N009999199+02611+02061101641ADDMA1101631999999OC100671REMMET115MOBOB8 METAR XM22 //001 022409 310452Z AUTO 17007G13KT 9999 26/21 A3001      RMK A02 SLP164 T02610206 PA-73 DA1520=
0151008416999992015083105524-02200+040900FM-15+001099999V0201701N004619999999N009999199+02651+02001101741ADDMA1101731999999OC100721REMMET116MOBOB8 METAR XM22 //001 022409 310552Z AUTO 17009G14KT 9999 27/20 A3004      RMK A02 SLP174 T02650200 PA-100 DA1520=
0151008416999992015083106524-02200+040900FM-15+001099999V0201701N004619999999N009999199+02711+01991101781ADDMA1101761999999OC100771REMMET116MOBOB8 METAR XM22 //001 022409 310652Z AUTO 17009G15KT 9999 27/20 A3005      RMK A02 SLP178 T02710199 PA-110 DA1574=
0151008416999992015083107524-02200+040900FM-15+001099999V0201701N004119999999N009999199+02851+02031101781ADDMA1101761999999OC100881REMMET116MOBOB8 METAR XM22 //001 022409 310752Z AUTO 17008G17KT 9999 29/20 A3005      RMK A02 SLP178 T02850203 PA-110 DA1739=
0150008416999992015083108524-02200+040900FM-15+001099999V0201601N005719999999N009999199+02831+02021101711ADDMA1101691999999OC101031REMMET115MOBOB8 METAR XM22 //001 022409 310852Z AUTO 16011G20KT 9999 28/20 A3003      RMK A02 SLP171 T02830202 PA-91 DA1737=
0150008416999992015083109524-02200+040900FM-15+001099999V0201601N005719999999N009999199+02841+02041101641ADDMA1101631999999OC101031REMMET115MOBOB8 METAR XM22 //001 022409 310952Z AUTO 16011G20KT 9999 28/20 A3001      RMK A02 SLP164 T02840204 PA-73 DA1775=
0177008416999992015083110524-02200+040900FM-15+001099999V0201701N005119999999N009000199+02811+01981101541ADDAA101000021AW1611MA1101521999999OC100881REMMET125MOBOB8 METAR XM22 //001 022409 311052Z AUTO 17010G17KT 9000 -RA 28/20      A2998 RMK A02 SLP154 P0000 T02810198 PA-45 DA1765=
0150008416999992015083111524-02200+040900FM-15+001099999V0201701N004619999999N009999199+02821+02021101471ADDMA1101461999999OC100771REMMET115MOBOB8 METAR XM22 //001 022409 311152Z AUTO 17009G15KT 9999 28/20 A2996      RMK A02 SLP147 T02820202 PA-27 DA1806=
0150008416999992015083112524-02200+040900FM-15+001099999V0201701N005119999999N009999199+02681+02021101401ADDMA1101391999999OC100821REMMET115MOBOB8 METAR XM22 //001 022409 311252Z AUTO 17010G16KT 9999 27/20 A2994      RMK A02 SLP140 T02680202 PA-08 DA1670=
0150008416999992015083113524-02200+040900FM-15+001099999V0201601N004619999999N009999199+02661+02021101371ADDMA1101351999999OC100881REMMET115MOBOB8 METAR XM22 //001 022409 311352Z AUTO 16009G17KT 9999 27/20 A2993      RMK A02 SLP137 T02660202 PA001 DA1659=
0150008416999992015083114524-02200+040900FM-15+001099999V0201601N004619999999N009999199+02571+02001101371ADDMA1101351999999OC100821REMMET115MOBOB8 METAR XM22 //001 022409 311452Z AUTO 16009G16KT 9999 26/20 A2993      RMK A02 SLP137 T02570200 PA001 DA1555=
0139008416999992015083115524-02200+040900FM-15+001099999V0201701N003119999999N009999199+02501+02011101441ADDMA1101421999999REMMET112MOBOB8 METAR XM22 //001 022409 311552Z AUTO 17006KT 9999 25/20 A2995      RMK A02 SLP144 T02500201 PA-17 DA1455=
0139008416999992015083116524-02200+040900FM-15+001099999V0201701N003119999999N009999199+02481+02031101441ADDMA1101421999999REMMET112MOBOB8 METAR XM22 //001 022409 311652Z AUTO 17006KT 9999 25/20 A2995      RMK A02 SLP144 T02480203 PA-17 DA1436=
0139008416999992015083117524-02200+040900FM-15+001099999V0201701N003119999999N009999199+02471+02041101511ADDMA1101491999999REMMET112MOBOB8 METAR XM22 //001 022409 311752Z AUTO 17006KT 9999 25/20 A2997      RMK A02 SLP151 T02470204 PA-36 DA1404=
0139008416999992015083118524-02200+040900FM-15+001099999V0201601N002619999999N009999199+02451+02031101541ADDMA1101521999999REMMET112MOBOB8 METAR XM22 //001 022409 311852Z AUTO 16005KT 9999 25/20 A2998      RMK A02 SLP154 T02450203 PA-45 DA1368=
0139008416999992015083119524-02200+040900FM-15+001099999V0201701N003119999999N009999199+02431+02041101571ADDMA1101561999999REMMET112MOBOB8 METAR XM22 //001 022409 311952Z AUTO 17006KT 9999 24/20 A2999      RMK A02 SLP157 T02430204 PA-54 DA1335=
0139008416999992015083120524-02200+040900FM-15+001099999V0201701N003619999999N009999199+02431+02011101511ADDMA1101491999999REMMET112MOBOB8 METAR XM22 //001 022409 312052Z AUTO 17007KT 9999 24/20 A2997      RMK A02 SLP151 T02430201 PA-36 DA1353=
0139008416999992015083121524-02200+040900FM-15+001099999V0201701N003119999999N009999199+02421+02031101441ADDMA1101421999999REMMET112MOBOB8 METAR XM22 //001 022409 312152Z AUTO 17006KT 9999 24/20 A2995      RMK A02 SLP144 T02420203 PA-17 DA1367=
0139008416999992015083122524-02200+040900FM-15+001099999V0201701N002619999999N009999199+02421+02041101401ADDMA1101391999999REMMET112MOBOB8 METAR XM22 //001 022409 312252Z AUTO 17005KT 9999 24/20 A2994      RMK A02 SLP140 T02420204 PA-08 DA1381=
0139008416999992015083123524-02200+040900FM-15+001099999V0201701N002619999999N009999199+02431+02041101371ADDMA1101351999999REMMET112MOBOB8 METAR XM22 //001 022409 312352Z AUTO 17005KT 9999 24/20 A2993      RMK A02 SLP137 T02430204 PA001 DA1404=
0139008416999992015090100524-02200+040900FM-15+001099999V0201701N002619999999N009999199+02441+02081101371ADDMA1101351999999REMMET112MOBOB8 METAR XM22 //001 022409 010052Z AUTO 17005KT 9999 24/21 A2993      RMK A02 SLP137 T02440208 PA001 DA1422=
0139008416999992015090101524-02200+040900FM-15+001099999V0201701N002619999999N009999199+02421+02061101441ADDMA1101421999999REMMET112MOBOB8 METAR XM22 //001 022409 010152Z AUTO 17005KT 9999 24/21 A2995      RMK A02 SLP144 T02420206 PA-17 DA1373=
0139008416999992015090102524-02200+040900FM-15+001099999V0201801N001519999999N009999199+02381+02081101471ADDMA1101461999999REMMET112MOBOB8 METAR XM22 //001 022409 010252Z AUTO 18003KT 9999 24/21 A2996      RMK A02 SLP147 T02380208 PA-27 DA1321=
0139008416999992015090103524-02200+040900FM-15+001099999V0201701N001519999999N009999199+02401+02091101511ADDMA1101491999999REMMET112MOBOB8 METAR XM22 //001 022409 010352Z AUTO 17003KT 9999 24/21 A2997      RMK A02 SLP151 T02400209 PA-36 DA1332=
0166008416999992015090104524-02200+040900FM-15+001099999V0201701N002619999999N009000199+02491+02151101611ADDAA101000021AW1611MA1101591999999REMMET122MOBOB8 METAR XM22 //001 022409 010452Z AUTO 17005KT 9000 -RA 25/22      A3000 RMK A02 SLP161 P0000 T02490215 PA-64 DA1414=
0150008416999992015090105524-02200+040900FM-15+001099999V0201501N006219999999N009999199+02731+02041101671ADDMA1101661999999OC100881REMMET115MOBOB8 METAR XM22 //001 022409 010552Z AUTO 15012G17KT 9999 27/20 A3002      RMK A02 SLP167 T02730204 PA-82 DA1641=
0150008416999992015090106524-02200+040900FM-15+001099999V0201701N004619999999N009999199+02711+02031101711ADDMA1101691999999OC100771REMMET115MOBOB8 METAR XM22 //001 022409 010652Z AUTO 17009G15KT 9999 27/20 A3003      RMK A02 SLP171 T02710203 PA-91 DA1604=
0150008416999992015090107524-02200+040900FM-15+001099999V0201601N005119999999N009999199+02781+02021101711ADDMA1101691999999OC100981REMMET115MOBOB8 METAR XM22 //001 022409 010752Z AUTO 16010G19KT 9999 28/20 A3003      RMK A02 SLP171 T02780202 PA-91 DA1681=
0150008416999992015090108524-02200+040900FM-15+001099999V0201701N004119999999N009999199+02841+02071101611ADDMA1101591999999OC100771REMMET115MOBOB8 METAR XM22 //001 022409 010852Z AUTO 17008G15KT 9999 28/21 A3000      RMK A02 SLP161 T02840207 PA-64 DA1792=
0150008416999992015090109524-02200+040900FM-15+001099999V0201701N005119999999N009999199+02881+02081101571ADDMA1101561999999OC100821REMMET115MOBOB8 METAR XM22 //001 022409 010952Z AUTO 17010G16KT 9999 29/21 A2999      RMK A02 SLP157 T02880208 PA-54 DA1849=
0150008416999992015090110524-02200+040900FM-15+001099999V0201701N004619999999N009999199+02811+02021101471ADDMA1101461999999OC100821REMMET115MOBOB8 METAR XM22 //001 022409 011052Z AUTO 17009G16KT 9999 28/20 A2996      RMK A02 SLP147 T02810202 PA-27 DA1795=
0150008416999992015090111524-02200+040900FM-15+001099999V0201701N004619999999N009999199+02791+02031101401ADDMA1101391999999OC100931REMMET115MOBOB8 METAR XM22 //001 022409 011152Z AUTO 17009G18KT 9999 28/20 A2994      RMK A02 SLP140 T02790203 PA-08 DA1797=
0150008416999992015090112524-02200+040900FM-15+001099999V0201701N005119999999N009999199+02761+02031101341ADDMA1101321999999OC100881REMMET115MOBOB8 METAR XM22 //001 022409 011252Z AUTO 17010G17KT 9999 28/20 A2992      RMK A02 SLP134 T02760203 PA010 DA1786=
0150008416999992015090113524-02200+040900FM-15+001099999V0201601N005719999999N009999199+02671+02061101341ADDMA1101321999999OC100931REMMET115MOBOB8 METAR XM22 //001 022409 011352Z AUTO 16011G18KT 9999 27/21 A2992      RMK A02 SLP134 T02670206 PA010 DA1691=
0150008416999992015090114524-02200+040900FM-15+001099999V0201701N004619999999N009999199+02601+02071101371ADDMA1101351999999OC100721REMMET115MOBOB8 METAR XM22 //001 022409 011452Z AUTO 17009G14KT 9999 26/21 A2993      RMK A02 SLP137 T02600207 PA001 DA1601=
0139008416999992015090115524-02200+040900FM-15+001099999V0201701N003619999999N009999199+02511+02081101401ADDMA1101391999999REMMET112MOBOB8 METAR XM22 //001 022409 011552Z AUTO 17007KT 9999 25/21 A2994      RMK A02 SLP140 T02510208 PA-08 DA1490=
0139008416999992015090116524-02200+040900FM-15+001099999V0201701N003619999999N009999199+02501+02091101441ADDMA1101421999999REMMET112MOBOB8 METAR XM22 //001 022409 011652Z AUTO 17007KT 9999 25/21 A2995      RMK A02 SLP144 T02500209 PA-17 DA1470=
0139008416999992015090117524-02200+040900FM-15+001099999V0201701N003619999999N009999199+02501+02101101511ADDMA1101491999999REMMET112MOBOB8 METAR XM22 //001 022409 011752Z AUTO 17007KT 9999 25/21 A2997      RMK A02 SLP151 T02500210 PA-36 DA1450=
0139008416999992015090118524-02200+040900FM-15+001099999V0201601N003119999999N009999199+02471+02091101511ADDMA1101491999999REMMET112MOBOB8 METAR XM22 //001 022409 011852Z AUTO 16006KT 9999 25/21 A2997      RMK A02 SLP151 T02470209 PA-36 DA1413=
0139008416999992015090119524-02200+040900FM-15+001099999V0201601N003119999999N009999199+02461+02111101541ADDMA1101521999999REMMET112MOBOB8 METAR XM22 //001 022409 011952Z AUTO 16006KT 9999 25/21 A2998      RMK A02 SLP154 T02460211 PA-45 DA1394=
0139008416999992015090120524-02200+040900FM-15+001099999V0201601N003119999999N009999199+02441+02091101511ADDMA1101491999999REMMET112MOBOB8 METAR XM22 //001 022409 012052Z AUTO 16006KT 9999 24/21 A2997      RMK A02 SLP151 T02440209 PA-36 DA1379=
0139008416999992015090121524-02200+040900FM-15+001099999V0201701N002619999999N009999199+02411+02071101511ADDMA1101491999999REMMET112MOBOB8 METAR XM22 //001 022409 012152Z AUTO 17005KT 9999 24/21 A2997      RMK A02 SLP151 T02410207 PA-36 DA1342=
0139008416999992015090122524-02200+040900FM-15+001099999V0201701N002619999999N009999199+02411+02081101441ADDMA1101421999999REMMET112MOBOB8 METAR XM22 //001 022409 012252Z AUTO 17005KT 9999 24/21 A2995      RMK A02 SLP144 T02410208 PA-17 DA1366=
0139008416999992015090123524-02200+040900FM-15+001099999V0201701N002619999999N009999199+02401+02101101371ADDMA1101351999999REMMET112MOBOB8 METAR XM22 //001 022409 012352Z AUTO 17005KT 9999 24/21 A2993      RMK A02 SLP137 T02400210 PA001 DA1380=
0139008416999992015090200524-02200+040900FM-15+001099999V0201701N002619999999N009999199+02401+02091101371ADDMA1101351999999REMMET112MOBOB8 METAR XM22 //001 022409 020052Z AUTO 17005KT 9999 24/21 A2993      RMK A02 SLP137 T02400209 PA001 DA1379=
0139008416999992015090201524-02200+040900FM-15+001099999V0201701N002619999999N009999199+02401+02091101401ADDMA1101391999999REMMET112MOBOB8 METAR XM22 //001 022409 020152Z AUTO 17005KT 9999 24/21 A2994      RMK A02 SLP140 T02400209 PA-08 DA1368=
0139008416999992015090202534-02200+040900FM-15+001099999V0201701N002119999999N009999199+02371+02041101401ADDMA1101391999999REMMET112MOBOB8 METAR XM22 //001 022409 020253Z AUTO 17004KT 9999 24/20 A2994      RMK A02 SLP140 T02370204 PA-08 DA1323=
0139008416999992015090203524-02200+040900FM-15+001099999V0201801N000519999999N009999199+02331+02071101471ADDMA1101461999999REMMET112MOBOB8 METAR XM22 //001 022409 020352Z AUTO 18001KT 9999 23/21 A2996      RMK A02 SLP147 T02330207 PA-27 DA1260=
0139008416999992015090204524-02200+040900FM-15+001099999V0201601N003619999999N009999199+02611+02101101571ADDMA1101561999999REMMET112MOBOB8 METAR XM22 //001 022409 020452Z AUTO 16007KT 9999 26/21 A2999      RMK A02 SLP157 T02610210 PA-54 DA1550=
0150008416999992015090205524-02200+040900FM-15+001099999V0201601N004119999999N009999199+02651+02061101641ADDMA1101631999999OC100721REMMET115MOBOB8 METAR XM22 //001 022409 020552Z AUTO 16008G14KT 9999 27/21 A3001      RMK A02 SLP164 T02650206 PA-73 DA1565=
0150008416999992015090206524-02200+040900FM-15+001099999V0201701N004119999999N009999199+02801+02051101641ADDMA1101631999999OC100671REMMET115MOBOB8 METAR XM22 //001 022409 020652Z AUTO 17008G13KT 9999 28/20 A3001      RMK A02 SLP164 T02800205 PA-73 DA1732=
0150008416999992015090207524-02200+040900FM-15+001099999V0201701N003619999999N009999199+02821+02021101611ADDMA1101591999999OC100671REMMET115MOBOB8 METAR XM22 //001 022409 020752Z AUTO 17007G13KT 9999 28/20 A3000      RMK A02 SLP161 T02820202 PA-64 DA1761=
0150008416999992015090208524-02200+040900FM-15+001099999V0201601N004619999999N009999199+02891+02081101541ADDMA1101521999999OC100771REMMET115MOBOB8 METAR XM22 //001 022409 020852Z AUTO 16009G15KT 9999 29/21 A2998      RMK A02 SLP154 T02890208 PA-45 DA1872=
0150008416999992015090209524-02200+040900FM-15+001099999V0201701N004119999999N009999199+02891+02031101441ADDMA1101421999999OC100721REMMET115MOBOB8 METAR XM22 //001 022409 020952Z AUTO 17008G14KT 9999 29/20 A2995      RMK A02 SLP144 T02890203 PA-17 DA1898=
0150008416999992015090210524-02200+040900FM-15+001099999V0201601N004619999999N009999199+02851+02021101341ADDMA1101321999999OC100671REMMET115MOBOB8 METAR XM22 //001 022409 021052Z AUTO 16009G13KT 9999 29/20 A2992      RMK A02 SLP134 T02850202 PA010 DA1885=
0150008416999992015090211524-02200+040900FM-15+001099999V0201701N003619999999N009999199+02831+02081101271ADDMA1101251999999OC100771REMMET115MOBOB8 METAR XM22 //001 022409 021152Z AUTO 17007G15KT 9999 28/21 A2990      RMK A02 SLP127 T02830208 PA029 DA1897=
0150008416999992015090212524-02200+040900FM-15+001099999V0201601N004619999999N009999199+02761+01991101231ADDMA1101221999999OC100721REMMET115MOBOB8 METAR XM22 //001 022409 021252Z AUTO 16009G14KT 9999 28/20 A2989      RMK A02 SLP123 T02760199 PA038 DA1813=
0150008416999992015090213524-02200+040900FM-15+001099999V0201601N004619999999N009999199+02681+02051101271ADDMA1101251999999OC100771REMMET115MOBOB8 METAR XM22 //001 022409 021352Z AUTO 16009G15KT 9999 27/20 A2990      RMK A02 SLP127 T02680205 PA029 DA1722=
0150008416999992015090214524-02200+040900FM-15+001099999V0201701N004119999999N009999199+02581+02091101271ADDMA1101251999999OC100671REMMET115MOBOB8 METAR XM22 //001 022409 021452Z AUTO 17008G13KT 9999 26/21 A2990      RMK A02 SLP127 T02580209 PA029 DA1618=
0139008416999992015090215524-02200+040900FM-15+001099999V0201701N003619999999N009999199+02521+02111101271ADDMA1101251999999REMMET112MOBOB8 METAR XM22 //001 022409 021552Z AUTO 17007KT 9999 25/21 A2990      RMK A02 SLP127 T02520211 PA029 DA1553=
0139008416999992015090216524-02200+040900FM-15+001099999V0201701N003119999999N009999199+02491+02091101301ADDMA1101291999999REMMET112MOBOB8 METAR XM22 //001 022409 021652Z AUTO 17006KT 9999 25/21 A2991      RMK A02 SLP130 T02490209 PA020 DA1504=
0139008416999992015090217524-02200+040900FM-15+001099999V0201701N002119999999N009999199+02461+02081101401ADDMA1101391999999REMMET112MOBOB8 METAR XM22 //001 022409 021752Z AUTO 17004KT 9999 25/21 A2994      RMK A02 SLP140 T02460208 PA-08 DA1433=
0139008416999992015090218524-02200+040900FM-15+001099999V0201701N003119999999N009999199+02471+02101101471ADDMA1101461999999REMMET112MOBOB8 METAR XM22 //001 022409 021852Z AUTO 17006KT 9999 25/21 A2996      RMK A02 SLP147 T02470210 PA-27 DA1426=
0139008416999992015090219524-02200+040900FM-15+001099999V0201701N002119999999N009999199+02431+02071101511ADDMA1101491999999REMMET112MOBOB8 METAR XM22 //001 022409 021952Z AUTO 17004KT 9999 24/21 A2997      RMK A02 SLP151 T02430207 PA-36 DA1363=
0139008416999992015090220524-02200+040900FM-15+001099999V0201701N001519999999N009999199+02371+02081101471ADDMA1101461999999REMMET112MOBOB8 METAR XM22 //001 022409 022052Z AUTO 17003KT 9999 24/21 A2996      RMK A02 SLP147 T02370208 PA-27 DA1309=
0139008416999992015090221524-02200+040900FM-15+001099999V0201801N001519999999N009999199+02351+02071101401ADDMA1101391999999REMMET112MOBOB8 METAR XM22 //001 022409 022152Z AUTO 18003KT 9999 24/21 A2994      RMK A02 SLP140 T02350207 PA-08 DA1307=
0139008416999992015090222524-02200+040900FM-15+001099999V0201801N001019999999N009999199+02321+02071101341ADDMA1101321999999REMMET112MOBOB8 METAR XM22 //001 022409 022252Z AUTO 18002KT 9999 23/21 A2992      RMK A02 SLP134 T02320207 PA010 DA1294=
0139008416999992015090223524-02200+040900FM-15+001099999V0201801N001019999999N009999199+02301+02061101271ADDMA1101251999999REMMET112MOBOB8 METAR XM22 //001 022409 022352Z AUTO 18002KT 9999 23/21 A2990      RMK A02 SLP127 T02300206 PA029 DA1293=
0139008416999992015090300524-02200+040900FM-15+001099999V0201901N001019999999N009999199+02291+02061101271ADDMA1101251999999REMMET112MOBOB8 METAR XM22 //001 022409 030052Z AUTO 19002KT 9999 23/21 A2990      RMK A02 SLP127 T02290206 PA029 DA1282=
0139008416999992015090301524-02200+040900FM-15+001099999V0202001N000519999999N009999199+02241+02031101301ADDMA1101291999999REMMET112MOBOB8 METAR XM22 //001 022409 030152Z AUTO 20001KT 9999 22/20 A2991      RMK A02 SLP130 T02240203 PA020 DA1208=
0139008416999992015090302524-02200+040900FM-15+001099999V0209999C000019999999N009999199+02201+02011101341ADDMA1101321999999REMMET112MOBOB8 METAR XM22 //001 022409 030252Z AUTO 00000KT 9999 22/20 A2992      RMK A02 SLP134 T02200201 PA010 DA1147=
0139008416999992015090303524-02200+040900FM-15+001099999V0201801N000519999999N009999199+02261+02071101401ADDMA1101391999999REMMET112MOBOB8 METAR XM22 //001 022409 030352Z AUTO 18001KT 9999 23/21 A2994      RMK A02 SLP140 T02260207 PA-08 DA1204=
0139008416999992015090304524-02200+040900FM-15+001099999V0201701N001519999999N009999199+02511+02171101511ADDMA1101491999999REMMET112MOBOB8 METAR XM22 //001 022409 030452Z AUTO 17003KT 9999 25/22 A2997      RMK A02 SLP151 T02510217 PA-36 DA1474=
0139008416999992015090305524-02200+040900FM-15+001099999V0201701N003119999999N009999199+02681+02101101571ADDMA1101561999999REMMET112MOBOB8 METAR XM22 //001 022409 030552Z AUTO 17006KT 9999 27/21 A2999      RMK A02 SLP157 T02680210 PA-54 DA1629=
0139008416999992015090306524-02200+040900FM-15+001099999V0201701N003619999999N009999199+02811+02101101571ADDMA1101561999999REMMET112MOBOB8 METAR XM22 //001 022409 030652Z AUTO 17007KT 9999 28/21 A2999      RMK A02 SLP157 T02810210 PA-54 DA1776=
0150008416999992015090307524-02200+040900FM-15+001099999V0201601N005119999999N009999199+02881+02031101511ADDMA1101491999999OC100881REMMET115MOBOB8 METAR XM22 //001 022409 030752Z AUTO 16010G17KT 9999 29/20 A2997      RMK A02 SLP151 T02880203 PA-36 DA1862=
0150008416999992015090308524-02200+040900FM-15+001099999V0201701N004619999999N009999199+02871+02071101471ADDMA1101461999999OC100881REMMET115MOBOB8 METAR XM22 //001 022409 030852Z AUTO 17009G17KT 9999 29/21 A2996      RMK A02 SLP147 T02870207 PA-27 DA1871=
0150008416999992015090309524-02200+040900FM-15+001099999V0201701N004619999999N009999199+02791+02031101371ADDMA1101351999999OC100721REMMET115MOBOB8 METAR XM22 //001 022409 030952Z AUTO 17009G14KT 9999 28/20 A2993      RMK A02 SLP137 T02790203 PA001 DA1808=
0150008416999992015090310524-02200+040900FM-15+001099999V0201701N004619999999N009999199+02851+01991101301ADDMA1101291999999OC100931REMMET115MOBOB8 METAR XM22 //001 022409 031052Z AUTO 17009G18KT 9999 29/20 A2991      RMK A02 SLP130 T02850199 PA020 DA1891=
0150008416999992015090311524-02200+040900FM-15+001099999V0201701N004119999999N009999199+02851+02061101231ADDMA1101221999999OC100771REMMET115MOBOB8 METAR XM22 //001 022409 031152Z AUTO 17008G15KT 9999 29/21 A2989      RMK A02 SLP123 T02850206 PA038 DA1927=
0150008416999992015090312524-02200+040900FM-15+001099999V0201701N005119999999N009999199+02741+02141101201ADDMA1101181999999OC100771REMMET115MOBOB8 METAR XM22 //001 022409 031252Z AUTO 17010G15KT 9999 27/21 A2988      RMK A02 SLP120 T02740214 PA047 DA1830=
0150008416999992015090313524-02200+040900FM-15+001099999V0201701N004119999999N009999199+02631+02091101231ADDMA1101221999999OC100671REMMET115MOBOB8 METAR XM22 //001 022409 031352Z AUTO 17008G13KT 9999 26/21 A2989      RMK A02 SLP123 T02630209 PA038 DA1686=
0139008416999992015090314524-02200+040900FM-15+001099999V0201701N003119999999N009999199+02511+02111101271ADDMA1101251999999REMMET112MOBOB8 METAR XM22 //001 022409 031452Z AUTO 17006KT 9999 25/21 A2990      RMK A02 SLP127 T02510211 PA029 DA1542=
0139008416999992015090315524-02200+040900FM-15+001099999V0201701N002619999999N009999199+02481+02111101341ADDMA1101321999999REMMET112MOBOB8 METAR XM22 //001 022409 031552Z AUTO 17005KT 9999 25/21 A2992      RMK A02 SLP134 T02480211 PA010 DA1485=
0139008416999992015090316524-02200+040900FM-15+001099999V0201701N002619999999N009999199+02471+02101101341ADDMA1101321999999REMMET112MOBOB8 METAR XM22 //001 022409 031652Z AUTO 17005KT 9999 25/21 A2992      RMK A02 SLP134 T02470210 PA010 DA1473=
0139008416999992015090317524-02200+040900FM-15+001099999V0201701N002119999999N009999199+02451+02161101371ADDMA1101351999999REMMET112MOBOB8 METAR XM22 //001 022409 031752Z AUTO 17004KT 9999 25/22 A2993      RMK A02 SLP137 T02450216 PA001 DA1450=
0139008416999992015090318524-02200+040900FM-15+001099999V0201701N002119999999N009999199+02491+02161101441ADDMA1101421999999REMMET112MOBOB8 METAR XM22 //001 022409 031852Z AUTO 17004KT 9999 25/22 A2995      RMK A02 SLP144 T02490216 PA-17 DA1473=
0186008416999992015090319524-02200+040900FM-15+001099999V0201701N003619999999N007000199+02341+02191101471ADDAA101000021AW1101AW2611MA1101461999999OC100671REMMET128MOBOB8 METAR XM22 //001 022409 031952Z AUTO 17007G13KT 7000 -RA BR      23/22 A2996 RMK A02 SLP147 P0000 T02340219 PA-27 DA1296=
0166008416999992015090320524-02200+040900FM-15+001099999V0201801N001019999999N009000199+02351+02211101441ADDAA101000021AW1611MA1101421999999REMMET122MOBOB8 METAR XM22 //001 022409 032052Z AUTO 18002KT 9000 -RA 24/22      A2995 RMK A02 SLP144 P0000 T02350221 PA-17 DA1323=
0166008416999992015090321524-02200+040900FM-15+001099999V0201801N001519999999N009000199+02371+02231101401ADDAA101000231AW1611MA1101391999999REMMET122MOBOB8 METAR XM22 //001 022409 032152Z AUTO 18003KT 9000 -RA 24/22      A2994 RMK A02 SLP140 P0001 T02370223 PA-08 DA1362=
0139008416999992015090322524-02200+040900FM-15+001099999V0201801N001019999999N009999199+02381+02231101341ADDMA1101321999999REMMET112MOBOB8 METAR XM22 //001 022409 032252Z AUTO 18002KT 9999 24/22 A2992      RMK A02 SLP134 T02380223 PA010 DA1396=
0139008416999992015090323524-02200+040900FM-15+001099999V0201701N002619999999N009999199+02401+02211101301ADDMA1101291999999REMMET112MOBOB8 METAR XM22 //001 022409 032352Z AUTO 17005KT 9999 24/22 A2991      RMK A02 SLP130 T02400221 PA020 DA1425=
0139008416999992015090400524-02200+040900FM-15+001099999V0201701N002619999999N009999199+02391+02191101301ADDMA1101291999999REMMET112MOBOB8 METAR XM22 //001 022409 040052Z AUTO 17005KT 9999 24/22 A2991      RMK A02 SLP130 T02390219 PA020 DA1410=
0139008416999992015090401524-02200+040900FM-15+001099999V0201701N002119999999N009999199+02391+02181101341ADDMA1101321999999REMMET112MOBOB8 METAR XM22 //001 022409 040152Z AUTO 17004KT 9999 24/22 A2992      RMK A02 SLP134 T02390218 PA010 DA1397=
0139008416999992015090402524-02200+040900FM-15+001099999V0201701N003119999999N009999199+02411+02161101441ADDMA1101421999999REMMET112MOBOB8 METAR XM22 //001 022409 040252Z AUTO 17006KT 9999 24/22 A2995      RMK A02 SLP144 T02410216 PA-17 DA1380=
0139008416999992015090403524-02200+040900FM-15+001099999V0201801N001519999999N009999199+02421+02171101511ADDMA1101491999999REMMET112MOBOB8 METAR XM22 //001 022409 040352Z AUTO 18003KT 9999 24/22 A2997      RMK A02 SLP151 T02420217 PA-36 DA1373=
0150008416999992015090404524-02200+040900FM-15+001099999V0201701N003619999999N009999199+02551+02141101571ADDMA1101561999999OC100671REMMET115MOBOB8 METAR XM22 //001 022409 040452Z AUTO 17007G13KT 9999 26/21 A2999      RMK A02 SLP157 T02550214 PA-54 DA1490=
0150008416999992015090405524-02200+040900FM-15+001099999V0201601N005119999999N009999199+02671+02091101641ADDMA1101631999999OC100881REMMET115MOBOB8 METAR XM22 //001 022409 040552Z AUTO 16010G17KT 9999 27/21 A3001      RMK A02 SLP164 T02670209 PA-73 DA1593=
0150008416999992015090406524-02200+040900FM-15+001099999V0201701N005119999999N009999199+02751+02061101671ADDMA1101661999999OC100821REMMET115MOBOB8 METAR XM22 //001 022409 040652Z AUTO 17010G16KT 9999 28/21 A3002      RMK A02 SLP167 T02750206 PA-82 DA1667=
0177008416999992015090407524-02200+040900FM-15+001099999V0201701N004119999999N009000199+02681+02071101711ADDAA101000021AW1611MA1101691999999OC100721REMMET125MOBOB8 METAR XM22 //001 022409 040752Z AUTO 17008G14KT 9000 -RA 27/21      A3003 RMK A02 SLP171 P0000 T02680207 PA-91 DA1578=
0150008416999992015090408524-02200+040900FM-15+001099999V0201701N005119999999N009999199+02751+02041101641ADDMA1101631999999OC100931REMMET115MOBOB8 METAR XM22 //001 022409 040852Z AUTO 17010G18KT 9999 28/20 A3001      RMK A02 SLP164 T02750204 PA-73 DA1675=
0177008416999992015090409524-02200+040900FM-15+001099999V0201701N005119999999N009000199+02851+02001101541ADDAA101000021AW1611MA1101521999999OC100981REMMET125MOBOB8 METAR XM22 //001 022409 040952Z AUTO 17010G19KT 9000 -RA 29/20      A2998 RMK A02 SLP154 P0000 T02850200 PA-45 DA1813=
0150008416999992015090410524-02200+040900FM-15+001099999V0201601N005719999999N009999199+02761+01981101471ADDMA1101461999999OC100981REMMET115MOBOB8 METAR XM22 //001 022409 041052Z AUTO 16011G19KT 9999 28/20 A2996      RMK A02 SLP147 T02760198 PA-27 DA1732=
0150008416999992015090411524-02200+040900FM-15+001099999V0201701N005119999999N009999199+02731+01971101401ADDMA1101391999999OC100821REMMET115MOBOB8 METAR XM22 //001 022409 041152Z AUTO 17010G16KT 9999 27/20 A2994      RMK A02 SLP140 T02730197 PA-08 DA1718=
0150008416999992015090412524-02200+040900FM-15+001099999V0201601N005119999999N009999199+02721+01981101401ADDMA1101391999999OC100981REMMET115MOBOB8 METAR XM22 //001 022409 041252Z AUTO 16010G19KT 9999 27/20 A2994      RMK A02 SLP140 T02720198 PA-08 DA1709=
0150008416999992015090413524-02200+040900FM-15+001099999V0201701N004619999999N009999199+02641+01951101401ADDMA1101391999999OC100881REMMET115MOBOB8 METAR XM22 //001 022409 041352Z AUTO 17009G17KT 9999 26/19 A2994      RMK A02 SLP140 T02640195 PA-08 DA1613=
0139008416999992015090414524-02200+040900FM-15+001099999V0201701N003619999999N009999199+02551+01941101441ADDMA1101421999999REMMET112MOBOB8 METAR XM22 //001 022409 041452Z AUTO 17007KT 9999 26/19 A2995      RMK A02 SLP144 T02550194 PA-17 DA1499=
0139008416999992015090415524-02200+040900FM-15+001099999V0201701N002619999999N009999199+02471+01981101441ADDMA1101421999999REMMET112MOBOB8 METAR XM22 //001 022409 041552Z AUTO 17005KT 9999 25/20 A2995      RMK A02 SLP144 T02470198 PA-17 DA1415=
0139008416999992015090416524-02200+040900FM-15+001099999V0201701N002119999999N009999199+02451+02011101511ADDMA1101491999999REMMET112MOBOB8 METAR XM22 //001 022409 041652Z AUTO 17004KT 9999 25/20 A2997      RMK A02 SLP151 T02450201 PA-36 DA1375=
0139008416999992015090417524-02200+040900FM-15+001099999V0201701N002119999999N009999199+02441+02041101511ADDMA1101491999999REMMET112MOBOB8 METAR XM22 //001 022409 041752Z AUTO 17004KT 9999 24/20 A2997      RMK A02 SLP151 T02440204 PA-36 DA1369=
0139008416999992015090418524-02200+040900FM-15+001099999V0201801N002619999999N009999199+02451+02121101571ADDMA1101561999999REMMET112MOBOB8 METAR XM22 //001 022409 041852Z AUTO 18005KT 9999 25/21 A2999      RMK A02 SLP157 T02450212 PA-54 DA1373=
0166008416999992015090419524-02200+040900FM-15+001099999V0202001N000519999999N009000199+02291+02101101571ADDAA101002031AW1611MA1101561999999REMMET122MOBOB8 METAR XM22 //001 022409 041952Z AUTO 20001KT 9000 -RA 23/21      A2999 RMK A02 SLP157 P0008 T02290210 PA-54 DA1188=
0139008416999992015090420524-02200+040900FM-15+001099999V0201701N002619999999N009999199+02361+02171101541ADDMA1101521999999REMMET112MOBOB8 METAR XM22 //001 022409 042052Z AUTO 17005KT 9999 24/22 A2998      RMK A02 SLP154 T02360217 PA-45 DA1292=
0139008416999992015090421524-02200+040900FM-15+001099999V0201701N001019999999N009999199+02331+02161101471ADDMA1101461999999REMMET112MOBOB8 METAR XM22 //001 022409 042152Z AUTO 17002KT 9999 23/22 A2996      RMK A02 SLP147 T02330216 PA-27 DA1278=
0166008416999992015090422524-02200+040900FM-15+001099999V0201701N003119999999N009000199+02401+02181101401ADDAA101000021AW1611MA1101391999999REMMET122MOBOB8 METAR XM22 //001 022409 042252Z AUTO 17006KT 9000 -RA 24/22      A2994 RMK A02 SLP140 P0000 T02400218 PA-08 DA1385=
0139008416999992015090423524-02200+040900FM-15+001099999V0201701N003119999999N009999199+02381+02091101401ADDMA1101391999999REMMET112MOBOB8 METAR XM22 //001 022409 042352Z AUTO 17006KT 9999 24/21 A2994      RMK A02 SLP140 T02380209 PA-08 DA1344=
0166008416999992015090500524-02200+040900FM-15+001099999V0201601N004119999999N009000199+02351+02121101441ADDAA101001031AW1611MA1101421999999REMMET122MOBOB8 METAR XM22 //001 022409 050052Z AUTO 16008KT 9000 -RA 24/21      A2995 RMK A02 SLP144 P0004 T02350212 PA-17 DA1305=
0139008416999992015090501524-02200+040900FM-15+001099999V0201601N002619999999N009999199+02331+02111101471ADDMA1101461999999REMMET112MOBOB8 METAR XM22 //001 022409 050152Z AUTO 16005KT 9999 23/21 A2996      RMK A02 SLP147 T02330211 PA-27 DA1268=
0139008416999992015090502524-02200+040900FM-15+001099999V0201501N002119999999N009999199+02381+02171101511ADDMA1101491999999REMMET112MOBOB8 METAR XM22 //001 022409 050252Z AUTO 15004KT 9999 24/22 A2997      RMK A02 SLP151 T02380217 PA-36 DA1326=
0139008416999992015090503524-02200+040900FM-15+001099999V0201701N003619999999N009999199+02461+02131101611ADDMA1101591999999REMMET112MOBOB8 METAR XM22 //001 022409 050352Z AUTO 17007KT 9999 25/21 A3000      RMK A02 SLP161 T02460213 PA-64 DA1376=
0150008416999992015090504524-02200+040900FM-15+001099999V0201601N005719999999N009999199+02611+02161101711ADDMA1101691999999OC100881REMMET115MOBOB8 METAR XM22 //001 022409 050452Z AUTO 16011G17KT 9999 26/22 A3003      RMK A02 SLP171 T02610216 PA-91 DA1517=
0151008416999992015090505524-02200+040900FM-15+001099999V0201701N005119999999N009999199+02641+02121101781ADDMA1101761999999OC100821REMMET116MOBOB8 METAR XM22 //001 022409 050552Z AUTO 17010G16KT 9999 26/21 A3005      RMK A02 SLP178 T02640212 PA-110 DA1520=
0151008416999992015090506524-02200+040900FM-15+001099999V0201701N004619999999N009999199+02691+02061101781ADDMA1101761999999OC100881REMMET116MOBOB8 METAR XM22 //001 022409 050652Z AUTO 17009G17KT 9999 27/21 A3005      RMK A02 SLP178 T02690206 PA-110 DA1566=
0151008416999992015090507524-02200+040900FM-15+001099999V0201601N005719999999N009999199+02771+02051101781ADDMA1101761999999OC100881REMMET116MOBOB8 METAR XM22 //001 022409 050752Z AUTO 16011G17KT 9999 28/20 A3005      RMK A02 SLP178 T02770205 PA-110 DA1652=
0150008416999992015090508524-02200+040900FM-15+001099999V0201701N005119999999N009999199+02801+02071101711ADDMA1101691999999OC100821REMMET115MOBOB8 METAR XM22 //001 022409 050852Z AUTO 17010G16KT 9999 28/21 A3003      RMK A02 SLP171 T02800207 PA-91 DA1714=
0150008416999992015090509524-02200+040900FM-15+001099999V0201701N004119999999N009999199+02801+02161101611ADDMA1101591999999OC100771REMMET115MOBOB8 METAR XM22 //001 022409 050952Z AUTO 17008G15KT 9999 28/22 A3000      RMK A02 SLP161 T02800216 PA-64 DA1765=
0150008416999992015090510524-02200+040900FM-15+001099999V0201701N005119999999N009999199+02831+02091101511ADDMA1101491999999OC100821REMMET115MOBOB8 METAR XM22 //001 022409 051052Z AUTO 17010G16KT 9999 28/21 A2997      RMK A02 SLP151 T02830209 PA-36 DA1818=
0150008416999992015090511524-02200+040900FM-15+001099999V0201601N004119999999N009999199+02821+02031101441ADDMA1101421999999OC100771REMMET115MOBOB8 METAR XM22 //001 022409 051152Z AUTO 16008G15KT 9999 28/20 A2995      RMK A02 SLP144 T02820203 PA-17 DA1819=
0139008416999992015090512524-02200+040900FM-15+001099999V0201701N003119999999N009999199+02761+02111101401ADDMA1101391999999REMMET112MOBOB8 METAR XM22 //001 022409 051252Z AUTO 17006KT 9999 28/21 A2994      RMK A02 SLP140 T02760211 PA-08 DA1778=
0150008416999992015090513524-02200+040900FM-15+001099999V0201601N004619999999N009999199+02691+02051101401ADDMA1101391999999OC100721REMMET115MOBOB8 METAR XM22 //001 022409 051352Z AUTO 16009G14KT 9999 27/20 A2994      RMK A02 SLP140 T02690205 PA-08 DA1688=
0139008416999992015090514524-02200+040900FM-15+001099999V0201701N003119999999N009999199+02621+02081101401ADDMA1101391999999REMMET112MOBOB8 METAR XM22 //001 022409 051452Z AUTO 17006KT 9999 26/21 A2994      RMK A02 SLP140 T02620208 PA-08 DA1615=
0139008416999992015090515524-02200+040900FM-15+001099999V0201701N002119999999N009999199+02481+02121101401ADDMA1101391999999REMMET112MOBOB8 METAR XM22 //001 022409 051552Z AUTO 17004KT 9999 25/21 A2994      RMK A02 SLP140 T02480212 PA-08 DA1464=
0139008416999992015090516524-02200+040900FM-15+001099999V0201701N002119999999N009999199+02451+02021101511ADDMA1101491999999REMMET112MOBOB8 METAR XM22 //001 022409 051652Z AUTO 17004KT 9999 25/20 A2997      RMK A02 SLP151 T02450202 PA-36 DA1376=
0139008416999992015090517524-02200+040900FM-15+001099999V0201701N002119999999N009999199+02451+02131101511ADDMA1101491999999REMMET112MOBOB8 METAR XM22 //001 022409 051752Z AUTO 17004KT 9999 25/21 A2997      RMK A02 SLP151 T02450213 PA-36 DA1398=
0139008416999992015090518524-02200+040900FM-15+001099999V0201701N002119999999N009999199+02441+02101101541ADDMA1101521999999REMMET112MOBOB8 METAR XM22 //001 022409 051852Z AUTO 17004KT 9999 24/21 A2998      RMK A02 SLP154 T02440210 PA-45 DA1370=
0139008416999992015090519524-02200+040900FM-15+001099999V0201701N002119999999N009999199+02441+02111101541ADDMA1101521999999REMMET112MOBOB8 METAR XM22 //001 022409 051952Z AUTO 17004KT 9999 24/21 A2998      RMK A02 SLP154 T02440211 PA-45 DA1371=
0139008416999992015090520524-02200+040900FM-15+001099999V0201701N002619999999N009999199+02451+02111101511ADDMA1101491999999REMMET112MOBOB8 METAR XM22 //001 022409 052052Z AUTO 17005KT 9999 25/21 A2997      RMK A02 SLP151 T02450211 PA-36 DA1393=
0139008416999992015090521524-02200+040900FM-15+001099999V0201701N003119999999N009999199+02451+02071101441ADDMA1101421999999REMMET112MOBOB8 METAR XM22 //001 022409 052152Z AUTO 17006KT 9999 25/21 A2995      RMK A02 SLP144 T02450207 PA-17 DA1409=
0139008416999992015090522524-02200+040900FM-15+001099999V0201601N002619999999N009999199+02421+02061101371ADDMA1101351999999REMMET112MOBOB8 METAR XM22 //001 022409 052252Z AUTO 16005KT 9999 24/21 A2993      RMK A02 SLP137 T02420206 PA001 DA1395=
0139008416999992015090523524-02200+040900FM-15+001099999V0201701N002119999999N009999199+02391+02061101401ADDMA1101391999999REMMET112MOBOB8 METAR XM22 //001 022409 052352Z AUTO 17004KT 9999 24/21 A2994      RMK A02 SLP140 T02390206 PA-08 DA1350=
0139008416999992015090600524-02200+040900FM-15+001099999V0201701N002119999999N009999199+02381+02051101401ADDMA1101391999999REMMET112MOBOB8 METAR XM22 //001 022409 060052Z AUTO 17004KT 9999 24/21 A2994      RMK A02 SLP140 T02380205 PA-08 DA1338=
0139008416999992015090601524-02200+040900FM-15+001099999V0201701N002119999999N009999199+02421+02041101441ADDMA1101421999999REMMET112MOBOB8 METAR XM22 //001 022409 060152Z AUTO 17004KT 9999 24/20 A2995      RMK A02 SLP144 T02420204 PA-17 DA1369=
0139008416999992015090602524-02200+040900FM-15+001099999V0201701N002119999999N009999199+02371+02041101511ADDMA1101491999999REMMET112MOBOB8 METAR XM22 //001 022409 060252Z AUTO 17004KT 9999 24/20 A2997      RMK A02 SLP151 T02370204 PA-36 DA1290=
0139008416999992015090603524-02200+040900FM-15+001099999V0201701N002119999999N009999199+02431+02031101571ADDMA1101561999999REMMET112MOBOB8 METAR XM22 //001 022409 060352Z AUTO 17004KT 9999 24/20 A2999      RMK A02 SLP157 T02430203 PA-54 DA1334=
0139008416999992015090604524-02200+040900FM-15+001099999V0201701N003619999999N009999199+02631+02071101641ADDMA1101631999999REMMET112MOBOB8 METAR XM22 //001 022409 060452Z AUTO 17007KT 9999 26/21 A3001      RMK A02 SLP164 T02630207 PA-73 DA1545=
0151008416999992015090605524-02200+040900FM-15+001099999V0201701N004619999999N009999199+02681+02051101741ADDMA1101731999999OC100771REMMET116MOBOB8 METAR XM22 //001 022409 060552Z AUTO 17009G15KT 9999 27/20 A3004      RMK A02 SLP174 T02680205 PA-100 DA1563=
0140008416999992015090606524-02200+040900FM-15+001099999V0201701N003619999999N009999199+02771+02041101741ADDMA1101731999999REMMET113MOBOB8 METAR XM22 //001 022409 060652Z AUTO 17007KT 9999 28/20 A3004      RMK A02 SLP174 T02770204 PA-100 DA1663=
0150008416999992015090607524-02200+040900FM-15+001099999V0201701N004119999999N009999199+02861+02111101711ADDMA1101691999999OC100771REMMET115MOBOB8 METAR XM22 //001 022409 060752Z AUTO 17008G15KT 9999 29/21 A3003      RMK A02 SLP171 T02860211 PA-91 DA1788=
0150008416999992015090608524-02200+040900FM-15+001099999V0201701N004619999999N009999199+02841+02121101641ADDMA1101631999999OC100821REMMET115MOBOB8 METAR XM22 //001 022409 060852Z AUTO 17009G16KT 9999 28/21 A3001      RMK A02 SLP164 T02840212 PA-73 DA1790=
0177008416999992015090609524-02200+040900FM-15+001099999V0201601N005119999999N009000199+02831+02171101571ADDAA101000021AW1611MA1101561999999OC100881REMMET125MOBOB8 METAR XM22 //001 022409 060952Z AUTO 16010G17KT 9000 -RA 28/22      A2999 RMK A02 SLP157 P0000 T02830217 PA-54 DA1812=
0166008416999992015090610524-02200+040900FM-15+001099999V0201701N003619999999N009000199+02611+02321101511ADDAA101000531AW1611MA1101491999999REMMET122MOBOB8 METAR XM22 //001 022409 061052Z AUTO 17007KT 9000 -RA 26/23      A2997 RMK A02 SLP151 P0002 T02610232 PA-36 DA1619=
0177008416999992015090611524-02200+040900FM-15+001099999V0201701N004619999999N009000199+02591+02241101471ADDAA101000021AW1611MA1101461999999OC100771REMMET125MOBOB8 METAR XM22 //001 022409 061152Z AUTO 17009G15KT 9000 -RA 26/22      A2996 RMK A02 SLP147 P0000 T02590224 PA-27 DA1590=
0150008416999992015090612524-02200+040900FM-15+001099999V0201701N004119999999N009999199+02681+02091101441ADDMA1101421999999OC100771REMMET115MOBOB8 METAR XM22 //001 022409 061252Z AUTO 17008G15KT 9999 27/21 A2995      RMK A02 SLP144 T02680209 PA-17 DA1673=
0150008416999992015090613524-02200+040900FM-15+001099999V0201701N004119999999N009999199+02621+02141101441ADDMA1101421999999OC100931REMMET115MOBOB8 METAR XM22 //001 022409 061352Z AUTO 17008G18KT 9999 26/21 A2995      RMK A02 SLP144 T02620214 PA-17 DA1615=
0150008416999992015090614524-02200+040900FM-15+001099999V0201701N004619999999N009999199+02581+02091101471ADDMA1101461999999OC100771REMMET115MOBOB8 METAR XM22 //001 022409 061452Z AUTO 17009G15KT 9999 26/21 A2996      RMK A02 SLP147 T02580209 PA-27 DA1550=
0166008416999992015090615524-02200+040900FM-15+001099999V0201701N002619999999N009000199+02401+02081101511ADDAA101000021AW1611MA1101491999999REMMET122MOBOB8 METAR XM22 //001 022409 061552Z AUTO 17005KT 9000 -RA 24/21      A2997 RMK A02 SLP151 P0000 T02400208 PA-36 DA1331=
0139008416999992015090616524-02200+040900FM-15+001099999V0201701N003619999999N009999199+02461+02071101541ADDMA1101521999999REMMET112MOBOB8 METAR XM22 //001 022409 061652Z AUTO 17007KT 9999 25/21 A2998      RMK A02 SLP154 T02460207 PA-45 DA1386=
0150008416999992015090617524-02200+040900FM-15+001099999V0201701N004119999999N009999199+02501+02021101571ADDMA1101561999999OC100821REMMET115MOBOB8 METAR XM22 //001 022409 061752Z AUTO 17008G16KT 9999 25/20 A2999      RMK A02 SLP157 T02500202 PA-54 DA1411=
0139008416999992015090618524-02200+040900FM-15+001099999V0201701N003619999999N009999199+02461+02011101611ADDMA1101591999999REMMET112MOBOB8 METAR XM22 //001 022409 061852Z AUTO 17007KT 9999 25/20 A3000      RMK A02 SLP161 T02460201 PA-64 DA1352=
0139008416999992015090619524-02200+040900FM-15+001099999V0201601N003119999999N009999199+02441+02021101611ADDMA1101591999999REMMET112MOBOB8 METAR XM22 //001 022409 061952Z AUTO 16006KT 9999 24/20 A3000      RMK A02 SLP161 T02440202 PA-64 DA1331=
0139008416999992015090620524-02200+040900FM-15+001099999V0201701N003619999999N009999199+02441+01991101571ADDMA1101561999999REMMET112MOBOB8 METAR XM22 //001 022409 062052Z AUTO 17007KT 9999 24/20 A2999      RMK A02 SLP157 T02440199 PA-54 DA1337=
0139008416999992015090621524-02200+040900FM-15+001099999V0201601N003119999999N009999199+02431+01951101471ADDMA1101461999999REMMET112MOBOB8 METAR XM22 //001 022409 062152Z AUTO 16006KT 9999 24/20 A2996      RMK A02 SLP147 T02430195 PA-27 DA1354=
0139008416999992015090622524-02200+040900FM-15+001099999V0201701N002119999999N009999199+02351+01981101401ADDMA1101391999999REMMET112MOBOB8 METAR XM22 //001 022409 062252Z AUTO 17004KT 9999 24/20 A2994      RMK A02 SLP140 T02350198 PA-08 DA1290=
0139008416999992015090623524-02200+040900FM-15+001099999V0201701N002119999999N009999199+02321+01921101341ADDMA1101321999999REMMET112MOBOB8 METAR XM22 //001 022409 062352Z AUTO 17004KT 9999 23/19 A2992      RMK A02 SLP134 T02320192 PA010 DA1268=
0139008416999992015090700524-02200+040900FM-15+001099999V0201601N002119999999N009999199+02331+01941101371ADDMA1101351999999REMMET112MOBOB8 METAR XM22 //001 022409 070052Z AUTO 16004KT 9999 23/19 A2993      RMK A02 SLP137 T02330194 PA001 DA1271=
0139008416999992015090701524-02200+040900FM-15+001099999V0201601N003119999999N009999199+02361+01961101371ADDMA1101351999999REMMET112MOBOB8 METAR XM22 //001 022409 070152Z AUTO 16006KT 9999 24/20 A2993      RMK A02 SLP137 T02360196 PA001 DA1309=
0139008416999992015090702524-02200+040900FM-15+001099999V0201601N002119999999N009999199+02341+01941101441ADDMA1101421999999REMMET112MOBOB8 METAR XM22 //001 022409 070252Z AUTO 16004KT 9999 23/19 A2995      RMK A02 SLP144 T02340194 PA-17 DA1260=
0139008416999992015090703524-02200+040900FM-15+001099999V0201601N002119999999N009999199+02401+01981101511ADDMA1101491999999REMMET112MOBOB8 METAR XM22 //001 022409 070352Z AUTO 16004KT 9999 24/20 A2997      RMK A02 SLP151 T02400198 PA-36 DA1312=
0150008416999992015090704524-02200+040900FM-15+001099999V0201601N004619999999N009999199+02591+01981101571ADDMA1101561999999OC100721REMMET115MOBOB8 METAR XM22 //001 022409 070452Z AUTO 16009G14KT 9999 26/20 A2999      RMK A02 SLP157 T02590198 PA-54 DA1505=
0150008416999992015090705524-02200+040900FM-15+001099999V0201701N004619999999N009999199+02621+01951101671ADDMA1101661999999OC100771REMMET115MOBOB8 METAR XM22 //001 022409 070552Z AUTO 17009G15KT 9999 26/20 A3002      RMK A02 SLP167 T02620195 PA-82 DA1501=
0177008416999992015090706524-02200+040900FM-15+001099999V0201701N005119999999N009000199+02741+01931101711ADDAA101000021AW1611MA1101691999999OC100931REMMET125MOBOB8 METAR XM22 //001 022409 070652Z AUTO 17010G18KT 9000 -RA 27/19      A3003 RMK A02 SLP171 P0000 T02740193 PA-91 DA1620=
0150008416999992015090707524-02200+040900FM-15+001099999V0201701N005119999999N009999199+02801+01861101711ADDMA1101691999999OC100931REMMET115MOBOB8 METAR XM22 //001 022409 070752Z AUTO 17010G18KT 9999 28/19 A3003      RMK A02 SLP171 T02800186 PA-91 DA1675=
0150008416999992015090708524-02200+040900FM-15+001099999V0201701N005119999999N009999199+02861+01841101611ADDMA1101591999999OC100931REMMET115MOBOB8 METAR XM22 //001 022409 070852Z AUTO 17010G18KT 9999 29/18 A3000      RMK A02 SLP161 T02860184 PA-64 DA1774=
0150008416999992015090709524-02200+040900FM-15+001099999V0201701N004619999999N009999199+02871+01881101541ADDMA1101521999999OC100881REMMET115MOBOB8 METAR XM22 //001 022409 070952Z AUTO 17009G17KT 9999 29/19 A2998      RMK A02 SLP154 T02870188 PA-45 DA1813=
0150008416999992015090710524-02200+040900FM-15+001099999V0201701N005119999999N009999199+02721+01941101441ADDMA1101421999999OC100981REMMET115MOBOB8 METAR XM22 //001 022409 071052Z AUTO 17010G19KT 9999 27/19 A2995      RMK A02 SLP144 T02720194 PA-17 DA1690=
0150008416999992015090711524-02200+040900FM-15+001099999V0201701N005119999999N009999199+02781+01961101341ADDMA1101321999999OC100931REMMET115MOBOB8 METAR XM22 //001 022409 071152Z AUTO 17010G18KT 9999 28/20 A2992      RMK A02 SLP134 T02780196 PA010 DA1795=
0150008416999992015090712524-02200+040900FM-15+001099999V0201701N005719999999N009999199+02721+01851101301ADDMA1101291999999OC100981REMMET115MOBOB8 METAR XM22 //001 022409 071252Z AUTO 17011G19KT 9999 27/18 A2991      RMK A02 SLP130 T02720185 PA020 DA1720=
0150008416999992015090713524-02200+040900FM-15+001099999V0201701N004619999999N009999199+02641+01931101301ADDMA1101291999999OC100771REMMET115MOBOB8 METAR XM22 //001 022409 071352Z AUTO 17009G15KT 9999 26/19 A2991      RMK A02 SLP130 T02640193 PA020 DA1643=
0139008416999992015090714524-02200+040900FM-15+001099999V0201701N003119999999N009999199+02541+01911101341ADDMA1101321999999REMMET112MOBOB8 METAR XM22 //001 022409 071452Z AUTO 17006KT 9999 25/19 A2992      RMK A02 SLP134 T02540191 PA010 DA1516=
0139008416999992015090715524-02200+040900FM-15+001099999V0201701N001519999999N009999199+02441+01911101401ADDMA1101391999999REMMET112MOBOB8 METAR XM22 //001 022409 071552Z AUTO 17003KT 9999 24/19 A2994      RMK A02 SLP140 T02440191 PA-08 DA1380=
0139008416999992015090716524-02200+040900FM-15+001099999V0201801N001519999999N009999199+02351+01931101441ADDMA1101421999999REMMET112MOBOB8 METAR XM22 //001 022409 071652Z AUTO 18003KT 9999 24/19 A2995      RMK A02 SLP144 T02350193 PA-17 DA1269=
0139008416999992015090717524-02200+040900FM-15+001099999V0201801N001519999999N009999199+02371+01951101471ADDMA1101461999999REMMET112MOBOB8 METAR XM22 //001 022409 071752Z AUTO 18003KT 9999 24/20 A2996      RMK A02 SLP147 T02370195 PA-27 DA1285=
0139008416999992015090718524-02200+040900FM-15+001099999V0201801N001519999999N009999199+02351+01941101471ADDMA1101461999999REMMET112MOBOB8 METAR XM22 //001 022409 071852Z AUTO 18003KT 9999 24/19 A2996      RMK A02 SLP147 T02350194 PA-27 DA1260=
0139008416999992015090719524-02200+040900FM-15+001099999V0201801N001519999999N009999199+02341+01971101471ADDMA1101461999999REMMET112MOBOB8 METAR XM22 //001 022409 071952Z AUTO 18003KT 9999 23/20 A2996      RMK A02 SLP147 T02340197 PA-27 DA1254=
0139008416999992015090720524-02200+040900FM-15+001099999V0201701N002619999999N009999199+02421+02011101401ADDMA1101391999999REMMET112MOBOB8 METAR XM22 //001 022409 072052Z AUTO 17005KT 9999 24/20 A2994      RMK A02 SLP140 T02420201 PA-08 DA1375=
0139008416999992015090721524-02200+040900FM-15+001099999V0201701N003619999999N009999199+02481+02061101341ADDMA1101321999999REMMET112MOBOB8 METAR XM22 //001 022409 072152Z AUTO 17007KT 9999 25/21 A2992      RMK A02 SLP134 T02480206 PA010 DA1475=
0139008416999992015090722524-02200+040900FM-15+001099999V0201801N001519999999N009999199+02441+02081101301ADDMA1101291999999REMMET112MOBOB8 METAR XM22 //001 022409 072252Z AUTO 18003KT 9999 24/21 A2991      RMK A02 SLP130 T02440208 PA020 DA1445=
0139008416999992015090723524-02200+040900FM-15+001099999V0201801N001019999999N009999199+02441+02061101271ADDMA1101251999999REMMET112MOBOB8 METAR XM22 //001 022409 072352Z AUTO 18002KT 9999 24/21 A2990      RMK A02 SLP127 T02440206 PA029 DA1453=
0139008416999992015090800524-02200+040900FM-15+001099999V0201801N000519999999N009999199+02381+02021101301ADDMA1101291999999REMMET112MOBOB8 METAR XM22 //001 022409 080052Z AUTO 18001KT 9999 24/20 A2991      RMK A02 SLP130 T02380202 PA020 DA1365=
0139008416999992015090801524-02200+040900FM-15+001099999V0201801N001019999999N009999199+02331+02131101301ADDMA1101291999999REMMET112MOBOB8 METAR XM22 //001 022409 080152Z AUTO 18002KT 9999 23/21 A2991      RMK A02 SLP130 T02330213 PA020 DA1330=
0139008416999992015090802524-02200+040900FM-15+001099999V0209999C000019999999N009999199+02251+02061101371ADDMA1101351999999REMMET112MOBOB8 METAR XM22 //001 022409 080252Z AUTO 00000KT 9999 23/21 A2993      RMK A02 SLP137 T02250206 PA001 DA1202=
0175008416999992015090803524-02200+040900FM-15+001099999V0201201N000519999999N008000199+02281+02111101471ADDAA101000021AW1101AW2611MA1101461999999REMMET125MOBOB8 METAR XM22 //001 022409 080352Z AUTO 12001KT 8000 -RA BR 23/21      A2996 RMK A02 SLP147 P0000 T02280211 PA-27 DA1212=
0139008416999992015090804524-02200+040900FM-15+001099999V0201501N001519999999N009999199+02411+02231101541ADDMA1101521999999REMMET112MOBOB8 METAR XM22 //001 022409 080452Z AUTO 15003KT 9999 24/22 A2998      RMK A02 SLP154 T02410223 PA-45 DA1362=
0150008416999992015090805524-02200+040900FM-15+001099999V0201501N006719999999N009999199+02661+02141101611ADDMA1101591999999OC100881REMMET115MOBOB8 METAR XM22 //001 022409 080552Z AUTO 15013G17KT 9999 27/21 A3000      RMK A02 SLP161 T02660214 PA-64 DA1604=
0150008416999992015090806524-02200+040900FM-15+001099999V0201601N006719999999N009999199+02781+02061101641ADDMA1101631999999OC100981REMMET115MOBOB8 METAR XM22 //001 022409 080652Z AUTO 16013G19KT 9999 28/21 A3001      RMK A02 SLP164 T02780206 PA-73 DA1712=
0150008416999992015090807524-02200+040900FM-15+001099999V0201601N005719999999N009999199+02821+02061101571ADDMA1101561999999OC100821REMMET115MOBOB8 METAR XM22 //001 022409 080752Z AUTO 16011G16KT 9999 28/21 A2999      RMK A02 SLP157 T02820206 PA-54 DA1779=
0150008416999992015090808524-02200+040900FM-15+001099999V0201701N005119999999N009999199+02881+02011101511ADDMA1101491999999OC100981REMMET115MOBOB8 METAR XM22 //001 022409 080852Z AUTO 17010G19KT 9999 29/20 A2997      RMK A02 SLP151 T02880201 PA-36 DA1859=
0150008416999992015090809524-02200+040900FM-15+001099999V0201701N005119999999N009999199+02841+02021101401ADDMA1101391999999OC100981REMMET115MOBOB8 METAR XM22 //001 022409 080952Z AUTO 17010G19KT 9999 28/20 A2994      RMK A02 SLP140 T02840202 PA-08 DA1850=
0177008416999992015090810524-02200+040900FM-15+001099999V0201701N005119999999N009000199+02871+02001101301ADDAA101000021AW1611MA1101291999999OC100931REMMET125MOBOB8 METAR XM22 //001 022409 081052Z AUTO 17010G18KT 9000 -RA 29/20      A2991 RMK A02 SLP130 P0000 T02870200 PA020 DA1915=
0150008416999992015090811524-02200+040900FM-15+001099999V0201701N004619999999N009999199+02881+02041101231ADDMA1101221999999OC100821REMMET115MOBOB8 METAR XM22 //001 022409 081152Z AUTO 17009G16KT 9999 29/20 A2989      RMK A02 SLP123 T02880204 PA038 DA1955=
0150008416999992015090812524-02200+040900FM-15+001099999V0201701N004619999999N009999199+02761+02041101231ADDMA1101221999999OC100931REMMET115MOBOB8 METAR XM22 //001 022409 081252Z AUTO 17009G18KT 9999 28/20 A2989      RMK A02 SLP123 T02760204 PA038 DA1822=
0150008416999992015090813524-02200+040900FM-15+001099999V0201701N004119999999N009999199+02671+02021101271ADDMA1101251999999OC100771REMMET115MOBOB8 METAR XM22 //001 022409 081352Z AUTO 17008G15KT 9999 27/20 A2990      RMK A02 SLP127 T02670202 PA029 DA1705=
0150008416999992015090814524-02200+040900FM-15+001099999V0201701N003619999999N009999199+02591+02051101301ADDMA1101291999999OC100671REMMET115MOBOB8 METAR XM22 //001 022409 081452Z AUTO 17007G13KT 9999 26/20 A2991      RMK A02 SLP130 T02590205 PA020 DA1609=
0139008416999992015090815524-02200+040900FM-15+001099999V0201701N003119999999N009999199+02521+02071101341ADDMA1101321999999REMMET112MOBOB8 METAR XM22 //001 022409 081552Z AUTO 17006KT 9999 25/21 A2992      RMK A02 SLP134 T02520207 PA010 DA1522=
0139008416999992015090816524-02200+040900FM-15+001099999V0201701N003119999999N009999199+02511+02041101371ADDMA1101351999999REMMET112MOBOB8 METAR XM22 //001 022409 081652Z AUTO 17006KT 9999 25/20 A2993      RMK A02 SLP137 T02510204 PA001 DA1494=
0139008416999992015090817524-02200+040900FM-15+001099999V0201701N003619999999N009999199+02491+02041101401ADDMA1101391999999REMMET112MOBOB8 METAR XM22 //001 022409 081752Z AUTO 17007KT 9999 25/20 A2994      RMK A02 SLP140 T02490204 PA-08 DA1460=
0139008416999992015090818524-02200+040900FM-15+001099999V0201701N003119999999N009999199+02451+02061101441ADDMA1101421999999REMMET112MOBOB8 METAR XM22 //001 022409 081852Z AUTO 17006KT 9999 25/21 A2995      RMK A02 SLP144 T02450206 PA-17 DA1408=
0139008416999992015090819524-02200+040900FM-15+001099999V0201701N003119999999N009999199+02451+02051101471ADDMA1101461999999REMMET112MOBOB8 METAR XM22 //001 022409 081952Z AUTO 17006KT 9999 25/21 A2996      RMK A02 SLP147 T02450205 PA-27 DA1395=
0139008416999992015090820524-02200+040900FM-15+001099999V0201701N002119999999N009999199+02431+02051101401ADDMA1101391999999REMMET112MOBOB8 METAR XM22 //001 022409 082052Z AUTO 17004KT 9999 24/21 A2994      RMK A02 SLP140 T02430205 PA-08 DA1394=
0139008416999992015090821524-02200+040900FM-15+001099999V0201801N001519999999N009999199+02391+02051101341ADDMA1101321999999REMMET112MOBOB8 METAR XM22 //001 022409 082152Z AUTO 18003KT 9999 24/21 A2992      RMK A02 SLP134 T02390205 PA010 DA1372=
0139008416999992015090822524-02200+040900FM-15+001099999V0201701N002119999999N009999199+02401+02041101271ADDMA1101251999999REMMET112MOBOB8 METAR XM22 //001 022409 082252Z AUTO 17004KT 9999 24/20 A2990      RMK A02 SLP127 T02400204 PA029 DA1404=
0139008416999992015090823524-02200+040900FM-15+001099999V0201701N002619999999N009999199+02421+02061101231ADDMA1101221999999REMMET112MOBOB8 METAR XM22 //001 022409 082352Z AUTO 17005KT 9999 24/21 A2989      RMK A02 SLP123 T02420206 PA038 DA1442=
0139008416999992015090900524-02200+040900FM-15+001099999V0201801N002119999999N009999199+02371+02031101231ADDMA1101221999999REMMET112MOBOB8 METAR XM22 //001 022409 090052Z AUTO 18004KT 9999 24/20 A2989      RMK A02 SLP123 T02370203 PA038 DA1378=
0139008416999992015090901524-02200+040900FM-15+001099999V0201801N001019999999N009999199+02341+02041101301ADDMA1101291999999REMMET112MOBOB8 METAR XM22 //001 022409 090152Z AUTO 18002KT 9999 23/20 A2991      RMK A02 SLP130 T02340204 PA020 DA1323=
0139008416999992015090902524-02200+040900FM-15+001099999V0202101N000519999999N009999199+02311+02011101371ADDMA1101351999999REMMET112MOBOB8 METAR XM22 //001 022409 090252Z AUTO 21001KT 9999 23/20 A2993      RMK A02 SLP137 T02310201 PA001 DA1261=
0139008416999992015090903524-02200+040900FM-15+001099999V0203401N000519999999N009999199+02151+01961101441ADDMA1101421999999REMMET112MOBOB8 METAR XM22 //001 022409 090352Z AUTO 34001KT 9999 22/20 A2995      RMK A02 SLP144 T02150196 PA-17 DA1045=
0139008416999992015090904524-02200+040900FM-15+001099999V0203101N000519999999N009999199+02451+02121101541ADDMA1101521999999REMMET112MOBOB8 METAR XM22 //001 022409 090452Z AUTO 31001KT 9999 25/21 A2998      RMK A02 SLP154 T02450212 PA-45 DA1386=
0166008416999992015090905524-02200+040900FM-15+001099999V0201701N003619999999N009000199+02641+02081101611ADDAA101000021AW1611MA1101591999999REMMET122MOBOB8 METAR XM22 //001 022409 090552Z AUTO 17007KT 9000 -RA 26/21      A3000 RMK A02 SLP161 P0000 T02640208 PA-64 DA1569=
0139008416999992015090906524-02200+040900FM-15+001099999V0201701N003119999999N009999199+02811+02001101641ADDMA1101631999999REMMET112MOBOB8 METAR XM22 //001 022409 090652Z AUTO 17006KT 9999 28/20 A3001      RMK A02 SLP164 T02810200 PA-73 DA1734=
0150008416999992015090907524-02200+040900FM-15+001099999V0201601N004119999999N009999199+02831+01981101571ADDMA1101561999999OC100771REMMET115MOBOB8 METAR XM22 //001 022409 090752Z AUTO 16008G15KT 9999 28/20 A2999      RMK A02 SLP157 T02830198 PA-54 DA1776=
0150008416999992015090908524-02200+040900FM-15+001099999V0201601N005119999999N009999199+02841+01921101511ADDMA1101491999999OC100881REMMET115MOBOB8 METAR XM22 //001 022409 090852Z AUTO 16010G17KT 9999 28/19 A2997      RMK A02 SLP151 T02840192 PA-36 DA1800=
0150008416999992015090909524-02200+040900FM-15+001099999V0201601N005719999999N009999199+02881+02031101371ADDMA1101351999999OC100981REMMET115MOBOB8 METAR XM22 //001 022409 090952Z AUTO 16011G19KT 9999 29/20 A2993      RMK A02 SLP137 T02880203 PA001 DA1909=
0150008416999992015090910524-02200+040900FM-15+001099999V0201701N004619999999N009999199+02881+02021101341ADDMA1101321999999OC100771REMMET115MOBOB8 METAR XM22 //001 022409 091052Z AUTO 17009G15KT 9999 29/20 A2992      RMK A02 SLP134 T02880202 PA010 DA1918=
0139008416999992015090911524-02200+040900FM-15+001099999V0201701N003619999999N009999199+02681+02011101271ADDMA1101251999999REMMET112MOBOB8 METAR XM22 //001 022409 091152Z AUTO 17007KT 9999 27/20 A2990      RMK A02 SLP127 T02680201 PA029 DA1715=
0150008416999992015090912524-02200+040900FM-15+001099999V0201701N004619999999N009999199+02701+02061101201ADDMA1101181999999OC100721REMMET115MOBOB8 METAR XM22 //001 022409 091252Z AUTO 17009G14KT 9999 27/21 A2988      RMK A02 SLP120 T02700206 PA047 DA1770=
0139008416999992015090913524-02200+040900FM-15+001099999V0201701N002619999999N009999199+02571+02041101271ADDMA1101251999999REMMET112MOBOB8 METAR XM22 //001 022409 091352Z AUTO 17005KT 9999 26/20 A2990      RMK A02 SLP127 T02570204 PA029 DA1596=
0139008416999992015090914524-02200+040900FM-15+001099999V0201601N003119999999N009999199+02581+02121101301ADDMA1101291999999REMMET112MOBOB8 METAR XM22 //001 022409 091452Z AUTO 16006KT 9999 26/21 A2991      RMK A02 SLP130 T02580212 PA020 DA1612=
0139008416999992015090915524-02200+040900FM-15+001099999V0201701N002619999999N009999199+02471+02071101341ADDMA1101321999999REMMET112MOBOB8 METAR XM22 //001 022409 091552Z AUTO 17005KT 9999 25/21 A2992      RMK A02 SLP134 T02470207 PA010 DA1467=
0139008416999992015090916524-02200+040900FM-15+001099999V0201701N002119999999N009999199+02421+02091101441ADDMA1101421999999REMMET112MOBOB8 METAR XM22 //001 022409 091652Z AUTO 17004KT 9999 24/21 A2995      RMK A02 SLP144 T02420209 PA-17 DA1379=
0139008416999992015090917524-02200+040900FM-15+001099999V0201801N002119999999N009999199+02401+02081101441ADDMA1101421999999REMMET112MOBOB8 METAR XM22 //001 022409 091752Z AUTO 18004KT 9999 24/21 A2995      RMK A02 SLP144 T02400208 PA-17 DA1354=
0139008416999992015090918524-02200+040900FM-15+001099999V0201701N002119999999N009999199+02401+02091101511ADDMA1101491999999REMMET112MOBOB8 METAR XM22 //001 022409 091852Z AUTO 17004KT 9999 24/21 A2997      RMK A02 SLP151 T02400209 PA-36 DA1332=
0139008416999992015090919524-02200+040900FM-15+001099999V0201701N002119999999N009999199+02411+02091101511ADDMA1101491999999REMMET112MOBOB8 METAR XM22 //001 022409 091952Z AUTO 17004KT 9999 24/21 A2997      RMK A02 SLP151 T02410209 PA-36 DA1345=
0139008416999992015090920524-02200+040900FM-15+001099999V0201701N002619999999N009999199+02431+02081101471ADDMA1101461999999REMMET112MOBOB8 METAR XM22 //001 022409 092052Z AUTO 17005KT 9999 24/21 A2996      RMK A02 SLP147 T02430208 PA-27 DA1377=
0139008416999992015090921524-02200+040900FM-15+001099999V0201701N003119999999N009999199+02461+02081101401ADDMA1101391999999REMMET112MOBOB8 METAR XM22 //001 022409 092152Z AUTO 17006KT 9999 25/21 A2994      RMK A02 SLP140 T02460208 PA-08 DA1435=
0139008416999992015090922524-02200+040900FM-15+001099999V0201701N003119999999N009999199+02461+02091101371ADDMA1101351999999REMMET112MOBOB8 METAR XM22 //001 022409 092252Z AUTO 17006KT 9999 25/21 A2993      RMK A02 SLP137 T02460209 PA001 DA1447=
0139008416999992015090923524-02200+040900FM-15+001099999V0201701N003119999999N009999199+02421+02051101341ADDMA1101321999999REMMET112MOBOB8 METAR XM22 //001 022409 092352Z AUTO 17006KT 9999 24/21 A2992      RMK A02 SLP134 T02420205 PA010 DA1406=
0139008416999992015091000524-02200+040900FM-15+001099999V0201701N002119999999N009999199+02371+02021101371ADDMA1101351999999REMMET112MOBOB8 METAR XM22 //001 022409 100052Z AUTO 17004KT 9999 24/20 A2993      RMK A02 SLP137 T02370202 PA001 DA1332=
0139008416999992015091001524-02200+040900FM-15+001099999V0201901N001019999999N009999199+02291+02021101371ADDMA1101351999999REMMET112MOBOB8 METAR XM22 //001 022409 100152Z AUTO 19002KT 9999 23/20 A2993      RMK A02 SLP137 T02290202 PA001 DA1240=
0139008416999992015091002524-02200+040900FM-15+001099999V0202401N000519999999N009999199+02271+02041101441ADDMA1101421999999REMMET112MOBOB8 METAR XM22 //001 022409 100252Z AUTO 24001KT 9999 23/20 A2995      RMK A02 SLP144 T02270204 PA-17 DA1199=
0139008416999992015091003524-02200+040900FM-15+001099999V0203101N000519999999N009999199+02301+02081101511ADDMA1101491999999REMMET112MOBOB8 METAR XM22 //001 022409 100352Z AUTO 31001KT 9999 23/21 A2997      RMK A02 SLP151 T02300208 PA-36 DA1217=
0139008416999992015091004524-02200+040900FM-15+001099999V0202401N000519999999N009999199+02541+02171101611ADDMA1101591999999REMMET112MOBOB8 METAR XM22 //001 022409 100452Z AUTO 24001KT 9999 25/22 A3000      RMK A02 SLP161 T02540217 PA-64 DA1473=
0139008416999992015091005524-02200+040900FM-15+001099999V0201701N003119999999N009999199+02761+02121101671ADDMA1101661999999REMMET112MOBOB8 METAR XM22 //001 022409 100552Z AUTO 17006KT 9999 28/21 A3002      RMK A02 SLP167 T02760212 PA-82 DA1690=
0139008416999992015091006524-02200+040900FM-15+001099999V0201701N003119999999N009999199+02801+02091101671ADDMA1101661999999REMMET112MOBOB8 METAR XM22 //001 022409 100652Z AUTO 17006KT 9999 28/21 A3002      RMK A02 SLP167 T02800209 PA-82 DA1728=
0150008416999992015091007524-02200+040900FM-15+001099999V0201601N005719999999N009999199+02871+02061101641ADDMA1101631999999OC100881REMMET115MOBOB8 METAR XM22 //001 022409 100752Z AUTO 16011G17KT 9999 29/21 A3001      RMK A02 SLP164 T02870206 PA-73 DA1812=
0150008416999992015091008524-02200+040900FM-15+001099999V0201601N004619999999N009999199+02911+02101101571ADDMA1101561999999OC100931REMMET115MOBOB8 METAR XM22 //001 022409 100852Z AUTO 16009G18KT 9999 29/21 A2999      RMK A02 SLP157 T02910210 PA-54 DA1887=
0150008416999992015091009524-02200+040900FM-15+001099999V0201701N005119999999N009999199+02901+02091101471ADDMA1101461999999OC100931REMMET115MOBOB8 METAR XM22 //001 022409 100952Z AUTO 17010G18KT 9999 29/21 A2996      RMK A02 SLP147 T02900209 PA-27 DA1908=
0150008416999992015091010524-02200+040900FM-15+001099999V0201601N005719999999N009999199+02931+02081101401ADDMA1101391999999OC100981REMMET115MOBOB8 METAR XM22 //001 022409 101052Z AUTO 16011G19KT 9999 29/21 A2994      RMK A02 SLP140 T02930208 PA-08 DA1962=
0177008416999992015091011524-02200+040900FM-15+001099999V0201601N005119999999N009000199+02901+02021101301ADDAA101000021AW1611MA1101291999999OC100821REMMET125MOBOB8 METAR XM22 //001 022409 101152Z AUTO 16010G16KT 9000 -RA 29/20      A2991 RMK A02 SLP130 P0000 T02900202 PA020 DA1951=
0150008416999992015091012524-02200+040900FM-15+001099999V0201701N005119999999N009999199+02791+02081101271ADDMA1101251999999OC100881REMMET115MOBOB8 METAR XM22 //001 022409 101252Z AUTO 17010G17KT 9999 28/21 A2990      RMK A02 SLP127 T02790208 PA029 DA1852=
0150008416999992015091013524-02200+040900FM-15+001099999V0201701N004619999999N009999199+02731+02111101301ADDMA1101291999999OC100821REMMET115MOBOB8 METAR XM22 //001 022409 101352Z AUTO 17009G16KT 9999 27/21 A2991      RMK A02 SLP130 T02730211 PA020 DA1779=
0150008416999992015091014524-02200+040900FM-15+001099999V0201701N003619999999N009999199+02621+02131101341ADDMA1101321999999OC100771REMMET115MOBOB8 METAR XM22 //001 022409 101452Z AUTO 17007G15KT 9999 26/21 A2992      RMK A02 SLP134 T02620213 PA010 DA1648=
0150008416999992015091015524-02200+040900FM-15+001099999V0201701N003619999999N009999199+02571+02141101401ADDMA1101391999999OC100671REMMET115MOBOB8 METAR XM22 //001 022409 101552Z AUTO 17007G13KT 9999 26/21 A2994      RMK A02 SLP140 T02570214 PA-08 DA1569=
0139008416999992015091016524-02200+040900FM-15+001099999V0201701N003119999999N009999199+02551+02141101401ADDMA1101391999999REMMET112MOBOB8 METAR XM22 //001 022409 101652Z AUTO 17006KT 9999 26/21 A2994      RMK A02 SLP140 T02550214 PA-08 DA1548=
0139008416999992015091017524-02200+040900FM-15+001099999V0201701N003119999999N009999199+02571+02171101441ADDMA1101421999999REMMET112MOBOB8 METAR XM22 //001 022409 101752Z AUTO 17006KT 9999 26/22 A2995      RMK A02 SLP144 T02570217 PA-17 DA1566=
0139008416999992015091018524-02200+040900FM-15+001099999V0201701N003619999999N009999199+02561+02181101511ADDMA1101491999999REMMET112MOBOB8 METAR XM22 //001 022409 101852Z AUTO 17007KT 9999 26/22 A2997      RMK A02 SLP151 T02560218 PA-36 DA1533=
0139008416999992015091019524-02200+040900FM-15+001099999V0201701N003119999999N009999199+02541+02181101511ADDMA1101491999999REMMET112MOBOB8 METAR XM22 //001 022409 101952Z AUTO 17006KT 9999 25/22 A2997      RMK A02 SLP151 T02540218 PA-36 DA1510=
0139008416999992015091020524-02200+040900FM-15+001099999V0201701N003119999999N009999199+02521+02191101511ADDMA1101491999999REMMET112MOBOB8 METAR XM22 //001 022409 102052Z AUTO 17006KT 9999 25/22 A2997      RMK A02 SLP151 T02520219 PA-36 DA1490=
0150008416999992015091021524-02200+040900FM-15+001099999V0201701N004119999999N009999199+02541+02181101441ADDMA1101421999999OC100721REMMET115MOBOB8 METAR XM22 //001 022409 102152Z AUTO 17008G14KT 9999 25/22 A2995      RMK A02 SLP144 T02540218 PA-17 DA1532=
0150008416999992015091022524-02200+040900FM-15+001099999V0201701N004119999999N009999199+02551+02131101371ADDMA1101351999999OC100721REMMET115MOBOB8 METAR XM22 //001 022409 102252Z AUTO 17008G14KT 9999 26/21 A2993      RMK A02 SLP137 T02550213 PA001 DA1558=
0139008416999992015091023524-02200+040900FM-15+001099999V0201601N003619999999N009999199+02531+02131101341ADDMA1101321999999REMMET112MOBOB8 METAR XM22 //001 022409 102352Z AUTO 16007KT 9999 25/21 A2992      RMK A02 SLP134 T02530213 PA010 DA1546=
0139008416999992015091100524-02200+040900FM-15+001099999V0201701N003119999999N009999199+02501+02111101341ADDMA1101321999999REMMET112MOBOB8 METAR XM22 //001 022409 110052Z AUTO 17006KT 9999 25/21 A2992      RMK A02 SLP134 T02500211 PA010 DA1509=
0139008416999992015091101524-02200+040900FM-15+001099999V0201701N003119999999N009999199+02481+02121101341ADDMA1101321999999REMMET112MOBOB8 METAR XM22 //001 022409 110152Z AUTO 17006KT 9999 25/21 A2992      RMK A02 SLP134 T02480212 PA010 DA1487=
0139008416999992015091102524-02200+040900FM-15+001099999V0201801N001519999999N009999199+02431+02121101401ADDMA1101391999999REMMET112MOBOB8 METAR XM22 //001 022409 110252Z AUTO 18003KT 9999 24/21 A2994      RMK A02 SLP140 T02430212 PA-08 DA1408=
0139008416999992015091103524-02200+040900FM-15+001099999V0201901N000519999999N009999199+02461+02161101511ADDMA1101491999999REMMET112MOBOB8 METAR XM22 //001 022409 110352Z AUTO 19001KT 9999 25/22 A2997      RMK A02 SLP151 T02460216 PA-36 DA1416=
0166008416999992015091104524-02200+040900FM-15+001099999V0201701N002119999999N009000199+02601+02251101571ADDAA101000021AW1611MA1101561999999REMMET122MOBOB8 METAR XM22 //001 022409 110452Z AUTO 17004KT 9000 -RA 26/23      A2999 RMK A02 SLP157 P0000 T02600225 PA-54 DA1570=
0166008416999992015091105524-02200+040900FM-15+001099999V0201701N003619999999N009000199+02581+02171101641ADDAA101000021AW1611MA1101631999999REMMET122MOBOB8 METAR XM22 //001 022409 110552Z AUTO 17007KT 9000 -RA 26/22      A3001 RMK A02 SLP164 P0000 T02580217 PA-73 DA1508=
0150008416999992015091106524-02200+040900FM-15+001099999V0201601N005119999999N009999199+02721+02081101671ADDMA1101661999999OC100881REMMET115MOBOB8 METAR XM22 //001 022409 110652Z AUTO 16010G17KT 9999 27/21 A3002      RMK A02 SLP167 T02720208 PA-82 DA1638=
0177008416999992015091107524-02200+040900FM-15+001099999V0201601N005119999999N009000199+02851+02081101641ADDAA101000021AW1611MA1101631999999OC100821REMMET125MOBOB8 METAR XM22 //001 022409 110752Z AUTO 16010G16KT 9000 -RA 29/21      A3001 RMK A02 SLP164 P0000 T02850208 PA-73 DA1795=
0150008416999992015091108524-02200+040900FM-15+001099999V0201601N005719999999N009999199+02911+02061101541ADDMA1101521999999OC100931REMMET115MOBOB8 METAR XM22 //001 022409 110852Z AUTO 16011G18KT 9999 29/21 A2998      RMK A02 SLP154 T02910206 PA-45 DA1891=
0150008416999992015091109524-02200+040900FM-15+001099999V0201701N005119999999N009999199+02881+02021101471ADDMA1101461999999OC100821REMMET115MOBOB8 METAR XM22 //001 022409 110952Z AUTO 17010G16KT 9999 29/20 A2996      RMK A02 SLP147 T02880202 PA-27 DA1873=
0177008416999992015091110524-02200+040900FM-15+001099999V0201701N005119999999N009000199+02901+02021101401ADDAA101000021AW1611MA1101391999999OC100821REMMET125MOBOB8 METAR XM22 //001 022409 111052Z AUTO 17010G16KT 9000 -RA 29/20      A2994 RMK A02 SLP140 P0000 T02900202 PA-08 DA1918=
0150008416999992015091111524-02200+040900FM-15+001099999V0201701N004619999999N009999199+02791+02021101341ADDMA1101321999999OC100771REMMET115MOBOB8 METAR XM22 //001 022409 111152Z AUTO 17009G15KT 9999 28/20 A2992      RMK A02 SLP134 T02790202 PA010 DA1818=
0177008416999992015091112524-02200+040900FM-15+001099999V0201701N005119999999N009000199+02811+02001101301ADDAA101000021AW1611MA1101291999999OC100821REMMET125MOBOB8 METAR XM22 //001 022409 111252Z AUTO 17010G16KT 9000 -RA 28/20      A2991 RMK A02 SLP130 P0000 T02810200 PA020 DA1847=
0150008416999992015091113524-02200+040900FM-15+001099999V0201701N005119999999N009999199+02711+02041101301ADDMA1101291999999OC100931REMMET115MOBOB8 METAR XM22 //001 022409 111352Z AUTO 17010G18KT 9999 27/20 A2991      RMK A02 SLP130 T02710204 PA020 DA1744=
0166008416999992015091114524-02200+040900FM-15+001099999V0201701N003619999999N009000199+02601+02071101371ADDAA101000021AW1611MA1101351999999REMMET122MOBOB8 METAR XM22 //001 022409 111452Z AUTO 17007KT 9000 -RA 26/21      A2993 RMK A02 SLP137 P0000 T02600207 PA001 DA1603=
0139008416999992015091116524-02200+040900FM-15+001099999V0201701N003619999999N009999199+02521+02101101441ADDMA1101421999999REMMET112MOBOB8 METAR XM22 //001 022409 111652Z AUTO 17007KT 9999 25/21 A2995      RMK A02 SLP144 T02520210 PA-17 DA1495=
0150008416999992015091117524-02200+040900FM-15+001099999V0201701N004119999999N009999199+02521+02061101511ADDMA1101491999999OC100621REMMET115MOBOB8 METAR XM22 //001 022409 111752Z AUTO 17008G12KT 9999 25/21 A2997      RMK A02 SLP151 T02520206 PA-36 DA1464=
0139008416999992015091118524-02200+040900FM-15+001099999V0201701N003119999999N009999199+02501+02081101571ADDMA1101561999999REMMET112MOBOB8 METAR XM22 //001 022409 111852Z AUTO 17006KT 9999 25/21 A2999      RMK A02 SLP157 T02500208 PA-54 DA1422=
0139008416999992015091119524-02200+040900FM-15+001099999V0201601N003119999999N009999199+02481+02081101571ADDMA1101561999999REMMET112MOBOB8 METAR XM22 //001 022409 111952Z AUTO 16006KT 9999 25/21 A2999      RMK A02 SLP157 T02480208 PA-54 DA1400=
0139008416999992015091120524-02200+040900FM-15+001099999V0201701N003119999999N009999199+02461+02081101511ADDMA1101491999999REMMET112MOBOB8 METAR XM22 //001 022409 112052Z AUTO 17006KT 9999 25/21 A2997      RMK A02 SLP151 T02460208 PA-36 DA1400=
0150008416999992015091121524-02200+040900FM-15+001099999V0201701N004119999999N009999199+02471+02091101401ADDMA1101391999999OC100621REMMET115MOBOB8 METAR XM22 //001 022409 112152Z AUTO 17008G12KT 9999 25/21 A2994      RMK A02 SLP140 T02470209 PA-08 DA1447=
0139008416999992015091122524-02200+040900FM-15+001099999V0201601N003619999999N009999199+02441+02081101341ADDMA1101321999999REMMET112MOBOB8 METAR XM22 //001 022409 112252Z AUTO 16007KT 9999 24/21 A2992      RMK A02 SLP134 T02440208 PA010 DA1434=
0139008416999992015091123524-02200+040900FM-15+001099999V0201701N003619999999N009999199+02461+02081101301ADDMA1101291999999REMMET112MOBOB8 METAR XM22 //001 022409 112352Z AUTO 17007KT 9999 25/21 A2991      RMK A02 SLP130 T02460208 PA020 DA1469=
0139008416999992015091200524-02200+040900FM-15+001099999V0201701N003119999999N009999199+02471+02101101301ADDMA1101291999999REMMET112MOBOB8 METAR XM22 //001 022409 120052Z AUTO 17006KT 9999 25/21 A2991      RMK A02 SLP130 T02470210 PA020 DA1482=
0139008416999992015091201524-02200+040900FM-15+001099999V0201701N002119999999N009999199+02441+02101101341ADDMA1101321999999REMMET112MOBOB8 METAR XM22 //001 022409 120152Z AUTO 17004KT 9999 24/21 A2992      RMK A02 SLP134 T02440210 PA010 DA1438=
0139008416999992015091202524-02200+040900FM-15+001099999V0201801N002119999999N009999199+02451+02091101371ADDMA1101351999999REMMET112MOBOB8 METAR XM22 //001 022409 120252Z AUTO 18004KT 9999 25/21 A2993      RMK A02 SLP137 T02450209 PA001 DA1437=
0139008416999992015091203524-02200+040900FM-15+001099999V0201701N002119999999N009999199+02461+02141101441ADDMA1101421999999REMMET112MOBOB8 METAR XM22 //001 022409 120352Z AUTO 17004KT 9999 25/21 A2995      RMK A02 SLP144 T02460214 PA-17 DA1434=
0139008416999992015091204524-02200+040900FM-15+001099999V0201701N003119999999N009999199+02641+02171101541ADDMA1101521999999REMMET112MOBOB8 METAR XM22 //001 022409 120452Z AUTO 17006KT 9999 26/22 A2998      RMK A02 SLP154 T02640217 PA-45 DA1609=
0139008416999992015091205524-02200+040900FM-15+001099999V0201701N003119999999N009999199+02731+02171101641ADDMA1101631999999REMMET112MOBOB8 METAR XM22 //001 022409 120552Z AUTO 17006KT 9999 27/22 A3001      RMK A02 SLP164 T02730217 PA-73 DA1677=
0150008416999992015091206524-02200+040900FM-15+001099999V0201701N004619999999N009999199+02801+02171101641ADDMA1101631999999OC100881REMMET115MOBOB8 METAR XM22 //001 022409 120652Z AUTO 17009G17KT 9999 28/22 A3001      RMK A02 SLP164 T02800217 PA-73 DA1756=
0150008416999992015091207524-02200+040900FM-15+001099999V0201701N004619999999N009999199+02831+02171101611ADDMA1101591999999OC100771REMMET115MOBOB8 METAR XM22 //001 022409 120752Z AUTO 17009G15KT 9999 28/22 A3000      RMK A02 SLP161 T02830217 PA-64 DA1800=
0150008416999992015091208524-02200+040900FM-15+001099999V0201701N004619999999N009999199+02841+02111101541ADDMA1101521999999OC100821REMMET115MOBOB8 METAR XM22 //001 022409 120852Z AUTO 17009G16KT 9999 28/21 A2998      RMK A02 SLP154 T02840211 PA-45 DA1823=
0150008416999992015091209524-02200+040900FM-15+001099999V0201701N004619999999N009999199+02891+02131101471ADDMA1101461999999OC100931REMMET115MOBOB8 METAR XM22 //001 022409 120952Z AUTO 17009G18KT 9999 29/21 A2996      RMK A02 SLP147 T02890213 PA-27 DA1906=
0150008416999992015091210524-02200+040900FM-15+001099999V0201701N005119999999N009999199+02961+02131101371ADDMA1101351999999OC100881REMMET115MOBOB8 METAR XM22 //001 022409 121052Z AUTO 17010G17KT 9999 30/21 A2993      RMK A02 SLP137 T02960213 PA001 DA2017=
0150008416999992015091211524-02200+040900FM-15+001099999V0201701N005119999999N009999199+02871+02101101301ADDMA1101291999999OC100821REMMET115MOBOB8 METAR XM22 //001 022409 121152Z AUTO 17010G16KT 9999 29/21 A2991      RMK A02 SLP130 T02870210 PA020 DA1934=
0150008416999992015091212524-02200+040900FM-15+001099999V0201701N004119999999N009999199+02831+02131101271ADDMA1101251999999OC100821REMMET115MOBOB8 METAR XM22 //001 022409 121252Z AUTO 17008G16KT 9999 28/21 A2990      RMK A02 SLP127 T02830213 PA029 DA1906=
0150008416999992015091213524-02200+040900FM-15+001099999V0201701N004119999999N009999199+02751+02151101271ADDMA1101251999999OC100821REMMET115MOBOB8 METAR XM22 //001 022409 121352Z AUTO 17008G16KT 9999 28/21 A2990      RMK A02 SLP127 T02750215 PA029 DA1820=
0139008416999992015091214524-02200+040900FM-15+001099999V0201701N003619999999N009999199+02631+02161101271ADDMA1101251999999REMMET112MOBOB8 METAR XM22 //001 022409 121452Z AUTO 17007KT 9999 26/22 A2990      RMK A02 SLP127 T02630216 PA029 DA1687=
0139008416999992015091215524-02200+040900FM-15+001099999V0201701N003119999999N009999199+02551+02191101341ADDMA1101321999999REMMET112MOBOB8 METAR XM22 //001 022409 121552Z AUTO 17006KT 9999 26/22 A2992      RMK A02 SLP134 T02550219 PA010 DA1580=
0139008416999992015091216524-02200+040900FM-15+001099999V0201701N003619999999N009999199+02541+02201101341ADDMA1101321999999REMMET112MOBOB8 METAR XM22 //001 022409 121652Z AUTO 17007KT 9999 25/22 A2992      RMK A02 SLP134 T02540220 PA010 DA1571=
0150008416999992015091217524-02200+040900FM-15+001099999V0201701N004119999999N009999199+02561+02201101401ADDMA1101391999999OC100771REMMET115MOBOB8 METAR XM22 //001 022409 121752Z AUTO 17008G15KT 9999 26/22 A2994      RMK A02 SLP140 T02560220 PA-08 DA1571=
0139008416999992015091218524-02200+040900FM-15+001099999V0201701N003619999999N009999199+02541+02211101441ADDMA1101421999999REMMET112MOBOB8 METAR XM22 //001 022409 121852Z AUTO 17007KT 9999 25/22 A2995      RMK A02 SLP144 T02540221 PA-17 DA1540=
0139008416999992015091219524-02200+040900FM-15+001099999V0201701N003119999999N009999199+02571+02231101471ADDMA1101461999999REMMET112MOBOB8 METAR XM22 //001 022409 121952Z AUTO 17006KT 9999 26/22 A2996      RMK A02 SLP147 T02570223 PA-27 DA1566=
0139008416999992015091220524-02200+040900FM-15+001099999V0201701N003619999999N009999199+02561+02221101441ADDMA1101421999999REMMET112MOBOB8 METAR XM22 //001 022409 122052Z AUTO 17007KT 9999 26/22 A2995      RMK A02 SLP144 T02560222 PA-17 DA1564=
0150008416999992015091221524-02200+040900FM-15+001099999V0201701N004119999999N009999199+02571+02231101341ADDMA1101321999999OC100721REMMET115MOBOB8 METAR XM22 //001 022409 122152Z AUTO 17008G14KT 9999 26/22 A2992      RMK A02 SLP134 T02570223 PA010 DA1612=
0150008416999992015091222524-02200+040900FM-15+001099999V0201701N003619999999N009999199+02571+02241101271ADDMA1101251999999OC100721REMMET115MOBOB8 METAR XM22 //001 022409 122252Z AUTO 17007G14KT 9999 26/22 A2990      RMK A02 SLP127 T02570224 PA029 DA1637=
0150008416999992015091223524-02200+040900FM-15+001099999V0201701N003619999999N009999199+02571+02221101271ADDMA1101251999999OC100821REMMET115MOBOB8 METAR XM22 //001 022409 122352Z AUTO 17007G16KT 9999 26/22 A2990      RMK A02 SLP127 T02570222 PA029 DA1632=
0150008416999992015091300524-02200+040900FM-15+001099999V0201701N004119999999N009999199+02571+02191101301ADDMA1101291999999OC100671REMMET115MOBOB8 METAR XM22 //001 022409 130052Z AUTO 17008G13KT 9999 26/22 A2991      RMK A02 SLP130 T02570219 PA020 DA1615=
0139008416999992015091301524-02200+040900FM-15+001099999V0201701N003119999999N009999199+02561+02201101341ADDMA1101321999999REMMET112MOBOB8 METAR XM22 //001 022409 130152Z AUTO 17006KT 9999 26/22 A2992      RMK A02 SLP134 T02560220 PA010 DA1594=
0139008416999992015091302524-02200+040900FM-15+001099999V0201701N002619999999N009999199+02541+02171101441ADDMA1101421999999REMMET112MOBOB8 METAR XM22 //001 022409 130252Z AUTO 17005KT 9999 25/22 A2995      RMK A02 SLP144 T02540217 PA-17 DA1531=
0139008416999992015091303524-02200+040900FM-15+001099999V0201701N002119999999N009999199+02561+02171101511ADDMA1101491999999REMMET112MOBOB8 METAR XM22 //001 022409 130352Z AUTO 17004KT 9999 26/22 A2997      RMK A02 SLP151 T02560217 PA-36 DA1532=
0139008416999992015091304524-02200+040900FM-15+001099999V0201701N003119999999N009999199+02641+02201101611ADDMA1101591999999REMMET112MOBOB8 METAR XM22 //001 022409 130452Z AUTO 17006KT 9999 26/22 A3000      RMK A02 SLP161 T02640220 PA-64 DA1593=
0150008416999992015091305524-02200+040900FM-15+001099999V0201701N004619999999N009999199+02741+02141101671ADDMA1101661999999OC100771REMMET115MOBOB8 METAR XM22 //001 022409 130552Z AUTO 17009G15KT 9999 27/21 A3002      RMK A02 SLP167 T02740214 PA-82 DA1672=
0150008416999992015091306524-02200+040900FM-15+001099999V0201601N005119999999N009999199+02831+02131101711ADDMA1101691999999OC100821REMMET115MOBOB8 METAR XM22 //001 022409 130652Z AUTO 16010G16KT 9999 28/21 A3003      RMK A02 SLP171 T02830213 PA-91 DA1758=
0150008416999992015091307524-02200+040900FM-15+001099999V0201601N005719999999N009999199+02891+02031101671ADDMA1101661999999OC100881REMMET115MOBOB8 METAR XM22 //001 022409 130752Z AUTO 16011G17KT 9999 29/20 A3002      RMK A02 SLP167 T02890203 PA-82 DA1818=
0150008416999992015091308524-02200+040900FM-15+001099999V0201701N004119999999N009999199+02971+02111101611ADDMA1101591999999OC100771REMMET115MOBOB8 METAR XM22 //001 022409 130852Z AUTO 17008G15KT 9999 30/21 A3000      RMK A02 SLP161 T02970211 PA-64 DA1945=
0150008416999992015091309524-02200+040900FM-15+001099999V0201701N005719999999N009999199+02931+02061101541ADDMA1101521999999OC100881REMMET115MOBOB8 METAR XM22 //001 022409 130952Z AUTO 17011G17KT 9999 29/21 A2998      RMK A02 SLP154 T02930206 PA-45 DA1913=
0150008416999992015091310524-02200+040900FM-15+001099999V0201701N005719999999N009999199+02891+02001101441ADDMA1101421999999OC101081REMMET115MOBOB8 METAR XM22 //001 022409 131052Z AUTO 17011G21KT 9999 29/20 A2995      RMK A02 SLP144 T02890200 PA-17 DA1891=
0150008416999992015091311524-02200+040900FM-15+001099999V0201701N005719999999N009999199+02821+02091101401ADDMA1101391999999OC101031REMMET115MOBOB8 METAR XM22 //001 022409 131152Z AUTO 17011G20KT 9999 28/21 A2994      RMK A02 SLP140 T02820209 PA-08 DA1842=
0150008416999992015091312524-02200+040900FM-15+001099999V0201701N005119999999N009999199+02741+02061101371ADDMA1101351999999OC100931REMMET115MOBOB8 METAR XM22 //001 022409 131252Z AUTO 17010G18KT 9999 27/21 A2993      RMK A02 SLP137 T02740206 PA001 DA1757=
0139008416999992015091313524-02200+040900FM-15+001099999V0201701N003619999999N009999199+02741+02131101401ADDMA1101391999999REMMET112MOBOB8 METAR XM22 //001 022409 131352Z AUTO 17007KT 9999 27/21 A2994      RMK A02 SLP140 T02740213 PA-08 DA1760=
0150008416999992015091314524-02200+040900FM-15+001099999V0201701N004119999999N009999199+02631+02111101441ADDMA1101421999999OC100821REMMET115MOBOB8 METAR XM22 //001 022409 131452Z AUTO 17008G16KT 9999 26/21 A2995      RMK A02 SLP144 T02630211 PA-17 DA1621=
0150008416999992015091315524-02200+040900FM-15+001099999V0201601N004119999999N009999199+02591+02091101511ADDMA1101491999999OC100721REMMET115MOBOB8 METAR XM22 //001 022409 131552Z AUTO 16008G14KT 9999 26/21 A2997      RMK A02 SLP151 T02590209 PA-36 DA1549=
0139008416999992015091316524-02200+040900FM-15+001099999V0201701N003119999999N009999199+02561+02151101571ADDMA1101561999999REMMET112MOBOB8 METAR XM22 //001 022409 131652Z AUTO 17006KT 9999 26/22 A2999      RMK A02 SLP157 T02560215 PA-54 DA1504=
0139008416999992015091317524-02200+040900FM-15+001099999V0201701N003619999999N009999199+02561+02151101571ADDMA1101561999999REMMET112MOBOB8 METAR XM22 //001 022409 131752Z AUTO 17007KT 9999 26/22 A2999      RMK A02 SLP157 T02560215 PA-54 DA1504=
0139008416999992015091318524-02200+040900FM-15+001099999V0201701N003119999999N009999199+02571+02161101641ADDMA1101631999999REMMET112MOBOB8 METAR XM22 //001 022409 131852Z AUTO 17006KT 9999 26/22 A3001      RMK A02 SLP164 T02570216 PA-73 DA1494=
0139008416999992015091319524-02200+040900FM-15+001099999V0201701N003119999999N009999199+02571+02171101641ADDMA1101631999999REMMET112MOBOB8 METAR XM22 //001 022409 131952Z AUTO 17006KT 9999 26/22 A3001      RMK A02 SLP164 T02570217 PA-73 DA1496=
0150008416999992015091320524-02200+040900FM-15+001099999V0201701N004119999999N009999199+02571+02161101611ADDMA1101591999999OC100671REMMET115MOBOB8 METAR XM22 //001 022409 132052Z AUTO 17008G13KT 9999 26/22 A3000      RMK A02 SLP161 T02570216 PA-64 DA1506=
0150008416999992015091321524-02200+040900FM-15+001099999V0201601N004119999999N009999199+02561+02141101541ADDMA1101521999999OC100721REMMET115MOBOB8 METAR XM22 //001 022409 132152Z AUTO 16008G14KT 9999 26/21 A2998      RMK A02 SLP154 T02560214 PA-45 DA1514=
0139008416999992015091322524-02200+040900FM-15+001099999V0201601N003619999999N009999199+02541+02131101471ADDMA1101461999999REMMET112MOBOB8 METAR XM22 //001 022409 132252Z AUTO 16007KT 9999 25/21 A2996      RMK A02 SLP147 T02540213 PA-27 DA1511=
0139008416999992015091323524-02200+040900FM-15+001099999V0201601N003119999999N009999199+02491+02141101441ADDMA1101421999999REMMET112MOBOB8 METAR XM22 //001 022409 132352Z AUTO 16006KT 9999 25/21 A2995      RMK A02 SLP144 T02490214 PA-17 DA1467=
0139008416999992015091400524-02200+040900FM-15+001099999V0201701N003119999999N009999199+02491+02151101471ADDMA1101461999999REMMET112MOBOB8 METAR XM22 //001 022409 140052Z AUTO 17006KT 9999 25/21 A2996      RMK A02 SLP147 T02490215 PA-27 DA1459=
0139008416999992015091401524-02200+040900FM-15+001099999V0201701N003119999999N009999199+02491+02151101471ADDMA1101461999999REMMET112MOBOB8 METAR XM22 //001 022409 140152Z AUTO 17006KT 9999 25/22 A2996      RMK A02 SLP147 T02490215 PA-27 DA1459=
0139008416999992015091402524-02200+040900FM-15+001099999V0201701N003119999999N009999199+02481+02121101541ADDMA1101521999999REMMET112MOBOB8 METAR XM22 //001 022409 140252Z AUTO 17006KT 9999 25/21 A2998      RMK A02 SLP154 T02480212 PA-45 DA1419=
0139008416999992015091403524-02200+040900FM-15+001099999V0201701N003119999999N009999199+02521+02151101611ADDMA1101591999999REMMET112MOBOB8 METAR XM22 //001 022409 140352Z AUTO 17006KT 9999 25/22 A3000      RMK A02 SLP161 T02520215 PA-64 DA1447=
0150008416999992015091404524-02200+040900FM-15+001099999V0201701N005119999999N009999199+02671+02131101711ADDMA1101691999999OC100931REMMET115MOBOB8 METAR XM22 //001 022409 140452Z AUTO 17010G18KT 9999 27/21 A3003      RMK A02 SLP171 T02670213 PA-91 DA1579=
0151008416999992015091405524-02200+040900FM-15+001099999V0201701N005119999999N009999199+02781+02111101741ADDMA1101731999999OC100931REMMET116MOBOB8 METAR XM22 //001 022409 140552Z AUTO 17010G18KT 9999 28/21 A3004      RMK A02 SLP174 T02780211 PA-100 DA1688=
0151008416999992015091406524-02200+040900FM-15+001099999V0201601N006219999999N009999199+02811+02051101811ADDMA1101791999999OC101081REMMET116MOBOB8 METAR XM22 //001 022409 140652Z AUTO 16012G21KT 9999 28/20 A3006      RMK A02 SLP181 T02810205 PA-119 DA1686=
0151008416999992015091407524-02200+040900FM-15+001099999V0201701N005719999999N009999199+02841+02031101811ADDMA1101791999999OC100981REMMET116MOBOB8 METAR XM22 //001 022409 140752Z AUTO 17011G19KT 9999 28/20 A3006      RMK A02 SLP181 T02840203 PA-119 DA1717=
0151008416999992015091408524-02200+040900FM-15+001099999V0201601N006219999999N009999199+02921+02041101741ADDMA1101731999999OC101031REMMET116MOBOB8 METAR XM22 //001 022409 140852Z AUTO 16012G20KT 9999 29/20 A3004      RMK A02 SLP174 T02920204 PA-100 DA1830=
0150008416999992015091409524-02200+040900FM-15+001099999V0201701N005719999999N009999199+02951+01991101671ADDMA1101661999999OC100931REMMET115MOBOB8 METAR XM22 //001 022409 140952Z AUTO 17011G18KT 9999 30/20 A3002      RMK A02 SLP167 T02950199 PA-82 DA1877=
0150008416999992015091410524-02200+040900FM-15+001099999V0201701N005719999999N009999199+02931+02031101541ADDMA1101521999999OC100981REMMET115MOBOB8 METAR XM22 //001 022409 141052Z AUTO 17011G19KT 9999 29/20 A2998      RMK A02 SLP154 T02930203 PA-45 DA1907=
0150008416999992015091411524-02200+040900FM-15+001099999V0201701N005119999999N009999199+02821+02011101471ADDMA1101461999999OC100981REMMET115MOBOB8 METAR XM22 //001 022409 141152Z AUTO 17010G19KT 9999 28/20 A2996      RMK A02 SLP147 T02820201 PA-27 DA1804=
0150008416999992015091412524-02200+040900FM-15+001099999V0201701N004619999999N009999199+02741+02021101441ADDMA1101421999999OC100881REMMET115MOBOB8 METAR XM22 //001 022409 141252Z AUTO 17009G17KT 9999 27/20 A2995      RMK A02 SLP144 T02740202 PA-17 DA1727=
0150008416999992015091413524-02200+040900FM-15+001099999V0201701N005119999999N009999199+02681+02021101441ADDMA1101421999999OC100881REMMET115MOBOB8 METAR XM22 //001 022409 141352Z AUTO 17010G17KT 9999 27/20 A2995      RMK A02 SLP144 T02680202 PA-17 DA1660=
0150008416999992015091414524-02200+040900FM-15+001099999V0201701N005719999999N009999199+02621+02021101471ADDMA1101461999999OC100881REMMET115MOBOB8 METAR XM22 //001 022409 141452Z AUTO 17011G17KT 9999 26/20 A2996      RMK A02 SLP147 T02620202 PA-27 DA1580=
0150008416999992015091415524-02200+040900FM-15+001099999V0201701N004619999999N009999199+02581+02011101511ADDMA1101491999999OC100821REMMET115MOBOB8 METAR XM22 //001 022409 141552Z AUTO 17009G16KT 9999 26/20 A2997      RMK A02 SLP151 T02580201 PA-36 DA1523=
0150008416999992015091416524-02200+040900FM-15+001099999V0201701N005119999999N009999199+02571+02031101541ADDMA1101521999999OC100821REMMET115MOBOB8 METAR XM22 //001 022409 141652Z AUTO 17010G16KT 9999 26/20 A2998      RMK A02 SLP154 T02570203 PA-45 DA1504=
0150008416999992015091417524-02200+040900FM-15+001099999V0201601N005719999999N009999199+02561+02021101571ADDMA1101561999999OC100981REMMET115MOBOB8 METAR XM22 //001 022409 141752Z AUTO 16011G19KT 9999 26/20 A2999      RMK A02 SLP157 T02560202 PA-54 DA1479=
0150008416999992015091418524-02200+040900FM-15+001099999V0201601N004619999999N009999199+02551+02011101571ADDMA1101561999999OC100821REMMET115MOBOB8 METAR XM22 //001 022409 141852Z AUTO 16009G16KT 9999 26/20 A2999      RMK A02 SLP157 T02550201 PA-54 DA1466=
0150008416999992015091419524-02200+040900FM-15+001099999V0201601N005119999999N009999199+02541+01951101611ADDMA1101591999999OC100821REMMET115MOBOB8 METAR XM22 //001 022409 141952Z AUTO 16010G16KT 9999 25/20 A3000      RMK A02 SLP161 T02540195 PA-64 DA1433=
0150008416999992015091420524-02200+040900FM-15+001099999V0201701N004119999999N009999199+02531+02001101541ADDMA1101521999999OC100671REMMET115MOBOB8 METAR XM22 //001 022409 142052Z AUTO 17008G13KT 9999 25/20 A2998      RMK A02 SLP154 T02530200 PA-45 DA1452=
0150008416999992015091422524-02200+040900FM-15+001099999V0201601N004619999999N009999199+02531+02021101441ADDMA1101421999999OC100721REMMET115MOBOB8 METAR XM22 //001 022409 142252Z AUTO 16009G14KT 9999 25/20 A2995      RMK A02 SLP144 T02530202 PA-17 DA1490=
0150008416999992015091423524-02200+040900FM-15+001099999V0201701N004119999999N009999199+02511+02011101401ADDMA1101391999999OC100671REMMET115MOBOB8 METAR XM22 //001 022409 142352Z AUTO 17008G13KT 9999 25/20 A2994      RMK A02 SLP140 T02510201 PA-08 DA1477=
0150008416999992015091500524-02200+040900FM-15+001099999V0201701N003619999999N009999199+02501+02001101441ADDMA1101421999999OC100621REMMET115MOBOB8 METAR XM22 //001 022409 150052Z AUTO 17007G12KT 9999 25/20 A2995      RMK A02 SLP144 T02500200 PA-17 DA1454=
0177008416999992015091501524-02200+040900FM-15+001099999V0201701N003619999999N009000199+02451+02011101441ADDAA101000021AW1611MA1101421999999OC100671REMMET125MOBOB8 METAR XM22 //001 022409 150152Z AUTO 17007G13KT 9000 -RA 25/20      A2995 RMK A02 SLP144 P0000 T02450201 PA-17 DA1398=
0139008416999992015091502524-02200+040900FM-15+001099999V0201701N003619999999N009999199+02471+02021101511ADDMA1101491999999REMMET112MOBOB8 METAR XM22 //001 022409 150252Z AUTO 17007KT 9999 25/20 A2997      RMK A02 SLP151 T02470202 PA-36 DA1400=
0150008416999992015091503524-02200+040900FM-15+001099999V0201701N004119999999N009999199+02521+01971101541ADDMA1101521999999OC100671REMMET115MOBOB8 METAR XM22 //001 022409 150352Z AUTO 17008G13KT 9999 25/20 A2998      RMK A02 SLP154 T02520197 PA-45 DA1435=
0150008416999992015091504524-02200+040900FM-15+001099999V0201601N005719999999N009999199+02671+01951101611ADDMA1101591999999OC100981REMMET115MOBOB8 METAR XM22 //001 022409 150452Z AUTO 16011G19KT 9999 27/20 A3000      RMK A02 SLP161 T02670195 PA-64 DA1579=
0150008416999992015091505524-02200+040900FM-15+001099999V0201701N005119999999N009999199+02761+02011101711ADDMA1101691999999OC100931REMMET115MOBOB8 METAR XM22 //001 022409 150552Z AUTO 17010G18KT 9999 28/20 A3003      RMK A02 SLP171 T02760201 PA-91 DA1657=
0151008416999992015091506524-02200+040900FM-15+001099999V0201601N005719999999N009999199+02841+02041101741ADDMA1101731999999OC100981REMMET116MOBOB8 METAR XM22 //001 022409 150652Z AUTO 16011G19KT 9999 28/20 A3004      RMK A02 SLP174 T02840204 PA-100 DA1740=
0151008416999992015091507524-02200+040900FM-15+001099999V0201601N005719999999N009999199+02871+01971101741ADDMA1101731999999OC100881REMMET116MOBOB8 METAR XM22 //001 022409 150752Z AUTO 16011G17KT 9999 29/20 A3004      RMK A02 SLP174 T02870197 PA-100 DA1761=
0150008416999992015091508524-02200+040900FM-15+001099999V0201701N006219999999N009999199+02811+01921101711ADDMA1101691999999OC101081REMMET115MOBOB8 METAR XM22 //001 022409 150852Z AUTO 17012G21KT 9999 28/19 A3003      RMK A02 SLP171 T02810192 PA-91 DA1697=
0149008416999992015091509524-02200+040900FM-15+001099999V0201701N005119999999N009999199+02891+01931999999ADDMA1101591999999OC101131REMMET114MOBOB8 METAR XM22 //001 022409 150952Z AUTO 17010G22KT 9999 29/19 A3000      RMK A02 SLPNO T02890193 PA-64 DA1822=
0150008416999992015091510524-02200+040900FM-15+001099999V0201601N006719999999N009999199+02851+01911101511ADDMA1101491999999OC101081REMMET115MOBOB8 METAR XM22 //001 022409 151052Z AUTO 16013G21KT 9999 29/19 A2997      RMK A02 SLP151 T02850191 PA-36 DA1808=
0150008416999992015091511524-02200+040900FM-15+001099999V0201701N005119999999N009999199+02881+01951101441ADDMA1101421999999OC100931REMMET115MOBOB8 METAR XM22 //001 022409 151152Z AUTO 17010G18KT 9999 29/19 A2995      RMK A02 SLP144 T02880195 PA-17 DA1871=
0150008416999992015091512524-02200+040900FM-15+001099999V0201701N004619999999N009999199+02741+01931101401ADDMA1101391999999OC100821REMMET115MOBOB8 METAR XM22 //001 022409 151252Z AUTO 17009G16KT 9999 27/19 A2994      RMK A02 SLP140 T02740193 PA-08 DA1723=
0150008416999992015091513524-02200+040900FM-15+001099999V0201701N003619999999N009999199+02671+02011101401ADDMA1101391999999OC100771REMMET115MOBOB8 METAR XM22 //001 022409 151352Z AUTO 17007G15KT 9999 27/20 A2994      RMK A02 SLP140 T02670201 PA-08 DA1659=
0139008416999992015091514524-02200+040900FM-15+001099999V0201701N003119999999N009999199+02581+01971101441ADDMA1101421999999REMMET112MOBOB8 METAR XM22 //001 022409 151452Z AUTO 17006KT 9999 26/20 A2995      RMK A02 SLP144 T02580197 PA-17 DA1538=
0139008416999992015091515524-02200+040900FM-15+001099999V0201701N003119999999N009999199+02521+02001101471ADDMA1101461999999REMMET112MOBOB8 METAR XM22 //001 022409 151552Z AUTO 17006KT 9999 25/20 A2996      RMK A02 SLP147 T02520200 PA-27 DA1465=
0139008416999992015091516524-02200+040900FM-15+001099999V0201701N003619999999N009999199+02521+01991101511ADDMA1101491999999REMMET112MOBOB8 METAR XM22 //001 022409 151652Z AUTO 17007KT 9999 25/20 A2997      RMK A02 SLP151 T02520199 PA-36 DA1451=
0139008416999992015091517524-02200+040900FM-15+001099999V0201701N003619999999N009999199+02501+02011101541ADDMA1101521999999REMMET112MOBOB8 METAR XM22 //001 022409 151752Z AUTO 17007KT 9999 25/20 A2998      RMK A02 SLP154 T02500201 PA-45 DA1420=
0139008416999992015091518524-02200+040900FM-15+001099999V0201701N002619999999N009999199+02441+02011101571ADDMA1101561999999REMMET112MOBOB8 METAR XM22 //001 022409 151852Z AUTO 17005KT 9999 24/20 A2999      RMK A02 SLP157 T02440201 PA-54 DA1341=
0139008416999992015091519524-02200+040900FM-15+001099999V0201701N003119999999N009999199+02461+01991101541ADDMA1101521999999REMMET112MOBOB8 METAR XM22 //001 022409 151952Z AUTO 17006KT 9999 25/20 A2998      RMK A02 SLP154 T02460199 PA-45 DA1371=
0139008416999992015091520524-02200+040900FM-15+001099999V0201701N002619999999N009999199+02451+01981101511ADDMA1101491999999REMMET112MOBOB8 METAR XM22 //001 022409 152052Z AUTO 17005KT 9999 25/20 A2997      RMK A02 SLP151 T02450198 PA-36 DA1370=
0139008416999992015091521524-02200+040900FM-15+001099999V0201701N002619999999N009999199+02421+01971101441ADDMA1101421999999REMMET112MOBOB8 METAR XM22 //001 022409 152152Z AUTO 17005KT 9999 24/20 A2995      RMK A02 SLP144 T02420197 PA-17 DA1357=
0139008416999992015091522524-02200+040900FM-15+001099999V0201801N002619999999N009999199+02421+01991101371ADDMA1101351999999REMMET112MOBOB8 METAR XM22 //001 022409 152252Z AUTO 18005KT 9999 24/20 A2993      RMK A02 SLP137 T02420199 PA001 DA1383=
0139008416999992015091523524-02200+040900FM-15+001099999V0201701N001519999999N009999199+02391+02001101371ADDMA1101351999999REMMET112MOBOB8 METAR XM22 //001 022409 152352Z AUTO 17003KT 9999 24/20 A2993      RMK A02 SLP137 T02390200 PA001 DA1351=
0139008416999992015091600524-02200+040900FM-15+001099999V0201701N002619999999N009999199+02421+02011101371ADDMA1101351999999REMMET112MOBOB8 METAR XM22 //001 022409 160052Z AUTO 17005KT 9999 24/20 A2993      RMK A02 SLP137 T02420201 PA001 DA1387=
0139008416999992015091601524-02200+040900FM-15+001099999V0201701N002619999999N009999199+02401+02011101371ADDMA1101351999999REMMET112MOBOB8 METAR XM22 //001 022409 160152Z AUTO 17005KT 9999 24/20 A2993      RMK A02 SLP137 T02400201 PA001 DA1363=
0139008416999992015091602524-02200+040900FM-15+001099999V0201701N002619999999N009999199+02431+02031101441ADDMA1101421999999REMMET112MOBOB8 METAR XM22 //001 022409 160252Z AUTO 17005KT 9999 24/20 A2995      RMK A02 SLP144 T02430203 PA-17 DA1378=
0139008416999992015091603524-02200+040900FM-15+001099999V0201701N002619999999N009999199+02511+02071101471ADDMA1101461999999REMMET112MOBOB8 METAR XM22 //001 022409 160352Z AUTO 17005KT 9999 25/21 A2996      RMK A02 SLP147 T02510207 PA-27 DA1466=
0139008416999992015091604524-02200+040900FM-15+001099999V0201701N003619999999N009999199+02611+02091101541ADDMA1101521999999REMMET112MOBOB8 METAR XM22 //001 022409 160452Z AUTO 17007KT 9999 26/21 A2998      RMK A02 SLP154 T02610209 PA-45 DA1560=
0150008416999992015091605524-02200+040900FM-15+001099999V0201701N004119999999N009999199+02711+02071101641ADDMA1101631999999OC100931REMMET115MOBOB8 METAR XM22 //001 022409 160552Z AUTO 17008G18KT 9999 27/21 A3001      RMK A02 SLP164 T02710207 PA-73 DA1634=
0150008416999992015091606524-02200+040900FM-15+001099999V0201701N005119999999N009999199+02761+02061101671ADDMA1101661999999OC100931REMMET115MOBOB8 METAR XM22 //001 022409 160652Z AUTO 17010G18KT 9999 28/21 A3002      RMK A02 SLP167 T02760206 PA-82 DA1678=
0150008416999992015091607524-02200+040900FM-15+001099999V0201701N005119999999N009999199+02881+02031101641ADDMA1101631999999OC101031REMMET115MOBOB8 METAR XM22 //001 022409 160752Z AUTO 17010G20KT 9999 29/20 A3001      RMK A02 SLP164 T02880203 PA-73 DA1818=
0150008416999992015091608524-02200+040900FM-15+001099999V0201701N004119999999N009999199+02801+02091101571ADDMA1101561999999OC100771REMMET115MOBOB8 METAR XM22 //001 022409 160852Z AUTO 17008G15KT 9999 28/21 A2999      RMK A02 SLP157 T02800209 PA-54 DA1763=
0150008416999992015091609524-02200+040900FM-15+001099999V0201701N005719999999N009999199+02901+02051101471ADDMA1101461999999OC101031REMMET115MOBOB8 METAR XM22 //001 022409 160952Z AUTO 17011G20KT 9999 29/20 A2996      RMK A02 SLP147 T02900205 PA-27 DA1900=
0177008416999992015091610524-02200+040900FM-15+001099999V0201701N005119999999N009000199+02901+02041101401ADDAA101000021AW1611MA1101391999999OC100881REMMET125MOBOB8 METAR XM22 //001 022409 161052Z AUTO 17010G17KT 9000 -RA 29/20      A2994 RMK A02 SLP140 P0000 T02900204 PA-08 DA1922=
0150008416999992015091611524-02200+040900FM-15+001099999V0201701N005119999999N009999199+02901+02041101301ADDMA1101291999999OC100931REMMET115MOBOB8 METAR XM22 //001 022409 161152Z AUTO 17010G18KT 9999 29/20 A2991      RMK A02 SLP130 T02900204 PA020 DA1956=
0150008416999992015091612524-02200+040900FM-15+001099999V0201701N004619999999N009999199+02801+02051101271ADDMA1101251999999OC100821REMMET115MOBOB8 METAR XM22 //001 022409 161252Z AUTO 17009G16KT 9999 28/21 A2990      RMK A02 SLP127 T02800205 PA029 DA1858=
0150008416999992015091613524-02200+040900FM-15+001099999V0201701N004619999999N009999199+02721+02051101271ADDMA1101251999999OC100821REMMET115MOBOB8 METAR XM22 //001 022409 161352Z AUTO 17009G16KT 9999 27/21 A2990      RMK A02 SLP127 T02720205 PA029 DA1768=
0150008416999992015091614524-02200+040900FM-15+001099999V0201701N004119999999N009999199+02601+02071101301ADDMA1101291999999OC100721REMMET115MOBOB8 METAR XM22 //001 022409 161452Z AUTO 17008G14KT 9999 26/21 A2991      RMK A02 SLP130 T02600207 PA020 DA1625=
0139008416999992015091615524-02200+040900FM-15+001099999V0201701N002619999999N009999199+02531+02101101341ADDMA1101321999999REMMET112MOBOB8 METAR XM22 //001 022409 161552Z AUTO 17005KT 9999 25/21 A2992      RMK A02 SLP134 T02530210 PA010 DA1539=
0139008416999992015091616524-02200+040900FM-15+001099999V0201701N002619999999N009999199+02521+02111101341ADDMA1101321999999REMMET112MOBOB8 METAR XM22 //001 022409 161652Z AUTO 17005KT 9999 25/21 A2992      RMK A02 SLP134 T02520211 PA010 DA1530=
0139008416999992015091617524-02200+040900FM-15+001099999V0201701N003119999999N009999199+02531+02121101371ADDMA1101351999999REMMET112MOBOB8 METAR XM22 //001 022409 161752Z AUTO 17006KT 9999 25/21 A2993      RMK A02 SLP137 T02530212 PA001 DA1532=
0150008416999992015091618524-02200+040900FM-15+001099999V0201701N003619999999N009999199+02531+02121101441ADDMA1101421999999OC100621REMMET115MOBOB8 METAR XM22 //001 022409 161852Z AUTO 17007G12KT 9999 25/21 A2995      RMK A02 SLP144 T02530212 PA-17 DA1510=
0150008416999992015091619524-02200+040900FM-15+001099999V0201701N003619999999N009999199+02531+02121101441ADDMA1101421999999OC100671REMMET115MOBOB8 METAR XM22 //001 022409 161952Z AUTO 17007G13KT 9999 25/21 A2995      RMK A02 SLP144 T02530212 PA-17 DA1510=
0139008416999992015091620524-02200+040900FM-15+001099999V0201701N002619999999N009999199+02531+02141101401ADDMA1101391999999REMMET112MOBOB8 METAR XM22 //001 022409 162052Z AUTO 17005KT 9999 25/21 A2994      RMK A02 SLP140 T02530214 PA-08 DA1526=
0139008416999992015091621524-02200+040900FM-15+001099999V0201701N002619999999N009999199+02501+02141101301ADDMA1101291999999REMMET112MOBOB8 METAR XM22 //001 022409 162152Z AUTO 17005KT 9999 25/21 A2991      RMK A02 SLP130 T02500214 PA020 DA1525=
0139008416999992015091622524-02200+040900FM-15+001099999V0201701N002619999999N009999199+02541+02181101271ADDMA1101251999999REMMET112MOBOB8 METAR XM22 //001 022409 162252Z AUTO 17005KT 9999 25/22 A2990      RMK A02 SLP127 T02540218 PA029 DA1589=
0175008416999992015091623524-02200+040900FM-15+001099999V0201701N002619999999N004000199+02421+02221101271ADDAA101000021AW1101AW2611MA1101251999999REMMET125MOBOB8 METAR XM22 //001 022409 162352Z AUTO 17005KT 4000 -RA BR 24/22      A2990 RMK A02 SLP127 P0000 T02420222 PA029 DA1462=
0139008416999992015091700524-02200+040900FM-15+001099999V0201801N001519999999N009999199+02421+02241101231ADDMA1101221999999REMMET112MOBOB8 METAR XM22 //001 022409 170052Z AUTO 18003KT 9999 24/22 A2989      RMK A02 SLP123 T02420224 PA038 DA1478=
0139008416999992015091701524-02200+040900FM-15+001099999V0201801N002119999999N009999199+02441+02251101231ADDMA1101221999999REMMET112MOBOB8 METAR XM22 //001 022409 170152Z AUTO 18004KT 9999 24/23 A2989      RMK A02 SLP123 T02440225 PA038 DA1503=
0166008416999992015091702524-02200+040900FM-15+001099999V0201801N001519999999N009000199+02481+02281101271ADDAA101000021AW1611MA1101251999999REMMET122MOBOB8 METAR XM22 //001 022409 170252Z AUTO 18003KT 9000 -RA 25/23      A2990 RMK A02 SLP127 P0000 T02480228 PA029 DA1543=
0166008416999992015091703524-02200+040900FM-15+001099999V0201801N001519999999N009000199+02401+02151101371ADDAA101000021AW1611MA1101351999999REMMET122MOBOB8 METAR XM22 //001 022409 170352Z AUTO 18003KT 9000 -RA 24/22      A2993 RMK A02 SLP137 P0000 T02400215 PA001 DA1392=
0139008416999992015091704524-02200+040900FM-15+001099999V0201701N001519999999N009999199+02531+02321101441ADDMA1101421999999REMMET112MOBOB8 METAR XM22 //001 022409 170452Z AUTO 17003KT 9999 25/23 A2995      RMK A02 SLP144 T02530232 PA-17 DA1551=
0177008416999992015091705524-02200+040900FM-15+001099999V0201601N004119999999N009000199+02661+02251101511ADDAA101000021AW1611MA1101491999999OC100721REMMET125MOBOB8 METAR XM22 //001 022409 170552Z AUTO 16008G14KT 9000 -RA 27/23      A2997 RMK A02 SLP151 P0000 T02660225 PA-36 DA1661=
0150008416999992015091706524-02200+040900FM-15+001099999V0201601N004619999999N009999199+02751+02261101511ADDMA1101491999999OC100771REMMET115MOBOB8 METAR XM22 //001 022409 170652Z AUTO 16009G15KT 9999 28/23 A2997      RMK A02 SLP151 T02750226 PA-36 DA1764=
0150008416999992015091707524-02200+040900FM-15+001099999V0201601N005119999999N009999199+02801+02271101471ADDMA1101461999999OC100771REMMET115MOBOB8 METAR XM22 //001 022409 170752Z AUTO 16010G15KT 9999 28/23 A2996      RMK A02 SLP147 T02800227 PA-27 DA1832=
0150008416999992015091708524-02200+040900FM-15+001099999V0201701N005119999999N009999199+02891+02221101401ADDMA1101391999999OC100981REMMET115MOBOB8 METAR XM22 //001 022409 170852Z AUTO 17010G19KT 9999 29/22 A2994      RMK A02 SLP140 T02890222 PA-08 DA1947=
0150008416999992015091709524-02200+040900FM-15+001099999V0201701N005119999999N009999199+02961+02211101341ADDMA1101321999999OC101031REMMET115MOBOB8 METAR XM22 //001 022409 170952Z AUTO 17010G20KT 9999 30/22 A2992      RMK A02 SLP134 T02960221 PA010 DA2045=
