0130008414999992016010100524+31000+061900FM-15+049099999V0203301N000519999999N999999999+00461+00101102101ADDMA1102001999999REMMET103MOBOB3 METAR XM18 //049 310619 010052Z AUTO 33001KT 05/01 A3012 RMK A02 SLP210 T00460010 PA1417 DA0607=
0130008414999992016010101524+31000+061900FM-15+049099999V0203201N000519999999N999999999+00501+00111102181ADDMA1102071999999REMMET103MOBOB3 METAR XM18 //049 310619 010152Z AUTO 32001KT 05/01 A3014 RMK A02 SLP218 T00500011 PA1398 DA0632=
0130008414999992016010102524+31000+061900FM-15+049099999V0203401N000519999999N999999999+00581+00201102291ADDMA1102171999999REMMET103MOBOB3 METAR XM18 //049 310619 010252Z AUTO 34001KT 06/02 A3017 RMK A02 SLP229 T00580020 PA1369 DA0700=
0130008414999992016010103524+31000+061900FM-15+049099999V0200901N000519999999N999999999+00961+00291102311ADDMA1102231999999REMMET103MOBOB3 METAR XM18 //049 310619 010352Z AUTO 09001KT 10/03 A3019 RMK A02 SLP231 T00960029 PA1350 DA1142=
0130008414999992016010104524+31000+061900FM-15+049099999V0201601N002119999999N999999999+01141+00371102311ADDMA1102231999999REMMET103MOBOB3 METAR XM18 //049 310619 010452Z AUTO 16004KT 11/04 A3019 RMK A02 SLP231 T01140037 PA1350 DA1362=
0130008414999992016010105524+31000+061900FM-15+049099999V0201701N002119999999N999999999+01401+00411102261ADDMA1102201999999REMMET103MOBOB3 METAR XM18 //049 310619 010552Z AUTO 17004KT 14/04 A3018 RMK A02 SLP226 T01400041 PA1359 DA1685=
0130008414999992016010106524+31000+061900FM-15+049099999V0201801N001519999999N999999999+01591+00301102111ADDMA1102071999999REMMET103MOBOB3 METAR XM18 //049 310619 010652Z AUTO 18003KT 16/03 A3014 RMK A02 SLP211 T01590030 PA1398 DA1947=
0130008414999992016010107524+31000+061900FM-15+049099999V0201601N001519999999N999999999+01751+00271102021ADDMA1102001999999REMMET103MOBOB3 METAR XM18 //049 310619 010752Z AUTO 16003KT 18/03 A3012 RMK A02 SLP202 T01750027 PA1417 DA2154=
0130008414999992016010108524+31000+061900FM-15+049099999V0201401N001019999999N999999999+01911+00281101941ADDMA1101931999999REMMET103MOBOB3 METAR XM18 //049 310619 010852Z AUTO 14002KT 19/03 A3010 RMK A02 SLP194 T01910028 PA1436 DA2363=
0130008414999992016010109524+31000+061900FM-15+049099999V0201401N000519999999N999999999+01961+00281101951ADDMA1101931999999REMMET103MOBOB3 METAR XM18 //049 310619 010952Z AUTO 14001KT 20/03 A3010 RMK A02 SLP195 T01960028 PA1436 DA2420=
0130008414999992016010110524+31000+061900FM-15+049099999V0200801N001519999999N999999999+01831+00321101921ADDMA1101901999999REMMET103MOBOB3 METAR XM18 //049 310619 011052Z AUTO 08003KT 18/03 A3009 RMK A02 SLP192 T01830032 PA1446 DA2286=
0130008414999992016010111524+31000+061900FM-15+049099999V0200301N001019999999N999999999+01771+00351101931ADDMA1101901999999REMMET103MOBOB3 METAR XM18 //049 310619 011152Z AUTO 03002KT 18/04 A3009 RMK A02 SLP193 T01770035 PA1446 DA2219=
0130008414999992016010112524+31000+061900FM-15+049099999V0203001N000519999999N999999999+01621+00531102061ADDMA1102001999999REMMET103MOBOB3 METAR XM18 //049 310619 011252Z AUTO 30001KT 16/05 A3012 RMK A02 SLP206 T01620053 PA1417 DA2023=
0130008414999992016010113524+31000+061900FM-15+049099999V0202901N001019999999N999999999+01491+00511102151ADDMA1102071999999REMMET103MOBOB3 METAR XM18 //049 310619 011352Z AUTO 29002KT 15/05 A3014 RMK A02 SLP215 T01490051 PA1398 DA1846=
0130008414999992016010114524+31000+061900FM-15+049099999V0203101N001019999999N999999999+01411+00491102181ADDMA1102101999999REMMET103MOBOB3 METAR XM18 //049 310619 011452Z AUTO 31002KT 14/05 A3015 RMK A02 SLP218 T01410049 PA1388 DA1739=
0130008414999992016010115524+31000+061900FM-15+049099999V0203501N001019999999N999999999+01321+00511102151ADDMA1102101999999REMMET103MOBOB3 METAR XM18 //049 310619 011552Z AUTO 35002KT 13/05 A3015 RMK A02 SLP215 T01320051 PA1388 DA1634=
0130008414999992016010116524+31000+061900FM-15+049099999V0202301N001019999999N999999999+01341+00501102131ADDMA1102101999999REMMET103MOBOB3 METAR XM18 //049 310619 011652Z AUTO 23002KT 13/05 A3015 RMK A02 SLP213 T01340050 PA1388 DA1657=
0130008414999992016010117524+31000+061900FM-15+049099999V0202401N000519999999N999999999+01271+00471102081ADDMA1102071999999REMMET103MOBOB3 METAR XM18 //049 310619 011752Z AUTO 24001KT 13/05 A3014 RMK A02 SLP208 T01270047 PA1398 DA1584=
0130008414999992016010118524+31000+061900FM-15+049099999V0203101N000519999999N999999999+01181+00491102031ADDMA1102031999999REMMET103MOBOB3 METAR XM18 //049 310619 011852Z AUTO 31001KT 12/05 A3013 RMK A02 SLP203 T01180049 PA1407 DA1490=
0130008414999992016010119524+31000+061900FM-15+049099999V0209999C000019999999N999999999+00991+00451101921ADDMA1101931999999REMMET103MOBOB3 METAR XM18 //049 310619 011952Z AUTO 00000KT 10/05 A3010 RMK A02 SLP192 T00990045 PA1436 DA1297=
0130008414999992016010120524+31000+061900FM-15+049099999V0203401N000519999999N999999999+00971+00441101911ADDMA1101931999999REMMET103MOBOB3 METAR XM18 //049 310619 012052Z AUTO 34001KT 10/04 A3010 RMK A02 SLP191 T00970044 PA1436 DA1273=
0130008414999992016010121524+31000+061900FM-15+049099999V0202701N000519999999N999999999+00901+00451101881ADDMA1101901999999REMMET103MOBOB3 METAR XM18 //049 310619 012152Z AUTO 27001KT 09/05 A3009 RMK A02 SLP188 T00900045 PA1446 DA1201=
0130008414999992016010122524+31000+061900FM-15+049099999V0201501N000519999999N999999999+01031+00411101811ADDMA1101831999999REMMET103MOBOB3 METAR XM18 //049 310619 012252Z AUTO 15001KT 10/04 A3007 RMK A02 SLP181 T01030041 PA1465 DA1378=
0130008414999992016010123524+31000+061900FM-15+049099999V0203401N000519999999N999999999+00961+00441101851ADDMA1101861999999REMMET103MOBOB3 METAR XM18 //049 310619 012352Z AUTO 34001KT 10/04 A3008 RMK A02 SLP185 T00960044 PA1455 DA1284=
0130008414999992016010200524+31000+061900FM-15+049099999V0209999C000019999999N999999999+00781+00441101921ADDMA1101901999999REMMET103MOBOB3 METAR XM18 //049 310619 020052Z AUTO 00000KT 08/04 A3009 RMK A02 SLP192 T00780044 PA1446 DA1056=
0130008414999992016010201524+31000+061900FM-15+049099999V0200201N000519999999N999999999+00851+00461101931ADDMA1101901999999REMMET103MOBOB3 METAR XM18 //049 310619 020152Z AUTO 02001KT 09/05 A3009 RMK A02 SLP193 T00850046 PA1446 DA1142=
0130008414999992016010202524+31000+061900FM-15+049099999V0203501N001519999999N999999999+00901+00491102001ADDMA1101961999999REMMET103MOBOB3 METAR XM18 //049 310619 020252Z AUTO 35003KT 09/05 A3011 RMK A02 SLP200 T00900049 PA1427 DA1180=
0130008414999992016010203524+31000+061900FM-15+049099999V0201401N001519999999N999999999+01341+00591102071ADDMA1102071999999REMMET103MOBOB3 METAR XM18 //049 310619 020352Z AUTO 14003KT 13/06 A3014 RMK A02 SLP207 T01340059 PA1398 DA1676=
0130008414999992016010204524+31000+061900FM-15+049099999V0201201N001519999999N999999999+01551+00631102011ADDMA1102031999999REMMET103MOBOB3 METAR XM18 //049 310619 020452Z AUTO 12003KT 16/06 A3013 RMK A02 SLP201 T01550063 PA1407 DA1938=
0130008414999992016010205524+31000+061900FM-15+049099999V0201301N002119999999N999999999+01791+00641101891ADDMA1101931999999REMMET103MOBOB3 METAR XM18 //049 310619 020552Z AUTO 13004KT 18/06 A3010 RMK A02 SLP189 T01790064 PA1436 DA2253=
0130008414999992016010206524+31000+061900FM-15+049099999V0201201N002619999999N999999999+01961+00591101741ADDMA1101791999999REMMET103MOBOB3 METAR XM18 //049 310619 020652Z AUTO 12005KT 20/06 A3006 RMK A02 SLP174 T01960059 PA1475 DA2492=
0130008414999992016010207524+31000+061900FM-15+049099999V0201101N000519999999N999999999+02201+00611101621ADDMA1101661999999REMMET103MOBOB3 METAR XM18 //049 310619 020752Z AUTO 11001KT 22/06 A3002 RMK A02 SLP162 T02200061 PA1504 DA2803=
0130008414999992016010208524+31000+061900FM-15+049099999V0201901N001019999999N999999999+02271+00541101551ADDMA1101591999999REMMET103MOBOB3 METAR XM18 //049 310619 020852Z AUTO 19002KT 23/05 A3000 RMK A02 SLP155 T02270054 PA1523 DA2901=
0130008414999992016010209524+31000+061900FM-15+049099999V0202901N001019999999N999999999+02301+00591101521ADDMA1101561999999REMMET103MOBOB3 METAR XM18 //049 310619 020952Z AUTO 29002KT 23/06 A2999 RMK A02 SLP152 T02300059 PA1533 DA2950=
0130008414999992016010210524+31000+061900FM-15+049099999V0203501N001519999999N999999999+02251+00621101471ADDMA1101521999999REMMET103MOBOB3 METAR XM18 //049 310619 021052Z AUTO 35003KT 23/06 A2998 RMK A02 SLP147 T02250062 PA1542 DA2909=
0130008414999992016010211524+31000+061900FM-15+049099999V0203501N001019999999N999999999+02151+00751101491ADDMA1101521999999REMMET103MOBOB3 METAR XM18 //049 310619 021152Z AUTO 35002KT 22/07 A2998 RMK A02 SLP149 T02150075 PA1542 DA2806=
0130008414999992016010212524+31000+061900FM-15+049099999V0202701N001019999999N999999999+01931+00691101601ADDMA1101591999999REMMET103MOBOB3 METAR XM18 //049 310619 021252Z AUTO 27002KT 19/07 A3000 RMK A02 SLP160 T01930069 PA1523 DA2526=
0130008414999992016010213524+31000+061900FM-15+049099999V0202701N002119999999N999999999+01791+00681101681ADDMA1101661999999REMMET103MOBOB3 METAR XM18 //049 310619 021352Z AUTO 27004KT 18/07 A3002 RMK A02 SLP168 T01790068 PA1504 DA2340=
0130008414999992016010214524+31000+061900FM-15+049099999V0202901N001019999999N999999999+01681+00561101651ADDMA1101631999999REMMET103MOBOB3 METAR XM18 //049 310619 021452Z AUTO 29002KT 17/06 A3001 RMK A02 SLP165 T01680056 PA1513 DA2214=
0130008414999992016010215524+31000+061900FM-15+049099999V0202701N001019999999N999999999+01611+00561101581ADDMA1101591999999REMMET103MOBOB3 METAR XM18 //049 310619 021552Z AUTO 27002KT 16/06 A3000 RMK A02 SLP158 T01610056 PA1523 DA2145=
0130008414999992016010216524+31000+061900FM-15+049099999V0201501N001019999999N999999999+01551+00581101531ADDMA1101561999999REMMET103MOBOB3 METAR XM18 //049 310619 021652Z AUTO 15002KT 16/06 A2999 RMK A02 SLP153 T01550058 PA1533 DA2089=
0130008414999992016010217524+31000+061900FM-15+049099999V0201101N001019999999N999999999+01491+00641101441ADDMA1101491999999REMMET103MOBOB3 METAR XM18 //049 310619 021752Z AUTO 11002KT 15/06 A2997 RMK A02 SLP144 T01490064 PA1552 DA2048=
0130008414999992016010218524+31000+061900FM-15+049099999V0201701N001019999999N999999999+01501+00731101421ADDMA1101491999999REMMET103MOBOB3 METAR XM18 //049 310619 021852Z AUTO 17002KT 15/07 A2997 RMK A02 SLP142 T01500073 PA1552 DA2068=
0130008414999992016010219524+31000+061900FM-15+049099999V0202701N001519999999N999999999+01481+00721101391ADDMA1101491999999REMMET103MOBOB3 METAR XM18 //049 310619 021952Z AUTO 27003KT 15/07 A2997 RMK A02 SLP139 T01480072 PA1552 DA2043=
0130008414999992016010220524+31000+061900FM-15+049099999V0202801N002619999999N999999999+01441+00601101501ADDMA1101591999999REMMET103MOBOB3 METAR XM18 //049 310619 022052Z AUTO 28005KT 14/06 A3000 RMK A02 SLP150 T01440060 PA1523 DA1950=
0157008414999992016010221524+31000+061900FM-15+049099999V0203301N002119999999N999999999+01371+00741101571ADDAA101000021AW1611MA1101661999999REMMET113MOBOB3 METAR XM18 //049 310619 022152Z AUTO 33004KT -RA 14/07 A3002 RMK A02 SLP157 P0000 T01370074 PA1504 DA1857=
0130008414999992016010222524+31000+061900FM-15+049099999V0200601N001519999999N999999999+01441+00751101501ADDMA1101591999999REMMET103MOBOB3 METAR XM18 //049 310619 022252Z AUTO 06003KT 14/07 A3000 RMK A02 SLP150 T01440075 PA1523 DA1963=
0157008414999992016010223524+31000+061900FM-15+049099999V0200601N002619999999N999999999+01371+00851101481ADDAA101000021AW1611MA1101561999999REMMET113MOBOB3 METAR XM18 //049 310619 022352Z AUTO 06005KT -RA 14/09 A2999 RMK A02 SLP148 P0000 T01370085 PA1533 DA1903=
0157008414999992016010300524+31000+061900FM-15+049099999V0200101N002119999999N999999999+01381+00961101541ADDAA101000021AW1611MA1101591999999REMMET113MOBOB3 METAR XM18 //049 310619 030052Z AUTO 01004KT -RA 14/10 A3000 RMK A02 SLP154 P0000 T01380096 PA1523 DA1914=
0130008414999992016010301524+31000+061900FM-15+049099999V0201701N000519999999N999999999+01361+01011101691ADDMA1101761999999REMMET103MOBOB3 METAR XM18 //049 310619 030152Z AUTO 17001KT 14/10 A3005 RMK A02 SLP169 T01360101 PA1484 DA1848=
0157008414999992016010302524+31000+061900FM-15+049099999V0200801N001519999999N999999999+01381+01031101741ADDAA101000021AW1611MA1101791999999REMMET113MOBOB3 METAR XM18 //049 310619 030252Z AUTO 08003KT -RA 14/10 A3006 RMK A02 SLP174 P0000 T01380103 PA1475 DA1862=
0130008414999992016010303534+31000+061900FM-15+049099999V0200701N001519999999N999999999+01471+01061101841ADDMA1101901999999REMMET103MOBOB3 METAR XM18 //049 310619 030353Z AUTO 07003KT 15/11 A3009 RMK A02 SLP184 T01470106 PA1446 DA1935=
0157008414999992016010304524+31000+061900FM-15+049099999V0200701N002119999999N999999999+01541+01151101841ADDAA101000021AW1611MA1101901999999REMMET113MOBOB3 METAR XM18 //049 310619 030452Z AUTO 07004KT -RA 15/12 A3009 RMK A02 SLP184 P0000 T01540115 PA1446 DA2028=
0168008414999992016010305524+31000+061900FM-15+049099999V0200901N004119999999N999999999+01701+01231101721ADDAA101000021AW1611MA1101791999999OC100621REMMET116MOBOB3 METAR XM18 //049 310619 030552Z AUTO 09008G12KT -RA 17/12 A3006 RMK A02 SLP172 P0000 T01700123 PA1475 DA2259=
0141008414999992016010306534+31000+061900FM-15+049099999V0200901N006219999999N999999999+01791+01281101531ADDMA1101591999999OC101031REMMET106MOBOB3 METAR XM18 //049 310619 030653Z AUTO 09012G20KT 18/13 A3000 RMK A02 SLP153 T01790128 PA1523 DA2429=
0141008414999992016010307524+31000+061900FM-15+049099999V0201201N005719999999N999999999+01791+01151101461ADDMA1101521999999OC100981REMMET106MOBOB3 METAR XM18 //049 310619 030752Z AUTO 12011G19KT 18/12 A2998 RMK A02 SLP146 T01790115 PA1542 DA2438=
0141008414999992016010308524+31000+061900FM-15+049099999V0201401N004619999999N999999999+01791+01151101321ADDMA1101391999999OC100821REMMET106MOBOB3 METAR XM18 //049 310619 030852Z AUTO 14009G16KT 18/11 A2994 RMK A02 SLP132 T01790115 PA1581 DA2484=
0141008414999992016010309524+31000+061900FM-15+049099999V0201401N004619999999N999999999+01751+01171101261ADDMA1101321999999OC100931REMMET106MOBOB3 METAR XM18 //049 310619 030952Z AUTO 14009G18KT 18/12 A2992 RMK A02 SLP126 T01750117 PA1601 DA2465=
0130008414999992016010310524+31000+061900FM-15+049099999V0201301N003119999999N999999999+01781+01141101251ADDMA1101321999999REMMET103MOBOB3 METAR XM18 //049 310619 031052Z AUTO 13006KT 18/11 A2992 RMK A02 SLP125 T01780114 PA1601 DA2496=
0141008414999992016010311524+31000+061900FM-15+049099999V0201601N004119999999N999999999+01721+01111101301ADDMA1101351999999OC100721REMMET106MOBOB3 METAR XM18 //049 310619 031152Z AUTO 16008G14KT 17/11 A2993 RMK A02 SLP130 T01720111 PA1591 DA2411=
0130008414999992016010312524+31000+061900FM-15+049099999V0202701N002619999999N999999999+01741+01041101521ADDMA1101561999999REMMET103MOBOB3 METAR XM18 //049 310619 031252Z AUTO 27005KT 17/10 A2999 RMK A02 SLP152 T01740104 PA1533 DA2355=
0168008414999992016010313524+31000+061900FM-15+049099999V0203401N005119999999N999999999+01491+01231101611ADDAA101000021AW1611MA1101631999999OC100721REMMET116MOBOB3 METAR XM18 //049 310619 031352Z AUTO 34010G14KT -RA 15/12 A3001 RMK A02 SLP161 P0000 T01490123 PA1513 DA2063=
0157008414999992016010314524+31000+061900FM-15+049099999V0200801N004119999999N999999999+01411+01221101511ADDAA101000731AW1611MA1101521999999REMMET113MOBOB3 METAR XM18 //049 310619 031452Z AUTO 08008KT -RA 14/12 A2998 RMK A02 SLP151 P0003 T01410122 PA1542 DA2003=
0156008414999992016010315524+31000+061900FM-15+049099999V0203101N002619999999N999999999+01391+01211101761ADDAA101000021AW1621MA1101791999999REMMET112MOBOB3 METAR XM18 //049 310619 031552Z AUTO 31005KT RA 14/12 A3006 RMK A02 SLP176 P0000 T01390121 PA1475 DA1894=
0156008414999992016010316524+31000+061900FM-15+049099999V0209999C000019999999N999999999+01421+01091101571ADDAA101007831AW1621MA1101591999999REMMET112MOBOB3 METAR XM18 //049 310619 031652Z AUTO 00000KT RA 14/11 A3000 RMK A02 SLP157 P0031 T01420109 PA1523 DA1975=
0156008414999992016010317524+31000+061900FM-15+049099999V0203401N002119999999N999999999+01371+01181101701ADDAA101002231AW1621MA1101761999999REMMET112MOBOB3 METAR XM18 //049 310619 031752Z AUTO 34004KT RA 14/12 A3005 RMK A02 SLP170 P0009 T01370118 PA1484 DA1880=
0157008414999992016010318524+31000+061900FM-15+049099999V0201701N002119999999N999999999+01351+01161101691ADDAA101004031AW1611MA1101761999999REMMET113MOBOB3 METAR XM18 //049 310619 031852Z AUTO 17004KT -RA 14/12 A3005 RMK A02 SLP169 P0016 T01350116 PA1484 DA1854=
0157008414999992016010319534+31000+061900FM-15+049099999V0201601N001519999999N999999999+01361+01061101591ADDAA101000021AW1611MA1101631999999REMMET113MOBOB3 METAR XM18 //049 310619 031953Z AUTO 16003KT -RA 14/11 A3001 RMK A02 SLP159 P0000 T01360106 PA1513 DA1889=
0157008414999992016010320524+31000+061900FM-15+049099999V0202901N002619999999N999999999+01291+01101101741ADDAA101000021AW1611MA1101791999999REMMET113MOBOB3 METAR XM18 //049 310619 032052Z AUTO 29005KT -RA 13/11 A3006 RMK A02 SLP174 P0000 T01290110 PA1475 DA1763=
0130008414999992016010321524+31000+061900FM-15+049099999V0203001N002119999999N999999999+01081+00891101841ADDMA1101861999999REMMET103MOBOB3 METAR XM18 //049 310619 032152Z AUTO 30004KT 11/09 A3008 RMK A02 SLP184 T01080089 PA1455 DA1468=
0130008414999992016010322534+31000+061900FM-15+049099999V0203001N002119999999N999999999+01001+00801101841ADDMA1101861999999REMMET103MOBOB3 METAR XM18 //049 310619 032253Z AUTO 30004KT 10/08 A3008 RMK A02 SLP184 T01000080 PA1455 DA1363=
0130008414999992016010323524+31000+061900FM-15+049099999V0202901N002119999999N999999999+00911+00701101931ADDMA1101931999999REMMET103MOBOB3 METAR XM18 //049 310619 032352Z AUTO 29004KT 09/07 A3010 RMK A02 SLP193 T00910070 PA1436 DA1223=
0130008414999992016010400524+31000+061900FM-15+049099999V0203001N002119999999N999999999+00841+00651102011ADDMA1102001999999REMMET103MOBOB3 METAR XM18 //049 310619 040052Z AUTO 30004KT 08/07 A3012 RMK A02 SLP201 T00840065 PA1417 DA1110=
0130008414999992016010401524+31000+061900FM-15+049099999V0202701N001519999999N999999999+00791+00621102151ADDMA1102101999999REMMET103MOBOB3 METAR XM18 //049 310619 040152Z AUTO 27003KT 08/06 A3015 RMK A02 SLP215 T00790062 PA1388 DA1011=
0130008414999992016010402524+31000+061900FM-15+049099999V0203001N001519999999N999999999+00821+00611102301ADDMA1102231999999REMMET103MOBOB3 METAR XM18 //049 310619 040252Z AUTO 30003KT 08/06 A3019 RMK A02 SLP230 T00820061 PA1350 DA0998=
0130008414999992016010403534+31000+061900FM-15+049099999V0203301N002619999999N999999999+00971+00661102391ADDMA1102341999999REMMET103MOBOB3 METAR XM18 //049 310619 040353Z AUTO 33005KT 10/07 A3022 RMK A02 SLP239 T00970066 PA1321 DA1147=
0130008414999992016010404524+31000+061900FM-15+049099999V0203201N001519999999N999999999+01101+00681102411ADDMA1102371999999REMMET103MOBOB3 METAR XM18 //049 310619 040452Z AUTO 32003KT 11/07 A3023 RMK A02 SLP241 T01100068 PA1311 DA1292=
0130008414999992016010405524+31000+061900FM-15+049099999V0203501N002619999999N999999999+01281+00871102361ADDMA1102341999999REMMET103MOBOB3 METAR XM18 //049 310619 040552Z AUTO 35005KT 13/09 A3022 RMK A02 SLP236 T01280087 PA1321 DA1537=
0130008414999992016010406524+31000+061900FM-15+049099999V0203001N001519999999N999999999+01431+00921102271ADDMA1102271999999REMMET103MOBOB3 METAR XM18 //049 310619 040652Z AUTO 30003KT 14/09 A3020 RMK A02 SLP227 T01430092 PA1340 DA1742=
0130008414999992016010407534+31000+061900FM-15+049099999V0203201N001019999999N999999999+01581+00991102181ADDMA1102201999999REMMET103MOBOB3 METAR XM18 //049 310619 040753Z AUTO 32002KT 16/10 A3018 RMK A02 SLP218 T01580099 PA1359 DA1949=
0130008414999992016010408524+31000+061900FM-15+049099999V0203501N001019999999N999999999+01671+00981102141ADDMA1102171999999REMMET103MOBOB3 METAR XM18 //049 310619 040852Z AUTO 35002KT 17/10 A3017 RMK A02 SLP214 T01670098 PA1369 DA2064=
0130008414999992016010409524+31000+061900FM-15+049099999V0201901N000519999999N999999999+01731+01041102191ADDMA1102201999999REMMET103MOBOB3 METAR XM18 //049 310619 040952Z AUTO 19001KT 17/10 A3018 RMK A02 SLP219 T01730104 PA1359 DA2128=
0130008414999992016010410524+31000+061900FM-15+049099999V0200401N001019999999N999999999+01711+01051102201ADDMA1102201999999REMMET103MOBOB3 METAR XM18 //049 310619 041052Z AUTO 04002KT 17/11 A3018 RMK A02 SLP220 T01710105 PA1359 DA2107=
0130008414999992016010411534+31000+061900FM-15+049099999V0200701N001519999999N999999999+01601+01121102261ADDMA1102231999999REMMET103MOBOB3 METAR XM18 //049 310619 041153Z AUTO 07003KT 16/11 A3019 RMK A02 SLP226 T01600112 PA1350 DA1975=
0130008414999992016010412524+31000+061900FM-15+049099999V0200701N001019999999N999999999+01471+01161102351ADDMA1102301999999REMMET103MOBOB3 METAR XM18 //049 310619 041252Z AUTO 07002KT 15/12 A3021 RMK A02 SLP235 T01470116 PA1330 DA1804=
0130008414999992016010413524+31000+061900FM-15+049099999V0200801N002119999999N999999999+01381+01171102401ADDMA1102341999999REMMET103MOBOB3 METAR XM18 //049 310619 041352Z AUTO 08004KT 14/12 A3022 RMK A02 SLP240 T01380117 PA1321 DA1688=
0130008414999992016010414534+31000+061900FM-15+049099999V0201301N001019999999N999999999+01271+01111102481ADDMA1102401999999REMMET103MOBOB3 METAR XM18 //049 310619 041453Z AUTO 13002KT 13/11 A3024 RMK A02 SLP248 T01270111 PA1301 DA1526=
0144008414999992016010415524+31000+061900FM-15+049099999V0202601N000519999999N006000199+01221+01091102511ADDAW1101MA1102471999999REMMET111MOBOB3 METAR XM18 //049 310619 041552Z AUTO 26001KT 6000 BR 12/11 A3026 RMK A02 SLP251 T01220109 PA1292 DA1453=
0144008414999992016010416524+31000+061900FM-15+049099999V0202901N000519999999N000200199+01051+00931102521ADDAW1301MA1102471999999REMMET111MOBOB3 METAR XM18 //049 310619 041652Z AUTO 29001KT 0200 FG 11/09 A3026 RMK A02 SLP252 T01050093 PA1292 DA1234=
0135008414999992016010417534+31000+061900FM-15+049099999V0202801N002119999999N009999199+01021+00911102541ADDMA1102511999999REMMET108MOBOB3 METAR XM18 //049 310619 041753Z AUTO 28004KT 9999 10/09 A3027 RMK A02 SLP254 T01020091 PA1282 DA1184=
0135008414999992016010418524+31000+061900FM-15+049099999V0203201N001519999999N009999199+00921+00711102461ADDMA1102401999999REMMET108MOBOB3 METAR XM18 //049 310619 041852Z AUTO 32003KT 9999 09/07 A3024 RMK A02 SLP246 T00920071 PA1301 DA1068=
0135008414999992016010419524+31000+061900FM-15+049099999V0203401N001519999999N009999199+00831+00611102421ADDMA1102371999999REMMET108MOBOB3 METAR XM18 //049 310619 041952Z AUTO 34003KT 9999 08/06 A3023 RMK A02 SLP242 T00830061 PA1311 DA0963=
0130008414999992016010420534+31000+061900FM-15+049099999V0203201N001519999999N999999999+00801+00491102381ADDMA1102341999999REMMET103MOBOB3 METAR XM18 //049 310619 042053Z AUTO 32003KT 08/05 A3022 RMK A02 SLP238 T00800049 PA1321 DA0928=
0130008414999992016010421524+31000+061900FM-15+049099999V0203201N002119999999N999999999+00771+00421102341ADDMA1102301999999REMMET103MOBOB3 METAR XM18 //049 310619 042152Z AUTO 32004KT 08/04 A3021 RMK A02 SLP234 T00770042 PA1330 DA0898=
0130008414999992016010422524+31000+061900FM-15+049099999V0203101N001519999999N999999999+00741+00381102311ADDMA1102271999999REMMET103MOBOB3 METAR XM18 //049 310619 042252Z AUTO 31003KT 07/04 A3020 RMK A02 SLP231 T00740038 PA1340 DA0871=
0130008414999992016010423534+31000+061900FM-15+049099999V0203301N002619999999N999999999+00721+00371102331ADDMA1102271999999REMMET103MOBOB3 METAR XM18 //049 310619 042353Z AUTO 33005KT 07/04 A3020 RMK A02 SLP233 T00720037 PA1340 DA0846=
0130008414999992016010500524+31000+061900FM-15+049099999V0203601N001519999999N999999999+00631+00381102421ADDMA1102341999999REMMET103MOBOB3 METAR XM18 //049 310619 050052Z AUTO 36003KT 06/04 A3022 RMK A02 SLP242 T00630038 PA1321 DA0713=
0130008414999992016010501524+31000+061900FM-15+049099999V0203601N001519999999N999999999+00581+00351102471ADDMA1102371999999REMMET103MOBOB3 METAR XM18 //049 310619 050152Z AUTO 36003KT 06/03 A3023 RMK A02 SLP247 T00580035 PA1311 DA0639=
0130008414999992016010502534+31000+061900FM-15+049099999V0203401N001019999999N999999999+00641+00361102521ADDMA1102401999999REMMET103MOBOB3 METAR XM18 //049 310619 050253Z AUTO 34002KT 06/04 A3024 RMK A02 SLP252 T00640036 PA1301 DA0700=
0130008414999992016010503524+31000+061900FM-15+049099999V0200401N001019999999N999999999+00851+00471102501ADDMA1102401999999REMMET103MOBOB3 METAR XM18 //049 310619 050352Z AUTO 04002KT 09/05 A3024 RMK A02 SLP250 T00850047 PA1301 DA0963=
0130008414999992016010504524+31000+061900FM-15+049099999V0201101N000519999999N999999999+01091+00641102521ADDMA1102471999999REMMET103MOBOB3 METAR XM18 //049 310619 050452Z AUTO 11001KT 11/06 A3026 RMK A02 SLP252 T01090064 PA1292 DA1253=
0130008414999992016010505534+31000+061900FM-15+049099999V0200701N001019999999N999999999+01241+00731102401ADDMA1102341999999REMMET103MOBOB3 METAR XM18 //049 310619 050553Z AUTO 07002KT 12/07 A3022 RMK A02 SLP240 T01240073 PA1321 DA1475=
0130008414999992016010506524+31000+061900FM-15+049099999V0200401N001019999999N999999999+01261+00911102261ADDMA1102201999999REMMET103MOBOB3 METAR XM18 //049 310619 050652Z AUTO 04002KT 13/09 A3018 RMK A02 SLP226 T01260091 PA1359 DA1564=
0130008414999992016010507524+31000+061900FM-15+049099999V0200701N001519999999N999999999+01251+00961102161ADDMA1102101999999REMMET103MOBOB3 METAR XM18 //049 310619 050752Z AUTO 07003KT 13/10 A3015 RMK A02 SLP216 T01250096 PA1388 DA1594=
0130008414999992016010508534+31000+061900FM-15+049099999V0200701N001019999999N999999999+01251+01031102061ADDMA1102001999999REMMET103MOBOB3 METAR XM18 //049 310619 050853Z AUTO 07002KT 13/10 A3012 RMK A02 SLP206 T01250103 PA1417 DA1637=
0130008414999992016010509524+31000+061900FM-15+049099999V0200201N001519999999N999999999+01331+01071101981ADDMA1101931999999REMMET103MOBOB3 METAR XM18 //049 310619 050952Z AUTO 02003KT 13/11 A3010 RMK A02 SLP198 T01330107 PA1436 DA1760=
0130008414999992016010510524+31000+061900FM-15+049099999V0200501N001019999999N999999999+01391+01051101981ADDMA1101931999999REMMET103MOBOB3 METAR XM18 //049 310619 051052Z AUTO 05002KT 14/11 A3010 RMK A02 SLP198 T01390105 PA1436 DA1828=
0130008414999992016010511534+31000+061900FM-15+049099999V0200301N001019999999N999999999+01341+01031101951ADDMA1101901999999REMMET103MOBOB3 METAR XM18 //049 310619 051153Z AUTO 03002KT 13/10 A3009 RMK A02 SLP195 T01340103 PA1446 DA1779=
0130008414999992016010512524+31000+061900FM-15+049099999V0203301N001019999999N999999999+01231+01021102011ADDMA1101931999999REMMET103MOBOB3 METAR XM18 //049 310619 051252Z AUTO 33002KT 12/10 A3010 RMK A02 SLP201 T01230102 PA1436 DA1636=
0130008414999992016010513524+31000+061900FM-15+049099999V0203201N001019999999N999999999+01161+01001102061ADDMA1101961999999REMMET103MOBOB3 METAR XM18 //049 310619 051352Z AUTO 32002KT 12/10 A3011 RMK A02 SLP206 T01160100 PA1427 DA1539=
0135008414999992016010514534+31000+061900FM-15+049099999V0203101N001019999999N009999199+01101+00961102061ADDMA1101961999999REMMET108MOBOB3 METAR XM18 //049 310619 051453Z AUTO 31002KT 9999 11/10 A3011 RMK A02 SLP206 T01100096 PA1427 DA1464=
0135008414999992016010515524+31000+061900FM-15+049099999V0203101N001019999999N009999199+01041+00921102041ADDMA1101961999999REMMET108MOBOB3 METAR XM18 //049 310619 051552Z AUTO 31002KT 9999 10/09 A3011 RMK A02 SLP204 T01040092 PA1427 DA1388=
0135008414999992016010516524+31000+061900FM-15+049099999V0200401N000519999999N009999199+01001+00891102021ADDMA1101961999999REMMET108MOBOB3 METAR XM18 //049 310619 051652Z AUTO 04001KT 9999 10/09 A3011 RMK A02 SLP202 T01000089 PA1427 DA1337=
0135008414999992016010517534+31000+061900FM-15+049099999V0202901N001019999999N009999199+01011+00911101971ADDMA1101931999999REMMET108MOBOB3 METAR XM18 //049 310619 051753Z AUTO 29002KT 9999 10/09 A3010 RMK A02 SLP197 T01010091 PA1436 DA1362=
0135008414999992016010518524+31000+061900FM-15+049099999V0203001N001019999999N009999199+00971+00881101901ADDMA1101861999999REMMET108MOBOB3 METAR XM18 //049 310619 051852Z AUTO 30002KT 9999 10/09 A3008 RMK A02 SLP190 T00970088 PA1455 DA1336=
0144008414999992016010519524+31000+061900FM-15+049099999V0202701N001019999999N003200199+00941+00851101901ADDAW1101MA1101861999999REMMET111MOBOB3 METAR XM18 //049 310619 051952Z AUTO 27002KT 3200 BR 09/08 A3008 RMK A02 SLP190 T00940085 PA1455 DA1297=
0144008414999992016010520524+31000+061900FM-15+049099999V0203101N000519999999N002400199+00831+00751101881ADDAW1101MA1101831999999REMMET111MOBOB3 METAR XM18 //049 310619 052052Z AUTO 31001KT 2400 BR 08/07 A3007 RMK A02 SLP188 T00830075 PA1465 DA1167=
0144008414999992016010521524+31000+061900FM-15+049099999V0200401N000519999999N000400199+00681+00601101861ADDAW1301MA1101791999999REMMET111MOBOB3 METAR XM18 //049 310619 052152Z AUTO 04001KT 0400 FG 07/06 A3006 RMK A02 SLP186 T00680060 PA1475 DA0984=
0144008414999992016010522534+31000+061900FM-15+049099999V0203501N001019999999N000400199+00641+00561101821ADDAW1301MA1101761999999REMMET111MOBOB3 METAR XM18 //049 310619 052253Z AUTO 35002KT 0400 FG 06/06 A3005 RMK A02 SLP182 T00640056 PA1484 DA0945=
0144008414999992016010523524+31000+061900FM-15+049099999V0203201N000519999999N000600199+00651+00581101821ADDAW1301MA1101761999999REMMET111MOBOB3 METAR XM18 //049 310619 052352Z AUTO 32001KT 0600 FG 07/06 A3005 RMK A02 SLP182 T00650058 PA1484 DA0958=
0144008414999992016010600524+31000+061900FM-15+049099999V0203401N000519999999N000400199+00621+00551101841ADDAW1301MA1101761999999REMMET111MOBOB3 METAR XM18 //049 310619 060052Z AUTO 34001KT 0400 FG 06/06 A3005 RMK A02 SLP184 T00620055 PA1484 DA0919=
0144008414999992016010601524+31000+061900FM-15+049099999V0200101N000519999999N000600199+00601+00531101921ADDAW1301MA1101831999999REMMET111MOBOB3 METAR XM18 //049 310619 060152Z AUTO 01001KT 0600 FG 06/05 A3007 RMK A02 SLP192 T00600053 PA1465 DA0869=
0144008414999992016010602524+31000+061900FM-15+049099999V0201801N001019999999N000000199+00691+00621101951ADDAW1301MA1101861999999REMMET111MOBOB3 METAR XM18 //049 310619 060252Z AUTO 18002KT 0000 FG 07/06 A3008 RMK A02 SLP195 T00690062 PA1455 DA0974=
0144008414999992016010603524+31000+061900FM-15+049099999V0202501N000519999999N000200199+00711+00641102031ADDAW1301MA1101931999999REMMET111MOBOB3 METAR XM18 //049 310619 060352Z AUTO 25001KT 0200 FG 07/06 A3010 RMK A02 SLP203 T00710064 PA1436 DA0976=
0144008414999992016010604524+31000+061900FM-15+049099999V0202901N000519999999N000600199+00861+00771102051ADDAW1301MA1101961999999REMMET111MOBOB3 METAR XM18 //049 310619 060452Z AUTO 29001KT 0600 FG 09/08 A3011 RMK A02 SLP205 T00860077 PA1427 DA1157=
0130008414999992016010605534+31000+061900FM-15+049099999V0202901N001019999999N999999999+01031+00941101951ADDMA1101901999999REMMET103MOBOB3 METAR XM18 //049 310619 060553Z AUTO 29002KT 10/09 A3009 RMK A02 SLP195 T01030094 PA1446 DA1401=
0130008414999992016010606524+31000+061900FM-15+049099999V0200101N000519999999N999999999+01121+00991101841ADDMA1101791999999REMMET103MOBOB3 METAR XM18 //049 310619 060652Z AUTO 01001KT 11/10 A3006 RMK A02 SLP184 T01120099 PA1475 DA1550=
0130008414999992016010607524+31000+061900FM-15+049099999V0200701N002119999999N999999999+01271+01051101721ADDMA1101661999999REMMET103MOBOB3 METAR XM18 //049 310619 060752Z AUTO 07004KT 13/10 A3002 RMK A02 SLP172 T01270105 PA1504 DA1771=
0130008414999992016010608524+31000+061900FM-15+049099999V0200501N001519999999N999999999+01331+01001101691ADDMA1101631999999REMMET103MOBOB3 METAR XM18 //049 310619 060852Z AUTO 05003KT 13/10 A3001 RMK A02 SLP169 T01330100 PA1513 DA1848=
0130008414999992016010609524+31000+061900FM-15+049099999V0203301N002119999999N999999999+01591+01041101681ADDMA1101631999999REMMET103MOBOB3 METAR XM18 //049 310619 060952Z AUTO 33004KT 16/10 A3001 RMK A02 SLP168 T01590104 PA1513 DA2156=
0130008414999992016010610524+31000+061900FM-15+049099999V0200101N002619999999N999999999+01621+00931101681ADDMA1101631999999REMMET103MOBOB3 METAR XM18 //049 310619 061052Z AUTO 01005KT 16/09 A3001 RMK A02 SLP168 T01620093 PA1513 DA2179=
0130008414999992016010611524+31000+061900FM-15+049099999V0200301N001519999999N999999999+01521+00821101691ADDMA1101631999999REMMET103MOBOB3 METAR XM18 //049 310619 061152Z AUTO 03003KT 15/08 A3001 RMK A02 SLP169 T01520082 PA1513 DA2052=
0130008414999992016010612534+31000+061900FM-15+049099999V0201101N001519999999N999999999+01371+01001101741ADDMA1101661999999REMMET103MOBOB3 METAR XM18 //049 310619 061253Z AUTO 11003KT 14/10 A3002 RMK A02 SLP174 T01370100 PA1504 DA1883=
0130008414999992016010613524+31000+061900FM-15+049099999V0201401N000519999999N999999999+01261+00971101791ADDMA1101691999999REMMET103MOBOB3 METAR XM18 //049 310619 061352Z AUTO 14001KT 13/10 A3003 RMK A02 SLP179 T01260097 PA1494 DA1738=
0130008414999992016010614524+31000+061900FM-15+049099999V0202501N001019999999N999999999+01211+00951101861ADDMA1101791999999REMMET103MOBOB3 METAR XM18 //049 310619 061452Z AUTO 25002KT 12/09 A3006 RMK A02 SLP186 T01210095 PA1475 DA1653=
0130008414999992016010615534+31000+061900FM-15+049099999V0202001N000519999999N999999999+01131+00931101871ADDMA1101791999999REMMET103MOBOB3 METAR XM18 //049 310619 061553Z AUTO 20001KT 11/09 A3006 RMK A02 SLP187 T01130093 PA1475 DA1556=
0130008414999992016010616524+31000+061900FM-15+049099999V0202101N001519999999N999999999+01171+00971101881ADDMA1101831999999REMMET103MOBOB3 METAR XM18 //049 310619 061652Z AUTO 21003KT 12/10 A3007 RMK A02 SLP188 T01170097 PA1465 DA1595=
0135008414999992016010617524+31000+061900FM-15+049099999V0202401N001019999999N009999199+01111+00941101841ADDMA1101791999999REMMET108MOBOB3 METAR XM18 //049 310619 061752Z AUTO 24002KT 9999 11/09 A3006 RMK A02 SLP184 T01110094 PA1475 DA1533=
0144008414999992016010618524+31000+061900FM-15+049099999V0203601N001019999999N008000199+00891+00751101821ADDAW1101MA1101761999999REMMET111MOBOB3 METAR XM18 //049 310619 061852Z AUTO 36002KT 8000 BR 09/08 A3005 RMK A02 SLP182 T00890075 PA1484 DA1263=
0144008414999992016010619534+31000+061900FM-15+049099999V0200301N000519999999N009000199+00841+00731101811ADDAW1101MA1101761999999REMMET111MOBOB3 METAR XM18 //049 310619 061953Z AUTO 03001KT 9000 BR 08/07 A3005 RMK A02 SLP181 T00840073 PA1484 DA1201=
0144008414999992016010620524+31000+061900FM-15+049099999V0203401N001019999999N000200199+00601+00501101871ADDAW1301MA1101791999999REMMET111MOBOB3 METAR XM18 //049 310619 062052Z AUTO 34002KT 0200 FG 06/05 A3006 RMK A02 SLP187 T00600050 PA1475 DA0879=
0144008414999992016010621524+31000+061900FM-15+049099999V0203401N000519999999N000200199+00581+00501101841ADDAW1301MA1101791999999REMMET111MOBOB3 METAR XM18 //049 310619 062152Z AUTO 34001KT 0200 FG 06/05 A3006 RMK A02 SLP184 T00580050 PA1475 DA0854=
0144008414999992016010622524+31000+061900FM-15+049099999V0201501N000519999999N000400199+00621+00551101831ADDAW1301MA1101791999999REMMET111MOBOB3 METAR XM18 //049 310619 062252Z AUTO 15001KT 0400 FG 06/05 A3006 RMK A02 SLP183 T00620055 PA1475 DA0907=
0144008414999992016010623524+31000+061900FM-15+049099999V0209999C000019999999N000200199+00631+00561101911ADDAW1301MA1101861999999REMMET111MOBOB3 METAR XM18 //049 310619 062352Z AUTO 00000KT 0200 FG 06/06 A3008 RMK A02 SLP191 T00630056 PA1455 DA0896=
0144008414999992016010700524+31000+061900FM-15+049099999V0209999C000019999999N000200199+00541+00471101981ADDAW1301MA1101901999999REMMET111MOBOB3 METAR XM18 //049 310619 070052Z AUTO 00000KT 0200 FG 05/05 A3009 RMK A02 SLP198 T00540047 PA1446 DA0767=
0144008414999992016010701534+31000+061900FM-15+049099999V0203301N001019999999N000200199+00501+00441102101ADDAW1301MA1102001999999REMMET111MOBOB3 METAR XM18 //049 310619 070153Z AUTO 33002KT 0200 FG 05/04 A3012 RMK A02 SLP210 T00500044 PA1417 DA0679=
0144008414999992016010702524+31000+061900FM-15+049099999V0203601N001519999999N000000199+00471+00401102221ADDAW1301MA1102101999999REMMET111MOBOB3 METAR XM18 //049 310619 070252Z AUTO 36003KT 0000 FG 05/04 A3015 RMK A02 SLP222 T00470040 PA1388 DA0604=
0144008414999992016010703524+31000+061900FM-15+049099999V0200101N000519999999N000200199+00791+00721102261ADDAW1301MA1102171999999REMMET111MOBOB3 METAR XM18 //049 310619 070352Z AUTO 01001KT 0200 FG 08/07 A3017 RMK A02 SLP226 T00790072 PA1369 DA0996=
0130008414999992016010704524+31000+061900FM-15+049099999V0201101N001519999999N999999999+01041+00831102301ADDMA1102231999999REMMET103MOBOB3 METAR XM18 //049 310619 070452Z AUTO 11003KT 10/08 A3019 RMK A02 SLP230 T01040083 PA1350 DA1283=
0130008414999992016010705534+31000+061900FM-15+049099999V0201301N001019999999N999999999+01431+00881102231ADDMA1102201999999REMMET103MOBOB3 METAR XM18 //049 310619 070553Z AUTO 13002KT 14/09 A3018 RMK A02 SLP223 T01430088 PA1359 DA1761=
0130008414999992016010706524+31000+061900FM-15+049099999V0201401N001019999999N999999999+01631+00961102151ADDMA1102131999999REMMET103MOBOB3 METAR XM18 //049 310619 070652Z AUTO 14002KT 16/10 A3016 RMK A02 SLP215 T01630096 PA1378 DA2028=
0130008414999992016010707524+31000+061900FM-15+049099999V0202501N001019999999N999999999+01751+00901102041ADDMA1102031999999REMMET103MOBOB3 METAR XM18 //049 310619 070752Z AUTO 25002KT 18/09 A3013 RMK A02 SLP204 T01750090 PA1407 DA2197=
0130008414999992016010708524+31000+061900FM-15+049099999V0203501N000519999999N999999999+01881+00911102051ADDMA1102031999999REMMET103MOBOB3 METAR XM18 //049 310619 070852Z AUTO 35001KT 19/09 A3013 RMK A02 SLP205 T01880091 PA1407 DA2348=
0130008414999992016010709534+31000+061900FM-15+049099999V0203401N000519999999N999999999+01871+00961102021ADDMA1102001999999REMMET103MOBOB3 METAR XM18 //049 310619 070953Z AUTO 34001KT 19/10 A3012 RMK A02 SLP202 T01870096 PA1417 DA2353=
0130008414999992016010710524+31000+061900FM-15+049099999V0201101N001019999999N999999999+01891+00901102051ADDMA1102031999999REMMET103MOBOB3 METAR XM18 //049 310619 071052Z AUTO 11002KT 19/09 A3013 RMK A02 SLP205 T01890090 PA1407 DA2358=
0130008414999992016010711524+31000+061900FM-15+049099999V0201201N001019999999N999999999+01721+00921102071ADDMA1102031999999REMMET103MOBOB3 METAR XM18 //049 310619 071152Z AUTO 12002KT 17/09 A3013 RMK A02 SLP207 T01720092 PA1407 DA2163=
0130008414999992016010712534+31000+061900FM-15+049099999V0200901N001019999999N999999999+01601+00981102161ADDMA1102101999999REMMET103MOBOB3 METAR XM18 //049 310619 071253Z AUTO 09002KT 16/10 A3015 RMK A02 SLP216 T01600098 PA1388 DA2006=
0130008414999992016010713524+31000+061900FM-15+049099999V0201001N001019999999N999999999+01481+00951102211ADDMA1102131999999REMMET103MOBOB3 METAR XM18 //049 310619 071352Z AUTO 10002KT 15/10 A3016 RMK A02 SLP221 T01480095 PA1378 DA1852=
0130008414999992016010714534+31000+061900FM-15+049099999V0201101N001019999999N999999999+01391+00941102221ADDMA1102131999999REMMET103MOBOB3 METAR XM18 //049 310619 071453Z AUTO 11002KT 14/09 A3016 RMK A02 SLP222 T01390094 PA1378 DA1745=
0130008414999992016010715524+31000+061900FM-15+049099999V0209999C000019999999N999999999+01141+00851102221ADDMA1102131999999REMMET103MOBOB3 METAR XM18 //049 310619 071552Z AUTO 00000KT 11/08 A3016 RMK A02 SLP222 T01140085 PA1378 DA1440=
0130008414999992016010716524+31000+061900FM-15+049099999V0200801N000519999999N999999999+01151+00841102231ADDMA1102171999999REMMET103MOBOB3 METAR XM18 //049 310619 071652Z AUTO 08001KT 12/08 A3017 RMK A02 SLP223 T01150084 PA1369 DA1439=
0130008414999992016010717534+31000+061900FM-15+049099999V0203101N000519999999N999999999+01041+00811102201ADDMA1102171999999REMMET103MOBOB3 METAR XM18 //049 310619 071753Z AUTO 31001KT 10/08 A3017 RMK A02 SLP220 T01040081 PA1369 DA1305=
0130008414999992016010718524+31000+061900FM-15+049099999V0201901N001019999999N999999999+01141+00801102131ADDMA1102131999999REMMET103MOBOB3 METAR XM18 //049 310619 071852Z AUTO 19002KT 11/08 A3016 RMK A02 SLP213 T01140080 PA1378 DA1435=
0130008414999992016010719534+31000+061900FM-15+049099999V0203201N000519999999N999999999+00891+00681102151ADDMA1102131999999REMMET103MOBOB3 METAR XM18 //049 310619 071953Z AUTO 32001KT 09/07 A3016 RMK A02 SLP215 T00890068 PA1378 DA1125=
0130008414999992016010720524+31000+061900FM-15+049099999V0209999C000019999999N999999999+00771+00631102151ADDMA1102131999999REMMET103MOBOB3 METAR XM18 //049 310619 072052Z AUTO 00000KT 08/06 A3016 RMK A02 SLP215 T00770063 PA1378 DA0976=
0130008414999992016010721524+31000+061900FM-15+049099999V0209999C000019999999N999999999+00741+00631102111ADDMA1102101999999REMMET103MOBOB3 METAR XM18 //049 310619 072152Z AUTO 00000KT 07/06 A3015 RMK A02 SLP211 T00740063 PA1388 DA0952=
0135008414999992016010722524+31000+061900FM-15+049099999V0209999C000019999999N009999199+00701+00591102121ADDMA1102101999999REMMET108MOBOB3 METAR XM18 //049 310619 072252Z AUTO 00000KT 9999 07/06 A3015 RMK A02 SLP212 T00700059 PA1388 DA0900=
0135008414999992016010723534+31000+061900FM-15+049099999V0201101N000519999999N009999199+00721+00611102171ADDMA1102131999999REMMET108MOBOB3 METAR XM18 //049 310619 072353Z AUTO 11001KT 9999 07/06 A3016 RMK A02 SLP217 T00720061 PA1378 DA0914=
0135008414999992016010800524+31000+061900FM-15+049099999V0201101N000519999999N009999199+00731+00611102251ADDMA1102201999999REMMET108MOBOB3 METAR XM18 //049 310619 080052Z AUTO 11001KT 9999 07/06 A3018 RMK A02 SLP225 T00730061 PA1359 DA0902=
0144008414999992016010801524+31000+061900FM-15+049099999V0202801N001019999999N003200199+00671+00561102311ADDAW1101MA1102231999999REMMET111MOBOB3 METAR XM18 //049 310619 080152Z AUTO 28002KT 3200 BR 07/06 A3019 RMK A02 SLP231 T00670056 PA1350 DA0813=
0144008414999992016010802534+31000+061900FM-15+049099999V0203601N000519999999N001600199+00681+00551102391ADDAW1101MA1102301999999REMMET111MOBOB3 METAR XM18 //049 310619 080253Z AUTO 36001KT 1600 BR 07/06 A3021 RMK A02 SLP239 T00680055 PA1330 DA0800=
0130008414999992016010803534+31000+061900FM-15+049099999V0203501N001019999999N999999999+00951+00681102491ADDMA1102401999999REMMET103MOBOB3 METAR XM18 //049 310619 080353Z AUTO 35002KT 10/07 A3024 RMK A02 SLP249 T00950068 PA1301 DA1101=
0130008414999992016010804524+31000+061900FM-15+049099999V0200101N001519999999N999999999+01281+00791102451ADDMA1102401999999REMMET103MOBOB3 METAR XM18 //049 310619 080452Z AUTO 01003KT 13/08 A3024 RMK A02 SLP245 T01280079 PA1301 DA1504=
0130008414999992016010805524+31000+061900FM-15+049099999V0200201N002119999999N999999999+01571+00881102361ADDMA1102341999999REMMET103MOBOB3 METAR XM18 //049 310619 080552Z AUTO 02004KT 16/09 A3022 RMK A02 SLP236 T01570088 PA1321 DA1878=
0130008414999992016010806534+31000+061900FM-15+049099999V0200701N001519999999N999999999+01801+00781102191ADDMA1102201999999REMMET103MOBOB3 METAR XM18 //049 310619 080653Z AUTO 07003KT 18/08 A3018 RMK A02 SLP219 T01800078 PA1359 DA2182=
0130008414999992016010807524+31000+061900FM-15+049099999V0200201N001019999999N999999999+01971+00791102091ADDMA1102101999999REMMET103MOBOB3 METAR XM18 //049 310619 080752Z AUTO 02002KT 20/08 A3015 RMK A02 SLP209 T01970079 PA1388 DA2415=
0130008414999992016010808524+31000+061900FM-15+049099999V0200701N001519999999N999999999+02051+00701101981ADDMA1102001999999REMMET103MOBOB3 METAR XM18 //049 310619 080852Z AUTO 07003KT 21/07 A3012 RMK A02 SLP198 T02050070 PA1417 DA2534=
0130008414999992016010809534+31000+061900FM-15+049099999V0200701N002119999999N999999999+02121+00641101951ADDMA1101961999999REMMET103MOBOB3 METAR XM18 //049 310619 080953Z AUTO 07004KT 21/06 A3011 RMK A02 SLP195 T02120064 PA1427 DA2620=
0130008414999992016010810524+31000+061900FM-15+049099999V0201001N001019999999N999999999+02191+00321101911ADDMA1101931999999REMMET103MOBOB3 METAR XM18 //049 310619 081052Z AUTO 10002KT 22/03 A3010 RMK A02 SLP191 T02190032 PA1436 DA2686=
0130008414999992016010811524+31000+061900FM-15+049099999V0200301N001019999999N999999999+01991+00711101891ADDMA1101901999999REMMET103MOBOB3 METAR XM18 //049 310619 081152Z AUTO 03002KT 20/07 A3009 RMK A02 SLP189 T01990071 PA1446 DA2501=
0130008414999992016010812524+31000+061900FM-15+049099999V0203001N000519999999N999999999+01661+00801101921ADDMA1101901999999REMMET103MOBOB3 METAR XM18 //049 310619 081252Z AUTO 30001KT 17/08 A3009 RMK A02 SLP192 T01660080 PA1446 DA2129=
0130008414999992016010813524+31000+061900FM-15+049099999V0203301N000519999999N999999999+01481+00691101951ADDMA1101901999999REMMET103MOBOB3 METAR XM18 //049 310619 081352Z AUTO 33001KT 15/07 A3009 RMK A02 SLP195 T01480069 PA1446 DA1909=
0130008414999992016010814524+31000+061900FM-15+049099999V0200301N001019999999N999999999+01451+00611101951ADDMA1101901999999REMMET103MOBOB3 METAR XM18 //049 310619 081452Z AUTO 03002KT 15/06 A3009 RMK A02 SLP195 T01450061 PA1446 DA1867=
0130008414999992016010815524+31000+061900FM-15+049099999V0200801N002119999999N999999999+01421+00601101891ADDMA1101861999999REMMET103MOBOB3 METAR XM18 //049 310619 081552Z AUTO 08004KT 14/06 A3008 RMK A02 SLP189 T01420060 PA1455 DA1842=
0130008414999992016010816524+31000+061900FM-15+049099999V0200801N001519999999N999999999+01411+00591101821ADDMA1101831999999REMMET103MOBOB3 METAR XM18 //049 310619 081652Z AUTO 08003KT 14/06 A3007 RMK A02 SLP182 T01410059 PA1465 DA1842=
0130008414999992016010817524+31000+061900FM-15+049099999V0202201N000519999999N999999999+01341+00511101831ADDMA1101861999999REMMET103MOBOB3 METAR XM18 //049 310619 081752Z AUTO 22001KT 13/05 A3008 RMK A02 SLP183 T01340051 PA1455 DA1741=
0130008414999992016010818524+31000+061900FM-15+049099999V0203401N000519999999N999999999+01111+00501101731ADDMA1101761999999REMMET103MOBOB3 METAR XM18 //049 310619 081852Z AUTO 34001KT 11/05 A3005 RMK A02 SLP173 T01110050 PA1484 DA1504=
0130008414999992016010819524+31000+061900FM-15+049099999V0203101N000519999999N999999999+00911+00541101691ADDMA1101691999999REMMET103MOBOB3 METAR XM18 //049 310619 081952Z AUTO 31001KT 09/05 A3003 RMK A02 SLP169 T00910054 PA1494 DA1280=
0130008414999992016010820524+31000+061900FM-15+049099999V0200501N003119999999N999999999+01071+00451101631ADDMA1101661999999REMMET103MOBOB3 METAR XM18 //049 310619 082052Z AUTO 05006KT 11/04 A3002 RMK A02 SLP163 T01070045 PA1504 DA1476=
0130008414999992016010821534+31000+061900FM-15+049099999V0200701N002119999999N999999999+00971+00431101571ADDMA1101591999999REMMET103MOBOB3 METAR XM18 //049 310619 082153Z AUTO 07004KT 10/04 A3000 RMK A02 SLP157 T00970043 PA1523 DA1379=
0130008414999992016010822524+31000+061900FM-15+049099999V0200801N001519999999N999999999+00891+00411101531ADDMA1101561999999REMMET103MOBOB3 METAR XM18 //049 310619 082252Z AUTO 08003KT 09/04 A2999 RMK A02 SLP153 T00890041 PA1533 DA1294=
0130008414999992016010823524+31000+061900FM-15+049099999V0200801N002119999999N999999999+00901+00361101591ADDMA1101591999999REMMET103MOBOB3 METAR XM18 //049 310619 082352Z AUTO 08004KT 09/04 A3000 RMK A02 SLP159 T00900036 PA1523 DA1290=
0130008414999992016010900524+31000+061900FM-15+049099999V0201101N000519999999N999999999+00781+00361101671ADDMA1101631999999REMMET103MOBOB3 METAR XM18 //049 310619 090052Z AUTO 11001KT 08/04 A3001 RMK A02 SLP167 T00780036 PA1513 DA1133=
0130008414999992016010901524+31000+061900FM-15+049099999V0203001N000519999999N999999999+00761+00341101761ADDMA1101691999999REMMET103MOBOB3 METAR XM18 //049 310619 090152Z AUTO 30001KT 08/03 A3003 RMK A02 SLP176 T00760034 PA1494 DA1084=
0130008414999992016010902524+31000+061900FM-15+049099999V0203001N000519999999N999999999+00741+00381101841ADDMA1101791999999REMMET103MOBOB3 METAR XM18 //049 310619 090252Z AUTO 30001KT 07/04 A3006 RMK A02 SLP184 T00740038 PA1475 DA1039=
0130008414999992016010903524+31000+061900FM-15+049099999V0209999C000019999999N999999999+00941+00481101861ADDMA1101831999999REMMET103MOBOB3 METAR XM18 //049 310619 090352Z AUTO 00000KT 09/05 A3007 RMK A02 SLP186 T00940048 PA1465 DA1275=
0130008414999992016010904524+31000+061900FM-15+049099999V0201101N001019999999N999999999+01391+00341101811ADDMA1101831999999REMMET103MOBOB3 METAR XM18 //049 310619 090452Z AUTO 11002KT 14/03 A3007 RMK A02 SLP181 T01390034 PA1465 DA1799=
0130008414999992016010905534+31000+061900FM-15+049099999V0201001N001519999999N999999999+01511+00351101741ADDMA1101761999999REMMET103MOBOB3 METAR XM18 //049 310619 090553Z AUTO 10003KT 15/04 A3005 RMK A02 SLP174 T01510035 PA1484 DA1964=
0130008414999992016010906524+31000+061900FM-15+049099999V0201201N002119999999N999999999+01611+00361101641ADDMA1101631999999REMMET103MOBOB3 METAR XM18 //049 310619 090652Z AUTO 12004KT 16/04 A3001 RMK A02 SLP164 T01610036 PA1513 DA2117=
0130008414999992016010907524+31000+061900FM-15+049099999V0201001N001519999999N999999999+01791+00361101501ADDMA1101491999999REMMET103MOBOB3 METAR XM18 //049 310619 090752Z AUTO 10003KT 18/04 A2997 RMK A02 SLP150 T01790036 PA1552 DA2373=
0130008414999992016010908524+31000+061900FM-15+049099999V0201101N001519999999N999999999+01941+00401101401ADDMA1101421999999REMMET103MOBOB3 METAR XM18 //049 310619 090852Z AUTO 11003KT 19/04 A2995 RMK A02 SLP140 T01940040 PA1571 DA2573=
0130008414999992016010909534+31000+061900FM-15+049099999V0200901N002619999999N999999999+02001+00301101361ADDMA1101391999999REMMET103MOBOB3 METAR XM18 //049 310619 090953Z AUTO 09005KT 20/03 A2994 RMK A02 SLP136 T02000030 PA1581 DA2646=
0130008414999992016010910524+31000+061900FM-15+049099999V0200601N001519999999N999999999+02021+00261101341ADDMA1101351999999REMMET103MOBOB3 METAR XM18 //049 310619 091052Z AUTO 06003KT 20/03 A2993 RMK A02 SLP134 T02020026 PA1591 DA2678=
0130008414999992016010911534+31000+061900FM-15+049099999V0203501N001019999999N999999999+01861+00521101351ADDMA1101351999999REMMET103MOBOB3 METAR XM18 //049 310619 091153Z AUTO 35002KT 19/05 A2993 RMK A02 SLP135 T01860052 PA1591 DA2514=
0130008414999992016010912524+31000+061900FM-15+049099999V0203101N000519999999N999999999+01621+00531101381ADDMA1101351999999REMMET103MOBOB3 METAR XM18 //049 310619 091252Z AUTO 31001KT 16/05 A2993 RMK A02 SLP138 T01620053 PA1591 DA2237=
0130008414999992016010913524+31000+061900FM-15+049099999V0202301N000519999999N999999999+01541+00481101431ADDMA1101391999999REMMET103MOBOB3 METAR XM18 //049 310619 091352Z AUTO 23001KT 15/05 A2994 RMK A02 SLP143 T01540048 PA1581 DA2128=
0130008414999992016010914534+31000+061900FM-15+049099999V0203601N000519999999N999999999+01311+00551101421ADDMA1101351999999REMMET103MOBOB3 METAR XM18 //049 310619 091453Z AUTO 36001KT 13/05 A2993 RMK A02 SLP142 T01310055 PA1591 DA1877=
0130008414999992016010915524+31000+061900FM-15+049099999V0203501N000519999999N999999999+01221+00501101411ADDMA1101351999999REMMET103MOBOB3 METAR XM18 //049 310619 091552Z AUTO 35001KT 12/05 A2993 RMK A02 SLP141 T01220050 PA1591 DA1766=
0130008414999992016010916524+31000+061900FM-15+049099999V0201101N000519999999N999999999+01111+00501101341ADDMA1101321999999REMMET103MOBOB3 METAR XM18 //049 310619 091652Z AUTO 11001KT 11/05 A2992 RMK A02 SLP134 T01110050 PA1601 DA1647=
0130008414999992016010917534+31000+061900FM-15+049099999V0209999C000019999999N999999999+01021+00491101301ADDMA1101291999999REMMET103MOBOB3 METAR XM18 //049 310619 091753Z AUTO 00000KT 10/05 A2991 RMK A02 SLP130 T01020049 PA1610 DA1552=
0130008414999992016010918524+31000+061900FM-15+049099999V0209999C000019999999N999999999+01031+00461101221ADDMA1101221999999REMMET103MOBOB3 METAR XM18 //049 310619 091852Z AUTO 00000KT 10/05 A2989 RMK A02 SLP122 T01030046 PA1630 DA1586=
0130008414999992016010919524+31000+061900FM-15+049099999V0201401N001019999999N999999999+01021+00421101161ADDMA1101181999999REMMET103MOBOB3 METAR XM18 //049 310619 091952Z AUTO 14002KT 10/04 A2988 RMK A02 SLP116 T01020042 PA1639 DA1583=
0130008414999992016010920524+31000+061900FM-15+049099999V0203101N000519999999N999999999+00771+00381101141ADDMA1101151999999REMMET103MOBOB3 METAR XM18 //049 310619 092052Z AUTO 31001KT 08/04 A2987 RMK A02 SLP114 T00770038 PA1649 DA1292=
0130008414999992016010921524+31000+061900FM-15+049099999V0201301N000519999999N999999999+00771+00451101131ADDMA1101151999999REMMET103MOBOB3 METAR XM18 //049 310619 092152Z AUTO 13001KT 08/04 A2987 RMK A02 SLP113 T00770045 PA1649 DA1297=
0130008414999992016010922524+31000+061900FM-15+049099999V0200301N000519999999N999999999+00751+00391101101ADDMA1101121999999REMMET103MOBOB3 METAR XM18 //049 310619 092252Z AUTO 03001KT 08/04 A2986 RMK A02 SLP110 T00750039 PA1659 DA1280=
0130008414999992016010923534+31000+061900FM-15+049099999V0200901N000519999999N999999999+00651+00331101121ADDMA1101121999999REMMET103MOBOB3 METAR XM18 //049 310619 092353Z AUTO 09001KT 07/03 A2986 RMK A02 SLP112 T00650033 PA1659 DA1155=
0130008414999992016011000524+31000+061900FM-15+049099999V0201501N001519999999N999999999+00901+00271101201ADDMA1101181999999REMMET103MOBOB3 METAR XM18 //049 310619 100052Z AUTO 15003KT 09/03 A2988 RMK A02 SLP120 T00900027 PA1639 DA1427=
0130008414999992016011001524+31000+061900FM-15+049099999V0201601N001519999999N999999999+00911+00271101271ADDMA1101251999999REMMET103MOBOB3 METAR XM18 //049 310619 100152Z AUTO 16003KT 09/03 A2990 RMK A02 SLP127 T00910027 PA1620 DA1416=
0130008414999992016011002534+31000+061900FM-15+049099999V0201601N002119999999N999999999+01001+00371101361ADDMA1101321999999REMMET103MOBOB3 METAR XM18 //049 310619 100253Z AUTO 16004KT 10/04 A2992 RMK A02 SLP136 T01000037 PA1601 DA1506=
0130008414999992016011003524+31000+061900FM-15+049099999V0201401N001519999999N999999999+01221+00451101421ADDMA1101391999999REMMET103MOBOB3 METAR XM18 //049 310619 100352Z AUTO 14003KT 12/04 A2994 RMK A02 SLP142 T01220045 PA1581 DA1750=
0130008414999992016011004524+31000+061900FM-15+049099999V0201501N001519999999N999999999+01461+00481101441ADDMA1101421999999REMMET103MOBOB3 METAR XM18 //049 310619 100452Z AUTO 15003KT 15/05 A2995 RMK A02 SLP144 T01460048 PA1571 DA2023=
0130008414999992016011005534+31000+061900FM-15+049099999V0201601N001019999999N999999999+01641+00581101391ADDMA1101391999999REMMET103MOBOB3 METAR XM18 //049 310619 100553Z AUTO 16002KT 16/06 A2994 RMK A02 SLP139 T01640058 PA1581 DA2253=
0130008414999992016011006524+31000+061900FM-15+049099999V0200301N001019999999N999999999+01861+00461101231ADDMA1101251999999REMMET103MOBOB3 METAR XM18 //049 310619 100652Z AUTO 03002KT 19/05 A2990 RMK A02 SLP123 T01860046 PA1620 DA2545=
0130008414999992016011007524+31000+061900FM-15+049099999V0202001N001019999999N999999999+01951+00521101151ADDMA1101181999999REMMET103MOBOB3 METAR XM18 //049 310619 100752Z AUTO 20002KT 20/05 A2988 RMK A02 SLP115 T01950052 PA1639 DA2677=
0130008414999992016011008524+31000+061900FM-15+049099999V0201601N000519999999N999999999+02131+00391101121ADDMA1101151999999REMMET103MOBOB3 METAR XM18 //049 310619 100852Z AUTO 16001KT 21/04 A2987 RMK A02 SLP112 T02130039 PA1649 DA2885=
0130008414999992016011009524+31000+061900FM-15+049099999V0200701N000519999999N999999999+02171+00411101111ADDMA1101151999999REMMET103MOBOB3 METAR XM18 //049 310619 100952Z AUTO 07001KT 22/04 A2987 RMK A02 SLP111 T02170041 PA1649 DA2932=
0130008414999992016011010524+31000+061900FM-15+049099999V0200701N001019999999N999999999+02121+00451101121ADDMA1101151999999REMMET103MOBOB3 METAR XM18 //049 310619 101052Z AUTO 07002KT 21/05 A2987 RMK A02 SLP112 T02120045 PA1649 DA2878=
0130008414999992016011011534+31000+061900FM-15+049099999V0200901N000519999999N999999999+01981+00511101181ADDMA1101181999999REMMET103MOBOB3 METAR XM18 //049 310619 101153Z AUTO 09001KT 20/05 A2988 RMK A02 SLP118 T01980051 PA1639 DA2711=
0130008414999992016011012524+31000+061900FM-15+049099999V0209999C000019999999N999999999+01741+00711101251ADDMA1101251999999REMMET103MOBOB3 METAR XM18 //049 310619 101252Z AUTO 00000KT 17/07 A2990 RMK A02 SLP125 T01740071 PA1620 DA2428=
0130008414999992016011013524+31000+061900FM-15+049099999V0200501N000519999999N999999999+01541+00781101341ADDMA1101321999999REMMET103MOBOB3 METAR XM18 //049 310619 101352Z AUTO 05001KT 15/08 A2992 RMK A02 SLP134 T01540078 PA1601 DA2179=
0130008414999992016011014534+31000+061900FM-15+049099999V0203101N000519999999N999999999+01531+00751101371ADDMA1101351999999REMMET103MOBOB3 METAR XM18 //049 310619 101453Z AUTO 31001KT 15/08 A2993 RMK A02 SLP137 T01530075 PA1591 DA2153=
0130008414999992016011015524+31000+061900FM-15+049099999V0203001N001019999999N999999999+01521+00691101381ADDMA1101391999999REMMET103MOBOB3 METAR XM18 //049 310619 101552Z AUTO 30002KT 15/07 A2994 RMK A02 SLP138 T01520069 PA1581 DA2123=
0141008414999992016011016524+31000+061900FM-15+049099999V0203401N004619999999N999999999+01491+00661101401ADDMA1101421999999OC100671REMMET106MOBOB3 METAR XM18 //049 310619 101652Z AUTO 34009G13KT 15/07 A2995 RMK A02 SLP140 T01490066 PA1571 DA2074=
0141008414999992016011017534+31000+061900FM-15+049099999V0203201N004619999999N999999999+01321+00491101471ADDMA1101491999999OC100881REMMET106MOBOB3 METAR XM18 //049 310619 101753Z AUTO 32009G17KT 13/05 A2997 RMK A02 SLP147 T01320049 PA1552 DA1835=
0141008414999992016011018524+31000+061900FM-15+049099999V0203301N005119999999N999999999+01291+00461101451ADDMA1101491999999OC100881REMMET106MOBOB3 METAR XM18 //049 310619 101852Z AUTO 33010G17KT 13/05 A2997 RMK A02 SLP145 T01290046 PA1552 DA1797=
0141008414999992016011019534+31000+061900FM-15+049099999V0203101N003619999999N999999999+01251+00421101551ADDMA1101591999999OC100671REMMET106MOBOB3 METAR XM18 //049 310619 101953Z AUTO 31007G13KT 13/04 A3000 RMK A02 SLP155 T01250042 PA1523 DA1711=
0130008414999992016011020524+31000+061900FM-15+049099999V0203301N003619999999N999999999+01251+00411101541ADDMA1101591999999REMMET103MOBOB3 METAR XM18 //049 310619 102052Z AUTO 33007KT 13/04 A3000 RMK A02 SLP154 T01250041 PA1523 DA1711=
0141008414999992016011021524+31000+061900FM-15+049099999V0203301N004619999999N999999999+01241+00401101611ADDMA1101661999999OC100771REMMET106MOBOB3 METAR XM18 //049 310619 102152Z AUTO 33009G15KT 12/04 A3002 RMK A02 SLP161 T01240040 PA1504 DA1674=
0130008414999992016011022534+31000+061900FM-15+049099999V0203201N003119999999N999999999+01211+00331101651ADDMA1101691999999REMMET103MOBOB3 METAR XM18 //049 310619 102253Z AUTO 32006KT 12/03 A3003 RMK A02 SLP165 T01210033 PA1494 DA1622=
0141008414999992016011023524+31000+061900FM-15+049099999V0203201N003619999999N999999999+01191+00311101701ADDMA1101761999999OC100671REMMET106MOBOB3 METAR XM18 //049 310619 102352Z AUTO 32007G13KT 12/03 A3005 RMK A02 SLP170 T01190031 PA1484 DA1584=
0130008414999992016011100524+31000+061900FM-15+049099999V0203401N002619999999N999999999+01121+00341101771ADDMA1101791999999REMMET103MOBOB3 METAR XM18 //049 310619 110052Z AUTO 34005KT 11/03 A3006 RMK A02 SLP177 T01120034 PA1475 DA1492=
0130008414999992016011101534+31000+061900FM-15+049099999V0202901N003619999999N999999999+01131+00351101971ADDMA1101961999999REMMET103MOBOB3 METAR XM18 //049 310619 110153Z AUTO 29007KT 11/03 A3011 RMK A02 SLP197 T01130035 PA1427 DA1444=
0141008414999992016011102524+31000+061900FM-15+049099999V0203101N003619999999N999999999+01131+00231102121ADDMA1102101999999OC100821REMMET106MOBOB3 METAR XM18 //049 310619 110252Z AUTO 31007G16KT 11/02 A3015 RMK A02 SLP212 T01130023 PA1388 DA1388=
0141008414999992016011103524+31000+061900FM-15+049099999V0203101N004119999999N999999999+01251+00211102181ADDMA1102171999999OC100931REMMET106MOBOB3 METAR XM18 //049 310619 110352Z AUTO 31008G18KT 13/02 A3017 RMK A02 SLP218 T01250021 PA1369 DA1505=
0141008414999992016011104534+31000+061900FM-15+049099999V0203101N004619999999N999999999+01421+00191102231ADDMA1102231999999OC100981REMMET106MOBOB3 METAR XM18 //049 310619 110453Z AUTO 31009G19KT 14/02 A3019 RMK A02 SLP223 T01420019 PA1350 DA1681=
0141008414999992016011105524+31000+061900FM-15+049099999V0203201N004619999999N999999999+01581+00151102201ADDMA1102201999999OC100821REMMET106MOBOB3 METAR XM18 //049 310619 110552Z AUTO 32009G16KT 16/02 A3018 RMK A02 SLP220 T01580015 PA1359 DA1877=
0141008414999992016011106524+31000+061900FM-15+049099999V0203201N004619999999N999999999+01671+00041102121ADDMA1102131999999OC100931REMMET106MOBOB3 METAR XM18 //049 310619 110652Z AUTO 32009G18KT 17/00 A3016 RMK A02 SLP212 T01670004 PA1378 DA1999=
0142008414999992016011107534+31000+061900FM-15+049099999V0203001N004619999999N999999999+01721-00051102091ADDMA1102101999999OC100821REMMET107MOBOB3 METAR XM18 //049 310619 110753Z AUTO 30009G16KT 17/M01 A3015 RMK A02 SLP209 T01721005 PA1388 DA2063=
0142008414999992016011108524+31000+061900FM-15+049099999V0203301N005119999999N999999999+01751-00131102051ADDMA1102071999999OC101081REMMET107MOBOB3 METAR XM18 //049 310619 110852Z AUTO 33010G21KT 18/M01 A3014 RMK A02 SLP205 T01751013 PA1398 DA2105=
0142008414999992016011109524+31000+061900FM-15+049099999V0203401N006719999999N999999999+01741-00341102051ADDMA1102071999999OC101081REMMET107MOBOB3 METAR XM18 //049 310619 110952Z AUTO 34013G21KT 17/M03 A3014 RMK A02 SLP205 T01741034 PA1398 DA2083=
0142008414999992016011110524+31000+061900FM-15+049099999V0203301N005719999999N999999999+01671-00241102101ADDMA1102101999999OC100881REMMET107MOBOB3 METAR XM18 //049 310619 111052Z AUTO 33011G17KT 17/M02 A3015 RMK A02 SLP210 T01671024 PA1388 DA1995=
0131008414999992016011111524+31000+061900FM-15+049099999V0203301N003619999999N999999999+01531-00231102151ADDMA1102131999999REMMET104MOBOB3 METAR XM18 //049 310619 111152Z AUTO 33007KT 15/M02 A3016 RMK A02 SLP215 T01531023 PA1378 DA1821=
0131008414999992016011112524+31000+061900FM-15+049099999V0203401N002619999999N999999999+01361-00201102211ADDMA1102171999999REMMET104MOBOB3 METAR XM18 //049 310619 111252Z AUTO 34005KT 14/M02 A3017 RMK A02 SLP221 T01361020 PA1369 DA1611=
0131008414999992016011113524+31000+061900FM-15+049099999V0203001N002119999999N999999999+01251-00251102291ADDMA1102231999999REMMET104MOBOB3 METAR XM18 //049 310619 111352Z AUTO 30004KT 13/M03 A3019 RMK A02 SLP229 T01251025 PA1350 DA1454=
0131008414999992016011114524+31000+061900FM-15+049099999V0202601N001519999999N999999999+01181-00251102371ADDMA1102301999999REMMET104MOBOB3 METAR XM18 //049 310619 111452Z AUTO 26003KT 12/M02 A3021 RMK A02 SLP237 T01181025 PA1330 DA1348=
0131008414999992016011115524+31000+061900FM-15+049099999V0203001N000519999999N999999999+00991-00201102421ADDMA1102341999999REMMET104MOBOB3 METAR XM18 //049 310619 111552Z AUTO 30001KT 10/M02 A3022 RMK A02 SLP242 T00991020 PA1321 DA1112=
0131008414999992016011116524+31000+061900FM-15+049099999V0202601N002619999999N999999999+00941-00151102401ADDMA1102341999999REMMET104MOBOB3 METAR XM18 //049 310619 111652Z AUTO 26005KT 09/M02 A3022 RMK A02 SLP240 T00941015 PA1321 DA1054=
0131008414999992016011117524+31000+061900FM-15+049099999V0202701N002119999999N999999999+00801-00171102361ADDMA1102301999999REMMET104MOBOB3 METAR XM18 //049 310619 111752Z AUTO 27004KT 08/M02 A3021 RMK A02 SLP236 T00801017 PA1330 DA0897=
0131008414999992016011118524+31000+061900FM-15+049099999V0202901N002619999999N999999999+00731-00181102331ADDMA1102271999999REMMET104MOBOB3 METAR XM18 //049 310619 111852Z AUTO 29005KT 07/M02 A3020 RMK A02 SLP233 T00731018 PA1340 DA0824=
0131008414999992016011119524+31000+061900FM-15+049099999V0203401N001519999999N999999999+00601-00121102301ADDMA1102231999999REMMET104MOBOB3 METAR XM18 //049 310619 111952Z AUTO 34003KT 06/M01 A3019 RMK A02 SLP230 T00601012 PA1350 DA0681=
0131008414999992016011120524+31000+061900FM-15+049099999V0202901N002619999999N999999999+00631-00081102291ADDMA1102231999999REMMET104MOBOB3 METAR XM18 //049 310619 112052Z AUTO 29005KT 06/M01 A3019 RMK A02 SLP229 T00631008 PA1350 DA0720=
0131008414999992016011121524+31000+061900FM-15+049099999V0202901N002119999999N999999999+00641-00091102291ADDMA1102231999999REMMET104MOBOB3 METAR XM18 //049 310619 112152Z AUTO 29004KT 06/M01 A3019 RMK A02 SLP229 T00641009 PA1350 DA0731=
0131008414999992016011122524+31000+061900FM-15+049099999V0202901N002619999999N999999999+00611-00131102271ADDMA1102201999999REMMET104MOBOB3 METAR XM18 //049 310619 112252Z AUTO 29005KT 06/M01 A3018 RMK A02 SLP227 T00611013 PA1359 DA0704=
0131008414999992016011123524+31000+061900FM-15+049099999V0202701N002119999999N999999999+00541-00131102321ADDMA1102231999999REMMET104MOBOB3 METAR XM18 //049 310619 112352Z AUTO 27004KT 05/M01 A3019 RMK A02 SLP232 T00541013 PA1350 DA0607=
0131008414999992016011200524+31000+061900FM-15+049099999V0202701N001019999999N999999999+00511-00101102381ADDMA1102271999999REMMET104MOBOB3 METAR XM18 //049 310619 120052Z AUTO 27002KT 05/M01 A3020 RMK A02 SLP238 T00511010 PA1340 DA0560=
0131008414999992016011201524+31000+061900FM-15+049099999V0202701N001519999999N999999999+00451-00131102441ADDMA1102301999999REMMET104MOBOB3 METAR XM18 //049 310619 120152Z AUTO 27003KT 05/M01 A3021 RMK A02 SLP244 T00451013 PA1330 DA0473=
0131008414999992016011202524+31000+061900FM-15+049099999V0202801N002119999999N999999999+00601-00111102501ADDMA1102371999999REMMET104MOBOB3 METAR XM18 //049 310619 120252Z AUTO 28004KT 06/M01 A3023 RMK A02 SLP250 T00601011 PA1311 DA0633=
0131008414999992016011203524+31000+061900FM-15+049099999V0203201N002119999999N999999999+00861-00061102531ADDMA1102401999999REMMET104MOBOB3 METAR XM18 //049 310619 120352Z AUTO 32004KT 09/M01 A3024 RMK A02 SLP253 T00861006 PA1301 DA0939=
0131008414999992016011204524+31000+061900FM-15+049099999V0203101N002619999999N999999999+01091-00121102511ADDMA1102401999999REMMET104MOBOB3 METAR XM18 //049 310619 120452Z AUTO 31005KT 11/M01 A3024 RMK A02 SLP251 T01091012 PA1301 DA1212=
0131008414999992016011205524+31000+061900FM-15+049099999V0203001N002119999999N999999999+01241-00191102441ADDMA1102341999999REMMET104MOBOB3 METAR XM18 //049 310619 120552Z AUTO 30004KT 12/M02 A3022 RMK A02 SLP244 T01241019 PA1321 DA1410=
0131008414999992016011206524+31000+061900FM-15+049099999V0203201N002119999999N999999999+01381-00271102321ADDMA1102231999999REMMET104MOBOB3 METAR XM18 //049 310619 120652Z AUTO 32004KT 14/M03 A3019 RMK A02 SLP232 T01381027 PA1350 DA1607=
0131008414999992016011207524+31000+061900FM-15+049099999V0203201N002119999999N999999999+01501-00361102251ADDMA1102171999999REMMET104MOBOB3 METAR XM18 //049 310619 120752Z AUTO 32004KT 15/M04 A3017 RMK A02 SLP225 T01501036 PA1369 DA1767=
0131008414999992016011208524+31000+061900FM-15+049099999V0203101N002119999999N999999999+01531-00411102171ADDMA1102101999999REMMET104MOBOB3 METAR XM18 //049 310619 120852Z AUTO 31004KT 15/M04 A3015 RMK A02 SLP217 T01531041 PA1388 DA1824=
0131008414999992016011209524+31000+061900FM-15+049099999V0203101N002119999999N999999999+01571-00531102131ADDMA1102071999999REMMET104MOBOB3 METAR XM18 //049 310619 120952Z AUTO 31004KT 16/M05 A3014 RMK A02 SLP213 T01571053 PA1398 DA1877=
0131008414999992016011210524+31000+061900FM-15+049099999V0203301N002119999999N999999999+01561-00671102141ADDMA1102071999999REMMET104MOBOB3 METAR XM18 //049 310619 121052Z AUTO 33004KT 16/M07 A3014 RMK A02 SLP214 T01561067 PA1398 DA1860=
0131008414999992016011211524+31000+061900FM-15+049099999V0200201N000519999999N999999999+01471-00531102161ADDMA1102071999999REMMET104MOBOB3 METAR XM18 //049 310619 121152Z AUTO 02001KT 15/M05 A3014 RMK A02 SLP216 T01471053 PA1398 DA1760=
0131008414999992016011212524+31000+061900FM-15+049099999V0201301N000519999999N999999999+01201-00621102191ADDMA1102071999999REMMET104MOBOB3 METAR XM18 //049 310619 121252Z AUTO 13001KT 12/M06 A3014 RMK A02 SLP219 T01201062 PA1398 DA1438=
0131008414999992016011213524+31000+061900FM-15+049099999V0201601N000519999999N999999999+01171-00351102271ADDMA1102131999999REMMET104MOBOB3 METAR XM18 //049 310619 121352Z AUTO 16001KT 12/M04 A3016 RMK A02 SLP227 T01171035 PA1378 DA1390=
0131008414999992016011214524+31000+061900FM-15+049099999V0202201N001019999999N999999999+01111-00341102261ADDMA1102131999999REMMET104MOBOB3 METAR XM18 //049 310619 121452Z AUTO 22002KT 11/M03 A3016 RMK A02 SLP226 T01111034 PA1378 DA1320=
0131008414999992016011215524+31000+061900FM-15+049099999V0202301N001019999999N999999999+01041-00361102271ADDMA1102171999999REMMET104MOBOB3 METAR XM18 //049 310619 121552Z AUTO 23002KT 10/M04 A3017 RMK A02 SLP227 T01041036 PA1369 DA1223=
0131008414999992016011216524+31000+061900FM-15+049099999V0203401N000519999999N999999999+00811-00281102241ADDMA1102131999999REMMET104MOBOB3 METAR XM18 //049 310619 121652Z AUTO 34001KT 08/M03 A3016 RMK A02 SLP224 T00811028 PA1378 DA0963=
0131008414999992016011217524+31000+061900FM-15+049099999V0202701N000519999999N999999999+00651-00231102201ADDMA1102101999999REMMET104MOBOB3 METAR XM18 //049 310619 121752Z AUTO 27001KT 07/M02 A3015 RMK A02 SLP220 T00651023 PA1388 DA0783=
0131008414999992016011218524+31000+061900FM-15+049099999V0202901N000519999999N999999999+00571-00221102161ADDMA1102071999999REMMET104MOBOB3 METAR XM18 //049 310619 121852Z AUTO 29001KT 06/M02 A3014 RMK A02 SLP216 T00571022 PA1398 DA0699=
0131008414999992016011219524+31000+061900FM-15+049099999V0209999C000019999999N999999999+00461-00161102121ADDMA1102031999999REMMET104MOBOB3 METAR XM18 //049 310619 121952Z AUTO 00000KT 05/M02 A3013 RMK A02 SLP212 T00461016 PA1407 DA0580=
0131008414999992016011220524+31000+061900FM-15+049099999V0201401N000519999999N999999999+00471-00241102121ADDMA1102031999999REMMET104MOBOB3 METAR XM18 //049 310619 122052Z AUTO 14001KT 05/M02 A3013 RMK A02 SLP212 T00471024 PA1407 DA0587=
0131008414999992016011221524+31000+061900FM-15+049099999V0201201N000519999999N999999999+00401-00331102091ADDMA1102001999999REMMET104MOBOB3 METAR XM18 //049 310619 122152Z AUTO 12001KT 04/M03 A3012 RMK A02 SLP209 T00401033 PA1417 DA0509=
0131008414999992016011222524+31000+061900FM-15+049099999V0203201N000519999999N999999999+00201-00281102071ADDMA1101961999999REMMET104MOBOB3 METAR XM18 //049 310619 122252Z AUTO 32001KT 02/M03 A3011 RMK A02 SLP207 T00201028 PA1427 DA0277=
0131008414999992016011223524+31000+061900FM-15+049099999V0202801N000519999999N999999999+00211-00311102081ADDMA1101961999999REMMET104MOBOB3 METAR XM18 //049 310619 122352Z AUTO 28001KT 02/M03 A3011 RMK A02 SLP208 T00211031 PA1427 DA0288=
0131008414999992016011300524+31000+061900FM-15+049099999V0203001N000519999999N999999999+00141-00351102151ADDMA1102001999999REMMET104MOBOB3 METAR XM18 //049 310619 130052Z AUTO 30001KT 01/M03 A3012 RMK A02 SLP215 T00141035 PA1417 DA0187=
0131008414999992016011301524+31000+061900FM-15+049099999V0203201N000519999999N999999999+00171-00311102191ADDMA1102031999999REMMET104MOBOB3 METAR XM18 //049 310619 130152Z AUTO 32001KT 02/M03 A3013 RMK A02 SLP219 T00171031 PA1407 DA0214=
0131008414999992016011302524+31000+061900FM-15+049099999V0203301N000519999999N999999999+00211-00231102261ADDMA1102101999999REMMET104MOBOB3 METAR XM18 //049 310619 130252Z AUTO 33001KT 02/M02 A3015 RMK A02 SLP226 T00211023 PA1388 DA0244=
0131008414999992016011303524+31000+061900FM-15+049099999V0202701N001019999999N999999999+00551-00171102301ADDMA1102171999999REMMET104MOBOB3 METAR XM18 //049 310619 130352Z AUTO 27002KT 06/M02 A3017 RMK A02 SLP230 T00551017 PA1369 DA0641=
0131008414999992016011304524+31000+061900FM-15+049099999V0203301N001519999999N999999999+00861-00181102331ADDMA1102201999999REMMET104MOBOB3 METAR XM18 //049 310619 130452Z AUTO 33003KT 09/M02 A3018 RMK A02 SLP233 T00861018 PA1359 DA1004=
0131008414999992016011305524+31000+061900FM-15+049099999V0203401N001019999999N999999999+01101-00191102251ADDMA1102131999999REMMET104MOBOB3 METAR XM18 //049 310619 130552Z AUTO 34002KT 11/M02 A3016 RMK A02 SLP225 T01101019 PA1378 DA1315=
0131008414999992016011306524+31000+061900FM-15+049099999V0200601N000519999999N999999999+01421-00241102051ADDMA1101961999999REMMET104MOBOB3 METAR XM18 //049 310619 130652Z AUTO 06001KT 14/M02 A3011 RMK A02 SLP205 T01421024 PA1427 DA1751=
0131008414999992016011307524+31000+061900FM-15+049099999V0200601N001019999999N999999999+01531-00481101911ADDMA1101831999999REMMET104MOBOB3 METAR XM18 //049 310619 130752Z AUTO 06002KT 15/M05 A3007 RMK A02 SLP191 T01531048 PA1465 DA1916=
0131008414999992016011308524+31000+061900FM-15+049099999V0203301N000519999999N999999999+01701-00561101851ADDMA1101791999999REMMET104MOBOB3 METAR XM18 //049 310619 130852Z AUTO 33001KT 17/M06 A3006 RMK A02 SLP185 T01701056 PA1475 DA2122=
0131008414999992016011309524+31000+061900FM-15+049099999V0203601N001019999999N999999999+01661-00591101831ADDMA1101761999999REMMET104MOBOB3 METAR XM18 //049 310619 130952Z AUTO 36002KT 17/M06 A3005 RMK A02 SLP183 T01661059 PA1484 DA2087=
0131008414999992016011310524+31000+061900FM-15+049099999V0203601N001019999999N999999999+01631-00511101811ADDMA1101691999999REMMET104MOBOB3 METAR XM18 //049 310619 131052Z AUTO 36002KT 16/M05 A3003 RMK A02 SLP181 T01631051 PA1494 DA2067=
0131008414999992016011311524+31000+061900FM-15+049099999V0203201N000519999999N999999999+01481-00341101831ADDMA1101691999999REMMET104MOBOB3 METAR XM18 //049 310619 131152Z AUTO 32001KT 15/M03 A3003 RMK A02 SLP183 T01481034 PA1494 DA1899=
0131008414999992016011312524+31000+061900FM-15+049099999V0202901N001519999999N999999999+01331-00321101921ADDMA1101791999999REMMET104MOBOB3 METAR XM18 //049 310619 131252Z AUTO 29003KT 13/M03 A3006 RMK A02 SLP192 T01331032 PA1475 DA1701=
0131008414999992016011313524+31000+061900FM-15+049099999V0202901N000519999999N999999999+01141-00261101941ADDMA1101791999999REMMET104MOBOB3 METAR XM18 //049 310619 131352Z AUTO 29001KT 11/M03 A3006 RMK A02 SLP194 T01141026 PA1475 DA1479=
0131008414999992016011315524+31000+061900FM-15+049099999V0202701N001519999999N999999999+00861-00251101971ADDMA1101831999999REMMET104MOBOB3 METAR XM18 //049 310619 131552Z AUTO 27003KT 09/M02 A3007 RMK A02 SLP197 T00861025 PA1465 DA1132=
0131008414999992016011316524+31000+061900FM-15+049099999V0203001N000519999999N999999999+00751-00271101941ADDMA1101831999999REMMET104MOBOB3 METAR XM18 //049 310619 131652Z AUTO 30001KT 08/M03 A3007 RMK A02 SLP194 T00751027 PA1465 DA0999=
0131008414999992016011317524+31000+061900FM-15+049099999V0203001N000519999999N999999999+00701-00251101921ADDMA1101831999999REMMET104MOBOB3 METAR XM18 //049 310619 131752Z AUTO 30001KT 07/M03 A3007 RMK A02 SLP192 T00701025 PA1465 DA0939=
0131008414999992016011318524+31000+061900FM-15+049099999V0203401N001019999999N999999999+00611-00311101861ADDMA1101791999999REMMET104MOBOB3 METAR XM18 //049 310619 131852Z AUTO 34002KT 06/M03 A3006 RMK A02 SLP186 T00611031 PA1475 DA0839=
0131008414999992016011319524+31000+061900FM-15+049099999V0203301N000519999999N999999999+00481-00181101861ADDMA1101791999999REMMET104MOBOB3 METAR XM18 //049 310619 131952Z AUTO 33001KT 05/M02 A3006 RMK A02 SLP186 T00481018 PA1475 DA0687=
0131008414999992016011320524+31000+061900FM-15+049099999V0209999C000019999999N999999999+00391-00211101861ADDMA1101791999999REMMET104MOBOB3 METAR XM18 //049 310619 132052Z AUTO 00000KT 04/M02 A3006 RMK A02 SLP186 T00391021 PA1475 DA0575=
0131008414999992016011321524+31000+061900FM-15+049099999V0202801N000519999999N999999999+00451-00171101851ADDMA1101791999999REMMET104MOBOB3 METAR XM18 //049 310619 132152Z AUTO 28001KT 05/M02 A3006 RMK A02 SLP185 T00451017 PA1475 DA0651=
0131008414999992016011322524+31000+061900FM-15+049099999V0201101N000519999999N999999999+00341-00191101871ADDMA1101791999999REMMET104MOBOB3 METAR XM18 //049 310619 132252Z AUTO 11001KT 03/M02 A3006 RMK A02 SLP187 T00341019 PA1475 DA0514=
0131008414999992016011323524+31000+061900FM-15+049099999V0201201N000519999999N999999999+00401-00161101911ADDMA1101831999999REMMET104MOBOB3 METAR XM18 //049 310619 132352Z AUTO 12001KT 04/M02 A3007 RMK A02 SLP191 T00401016 PA1465 DA0578=
0131008414999992016011400524+31000+061900FM-15+049099999V0201901N000519999999N999999999+00411-00181102001ADDMA1101901999999REMMET104MOBOB3 METAR XM18 //049 310619 140052Z AUTO 19001KT 04/M02 A3009 RMK A02 SLP200 T00411018 PA1446 DA0565=
0131008414999992016011401524+31000+061900FM-15+049099999V0202401N001019999999N999999999+00401-00221102021ADDMA1101901999999REMMET104MOBOB3 METAR XM18 //049 310619 140152Z AUTO 24002KT 04/M02 A3009 RMK A02 SLP202 T00401022 PA1446 DA0551=
0131008414999992016011402524+31000+061900FM-15+049099999V0202301N001019999999N999999999+00601-00191102131ADDMA1102001999999REMMET104MOBOB3 METAR XM18 //049 310619 140252Z AUTO 23002KT 06/M02 A3012 RMK A02 SLP213 T00601019 PA1417 DA0761=
0131008414999992016011403524+31000+061900FM-15+049099999V0202101N001519999999N999999999+00851-00191102261ADDMA1102131999999REMMET104MOBOB3 METAR XM18 //049 310619 140352Z AUTO 21003KT 09/M02 A3016 RMK A02 SLP226 T00851019 PA1378 DA1016=
0131008414999992016011404524+31000+061900FM-15+049099999V0202501N001019999999N999999999+01121-00151102241ADDMA1102131999999REMMET104MOBOB3 METAR XM18 //049 310619 140452Z AUTO 25002KT 11/M02 A3016 RMK A02 SLP224 T01121015 PA1378 DA1341=
0131008414999992016011405524+31000+061900FM-15+049099999V0202501N000519999999N999999999+01331-00181102191ADDMA1102101999999REMMET104MOBOB3 METAR XM18 //049 310619 140552Z AUTO 25001KT 13/M02 A3015 RMK A02 SLP219 T01331018 PA1388 DA1600=
0131008414999992016011406524+31000+061900FM-15+049099999V0203101N000519999999N999999999+01531-00271102071ADDMA1102001999999REMMET104MOBOB3 METAR XM18 //049 310619 140652Z AUTO 31001KT 15/M03 A3012 RMK A02 SLP207 T01531027 PA1417 DA1866=
0131008414999992016011407524+31000+061900FM-15+049099999V0202701N000519999999N999999999+01671-00271101991ADDMA1101931999999REMMET104MOBOB3 METAR XM18 //049 310619 140752Z AUTO 27001KT 17/M03 A3010 RMK A02 SLP199 T01671027 PA1436 DA2053=
0131008414999992016011408524+31000+061900FM-15+049099999V0202301N000519999999N999999999+01751-00251101921ADDMA1101861999999REMMET104MOBOB3 METAR XM18 //049 310619 140852Z AUTO 23001KT 18/M03 A3008 RMK A02 SLP192 T01751025 PA1455 DA2171=
0131008414999992016011409524+31000+061900FM-15+049099999V0203201N000519999999N999999999+01791-00291101881ADDMA1101831999999REMMET104MOBOB3 METAR XM18 //049 310619 140952Z AUTO 32001KT 18/M03 A3007 RMK A02 SLP188 T01791029 PA1465 DA2227=
0131008414999992016011410524+31000+061900FM-15+049099999V0200801N001019999999N999999999+01731-00361101901ADDMA1101831999999REMMET104MOBOB3 METAR XM18 //049 310619 141052Z AUTO 08002KT 17/M04 A3007 RMK A02 SLP190 T01731036 PA1465 DA2154=
0131008414999992016011411524+31000+061900FM-15+049099999V0201201N001019999999N999999999+01591-00411101901ADDMA1101831999999REMMET104MOBOB3 METAR XM18 //049 310619 141152Z AUTO 12002KT 16/M04 A3007 RMK A02 SLP190 T01591041 PA1465 DA1989=
0131008414999992016011412524+31000+061900FM-15+049099999V0201001N001019999999N999999999+01421-00351101961ADDMA1101861999999REMMET104MOBOB3 METAR XM18 //049 310619 141252Z AUTO 10002KT 14/M03 A3008 RMK A02 SLP196 T01421035 PA1455 DA1781=
0131008414999992016011413524+31000+061900FM-15+049099999V0200901N000519999999N999999999+01281-00481102011ADDMA1101901999999REMMET104MOBOB3 METAR XM18 //049 310619 141352Z AUTO 09001KT 13/M05 A3009 RMK A02 SLP201 T01281048 PA1446 DA1598=
0131008414999992016011414524+31000+061900FM-15+049099999V0201301N000519999999N999999999+01181-00481102041ADDMA1101931999999REMMET104MOBOB3 METAR XM18 //049 310619 141452Z AUTO 13001KT 12/M05 A3010 RMK A02 SLP204 T01181048 PA1436 DA1468=
0131008414999992016011415524+31000+061900FM-15+049099999V0202101N000519999999N999999999+00911-00371102041ADDMA1101931999999REMMET104MOBOB3 METAR XM18 //049 310619 141552Z AUTO 21001KT 09/M04 A3010 RMK A02 SLP204 T00911037 PA1436 DA1151=
0131008414999992016011416524+31000+061900FM-15+049099999V0209999C000019999999N999999999+00721-00331102031ADDMA1101931999999REMMET104MOBOB3 METAR XM18 //049 310619 141652Z AUTO 00000KT 07/M03 A3010 RMK A02 SLP203 T00721033 PA1436 DA0923=
0131008414999992016011417524+31000+061900FM-15+049099999V0203601N000519999999N999999999+00741-00311101971ADDMA1101901999999REMMET104MOBOB3 METAR XM18 //049 310619 141752Z AUTO 36001KT 07/M03 A3009 RMK A02 SLP197 T00741031 PA1446 DA0960=
0131008414999992016011418524+31000+061900FM-15+049099999V0203101N000519999999N999999999+00561-00201101931ADDMA1101861999999REMMET104MOBOB3 METAR XM18 //049 310619 141852Z AUTO 31001KT 06/M02 A3008 RMK A02 SLP193 T00561020 PA1455 DA0760=
0131008414999992016011419524+31000+061900FM-15+049099999V0203201N001019999999N999999999+00541-00221101921ADDMA1101861999999REMMET104MOBOB3 METAR XM18 //049 310619 141952Z AUTO 32002KT 05/M02 A3008 RMK A02 SLP192 T00541022 PA1455 DA0734=
0131008414999992016011420524+31000+061900FM-15+049099999V0209999C000019999999N999999999+00451-00241101951ADDMA1101901999999REMMET104MOBOB3 METAR XM18 //049 310619 142052Z AUTO 00000KT 05/M02 A3009 RMK A02 SLP195 T00451024 PA1446 DA0611=
0131008414999992016011421524+31000+061900FM-15+049099999V0203501N001019999999N999999999+00361-00261101921ADDMA1101861999999REMMET104MOBOB3 METAR XM18 //049 310619 142152Z AUTO 35002KT 04/M03 A3008 RMK A02 SLP192 T00361026 PA1455 DA0511=
0131008414999992016011422524+31000+061900FM-15+049099999V0203101N001019999999N999999999+00261-00311101941ADDMA1101861999999REMMET104MOBOB3 METAR XM18 //049 310619 142252Z AUTO 31002KT 03/M03 A3008 RMK A02 SLP194 T00261031 PA1455 DA0386=
0131008414999992016011423524+31000+061900FM-15+049099999V0203401N000519999999N999999999+00291-00301101951ADDMA1101861999999REMMET104MOBOB3 METAR XM18 //049 310619 142352Z AUTO 34001KT 03/M03 A3008 RMK A02 SLP195 T00291030 PA1455 DA0423=
0131008414999992016011500524+31000+061900FM-15+049099999V0209999C000019999999N999999999+00231-00271102051ADDMA1101931999999REMMET104MOBOB3 METAR XM18 //049 310619 150052Z AUTO 00000KT 02/M03 A3010 RMK A02 SLP205 T00231027 PA1436 DA0326=
0131008414999992016011501524+31000+061900FM-15+049099999V0202901N000519999999N999999999+00281-00231102131ADDMA1102001999999REMMET104MOBOB3 METAR XM18 //049 310619 150152Z AUTO 29001KT 03/M02 A3012 RMK A02 SLP213 T00281023 PA1417 DA0366=
0131008414999992016011502534+31000+061900FM-15+049099999V0203301N001019999999N999999999+00381-00191102201ADDMA1102071999999REMMET104MOBOB3 METAR XM18 //049 310619 150253Z AUTO 33002KT 04/M02 A3014 RMK A02 SLP220 T00381019 PA1398 DA0468=
0131008414999992016011503524+31000+061900FM-15+049099999V0203601N000519999999N999999999+00711-00141102271ADDMA1102131999999REMMET104MOBOB3 METAR XM18 //049 310619 150352Z AUTO 36001KT 07/M01 A3016 RMK A02 SLP227 T00711014 PA1378 DA0849=
0131008414999992016011504524+31000+061900FM-15+049099999V0200101N001019999999N999999999+01131+00001102311ADDMA1102201999999REMMET104MOBOB3 METAR XM18 //049 310619 150452Z AUTO 01002KT 11/M00 A3018 RMK A02 SLP231 T01131000 PA1359 DA1338=
0131008414999992016011505524+31000+061900FM-15+049099999V0201801N000519999999N999999999+01491-00141102241ADDMA1102171999999REMMET104MOBOB3 METAR XM18 //049 310619 150552Z AUTO 18001KT 15/M01 A3017 RMK A02 SLP224 T01491014 PA1369 DA1767=
0131008414999992016011506524+31000+061900FM-15+049099999V0200401N000519999999N999999999+01711-00301102091ADDMA1102031999999REMMET104MOBOB3 METAR XM18 //049 310619 150652Z AUTO 04001KT 17/M03 A3013 RMK A02 SLP209 T01711030 PA1407 DA2062=
0131008414999992016011507524+31000+061900FM-15+049099999V0203201N000519999999N999999999+01831-00391102011ADDMA1101961999999REMMET104MOBOB3 METAR XM18 //049 310619 150752Z AUTO 32001KT 18/M04 A3011 RMK A02 SLP201 T01831039 PA1427 DA2221=
0131008414999992016011508524+31000+061900FM-15+049099999V0200201N001519999999N999999999+01861-00601101911ADDMA1101861999999REMMET104MOBOB3 METAR XM18 //049 310619 150852Z AUTO 02003KT 19/M06 A3008 RMK A02 SLP191 T01861060 PA1455 DA2282=
0131008414999992016011509524+31000+061900FM-15+049099999V0200801N001519999999N999999999+01931-00611101911ADDMA1101861999999REMMET104MOBOB3 METAR XM18 //049 310619 150952Z AUTO 08003KT 19/M06 A3008 RMK A02 SLP191 T01931061 PA1455 DA2362=
0131008414999992016011510524+31000+061900FM-15+049099999V0200501N001519999999N999999999+01931-00541101881ADDMA1101831999999REMMET104MOBOB3 METAR XM18 //049 310619 151052Z AUTO 05003KT 19/M05 A3007 RMK A02 SLP188 T01931054 PA1465 DA2377=
0131008414999992016011511524+31000+061900FM-15+049099999V0200601N001519999999N999999999+01801-00411101931ADDMA1101861999999REMMET104MOBOB3 METAR XM18 //049 310619 151152Z AUTO 06003KT 18/M04 A3008 RMK A02 SLP193 T01801041 PA1455 DA2221=
0131008414999992016011512524+31000+061900FM-15+049099999V0203101N000519999999N999999999+01541-00331101961ADDMA1101861999999REMMET104MOBOB3 METAR XM18 //049 310619 151252Z AUTO 31001KT 15/M03 A3008 RMK A02 SLP196 T01541033 PA1455 DA1923=
0131008414999992016011513524+31000+061900FM-15+049099999V0202801N001019999999N999999999+01341-00191102011ADDMA1101901999999REMMET104MOBOB3 METAR XM18 //049 310619 151352Z AUTO 28002KT 13/M02 A3009 RMK A02 SLP201 T01341019 PA1446 DA1683=
0131008414999992016011514524+31000+061900FM-15+049099999V0203301N000519999999N999999999+01121-00201102031ADDMA1101901999999REMMET104MOBOB3 METAR XM18 //049 310619 151452Z AUTO 33001KT 11/M02 A3009 RMK A02 SLP203 T01121020 PA1446 DA1422=
0131008414999992016011515524+31000+061900FM-15+049099999V0203101N000519999999N999999999+01031-00161102001ADDMA1101901999999REMMET104MOBOB3 METAR XM18 //049 310619 151552Z AUTO 31001KT 10/M02 A3009 RMK A02 SLP200 T01031016 PA1446 DA1317=
0131008414999992016011516524+31000+061900FM-15+049099999V0203401N000519999999N999999999+00881-00211101941ADDMA1101861999999REMMET104MOBOB3 METAR XM18 //049 310619 151652Z AUTO 34001KT 09/M02 A3008 RMK A02 SLP194 T00881021 PA1455 DA1146=
0131008414999992016011517524+31000+061900FM-15+049099999V0203501N001019999999N999999999+00781-00221101871ADDMA1101831999999REMMET104MOBOB3 METAR XM18 //049 310619 151752Z AUTO 35002KT 08/M02 A3007 RMK A02 SLP187 T00781022 PA1465 DA1037=
0131008414999992016011518524+31000+061900FM-15+049099999V0203001N000519999999N999999999+00631-00081101831ADDMA1101791999999REMMET104MOBOB3 METAR XM18 //049 310619 151852Z AUTO 30001KT 06/M01 A3006 RMK A02 SLP183 T00631008 PA1475 DA0875=
0131008414999992016011519534+31000+061900FM-15+049099999V0203301N000519999999N999999999+00611-00131101781ADDMA1101761999999REMMET104MOBOB3 METAR XM18 //049 310619 151953Z AUTO 33001KT 06/M01 A3005 RMK A02 SLP178 T00611013 PA1484 DA0860=
0131008414999992016011520524+31000+061900FM-15+049099999V0203401N001019999999N999999999+00551-00111101791ADDMA1101761999999REMMET104MOBOB3 METAR XM18 //049 310619 152052Z AUTO 34002KT 06/M01 A3005 RMK A02 SLP179 T00551011 PA1484 DA0788=
0131008414999992016011521524+31000+061900FM-15+049099999V0203101N000519999999N999999999+00491-00131101791ADDMA1101761999999REMMET104MOBOB3 METAR XM18 //049 310619 152152Z AUTO 31001KT 05/M01 A3005 RMK A02 SLP179 T00491013 PA1484 DA0714=
0131008414999992016011522524+31000+061900FM-15+049099999V0203201N000519999999N999999999+00421-00201101791ADDMA1101761999999REMMET104MOBOB3 METAR XM18 //049 310619 152252Z AUTO 32001KT 04/M02 A3005 RMK A02 SLP179 T00421020 PA1484 DA0624=
0131008414999992016011523524+31000+061900FM-15+049099999V0203501N001019999999N999999999+00331-00241101821ADDMA1101761999999REMMET104MOBOB3 METAR XM18 //049 310619 152352Z AUTO 35002KT 03/M02 A3005 RMK A02 SLP182 T00331024 PA1484 DA0512=
0131008414999992016011600524+31000+061900FM-15+049099999V0203201N001019999999N999999999+00291-00271101881ADDMA1101791999999REMMET104MOBOB3 METAR XM18 //049 310619 160052Z AUTO 32002KT 03/M03 A3006 RMK A02 SLP188 T00291027 PA1475 DA0449=
0131008414999992016011601524+31000+061900FM-15+049099999V0203301N001019999999N999999999+00201-00271102021ADDMA1101901999999REMMET104MOBOB3 METAR XM18 //049 310619 160152Z AUTO 33002KT 02/M03 A3009 RMK A02 SLP202 T00201027 PA1446 DA0301=
0131008414999992016011602524+31000+061900FM-15+049099999V0203501N000519999999N999999999+00381-00161102101ADDMA1101961999999REMMET104MOBOB3 METAR XM18 //049 310619 160252Z AUTO 35001KT 04/M02 A3011 RMK A02 SLP210 T00381016 PA1427 DA0505=
0131008414999992016011603524+31000+061900FM-15+049099999V0200901N001019999999N999999999+00791-00141102171ADDMA1102071999999REMMET104MOBOB3 METAR XM18 //049 310619 160352Z AUTO 09002KT 08/M01 A3014 RMK A02 SLP217 T00791014 PA1398 DA0970=
0131008414999992016011604524+31000+061900FM-15+049099999V0201301N001019999999N999999999+01241-00161102141ADDMA1102071999999REMMET104MOBOB3 METAR XM18 //049 310619 160452Z AUTO 13002KT 12/M02 A3014 RMK A02 SLP214 T01241016 PA1398 DA1507=
0131008414999992016011605524+31000+061900FM-15+049099999V0200301N000519999999N999999999+01561-00331102051ADDMA1102001999999REMMET104MOBOB3 METAR XM18 //049 310619 160552Z AUTO 03001KT 16/M03 A3012 RMK A02 SLP205 T01561033 PA1417 DA1898=
0131008414999992016011606524+31000+061900FM-15+049099999V0203001N000519999999N999999999+01731-00241101941ADDMA1101901999999REMMET104MOBOB3 METAR XM18 //049 310619 160652Z AUTO 30001KT 17/M02 A3009 RMK A02 SLP194 T01731024 PA1446 DA2136=
0131008414999992016011607524+31000+061900FM-15+049099999V0203301N001519999999N999999999+01901-00311101811ADDMA1101791999999REMMET104MOBOB3 METAR XM18 //049 310619 160752Z AUTO 33003KT 19/M03 A3006 RMK A02 SLP181 T01901031 PA1475 DA2365=
0131008414999992016011608524+31000+061900FM-15+049099999V0203301N002619999999N999999999+01961-00421101781ADDMA1101761999999REMMET104MOBOB3 METAR XM18 //049 310619 160852Z AUTO 33005KT 20/M04 A3005 RMK A02 SLP178 T01961042 PA1484 DA2440=
0131008414999992016011609524+31000+061900FM-15+049099999V0203101N001519999999N999999999+01991-00331101741ADDMA1101691999999REMMET104MOBOB3 METAR XM18 //049 310619 160952Z AUTO 31003KT 20/M03 A3003 RMK A02 SLP174 T01991033 PA1494 DA2491=
0131008414999992016011610524+31000+061900FM-15+049099999V0203301N003119999999N999999999+01961-00281101751ADDMA1101691999999REMMET104MOBOB3 METAR XM18 //049 310619 161052Z AUTO 33006KT 20/M03 A3003 RMK A02 SLP175 T01961028 PA1494 DA2459=
0131008414999992016011611524+31000+061900FM-15+049099999V0203301N001519999999N999999999+01771-00161101821ADDMA1101761999999REMMET104MOBOB3 METAR XM18 //049 310619 161152Z AUTO 33003KT 18/M02 A3005 RMK A02 SLP182 T01771016 PA1484 DA2234=
0131008414999992016011612524+31000+061900FM-15+049099999V0202801N001519999999N999999999+01551-00201101881ADDMA1101791999999REMMET104MOBOB3 METAR XM18 //049 310619 161252Z AUTO 28003KT 16/M02 A3006 RMK A02 SLP188 T01551020 PA1475 DA1965=
0131008414999992016011613524+31000+061900FM-15+049099999V0202901N002619999999N999999999+01441-00261101981ADDMA1101861999999REMMET104MOBOB3 METAR XM18 //049 310619 161352Z AUTO 29005KT 14/M03 A3008 RMK A02 SLP198 T01441026 PA1455 DA1809=
0131008414999992016011614524+31000+061900FM-15+049099999V0203101N002619999999N999999999+01231-00051102011ADDMA1101901999999REMMET104MOBOB3 METAR XM18 //049 310619 161452Z AUTO 31005KT 12/M00 A3009 RMK A02 SLP201 T01231005 PA1446 DA1561=
0130008414999992016011615524+31000+061900FM-15+049099999V0203101N002619999999N999999999+01111+00011101981ADDMA1101901999999REMMET103MOBOB3 METAR XM18 //049 310619 161552Z AUTO 31005KT 11/00 A3009 RMK A02 SLP198 T01110001 PA1446 DA1422=
0131008414999992016011616524+31000+061900FM-15+049099999V0203001N003119999999N999999999+01041-00011101941ADDMA1101901999999REMMET104MOBOB3 METAR XM18 //049 310619 161652Z AUTO 30006KT 10/M00 A3009 RMK A02 SLP194 T01041001 PA1446 DA1337=
0131008414999992016011617524+31000+061900FM-15+049099999V0203001N003619999999N999999999+00931-00011101921ADDMA1101901999999REMMET104MOBOB3 METAR XM18 //049 310619 161752Z AUTO 30007KT 09/M00 A3009 RMK A02 SLP192 T00931001 PA1446 DA1206=
0131008414999992016011618524+31000+061900FM-15+049099999V0203001N003119999999N999999999+00801-00031101881ADDMA1101861999999REMMET104MOBOB3 METAR XM18 //049 310619 161852Z AUTO 30006KT 08/M00 A3008 RMK A02 SLP188 T00801003 PA1455 DA1060=
0141008414999992016011619534+31000+061900FM-15+049099999V0203101N004119999999N999999999+00771+00011101871ADDMA1101861999999OC100881REMMET106MOBOB3 METAR XM18 //049 310619 161953Z AUTO 31008G17KT 08/00 A3008 RMK A02 SLP187 T00770001 PA1455 DA1026=
0141008414999992016011620524+31000+061900FM-15+049099999V0203101N004119999999N999999999+00711+00011101871ADDMA1101861999999OC100721REMMET106MOBOB3 METAR XM18 //049 310619 162052Z AUTO 31008G14KT 07/00 A3008 RMK A02 SLP187 T00710001 PA1455 DA0954=
0141008414999992016011621524+31000+061900FM-15+049099999V0203101N004119999999N999999999+00681+00011101831ADDMA1101831999999OC100671REMMET106MOBOB3 METAR XM18 //049 310619 162152Z AUTO 31008G13KT 07/00 A3007 RMK A02 SLP183 T00680001 PA1465 DA0929=
0130008414999992016011622524+31000+061900FM-15+049099999V0203101N003119999999N999999999+00621+00001101801ADDMA1101791999999REMMET103MOBOB3 METAR XM18 //049 310619 162252Z AUTO 31006KT 06/00 A3006 RMK A02 SLP180 T00620000 PA1475 DA0868=
0142008414999992016011623524+31000+061900FM-15+049099999V0203301N004619999999N999999999+00621-00021101821ADDMA1101791999999OC100771REMMET107MOBOB3 METAR XM18 //049 310619 162352Z AUTO 33009G15KT 06/M00 A3006 RMK A02 SLP182 T00621002 PA1475 DA0867=
0142008414999992016011700524+31000+061900FM-15+049099999V0203201N004119999999N999999999+00591-00031101921ADDMA1101861999999OC100671REMMET107MOBOB3 METAR XM18 //049 310619 170052Z AUTO 32008G13KT 06/M00 A3008 RMK A02 SLP192 T00591003 PA1455 DA0806=
0142008414999992016011701524+31000+061900FM-15+049099999V0203201N003619999999N999999999+00581-00031102011ADDMA1101931999999OC100671REMMET107MOBOB3 METAR XM18 //049 310619 170152Z AUTO 32007G13KT 06/M00 A3010 RMK A02 SLP201 T00581003 PA1436 DA0769=
0142008414999992016011702534+31000+061900FM-15+049099999V0203101N004119999999N999999999+00661-00021102091ADDMA1102001999999OC100881REMMET107MOBOB3 METAR XM18 //049 310619 170253Z AUTO 31008G17KT 07/M00 A3012 RMK A02 SLP209 T00661002 PA1417 DA0843=
0141008414999992016011703524+31000+061900FM-15+049099999V0203201N004619999999N999999999+00831+00001102161ADDMA1102071999999OC100821REMMET106MOBOB3 METAR XM18 //049 310619 170352Z AUTO 32009G16KT 08/00 A3014 RMK A02 SLP216 T00830000 PA1398 DA1026=
0141008414999992016011704524+31000+061900FM-15+049099999V0203101N005719999999N999999999+00991+00011102221ADDMA1102131999999OC100981REMMET106MOBOB3 METAR XM18 //049 310619 170452Z AUTO 31011G19KT 10/00 A3016 RMK A02 SLP222 T00990001 PA1378 DA1195=
0142008414999992016011705524+31000+061900FM-15+049099999V0203201N006219999999N999999999+01111-00011102151ADDMA1102071999999OC101031REMMET107MOBOB3 METAR XM18 //049 310619 170552Z AUTO 32012G20KT 11/M00 A3014 RMK A02 SLP215 T01111001 PA1398 DA1361=
0142008414999992016011706524+31000+061900FM-15+049099999V0203101N005719999999N999999999+01261-00021102041ADDMA1101961999999OC100981REMMET107MOBOB3 METAR XM18 //049 310619 170652Z AUTO 31011G19KT 13/M00 A3011 RMK A02 SLP204 T01261002 PA1427 DA1574=
0142008414999992016011707524+31000+061900FM-15+049099999V0203001N006219999999N999999999+01361-00021101961ADDMA1101901999999OC101081REMMET107MOBOB3 METAR XM18 //049 310619 170752Z AUTO 30012G21KT 14/M00 A3009 RMK A02 SLP196 T01361002 PA1446 DA1716=
0142008414999992016011708534+31000+061900FM-15+049099999V0203101N005119999999N999999999+01461-00071101851ADDMA1101791999999OC100931REMMET107MOBOB3 METAR XM18 //049 310619 170853Z AUTO 31010G18KT 15/M01 A3006 RMK A02 SLP185 T01461007 PA1475 DA1866=
0142008414999992016011709524+31000+061900FM-15+049099999V0203101N005719999999N999999999+01451-00091101851ADDMA1101791999999OC101031REMMET107MOBOB3 METAR XM18 //049 310619 170952Z AUTO 31011G20KT 15/M01 A3006 RMK A02 SLP185 T01451009 PA1475 DA1853=
0142008414999992016011710524+31000+061900FM-15+049099999V0203101N005119999999N999999999+01391-00131101861ADDMA1101791999999OC100931REMMET107MOBOB3 METAR XM18 //049 310619 171052Z AUTO 31010G18KT 14/M01 A3006 RMK A02 SLP186 T01391013 PA1475 DA1781=
0142008414999992016011711534+31000+061900FM-15+049099999V0203201N004619999999N999999999+01261-00191101911ADDMA1101831999999OC100931REMMET107MOBOB3 METAR XM18 //049 310619 171153Z AUTO 32009G18KT 13/M02 A3007 RMK A02 SLP191 T01261019 PA1465 DA1612=
0142008414999992016011712524+31000+061900FM-15+049099999V0203101N004619999999N999999999+01131-00181102001ADDMA1101901999999OC100821REMMET107MOBOB3 METAR XM18 //049 310619 171252Z AUTO 31009G16KT 11/M02 A3009 RMK A02 SLP200 T01131018 PA1446 DA1435=
0142008414999992016011713524+31000+061900FM-15+049099999V0203101N003619999999N999999999+01031-00221102121ADDMA1102001999999OC100771REMMET107MOBOB3 METAR XM18 //049 310619 171352Z AUTO 31007G15KT 10/M02 A3012 RMK A02 SLP212 T01031022 PA1417 DA1278=
0142008414999992016011714534+31000+061900FM-15+049099999V0203101N005119999999N999999999+01001-00291102191ADDMA1102071999999OC101031REMMET107MOBOB3 METAR XM18 //049 310619 171453Z AUTO 31010G20KT 10/M03 A3014 RMK A02 SLP219 T01001029 PA1398 DA1214=
0142008414999992016011715524+31000+061900FM-15+049099999V0203001N006219999999N999999999+00941-00271102181ADDMA1102071999999OC101031REMMET107MOBOB3 METAR XM18 //049 310619 171552Z AUTO 30012G20KT 09/M03 A3014 RMK A02 SLP218 T00941027 PA1398 DA1144=
0142008414999992016011716524+31000+061900FM-15+049099999V0203001N005719999999N999999999+00841-00251102171ADDMA1102071999999OC100931REMMET107MOBOB3 METAR XM18 //049 310619 171652Z AUTO 30011G18KT 08/M02 A3014 RMK A02 SLP217 T00841025 PA1398 DA1025=
0142008414999992016011717534+31000+061900FM-15+049099999V0203101N004119999999N999999999+00801-00261102161ADDMA1102071999999OC100821REMMET107MOBOB3 METAR XM18 //049 310619 171753Z AUTO 31008G16KT 08/M03 A3014 RMK A02 SLP216 T00801026 PA1398 DA0976=
0142008414999992016011718524+31000+061900FM-15+049099999V0203001N004619999999N999999999+00771-00281102111ADDMA1102031999999OC100771REMMET107MOBOB3 METAR XM18 //049 310619 171852Z AUTO 30009G15KT 08/M03 A3013 RMK A02 SLP211 T00771028 PA1407 DA0951=
0142008414999992016011719524+31000+061900FM-15+049099999V0203001N004619999999N999999999+00731-00321102111ADDMA1102031999999OC100881REMMET107MOBOB3 METAR XM18 //049 310619 171952Z AUTO 30009G17KT 07/M03 A3013 RMK A02 SLP211 T00731032 PA1407 DA0900=
0142008414999992016011720534+31000+061900FM-15+049099999V0202901N005719999999N999999999+00651-00281102111ADDMA1102031999999OC100881REMMET107MOBOB3 METAR XM18 //049 310619 172053Z AUTO 29011G17KT 07/M03 A3013 RMK A02 SLP211 T00651028 PA1407 DA0805=
0142008414999992016011721524+31000+061900FM-15+049099999V0202901N006219999999N999999999+00631-00261102071ADDMA1102001999999OC101131REMMET107MOBOB3 METAR XM18 //049 310619 172152Z AUTO 29012G22KT 06/M03 A3012 RMK A02 SLP207 T00631026 PA1417 DA0794=
0142008414999992016011722524+31000+061900FM-15+049099999V0203001N004619999999N999999999+00601-00271102081ADDMA1102001999999OC101031REMMET107MOBOB3 METAR XM18 //049 310619 172252Z AUTO 30009G20KT 06/M03 A3012 RMK A02 SLP208 T00601027 PA1417 DA0757=
0142008414999992016011723524+31000+061900FM-15+049099999V0203001N005119999999N999999999+00571-00301102061ADDMA1101961999999OC100881REMMET107MOBOB3 METAR XM18 //049 310619 172352Z AUTO 30010G17KT 06/M03 A3011 RMK A02 SLP206 T00571030 PA1427 DA0731=
0142008414999992016011800524+31000+061900FM-15+049099999V0203001N005119999999N999999999+00561-00291102191ADDMA1102071999999OC100931REMMET107MOBOB3 METAR XM18 //049 310619 180052Z AUTO 30010G18KT 06/M03 A3014 RMK A02 SLP219 T00561029 PA1398 DA0683=
0142008414999992016011801524+31000+061900FM-15+049099999V0203001N005119999999N999999999+00551-00321102271ADDMA1102131999999OC100931REMMET107MOBOB3 METAR XM18 //049 310619 180152Z AUTO 30010G18KT 06/M03 A3016 RMK A02 SLP227 T00551032 PA1378 DA0645=
0142008414999992016011802534+31000+061900FM-15+049099999V0202901N005119999999N999999999+00601-00301102381ADDMA1102231999999OC101031REMMET107MOBOB3 METAR XM18 //049 310619 180253Z AUTO 29010G20KT 06/M03 A3019 RMK A02 SLP238 T00601030 PA1350 DA0672=
0142008414999992016011803524+31000+061900FM-15+049099999V0203001N005119999999N999999999+00761-00271102471ADDMA1102341999999OC100931REMMET107MOBOB3 METAR XM18 //049 310619 180352Z AUTO 30010G18KT 08/M03 A3022 RMK A02 SLP247 T00761027 PA1321 DA0831=
0142008414999992016011804524+31000+061900FM-15+049099999V0203001N004119999999N999999999+00981-00251102531ADDMA1102401999999OC100821REMMET107MOBOB3 METAR XM18 //049 310619 180452Z AUTO 30008G16KT 10/M02 A3024 RMK A02 SLP253 T00981025 PA1301 DA1074=
0142008414999992016011805534+31000+061900FM-15+049099999V0203001N004119999999N999999999+01181-00261102441ADDMA1102341999999OC100721REMMET107MOBOB3 METAR XM18 //049 310619 180553Z AUTO 30008G14KT 12/M03 A3022 RMK A02 SLP244 T01181026 PA1321 DA1336=
0142008414999992016011806534+31000+061900FM-15+049099999V0203201N004119999999N999999999+01361-00271102321ADDMA1102231999999OC100721REMMET107MOBOB3 METAR XM18 //049 310619 180653Z AUTO 32008G14KT 14/M03 A3019 RMK A02 SLP232 T01361027 PA1350 DA1583=
0142008414999992016011807524+31000+061900FM-15+049099999V0203301N004119999999N999999999+01521-00341102201ADDMA1102131999999OC100721REMMET107MOBOB3 METAR XM18 //049 310619 180752Z AUTO 33008G14KT 15/M03 A3016 RMK A02 SLP220 T01521034 PA1378 DA1803=
0131008414999992016011808524+31000+061900FM-15+049099999V0203401N003119999999N999999999+01641-00341102121ADDMA1102071999999REMMET104MOBOB3 METAR XM18 //049 310619 180852Z AUTO 34006KT 16/M03 A3014 RMK A02 SLP212 T01641034 PA1398 DA1968=
0131008414999992016011809534+31000+061900FM-15+049099999V0203101N002619999999N999999999+01701-00361102081ADDMA1102031999999REMMET104MOBOB3 METAR XM18 //049 310619 180953Z AUTO 31005KT 17/M04 A3013 RMK A02 SLP208 T01701036 PA1407 DA2048=
0131008414999992016011810524+31000+061900FM-15+049099999V0203301N002119999999N999999999+01741-00381102081ADDMA1102031999999REMMET104MOBOB3 METAR XM18 //049 310619 181052Z AUTO 33004KT 17/M04 A3013 RMK A02 SLP208 T01741038 PA1407 DA2093=
0131008414999992016011811534+31000+061900FM-15+049099999V0203201N000519999999N999999999+01641-00351102061ADDMA1102001999999REMMET104MOBOB3 METAR XM18 //049 310619 181153Z AUTO 32001KT 16/M04 A3012 RMK A02 SLP206 T01641035 PA1417 DA1991=
0131008414999992016011812524+31000+061900FM-15+049099999V0202601N001019999999N999999999+01451-00351102121ADDMA1102031999999REMMET104MOBOB3 METAR XM18 //049 310619 181252Z AUTO 26002KT 15/M04 A3013 RMK A02 SLP212 T01451035 PA1407 DA1757=
0131008414999992016011813524+31000+061900FM-15+049099999V0202301N001519999999N999999999+01321-00301102171ADDMA1102071999999REMMET104MOBOB3 METAR XM18 //049 310619 181352Z AUTO 23003KT 13/M03 A3014 RMK A02 SLP217 T01321030 PA1398 DA1594=
0131008414999992016011814524+31000+061900FM-15+049099999V0202201N001019999999N999999999+01201-00351102211ADDMA1102101999999REMMET104MOBOB3 METAR XM18 //049 310619 181452Z AUTO 22002KT 12/M04 A3015 RMK A02 SLP221 T01201035 PA1388 DA1438=
0131008414999992016011815524+31000+061900FM-15+049099999V0202501N001519999999N999999999+01061-00341102281ADDMA1102171999999REMMET104MOBOB3 METAR XM18 //049 310619 181552Z AUTO 25003KT 11/M03 A3017 RMK A02 SLP228 T01061034 PA1369 DA1248=
0131008414999992016011816524+31000+061900FM-15+049099999V0202601N002119999999N999999999+00831-00381102251ADDMA1102131999999REMMET104MOBOB3 METAR XM18 //049 310619 181652Z AUTO 26004KT 08/M04 A3016 RMK A02 SLP225 T00831038 PA1378 DA0982=
0131008414999992016011817534+31000+061900FM-15+049099999V0202701N001519999999N999999999+00751-00461102231ADDMA1102131999999REMMET104MOBOB3 METAR XM18 //049 310619 181753Z AUTO 27003KT 08/M05 A3016 RMK A02 SLP223 T00751046 PA1378 DA0882=
0131008414999992016011818524+31000+061900FM-15+049099999V0202801N001519999999N999999999+00681-00461102191ADDMA1102101999999REMMET104MOBOB3 METAR XM18 //049 310619 181852Z AUTO 28003KT 07/M05 A3015 RMK A02 SLP219 T00681046 PA1388 DA0809=
0131008414999992016011819534+31000+061900FM-15+049099999V0202701N001519999999N999999999+00581-00461102141ADDMA1102071999999REMMET104MOBOB3 METAR XM18 //049 310619 181953Z AUTO 27003KT 06/M05 A3014 RMK A02 SLP214 T00581046 PA1398 DA0699=
0131008414999992016011820524+31000+061900FM-15+049099999V0202701N001019999999N999999999+00571-00431102131ADDMA1102071999999REMMET104MOBOB3 METAR XM18 //049 310619 182052Z AUTO 27002KT 06/M04 A3014 RMK A02 SLP213 T00571043 PA1398 DA0689=
0131008414999992016011821524+31000+061900FM-15+049099999V0203601N000519999999N999999999+00461-00461102101ADDMA1102031999999REMMET104MOBOB3 METAR XM18 //049 310619 182152Z AUTO 36001KT 05/M05 A3013 RMK A02 SLP210 T00461046 PA1407 DA0565=
0131008414999992016011822534+31000+061900FM-15+049099999V0203401N001019999999N999999999+00391-00471102111ADDMA1102031999999REMMET104MOBOB3 METAR XM18 //049 310619 182253Z AUTO 34002KT 04/M05 A3013 RMK A02 SLP211 T00391047 PA1407 DA0478=
0131008414999992016011823524+31000+061900FM-15+049099999V0201301N000519999999N999999999+00361-00441102121ADDMA1102031999999REMMET104MOBOB3 METAR XM18 //049 310619 182352Z AUTO 13001KT 04/M04 A3013 RMK A02 SLP212 T00361044 PA1407 DA0443=
0131008414999992016011900524+31000+061900FM-15+049099999V0201301N000519999999N999999999+00281-00471102181ADDMA1102071999999REMMET104MOBOB3 METAR XM18 //049 310619 190052Z AUTO 13001KT 03/M05 A3014 RMK A02 SLP218 T00281047 PA1398 DA0331=
0131008414999992016011901524+31000+061900FM-15+049099999V0202501N000519999999N999999999+00241-00451102271ADDMA1102131999999REMMET104MOBOB3 METAR XM18 //049 310619 190152Z AUTO 25001KT 02/M05 A3016 RMK A02 SLP227 T00241045 PA1378 DA0258=
0131008414999992016011902524+31000+061900FM-15+049099999V0201601N001019999999N999999999+00451-00451102341ADDMA1102201999999REMMET104MOBOB3 METAR XM18 //049 310619 190252Z AUTO 16002KT 05/M04 A3018 RMK A02 SLP234 T00451045 PA1359 DA0493=
0131008414999992016011903524+31000+061900FM-15+049099999V0201201N001519999999N999999999+00671-00371102441ADDMA1102301999999REMMET104MOBOB3 METAR XM18 //049 310619 190352Z AUTO 12003KT 07/M04 A3021 RMK A02 SLP244 T00671037 PA1330 DA0729=
0131008414999992016011904524+31000+061900FM-15+049099999V0203501N000519999999N999999999+01001-00421102461ADDMA1102341999999REMMET104MOBOB3 METAR XM18 //049 310619 190452Z AUTO 35001KT 10/M04 A3022 RMK A02 SLP246 T01001042 PA1321 DA1113=
0131008414999992016011905524+31000+061900FM-15+049099999V0200501N001019999999N999999999+01181-00301102411ADDMA1102301999999REMMET104MOBOB3 METAR XM18 //049 310619 190552Z AUTO 05002KT 12/M03 A3021 RMK A02 SLP241 T01181030 PA1330 DA1345=
0131008414999992016011906524+31000+061900FM-15+049099999V0200401N001519999999N999999999+01411-00381102291ADDMA1102201999999REMMET104MOBOB3 METAR XM18 //049 310619 190652Z AUTO 04003KT 14/M04 A3018 RMK A02 SLP229 T01411038 PA1359 DA1649=
0131008414999992016011907524+31000+061900FM-15+049099999V0200201N001019999999N999999999+01541-00481102181ADDMA1102101999999REMMET104MOBOB3 METAR XM18 //049 310619 190752Z AUTO 02002KT 15/M05 A3015 RMK A02 SLP218 T01541048 PA1388 DA1833=
0131008414999992016011908524+31000+061900FM-15+049099999V0200401N001519999999N999999999+01651-00521102101ADDMA1102031999999REMMET104MOBOB3 METAR XM18 //049 310619 190852Z AUTO 04003KT 17/M05 A3013 RMK A02 SLP210 T01651052 PA1407 DA1983=
0131008414999992016011909534+31000+061900FM-15+049099999V0200301N001519999999N999999999+01711-00511102031ADDMA1101961999999REMMET104MOBOB3 METAR XM18 //049 310619 190953Z AUTO 03003KT 17/M05 A3011 RMK A02 SLP203 T01711051 PA1427 DA2076=
0131008414999992016011910524+31000+061900FM-15+049099999V0200801N002119999999N999999999+01681-00431102041ADDMA1101961999999REMMET104MOBOB3 METAR XM18 //049 310619 191052Z AUTO 08004KT 17/M04 A3011 RMK A02 SLP204 T01681043 PA1427 DA2045=
0131008414999992016011911524+31000+061900FM-15+049099999V0200701N002119999999N999999999+01561-00481102091ADDMA1102001999999REMMET104MOBOB3 METAR XM18 //049 310619 191152Z AUTO 07004KT 16/M05 A3012 RMK A02 SLP209 T01561048 PA1417 DA1891=
0131008414999992016011912524+31000+061900FM-15+049099999V0200801N001019999999N999999999+01351-00501102161ADDMA1102031999999REMMET104MOBOB3 METAR XM18 //049 310619 191252Z AUTO 08002KT 14/M05 A3013 RMK A02 SLP216 T01351050 PA1407 DA1632=
0131008414999992016011913534+31000+061900FM-15+049099999V0200401N001019999999N999999999+01171-00431102221ADDMA1102071999999REMMET104MOBOB3 METAR XM18 //049 310619 191353Z AUTO 04002KT 12/M04 A3014 RMK A02 SLP222 T01171043 PA1398 DA1411=
0131008414999992016011914524+31000+061900FM-15+049099999V0203301N000519999999N999999999+00771-00391102241ADDMA1102071999999REMMET104MOBOB3 METAR XM18 //049 310619 191452Z AUTO 33001KT 08/M04 A3014 RMK A02 SLP224 T00771039 PA1398 DA0933=
0131008414999992016011915524+31000+061900FM-15+049099999V0203601N001019999999N999999999+00721-00371102221ADDMA1102071999999REMMET104MOBOB3 METAR XM18 //049 310619 191552Z AUTO 36002KT 07/M04 A3014 RMK A02 SLP222 T00721037 PA1398 DA0874=
0131008414999992016011916524+31000+061900FM-15+049099999V0203301N000519999999N999999999+00661-00351102231ADDMA1102101999999REMMET104MOBOB3 METAR XM18 //049 310619 191652Z AUTO 33001KT 07/M04 A3015 RMK A02 SLP223 T00661035 PA1388 DA0790=
0131008414999992016011917534+31000+061900FM-15+049099999V0203401N000519999999N999999999+00501-00361102221ADDMA1102101999999REMMET104MOBOB3 METAR XM18 //049 310619 191753Z AUTO 34001KT 05/M04 A3015 RMK A02 SLP222 T00501036 PA1388 DA0594=
0131008414999992016011918524+31000+061900FM-15+049099999V0202801N000519999999N999999999+00381-00391102141ADDMA1102031999999REMMET104MOBOB3 METAR XM18 //049 310619 191852Z AUTO 28001KT 04/M04 A3013 RMK A02 SLP214 T00381039 PA1407 DA0470=
0131008414999992016011919534+31000+061900FM-15+049099999V0203001N000519999999N999999999+00311-00391102101ADDMA1102001999999REMMET104MOBOB3 METAR XM18 //049 310619 191953Z AUTO 30001KT 03/M04 A3012 RMK A02 SLP210 T00311039 PA1417 DA0396=
0131008414999992016011920524+31000+061900FM-15+049099999V0203101N000519999999N999999999+00361-00451102081ADDMA1102001999999REMMET104MOBOB3 METAR XM18 //049 310619 192052Z AUTO 31001KT 04/M04 A3012 RMK A02 SLP208 T00361045 PA1417 DA0455=
0131008414999992016011921524+31000+061900FM-15+049099999V0203401N000519999999N999999999+00241-00511102091ADDMA1102001999999REMMET104MOBOB3 METAR XM18 //049 310619 192152Z AUTO 34001KT 02/M05 A3012 RMK A02 SLP209 T00241051 PA1417 DA0304=
0131008414999992016011922524+31000+061900FM-15+049099999V0203401N001019999999N999999999+00151-00561102101ADDMA1102001999999REMMET104MOBOB3 METAR XM18 //049 310619 192252Z AUTO 34002KT 02/M06 A3012 RMK A02 SLP210 T00151056 PA1417 DA0190=
0131008414999992016011923534+31000+061900FM-15+049099999V0203401N001019999999N999999999+00051-00571102131ADDMA1102001999999REMMET104MOBOB3 METAR XM18 //049 310619 192353Z AUTO 34002KT 01/M06 A3012 RMK A02 SLP213 T00051057 PA1417 DA0065=
0132008414999992016012000524+31000+061900FM-15+049099999V0203301N001019999999N999999999-00031-00591102231ADDMA1102071999999REMMET105MOBOB3 METAR XM18 //049 310619 200052Z AUTO 33002KT M00/M06 A3014 RMK A02 SLP223 T10031059 PA1398 DA-059=
0132008414999992016012001524+31000+061900FM-15+049099999V0203401N001019999999N999999999-00091-00621102291ADDMA1102101999999REMMET105MOBOB3 METAR XM18 //049 310619 200152Z AUTO 34002KT M01/M06 A3015 RMK A02 SLP229 T10091062 PA1388 DA-148=
0131008414999992016012002524+31000+061900FM-15+049099999V0203401N000519999999N999999999+00091-00521102421ADDMA1102201999999REMMET104MOBOB3 METAR XM18 //049 310619 200252Z AUTO 34001KT 01/M05 A3018 RMK A02 SLP242 T00091052 PA1359 DA0045=
0131008414999992016012003534+31000+061900FM-15+049099999V0200301N001019999999N999999999+00561-00381102481ADDMA1102301999999REMMET104MOBOB3 METAR XM18 //049 310619 200353Z AUTO 03002KT 06/M04 A3021 RMK A02 SLP248 T00561038 PA1330 DA0595=
0131008414999992016012004524+31000+061900FM-15+049099999V0200801N000519999999N999999999+01071-00381102471ADDMA1102341999999REMMET104MOBOB3 METAR XM18 //049 310619 200452Z AUTO 08001KT 11/M04 A3022 RMK A02 SLP247 T01071038 PA1321 DA1199=
0131008414999992016012005534+31000+061900FM-15+049099999V0201201N001519999999N999999999+01231-00551102441ADDMA1102301999999REMMET104MOBOB3 METAR XM18 //049 310619 200553Z AUTO 12003KT 12/M06 A3021 RMK A02 SLP244 T01231055 PA1330 DA1393=
0131008414999992016012006524+31000+061900FM-15+049099999V0201201N001019999999N999999999+01411-00611102321ADDMA1102201999999REMMET104MOBOB3 METAR XM18 //049 310619 200652Z AUTO 12002KT 14/M06 A3018 RMK A02 SLP232 T01411061 PA1359 DA1639=
0131008414999992016012007524+31000+061900FM-15+049099999V0200901N001019999999N999999999+01611-00561102241ADDMA1102131999999REMMET104MOBOB3 METAR XM18 //049 310619 200752Z AUTO 09002KT 16/M06 A3016 RMK A02 SLP224 T01611056 PA1378 DA1899=
0131008414999992016012008524+31000+061900FM-15+049099999V0201501N001019999999N999999999+01741-00651102151ADDMA1102071999999REMMET104MOBOB3 METAR XM18 //049 310619 200852Z AUTO 15002KT 17/M06 A3014 RMK A02 SLP215 T01741065 PA1398 DA2070=
0131008414999992016012009534+31000+061900FM-15+049099999V0200901N000519999999N999999999+01881-00741102111ADDMA1102031999999REMMET104MOBOB3 METAR XM18 //049 310619 200953Z AUTO 09001KT 19/M07 A3013 RMK A02 SLP211 T01881074 PA1407 DA2241=
0131008414999992016012010524+31000+061900FM-15+049099999V0201001N001019999999N999999999+01861-00741102161ADDMA1102071999999REMMET104MOBOB3 METAR XM18 //049 310619 201052Z AUTO 10002KT 19/M07 A3014 RMK A02 SLP216 T01861074 PA1398 DA2206=
0131008414999992016012011524+31000+061900FM-15+049099999V0200701N001019999999N999999999+01711-00671102181ADDMA1102071999999REMMET104MOBOB3 METAR XM18 //049 310619 201152Z AUTO 07002KT 17/M07 A3014 RMK A02 SLP218 T01711067 PA1398 DA2035=
0131008414999992016012012524+31000+061900FM-15+049099999V0203201N000519999999N999999999+01261-00381102271ADDMA1102101999999REMMET104MOBOB3 METAR XM18 //049 310619 201252Z AUTO 32001KT 13/M04 A3015 RMK A02 SLP227 T01261038 PA1388 DA1508=
0131008414999992016012013534+31000+061900FM-15+049099999V0203201N000519999999N999999999+01101-00411102371ADDMA1102171999999REMMET104MOBOB3 METAR XM18 //049 310619 201353Z AUTO 32001KT 11/M04 A3017 RMK A02 SLP237 T01101041 PA1369 DA1293=
0131008414999992016012014524+31000+061900FM-15+049099999V0209999C000019999999N999999999+00941-00521102371ADDMA1102171999999REMMET104MOBOB3 METAR XM18 //049 310619 201452Z AUTO 00000KT 09/M05 A3017 RMK A02 SLP237 T00941052 PA1369 DA1096=
0131008414999992016012015524+31000+061900FM-15+049099999V0203001N000519999999N999999999+00831-00331102361ADDMA1102201999999REMMET104MOBOB3 METAR XM18 //049 310619 201552Z AUTO 30001KT 08/M03 A3018 RMK A02 SLP236 T00831033 PA1359 DA0961=
0131008414999992016012016524+31000+061900FM-15+049099999V0202601N000519999999N999999999+00851-00571102341ADDMA1102231999999REMMET104MOBOB3 METAR XM18 //049 310619 201652Z AUTO 26001KT 09/M06 A3019 RMK A02 SLP234 T00851057 PA1350 DA0962=
0131008414999992016012017524+31000+061900FM-15+049099999V0203501N001019999999N999999999+00711-00571102341ADDMA1102231999999REMMET104MOBOB3 METAR XM18 //049 310619 201752Z AUTO 35002KT 07/M06 A3019 RMK A02 SLP234 T00711057 PA1350 DA0793=
0131008414999992016012018534+31000+061900FM-15+049099999V0200301N001019999999N999999999+00561-00401102341ADDMA1102231999999REMMET104MOBOB3 METAR XM18 //049 310619 201853Z AUTO 03002KT 06/M04 A3019 RMK A02 SLP234 T00561040 PA1350 DA0618=
0131008414999992016012019524+31000+061900FM-15+049099999V0209999C000019999999N999999999+00431-00481102331ADDMA1102231999999REMMET104MOBOB3 METAR XM18 //049 310619 201952Z AUTO 00000KT 04/M05 A3019 RMK A02 SLP233 T00431048 PA1350 DA0455=
0131008414999992016012020524+31000+061900FM-15+049099999V0202701N000519999999N999999999+00441-00321102311ADDMA1102231999999REMMET104MOBOB3 METAR XM18 //049 310619 202052Z AUTO 27001KT 04/M03 A3019 RMK A02 SLP231 T00441032 PA1350 DA0475=
0131008414999992016012021534+31000+061900FM-15+049099999V0203101N000519999999N999999999+00361-00321102311ADDMA1102231999999REMMET104MOBOB3 METAR XM18 //049 310619 202153Z AUTO 31001KT 04/M03 A3019 RMK A02 SLP231 T00361032 PA1350 DA0376=
0131008414999992016012022524+31000+061900FM-15+049099999V0202801N000519999999N999999999+00301-00361102321ADDMA1102231999999REMMET104MOBOB3 METAR XM18 //049 310619 202252Z AUTO 28001KT 03/M04 A3019 RMK A02 SLP232 T00301036 PA1350 DA0301=
0131008414999992016012023524+31000+061900FM-15+049099999V0203201N000519999999N999999999+00271-00381102341ADDMA1102231999999REMMET104MOBOB3 METAR XM18 //049 310619 202352Z AUTO 32001KT 03/M04 A3019 RMK A02 SLP234 T00271038 PA1350 DA0263=
0131008414999992016012100534+31000+061900FM-15+049099999V0202901N000519999999N999999999+00121-00421102511ADDMA1102341999999REMMET104MOBOB3 METAR XM18 //049 310619 210053Z AUTO 29001KT 01/M04 A3022 RMK A02 SLP251 T00121042 PA1321 DA0039=
0131008414999992016012101524+31000+061900FM-15+049099999V0202601N001019999999N999999999+00111-00381102601ADDMA1102401999999REMMET104MOBOB3 METAR XM18 //049 310619 210152Z AUTO 26002KT 01/M04 A3024 RMK A02 SLP260 T00111038 PA1301 DA0004=
0131008414999992016012102524+31000+061900FM-15+049099999V0203201N000519999999N999999999+00281-00331102671ADDMA1102511999999REMMET104MOBOB3 METAR XM18 //049 310619 210252Z AUTO 32001KT 03/M03 A3027 RMK A02 SLP267 T00281033 PA1282 DA0194=
0131008414999992016012103534+31000+061900FM-15+049099999V0203101N001519999999N999999999+00611-00271102751ADDMA1102611999999REMMET104MOBOB3 METAR XM18 //049 310619 210353Z AUTO 31003KT 06/M03 A3030 RMK A02 SLP275 T00611027 PA1253 DA0566=
0131008414999992016012104524+31000+061900FM-15+049099999V0203501N000519999999N999999999+01071-00191102741ADDMA1102641999999REMMET104MOBOB3 METAR XM18 //049 310619 210452Z AUTO 35001KT 11/M02 A3031 RMK A02 SLP274 T01071019 PA1244 DA1113=
0131008414999992016012105524+31000+061900FM-15+049099999V0203201N001019999999N999999999+01381-00441102681ADDMA1102611999999REMMET104MOBOB3 METAR XM18 //049 310619 210552Z AUTO 32002KT 14/M04 A3030 RMK A02 SLP268 T01381044 PA1253 DA1480=
0131008414999992016012106534+31000+061900FM-15+049099999V0203101N002119999999N999999999+01611-00541102571ADDMA1102511999999REMMET104MOBOB3 METAR XM18 //049 310619 210653Z AUTO 31004KT 16/M05 A3027 RMK A02 SLP257 T01611054 PA1282 DA1781=
0131008414999992016012107524+31000+061900FM-15+049099999V0203201N003119999999N999999999+01761-00671102461ADDMA1102371999999REMMET104MOBOB3 METAR XM18 //049 310619 210752Z AUTO 32006KT 18/M07 A3023 RMK A02 SLP246 T01761067 PA1311 DA1986=
0131008414999992016012108524+31000+061900FM-15+049099999V0202901N002119999999N999999999+01841-00701102341ADDMA1102271999999REMMET104MOBOB3 METAR XM18 //049 310619 210852Z AUTO 29004KT 18/M07 A3020 RMK A02 SLP234 T01841070 PA1340 DA2113=
0131008414999992016012109534+31000+061900FM-15+049099999V0202701N002619999999N999999999+01891-00751102311ADDMA1102231999999REMMET104MOBOB3 METAR XM18 //049 310619 210953Z AUTO 27005KT 19/M07 A3019 RMK A02 SLP231 T01891075 PA1350 DA2181=
0131008414999992016012110524+31000+061900FM-15+049099999V0202801N002119999999N999999999+01891-00851102321ADDMA1102231999999REMMET104MOBOB3 METAR XM18 //049 310619 211052Z AUTO 28004KT 19/M08 A3019 RMK A02 SLP232 T01891085 PA1350 DA2177=
0131008414999992016012111524+31000+061900FM-15+049099999V0202701N001019999999N999999999+01831-00721102331ADDMA1102231999999REMMET104MOBOB3 METAR XM18 //049 310619 211152Z AUTO 27002KT 18/M07 A3019 RMK A02 SLP233 T01831072 PA1350 DA2113=
0131008414999992016012112524+31000+061900FM-15+049099999V0201901N000519999999N999999999+01601-00611102371ADDMA1102231999999REMMET104MOBOB3 METAR XM18 //049 310619 211252Z AUTO 19001KT 16/M06 A3019 RMK A02 SLP237 T01601061 PA1350 DA1850=
0131008414999992016012113524+31000+061900FM-15+049099999V0202101N001019999999N999999999+01461-00531102421ADDMA1102271999999REMMET104MOBOB3 METAR XM18 //049 310619 211352Z AUTO 21002KT 15/M05 A3020 RMK A02 SLP242 T01461053 PA1340 DA1677=
0131008414999992016012114524+31000+061900FM-15+049099999V0202301N001519999999N999999999+01361-00561102451ADDMA1102301999999REMMET104MOBOB3 METAR XM18 //049 310619 211452Z AUTO 23003KT 14/M06 A3021 RMK A02 SLP245 T01361056 PA1330 DA1547=
0131008414999992016012115524+31000+061900FM-15+049099999V0202301N001519999999N999999999+01251-00521102421ADDMA1102301999999REMMET104MOBOB3 METAR XM18 //049 310619 211552Z AUTO 23003KT 13/M05 A3021 RMK A02 SLP242 T01251052 PA1330 DA1418=
0131008414999992016012116524+31000+061900FM-15+049099999V0202301N001519999999N999999999+01141-00401102351ADDMA1102271999999REMMET104MOBOB3 METAR XM18 //049 310619 211652Z AUTO 23003KT 11/M04 A3020 RMK A02 SLP235 T01141040 PA1340 DA1305=
0131008414999992016012117524+31000+061900FM-15+049099999V0202401N001519999999N999999999+01061-00431102291ADDMA1102231999999REMMET104MOBOB3 METAR XM18 //049 310619 211752Z AUTO 24003KT 11/M04 A3019 RMK A02 SLP229 T01061043 PA1350 DA1220=
0131008414999992016012118524+31000+061900FM-15+049099999V0202701N002119999999N999999999+00881-00281102251ADDMA1102201999999REMMET104MOBOB3 METAR XM18 //049 310619 211852Z AUTO 27004KT 09/M03 A3018 RMK A02 SLP225 T00881028 PA1359 DA1023=
0131008414999992016012119524+31000+061900FM-15+049099999V0202701N002119999999N999999999+00721-00621102251ADDMA1102201999999REMMET104MOBOB3 METAR XM18 //049 310619 211952Z AUTO 27004KT 07/M06 A3018 RMK A02 SLP225 T00721062 PA1359 DA0815=
0131008414999992016012120524+31000+061900FM-15+049099999V0202501N002119999999N999999999+00871-00661102151ADDMA1102131999999REMMET104MOBOB3 METAR XM18 //049 310619 212052Z AUTO 25004KT 09/M07 A3016 RMK A02 SLP215 T00871066 PA1378 DA1018=
0131008414999992016012121524+31000+061900FM-15+049099999V0202301N002119999999N999999999+00771-00621102191ADDMA1102171999999REMMET104MOBOB3 METAR XM18 //049 310619 212152Z AUTO 23004KT 08/M06 A3017 RMK A02 SLP219 T00771062 PA1369 DA0888=
0131008414999992016012122524+31000+061900FM-15+049099999V0202601N001519999999N999999999+00761-00511102161ADDMA1102131999999REMMET104MOBOB3 METAR XM18 //049 310619 212252Z AUTO 26003KT 08/M05 A3016 RMK A02 SLP216 T00761051 PA1378 DA0892=
0131008414999992016012123534+31000+061900FM-15+049099999V0202701N001519999999N999999999+00731-00451102171ADDMA1102131999999REMMET104MOBOB3 METAR XM18 //049 310619 212353Z AUTO 27003KT 07/M04 A3016 RMK A02 SLP217 T00731045 PA1378 DA0858=
0131008414999992016012200524+31000+061900FM-15+049099999V0202701N001519999999N999999999+00661-00411102241ADDMA1102171999999REMMET104MOBOB3 METAR XM18 //049 310619 220052Z AUTO 27003KT 07/M04 A3017 RMK A02 SLP224 T00661041 PA1369 DA0763=
0131008414999992016012201524+31000+061900FM-15+049099999V0203001N001019999999N999999999+00471-00371102311ADDMA1102201999999REMMET104MOBOB3 METAR XM18 //049 310619 220152Z AUTO 30002KT 05/M04 A3018 RMK A02 SLP231 T00471037 PA1359 DA0521=
0131008414999992016012202524+31000+061900FM-15+049099999V0203201N001019999999N999999999+00451-00341102431ADDMA1102301999999REMMET104MOBOB3 METAR XM18 //049 310619 220252Z AUTO 32002KT 05/M03 A3021 RMK A02 SLP243 T00451034 PA1330 DA0462=
0131008414999992016012203524+31000+061900FM-15+049099999V0203501N002119999999N999999999+00711-00311102451ADDMA1102341999999REMMET104MOBOB3 METAR XM18 //049 310619 220352Z AUTO 35004KT 07/M03 A3022 RMK A02 SLP245 T00711031 PA1321 DA0769=
0131008414999992016012204524+31000+061900FM-15+049099999V0203201N002119999999N999999999+01181-00121102441ADDMA1102371999999REMMET104MOBOB3 METAR XM18 //049 310619 220452Z AUTO 32004KT 12/M01 A3023 RMK A02 SLP244 T01181012 PA1311 DA1331=
0131008414999992016012205534+31000+061900FM-15+049099999V0202901N002619999999N999999999+01391-00111102391ADDMA1102341999999REMMET104MOBOB3 METAR XM18 //049 310619 220553Z AUTO 29005KT 14/M01 A3022 RMK A02 SLP239 T01391011 PA1321 DA1591=
0131008414999992016012206524+31000+061900FM-15+049099999V0202901N002619999999N999999999+01571-00161102281ADDMA1102231999999REMMET104MOBOB3 METAR XM18 //049 310619 220652Z AUTO 29005KT 16/M02 A3019 RMK A02 SLP228 T01571016 PA1350 DA1835=
0131008414999992016012207524+31000+061900FM-15+049099999V0203201N002619999999N999999999+01741-00161102211ADDMA1102171999999REMMET104MOBOB3 METAR XM18 //049 310619 220752Z AUTO 32005KT 17/M02 A3017 RMK A02 SLP221 T01741016 PA1369 DA2057=
0131008414999992016012208524+31000+061900FM-15+049099999V0203201N002619999999N999999999+01881-00181102071ADDMA1102071999999REMMET104MOBOB3 METAR XM18 //049 310619 220852Z AUTO 32005KT 19/M02 A3014 RMK A02 SLP207 T01881018 PA1398 DA2253=
0131008414999992016012209524+31000+061900FM-15+049099999V0203301N002119999999N999999999+01951-00251102041ADDMA1102031999999REMMET104MOBOB3 METAR XM18 //049 310619 220952Z AUTO 33004KT 20/M02 A3013 RMK A02 SLP204 T01951025 PA1407 DA2342=
0131008414999992016012210524+31000+061900FM-15+049099999V0203401N001519999999N999999999+01951-00221101971ADDMA1101961999999REMMET104MOBOB3 METAR XM18 //049 310619 221052Z AUTO 34003KT 20/M02 A3011 RMK A02 SLP197 T01951022 PA1427 DA2367=
0131008414999992016012211524+31000+061900FM-15+049099999V0202901N000519999999N999999999+01871-00231101981ADDMA1101961999999REMMET104MOBOB3 METAR XM18 //049 310619 221152Z AUTO 29001KT 19/M02 A3011 RMK A02 SLP198 T01871023 PA1427 DA2275=
0131008414999992016012212524+31000+061900FM-15+049099999V0202601N000519999999N999999999+01591-00141102091ADDMA1102031999999REMMET104MOBOB3 METAR XM18 //049 310619 221252Z AUTO 26001KT 16/M01 A3013 RMK A02 SLP209 T01591014 PA1407 DA1931=
0131008414999992016012213534+31000+061900FM-15+049099999V0209999C000019999999N999999999+01271-00061102181ADDMA1102071999999REMMET104MOBOB3 METAR XM18 //049 310619 221353Z AUTO 00000KT 13/M01 A3014 RMK A02 SLP218 T01271006 PA1398 DA1548=
0131008414999992016012214524+31000+061900FM-15+049099999V0201301N000519999999N999999999+01291-00141102251ADDMA1102131999999REMMET104MOBOB3 METAR XM18 //049 310619 221452Z AUTO 13001KT 13/M01 A3016 RMK A02 SLP225 T01291014 PA1378 DA1543=
0131008414999992016012215524+31000+061900FM-15+049099999V0202401N001019999999N999999999+01301-00121102221ADDMA1102131999999REMMET104MOBOB3 METAR XM18 //049 310619 221552Z AUTO 24002KT 13/M01 A3016 RMK A02 SLP222 T01301012 PA1378 DA1556=
0131008414999992016012216534+31000+061900FM-15+049099999V0209999C000019999999N999999999+01111-00161102191ADDMA1102131999999REMMET104MOBOB3 METAR XM18 //049 310619 221653Z AUTO 00000KT 11/M02 A3016 RMK A02 SLP219 T01111016 PA1378 DA1329=
0131008414999992016012217524+31000+061900FM-15+049099999V0201201N000519999999N999999999+00981-00081102151ADDMA1102101999999REMMET104MOBOB3 METAR XM18 //049 310619 221752Z AUTO 12001KT 10/M01 A3015 RMK A02 SLP215 T00981008 PA1388 DA1190=
0131008414999992016012218534+31000+061900FM-15+049099999V0203301N000519999999N999999999+00711-00011102121ADDMA1102071999999REMMET104MOBOB3 METAR XM18 //049 310619 221853Z AUTO 33001KT 07/M00 A3014 RMK A02 SLP212 T00711001 PA1398 DA0880=
0131008414999992016012219524+31000+061900FM-15+049099999V0209999C000019999999N999999999+00761-00091102101ADDMA1102071999999REMMET104MOBOB3 METAR XM18 //049 310619 221952Z AUTO 00000KT 08/M01 A3014 RMK A02 SLP210 T00761009 PA1398 DA0936=
0131008414999992016012220524+31000+061900FM-15+049099999V0209999C000019999999N999999999+00701-00191102091ADDMA1102071999999REMMET104MOBOB3 METAR XM18 //049 310619 222052Z AUTO 00000KT 07/M02 A3014 RMK A02 SLP209 T00701019 PA1398 DA0858=
0131008414999992016012221524+31000+061900FM-15+049099999V0209999C000019999999N999999999+00551-00151102101ADDMA1102071999999REMMET104MOBOB3 METAR XM18 //049 310619 222152Z AUTO 00000KT 06/M02 A3014 RMK A02 SLP210 T00551015 PA1398 DA0678=
0131008414999992016012222524+31000+061900FM-15+049099999V0203001N000519999999N999999999+00501-00181102071ADDMA1102031999999REMMET104MOBOB3 METAR XM18 //049 310619 222252Z AUTO 30001KT 05/M02 A3013 RMK A02 SLP207 T00501018 PA1407 DA0628=
0131008414999992016012223534+31000+061900FM-15+049099999V0200601N000519999999N999999999+00491-00161102081ADDMA1102031999999REMMET104MOBOB3 METAR XM18 //049 310619 222353Z AUTO 06001KT 05/M02 A3013 RMK A02 SLP208 T00491016 PA1407 DA0616=
0131008414999992016012300524+31000+061900FM-15+049099999V0201301N001019999999N999999999+00491-00231102181ADDMA1102101999999REMMET104MOBOB3 METAR XM18 //049 310619 230052Z AUTO 13002KT 05/M02 A3015 RMK A02 SLP218 T00491023 PA1388 DA0589=
0131008414999992016012301524+31000+061900FM-15+049099999V0201401N001019999999N999999999+00521-00321102321ADDMA1102201999999REMMET104MOBOB3 METAR XM18 //049 310619 230152Z AUTO 14002KT 05/M03 A3018 RMK A02 SLP232 T00521032 PA1359 DA0585=
0131008414999992016012302524+31000+061900FM-15+049099999V0201601N001519999999N999999999+00731-00441102371ADDMA1102271999999REMMET104MOBOB3 METAR XM18 //049 310619 230252Z AUTO 16003KT 07/M04 A3020 RMK A02 SLP237 T00731044 PA1340 DA0811=
0131008414999992016012303534+31000+061900FM-15+049099999V0201601N002119999999N999999999+00881-00371102421ADDMA1102341999999REMMET104MOBOB3 METAR XM18 //049 310619 230353Z AUTO 16004KT 09/M04 A3022 RMK A02 SLP242 T00881037 PA1321 DA0971=
0131008414999992016012304524+31000+061900FM-15+049099999V0201501N002119999999N999999999+01381-00281102461ADDMA1102401999999REMMET104MOBOB3 METAR XM18 //049 310619 230452Z AUTO 15004KT 14/M03 A3024 RMK A02 SLP246 T01381028 PA1301 DA1547=
0131008414999992016012305524+31000+061900FM-15+049099999V0201201N001019999999N999999999+01661-00261102371ADDMA1102341999999REMMET104MOBOB3 METAR XM18 //049 310619 230552Z AUTO 12002KT 17/M03 A3022 RMK A02 SLP237 T01661026 PA1321 DA1900=
0131008414999992016012306534+31000+061900FM-15+049099999V0202201N001019999999N999999999+01801-00281102321ADDMA1102271999999REMMET104MOBOB3 METAR XM18 //049 310619 230653Z AUTO 22002KT 18/M03 A3020 RMK A02 SLP232 T01801028 PA1340 DA2085=
0131008414999992016012307524+31000+061900FM-15+049099999V0200501N001519999999N999999999+01941-00281102151ADDMA1102131999999REMMET104MOBOB3 METAR XM18 //049 310619 230752Z AUTO 05003KT 19/M03 A3016 RMK A02 SLP215 T01941028 PA1378 DA2294=
0131008414999992016012308524+31000+061900FM-15+049099999V0202901N000519999999N999999999+01981-00251102081ADDMA1102071999999REMMET104MOBOB3 METAR XM18 //049 310619 230852Z AUTO 29001KT 20/M02 A3014 RMK A02 SLP208 T01981025 PA1398 DA2365=
0131008414999992016012309534+31000+061900FM-15+049099999V0200601N001519999999N999999999+02051-00191102091ADDMA1102071999999REMMET104MOBOB3 METAR XM18 //049 310619 230953Z AUTO 06003KT 21/M02 A3014 RMK A02 SLP209 T02051019 PA1398 DA2448=
0131008414999992016012310524+31000+061900FM-15+049099999V0201101N000519999999N999999999+01981-00231102031ADDMA1102001999999REMMET104MOBOB3 METAR XM18 //049 310619 231052Z AUTO 11001KT 20/M02 A3012 RMK A02 SLP203 T01981023 PA1417 DA2389=
0131008414999992016012311524+31000+061900FM-15+049099999V0200801N002119999999N999999999+01801-00231102051ADDMA1102001999999REMMET104MOBOB3 METAR XM18 //049 310619 231152Z AUTO 08004KT 18/M02 A3012 RMK A02 SLP205 T01801023 PA1417 DA2182=
0131008414999992016012312534+31000+061900FM-15+049099999V0209999C000019999999N999999999+01581-00211102151ADDMA1102071999999REMMET104MOBOB3 METAR XM18 //049 310619 231253Z AUTO 00000KT 16/M02 A3014 RMK A02 SLP215 T01581021 PA1398 DA1904=
0131008414999992016012313524+31000+061900FM-15+049099999V0203201N000519999999N999999999+01301+00001102171ADDMA1102071999999REMMET104MOBOB3 METAR XM18 //049 310619 231352Z AUTO 32001KT 13/M00 A3014 RMK A02 SLP217 T01301000 PA1398 DA1587=
0130008414999992016012314524+31000+061900FM-15+049099999V0209999C000019999999N999999999+01041+00021102211ADDMA1102101999999REMMET103MOBOB3 METAR XM18 //049 310619 231452Z AUTO 00000KT 10/00 A3015 RMK A02 SLP221 T01040002 PA1388 DA1268=
0131008414999992016012315534+31000+061900FM-15+049099999V0209999C000019999999N999999999+00991-00021102201ADDMA1102101999999REMMET104MOBOB3 METAR XM18 //049 310619 231553Z AUTO 00000KT 10/M00 A3015 RMK A02 SLP220 T00991002 PA1388 DA1205=
0131008414999992016012316524+31000+061900FM-15+049099999V0203601N000519999999N999999999+00891-00131102121ADDMA1102071999999REMMET104MOBOB3 METAR XM18 //049 310619 231652Z AUTO 36001KT 09/M01 A3014 RMK A02 SLP212 T00891013 PA1398 DA1091=
0131008414999992016012317524+31000+061900FM-15+049099999V0203201N000519999999N999999999+00841-00111102101ADDMA1102071999999REMMET104MOBOB3 METAR XM18 //049 310619 231752Z AUTO 32001KT 08/M01 A3014 RMK A02 SLP210 T00841011 PA1398 DA1032=
0131008414999992016012318534+31000+061900FM-15+049099999V0203401N000519999999N999999999+00711-00151102061ADDMA1102031999999REMMET104MOBOB3 METAR XM18 //049 310619 231853Z AUTO 34001KT 07/M02 A3013 RMK A02 SLP206 T00711015 PA1407 DA0884=
0131008414999992016012319524+31000+061900FM-15+049099999V0203301N000519999999N999999999+00671-00231102051ADDMA1102031999999REMMET104MOBOB3 METAR XM18 //049 310619 231952Z AUTO 33001KT 07/M02 A3013 RMK A02 SLP205 T00671023 PA1407 DA0832=
0131008414999992016012320534+31000+061900FM-15+049099999V0203401N001019999999N999999999+00561-00321101991ADDMA1101961999999REMMET104MOBOB3 METAR XM18 //049 310619 232053Z AUTO 34002KT 06/M03 A3011 RMK A02 SLP199 T00561032 PA1427 DA0717=
0131008414999992016012321534+31000+061900FM-15+049099999V0203301N000519999999N999999999+00491-00321101991ADDMA1101961999999REMMET104MOBOB3 METAR XM18 //049 310619 232153Z AUTO 33001KT 05/M03 A3011 RMK A02 SLP199 T00491032 PA1427 DA0632=
0131008414999992016012322524+31000+061900FM-15+049099999V0203401N000519999999N999999999+00491-00311101931ADDMA1101901999999REMMET104MOBOB3 METAR XM18 //049 310619 232252Z AUTO 34001KT 05/M03 A3009 RMK A02 SLP193 T00491031 PA1446 DA0657=
0131008414999992016012323524+31000+061900FM-15+049099999V0200901N000519999999N999999999+00421-00341101951ADDMA1101901999999REMMET104MOBOB3 METAR XM18 //049 310619 232352Z AUTO 09001KT 04/M03 A3009 RMK A02 SLP195 T00421034 PA1446 DA0569=
0131008414999992016012400524+31000+061900FM-15+049099999V0203001N000519999999N999999999+00371-00361102021ADDMA1101931999999REMMET104MOBOB3 METAR XM18 //049 310619 240052Z AUTO 30001KT 04/M04 A3010 RMK A02 SLP202 T00371036 PA1436 DA0495=
0131008414999992016012401524+31000+061900FM-15+049099999V0203401N001019999999N999999999+00261-00271102091ADDMA1101961999999REMMET104MOBOB3 METAR XM18 //049 310619 240152Z AUTO 34002KT 03/M03 A3011 RMK A02 SLP209 T00261027 PA1427 DA0352=
0131008414999992016012402524+31000+061900FM-15+049099999V0202701N001019999999N999999999+00421-00311102211ADDMA1102071999999REMMET104MOBOB3 METAR XM18 //049 310619 240252Z AUTO 27002KT 04/M03 A3014 RMK A02 SLP221 T00421031 PA1398 DA0511=
0131008414999992016012403524+31000+061900FM-15+049099999V0203501N000519999999N999999999+00911-00201102241ADDMA1102131999999REMMET104MOBOB3 METAR XM18 //049 310619 240352Z AUTO 35001KT 09/M02 A3016 RMK A02 SLP224 T00911020 PA1378 DA1088=
0131008414999992016012404524+31000+061900FM-15+049099999V0200101N001019999999N999999999+01321-00171102201ADDMA1102131999999REMMET104MOBOB3 METAR XM18 //049 310619 240452Z AUTO 01002KT 13/M02 A3016 RMK A02 SLP220 T01321017 PA1378 DA1577=
0131008414999992016012405524+31000+061900FM-15+049099999V0201101N001019999999N999999999+01621-00361102111ADDMA1102071999999REMMET104MOBOB3 METAR XM18 //049 310619 240552Z AUTO 11002KT 16/M04 A3014 RMK A02 SLP211 T01621036 PA1398 DA1943=
0131008414999992016012406524+31000+061900FM-15+049099999V0201801N001519999999N999999999+01731-00451102001ADDMA1101961999999REMMET104MOBOB3 METAR XM18 //049 310619 240652Z AUTO 18003KT 17/M04 A3011 RMK A02 SLP200 T01731045 PA1427 DA2102=
0131008414999992016012407524+31000+061900FM-15+049099999V0200801N000519999999N999999999+02062-00451101861ADDMA1101861999999REMMET104MOBOB3 METAR XM18 //049 310619 240752Z AUTO 08001KT 21/M05 A3008 RMK A02 SLP186 T02061045 PA1455 DA2518=
0131008414999992016012408524+31000+061900FM-15+049099999V0200801N001019999999N999999999+01971-00531101781ADDMA1101761999999REMMET104MOBOB3 METAR XM18 //049 310619 240852Z AUTO 08002KT 20/M05 A3005 RMK A02 SLP178 T01971053 PA1484 DA2447=
0131008414999992016012409524+31000+061900FM-15+049099999V0200501N001519999999N999999999+02021-00391101711ADDMA1101661999999REMMET104MOBOB3 METAR XM18 //049 310619 240952Z AUTO 05003KT 20/M04 A3002 RMK A02 SLP171 T02021039 PA1504 DA2534=
0131008414999992016012410524+31000+061900FM-15+049099999V0200301N001019999999N999999999+02011-00301101671ADDMA1101631999999REMMET104MOBOB3 METAR XM18 //049 310619 241052Z AUTO 03002KT 20/M03 A3001 RMK A02 SLP167 T02011030 PA1513 DA2539=
0131008414999992016012411524+31000+061900FM-15+049099999V0201801N000519999999N999999999+01851-00241101691ADDMA1101631999999REMMET104MOBOB3 METAR XM18 //049 310619 241152Z AUTO 18001KT 19/M02 A3001 RMK A02 SLP169 T01851024 PA1513 DA2358=
0130008414999992016012412524+31000+061900FM-15+049099999V0203501N000519999999N999999999+01611+00041101721ADDMA1101631999999REMMET103MOBOB3 METAR XM18 //049 310619 241252Z AUTO 35001KT 16/00 A3001 RMK A02 SLP172 T01610004 PA1513 DA2096=
0131008414999992016012413524+31000+061900FM-15+049099999V0203101N000519999999N999999999+01491-00031101781ADDMA1101661999999REMMET104MOBOB3 METAR XM18 //049 310619 241352Z AUTO 31001KT 15/M00 A3002 RMK A02 SLP178 T01491003 PA1504 DA1939=
0131008414999992016012414524+31000+061900FM-15+049099999V0200101N000519999999N999999999+01281-00111101791ADDMA1101661999999REMMET104MOBOB3 METAR XM18 //049 310619 241452Z AUTO 01001KT 13/M01 A3002 RMK A02 SLP179 T01281011 PA1504 DA1688=
0131008414999992016012415524+31000+061900FM-15+049099999V0203301N000519999999N999999999+01201-00191101751ADDMA1101661999999REMMET104MOBOB3 METAR XM18 //049 310619 241552Z AUTO 33001KT 12/M02 A3002 RMK A02 SLP175 T01201019 PA1504 DA1589=
0131008414999992016012416524+31000+061900FM-15+049099999V0202701N001019999999N999999999+01161-00231101711ADDMA1101661999999REMMET104MOBOB3 METAR XM18 //049 310619 241652Z AUTO 27002KT 12/M02 A3002 RMK A02 SLP171 T01161023 PA1504 DA1540=
0131008414999992016012417524+31000+061900FM-15+049099999V0202501N000519999999N999999999+01051-00261101651ADDMA1101631999999REMMET104MOBOB3 METAR XM18 //049 310619 241752Z AUTO 25001KT 11/M03 A3001 RMK A02 SLP165 T01051026 PA1513 DA1419=
0131008414999992016012418524+31000+061900FM-15+049099999V0202701N001019999999N999999999+01111-00141101561ADDMA1101561999999REMMET104MOBOB3 METAR XM18 //049 310619 241852Z AUTO 27002KT 11/M01 A2999 RMK A02 SLP156 T01111014 PA1533 DA1521=
0131008414999992016012419524+31000+061900FM-15+049099999V0202301N000519999999N999999999+01051-00111101461ADDMA1101491999999REMMET104MOBOB3 METAR XM18 //049 310619 241952Z AUTO 23001KT 11/M01 A2997 RMK A02 SLP146 T01051011 PA1552 DA1475=
0131008414999992016012420524+31000+061900FM-15+049099999V0201301N000519999999N999999999+00941-00081101371ADDMA1101391999999REMMET104MOBOB3 METAR XM18 //049 310619 242052Z AUTO 13001KT 09/M01 A2994 RMK A02 SLP137 T00941008 PA1581 DA1381=
0130008414999992016012421524+31000+061900FM-15+049099999V0203101N000519999999N999999999+00951+00021101401ADDMA1101421999999REMMET103MOBOB3 METAR XM18 //049 310619 242152Z AUTO 31001KT 10/00 A2995 RMK A02 SLP140 T00950002 PA1571 DA1387=
0131008414999992016012422524+31000+061900FM-15+049099999V0200101N001019999999N999999999+00721-00011101361ADDMA1101351999999REMMET104MOBOB3 METAR XM18 //049 310619 242252Z AUTO 01002KT 07/M00 A2993 RMK A02 SLP136 T00721001 PA1591 DA1132=
0131008414999992016012423524+31000+061900FM-15+049099999V0200501N001519999999N999999999+00891-00221101321ADDMA1101321999999REMMET104MOBOB3 METAR XM18 //049 310619 242352Z AUTO 05003KT 09/M02 A2992 RMK A02 SLP132 T00891022 PA1601 DA1338=
0131008414999992016012500524+31000+061900FM-15+049099999V0200801N001519999999N999999999+00871-00241101311ADDMA1101291999999REMMET104MOBOB3 METAR XM18 //049 310619 250052Z AUTO 08003KT 09/M02 A2991 RMK A02 SLP131 T00871024 PA1610 DA1325=
0131008414999992016012501524+31000+061900FM-15+049099999V0201401N000519999999N999999999+00801-00241101371ADDMA1101321999999REMMET104MOBOB3 METAR XM18 //049 310619 250152Z AUTO 14001KT 08/M02 A2992 RMK A02 SLP137 T00801024 PA1601 DA1229=
0131008414999992016012502524+31000+061900FM-15+049099999V0201901N001019999999N999999999+01091-00471101471ADDMA1101421999999REMMET104MOBOB3 METAR XM18 //049 310619 250252Z AUTO 19002KT 11/M05 A2995 RMK A02 SLP147 T01091047 PA1571 DA1529=
0131008414999992016012503524+31000+061900FM-15+049099999V0201501N001519999999N999999999+01261-00431101461ADDMA1101421999999REMMET104MOBOB3 METAR XM18 //049 310619 250352Z AUTO 15003KT 13/M04 A2995 RMK A02 SLP146 T01261043 PA1571 DA1732=
0131008414999992016012504524+31000+061900FM-15+049099999V0201501N002619999999N999999999+01501-00451101441ADDMA1101421999999REMMET104MOBOB3 METAR XM18 //049 310619 250452Z AUTO 15005KT 15/M05 A2995 RMK A02 SLP144 T01501045 PA1571 DA2013=
0131008414999992016012505524+31000+061900FM-15+049099999V0201901N002119999999N999999999+01771-00501101421ADDMA1101421999999REMMET104MOBOB3 METAR XM18 //049 310619 250552Z AUTO 19004KT 18/M05 A2995 RMK A02 SLP142 T01771050 PA1571 DA2325=
0131008414999992016012506524+31000+061900FM-15+049099999V0203301N002619999999N999999999+01781-00251101311ADDMA1101321999999REMMET104MOBOB3 METAR XM18 //049 310619 250652Z AUTO 33005KT 18/M02 A2992 RMK A02 SLP131 T01781025 PA1601 DA2384=
0131008414999992016012507524+31000+061900FM-15+049099999V0203301N002619999999N999999999+01661-00231101251ADDMA1101251999999REMMET104MOBOB3 METAR XM18 //049 310619 250752Z AUTO 33005KT 17/M02 A2990 RMK A02 SLP125 T01661023 PA1620 DA2270=
0131008414999992016012508534+31000+061900FM-15+049099999V0200401N002619999999N999999999+01691-00381101121ADDMA1101121999999REMMET104MOBOB3 METAR XM18 //049 310619 250853Z AUTO 04005KT 17/M04 A2986 RMK A02 SLP112 T01691038 PA1659 DA2345=
0131008414999992016012509524+31000+061900FM-15+049099999V0203601N002619999999N999999999+01711-00071101111ADDMA1101121999999REMMET104MOBOB3 METAR XM18 //049 310619 250952Z AUTO 36005KT 17/M01 A2986 RMK A02 SLP111 T01711007 PA1659 DA2384=
0131008414999992016012510524+31000+061900FM-15+049099999V0203201N001019999999N999999999+01741-00261101141ADDMA1101121999999REMMET104MOBOB3 METAR XM18 //049 310619 251052Z AUTO 32002KT 17/M03 A2986 RMK A02 SLP114 T01741026 PA1659 DA2409=
0131008414999992016012511524+31000+061900FM-15+049099999V0202601N001019999999N999999999+01651-00151101161ADDMA1101151999999REMMET104MOBOB3 METAR XM18 //049 310619 251152Z AUTO 26002KT 17/M01 A2987 RMK A02 SLP116 T01651015 PA1649 DA2298=
0131008414999992016012512524+31000+061900FM-15+049099999V0202701N001519999999N999999999+01511-00191101181ADDMA1101151999999REMMET104MOBOB3 METAR XM18 //049 310619 251252Z AUTO 27003KT 15/M02 A2987 RMK A02 SLP118 T01511019 PA1649 DA2133=
0131008414999992016012513524+31000+061900FM-15+049099999V0202701N002619999999N999999999+01331-00191101281ADDMA1101221999999REMMET104MOBOB3 METAR XM18 //049 310619 251352Z AUTO 27005KT 13/M02 A2989 RMK A02 SLP128 T01331019 PA1630 DA1898=
0131008414999992016012514524+31000+061900FM-15+049099999V0202501N002119999999N999999999+01311-00021101211ADDMA1101181999999REMMET104MOBOB3 METAR XM18 //049 310619 251452Z AUTO 25004KT 13/M00 A2988 RMK A02 SLP121 T01311002 PA1639 DA1896=
0130008414999992016012515524+31000+061900FM-15+049099999V0202701N001519999999N999999999+01061+00061101291ADDMA1101251999999REMMET103MOBOB3 METAR XM18 //049 310619 251552Z AUTO 27003KT 11/01 A2990 RMK A02 SLP129 T01060006 PA1620 DA1581=
0130008414999992016012516524+31000+061900FM-15+049099999V0202701N001019999999N999999999+01061+00131101231ADDMA1101221999999REMMET103MOBOB3 METAR XM18 //049 310619 251652Z AUTO 27002KT 11/01 A2989 RMK A02 SLP123 T01060013 PA1630 DA1598=
0130008414999992016012517524+31000+061900FM-15+049099999V0202601N001519999999N999999999+00931+00121101141ADDMA1101151999999REMMET103MOBOB3 METAR XM18 //049 310619 251752Z AUTO 26003KT 09/01 A2987 RMK A02 SLP114 T00930012 PA1649 DA1466=
0130008414999992016012518524+31000+061900FM-15+049099999V0203101N000519999999N999999999+00841+00211101111ADDMA1101121999999REMMET103MOBOB3 METAR XM18 //049 310619 251852Z AUTO 31001KT 08/02 A2986 RMK A02 SLP111 T00840021 PA1659 DA1375=
0130008414999992016012519524+31000+061900FM-15+049099999V0203101N000519999999N999999999+00771+00271101101ADDMA1101081999999REMMET103MOBOB3 METAR XM18 //049 310619 251952Z AUTO 31001KT 08/03 A2985 RMK A02 SLP110 T00770027 PA1668 DA1307=
0130008414999992016012520524+31000+061900FM-15+049099999V0200201N000519999999N999999999+00691+00281101101ADDMA1101081999999REMMET103MOBOB3 METAR XM18 //049 310619 252052Z AUTO 02001KT 07/03 A2985 RMK A02 SLP110 T00690028 PA1668 DA1212=
0130008414999992016012521524+31000+061900FM-15+049099999V0209999C000019999999N999999999+00651+00261101071ADDMA1101051999999REMMET103MOBOB3 METAR XM18 //049 310619 252152Z AUTO 00000KT 07/03 A2984 RMK A02 SLP107 T00650026 PA1678 DA1174=
0130008414999992016012522524+31000+061900FM-15+049099999V0203201N000519999999N999999999+00661+00221101071ADDMA1101051999999REMMET103MOBOB3 METAR XM18 //049 310619 252252Z AUTO 32001KT 07/02 A2984 RMK A02 SLP107 T00660022 PA1678 DA1183=
0130008414999992016012523524+31000+061900FM-15+049099999V0201101N000519999999N999999999+00561+00181101051ADDMA1101021999999REMMET103MOBOB3 METAR XM18 //049 310619 252352Z AUTO 11001KT 06/02 A2983 RMK A02 SLP105 T00560018 PA1688 DA1071=
0130008414999992016012600524+31000+061900FM-15+049099999V0200101N001019999999N999999999+00551+00121101141ADDMA1101081999999REMMET103MOBOB3 METAR XM18 //049 310619 260052Z AUTO 01002KT 06/01 A2985 RMK A02 SLP114 T00550012 PA1668 DA1031=
0131008414999992016012601524+31000+061900FM-15+049099999V0200101N000519999999N999999999+00351-00031101251ADDMA1101151999999REMMET104MOBOB3 METAR XM18 //049 310619 260152Z AUTO 01001KT 04/M00 A2987 RMK A02 SLP125 T00351003 PA1649 DA0753=
0130008414999992016012602524+31000+061900FM-15+049099999V0201801N000519999999N999999999+00551+00041101301ADDMA1101221999999REMMET103MOBOB3 METAR XM18 //049 310619 260252Z AUTO 18001KT 06/00 A2989 RMK A02 SLP130 T00550004 PA1630 DA0978=
0130008414999992016012603524+31000+061900FM-15+049099999V0203601N000519999999N999999999+00911+00221101361ADDMA1101291999999REMMET103MOBOB3 METAR XM18 //049 310619 260352Z AUTO 36001KT 09/02 A2991 RMK A02 SLP136 T00910022 PA1610 DA1400=
0130008414999992016012604524+31000+061900FM-15+049099999V0202001N001519999999N999999999+01221+00421101331ADDMA1101291999999REMMET103MOBOB3 METAR XM18 //049 310619 260452Z AUTO 20003KT 12/04 A2991 RMK A02 SLP133 T01220042 PA1610 DA1784=
0130008414999992016012605524+31000+061900FM-15+049099999V0202101N001019999999N999999999+01511+00421101271ADDMA1101251999999REMMET103MOBOB3 METAR XM18 //049 310619 260552Z AUTO 21002KT 15/04 A2990 RMK A02 SLP127 T01510042 PA1620 DA2136=
0130008414999992016012606524+31000+061900FM-15+049099999V0202701N001019999999N999999999+01801+00361101181ADDMA1101181999999REMMET103MOBOB3 METAR XM18 //049 310619 260652Z AUTO 27002KT 18/04 A2988 RMK A02 SLP118 T01800036 PA1639 DA2492=
0130008414999992016012607524+31000+061900FM-15+049099999V0203001N001019999999N999999999+02051+00011101101ADDMA1101121999999REMMET103MOBOB3 METAR XM18 //049 310619 260752Z AUTO 30002KT 21/00 A2986 RMK A02 SLP110 T02050001 PA1659 DA2780=
0131008414999992016012608524+31000+061900FM-15+049099999V0200101N002619999999N999999999+02181-00071101021ADDMA1101051999999REMMET104MOBOB3 METAR XM18 //049 310619 260852Z AUTO 01005KT 22/M01 A2984 RMK A02 SLP102 T02181007 PA1678 DA2947=
0130008414999992016012609524+31000+061900FM-15+049099999V0203601N002619999999N999999999+02281+00051101011ADDMA1101051999999REMMET103MOBOB3 METAR XM18 //049 310619 260952Z AUTO 36005KT 23/00 A2984 RMK A02 SLP101 T02280005 PA1678 DA3067=
0130008414999992016012610524+31000+061900FM-15+049099999V0200301N002619999999N999999999+02281+00111101011ADDMA1101051999999REMMET103MOBOB3 METAR XM18 //049 310619 261052Z AUTO 03005KT 23/01 A2984 RMK A02 SLP101 T02280011 PA1678 DA3071=
0130008414999992016012611524+31000+061900FM-15+049099999V0200401N002119999999N999999999+02121+00011101041ADDMA1101051999999REMMET103MOBOB3 METAR XM18 //049 310619 261152Z AUTO 04004KT 21/00 A2984 RMK A02 SLP104 T02120001 PA1678 DA2883=
0131008414999992016012612534+31000+061900FM-15+049099999V0200901N001019999999N999999999+01901-00041101101ADDMA1101081999999REMMET104MOBOB3 METAR XM18 //049 310619 261253Z AUTO 09002KT 19/M00 A2985 RMK A02 SLP110 T01901004 PA1668 DA2617=
0131008414999992016012613524+31000+061900FM-15+049099999V0203401N000519999999N999999999+01701-00051101211ADDMA1101151999999REMMET104MOBOB3 METAR XM18 //049 310619 261352Z AUTO 34001KT 17/M01 A2987 RMK A02 SLP121 T01701005 PA1649 DA2362=
0130008414999992016012614524+31000+061900FM-15+049099999V0202601N000519999999N999999999+01471+00101101251ADDMA1101181999999REMMET103MOBOB3 METAR XM18 //049 310619 261452Z AUTO 26001KT 15/01 A2988 RMK A02 SLP125 T01470010 PA1639 DA2091=
0130008414999992016012615524+31000+061900FM-15+049099999V0202301N001019999999N999999999+01471+00211101251ADDMA1101221999999REMMET103MOBOB3 METAR XM18 //049 310619 261552Z AUTO 23002KT 15/02 A2989 RMK A02 SLP125 T01470021 PA1630 DA2086=
0130008414999992016012616524+31000+061900FM-15+049099999V0202301N001019999999N999999999+01431+00101101261ADDMA1101251999999REMMET103MOBOB3 METAR XM18 //049 310619 261652Z AUTO 23002KT 14/01 A2990 RMK A02 SLP126 T01430010 PA1620 DA2020=
0130008414999992016012617524+31000+061900FM-15+049099999V0202601N000519999999N999999999+01241+00151101251ADDMA1101251999999REMMET103MOBOB3 METAR XM18 //049 310619 261752Z AUTO 26001KT 12/02 A2990 RMK A02 SLP125 T01240015 PA1620 DA1800=
0130008414999992016012618524+31000+061900FM-15+049099999V0203301N000519999999N999999999+01071+00141101201ADDMA1101221999999REMMET103MOBOB3 METAR XM18 //049 310619 261852Z AUTO 33001KT 11/01 A2989 RMK A02 SLP120 T01070014 PA1630 DA1610=
0130008414999992016012619524+31000+061900FM-15+049099999V0203101N001019999999N999999999+01121+00051101171ADDMA1101221999999REMMET103MOBOB3 METAR XM18 //049 310619 261952Z AUTO 31002KT 11/00 A2989 RMK A02 SLP117 T01120005 PA1630 DA1663=
0130008414999992016012620524+31000+061900FM-15+049099999V0203301N001519999999N999999999+01141+00201101151ADDMA1101221999999REMMET103MOBOB3 METAR XM18 //049 310619 262052Z AUTO 33003KT 11/02 A2989 RMK A02 SLP115 T01140020 PA1630 DA1697=
0130008414999992016012621524+31000+061900FM-15+049099999V0203501N001019999999N999999999+01011+00261101121ADDMA1101181999999REMMET103MOBOB3 METAR XM18 //049 310619 262152Z AUTO 35002KT 10/03 A2988 RMK A02 SLP112 T01010026 PA1639 DA1558=
0130008414999992016012622524+31000+061900FM-15+049099999V0203201N002119999999N999999999+01041+00251101111ADDMA1101181999999REMMET103MOBOB3 METAR XM18 //049 310619 262252Z AUTO 32004KT 10/03 A2988 RMK A02 SLP111 T01040025 PA1639 DA1594=
0130008414999992016012623524+31000+061900FM-15+049099999V0203401N003119999999N999999999+01031+00201101131ADDMA1101181999999REMMET103MOBOB3 METAR XM18 //049 310619 262352Z AUTO 34006KT 10/02 A2988 RMK A02 SLP113 T01030020 PA1639 DA1578=
0130008414999992016012700524+31000+061900FM-15+049099999V0203101N001519999999N999999999+00921+00181101241ADDMA1101251999999REMMET103MOBOB3 METAR XM18 //049 310619 270052Z AUTO 31003KT 09/02 A2990 RMK A02 SLP124 T00920018 PA1620 DA1422=
0130008414999992016012701524+31000+061900FM-15+049099999V0203301N001519999999N999999999+00911+00211101291ADDMA1101291999999REMMET103MOBOB3 METAR XM18 //049 310619 270152Z AUTO 33003KT 09/02 A2991 RMK A02 SLP129 T00910021 PA1610 DA1400=
0130008414999992016012702524+31000+061900FM-15+049099999V0203301N002119999999N999999999+01041+00241101381ADDMA1101351999999REMMET103MOBOB3 METAR XM18 //049 310619 270252Z AUTO 33004KT 10/02 A2993 RMK A02 SLP138 T01040024 PA1591 DA1533=
0130008414999992016012703524+31000+061900FM-15+049099999V0203301N002619999999N999999999+01121+00251101401ADDMA1101391999999REMMET103MOBOB3 METAR XM18 //049 310619 270352Z AUTO 33005KT 11/03 A2994 RMK A02 SLP140 T01120025 PA1581 DA1617=
0130008414999992016012704524+31000+061900FM-15+049099999V0203201N002119999999N999999999+01411+00311101411ADDMA1101421999999REMMET103MOBOB3 METAR XM18 //049 310619 270452Z AUTO 32004KT 14/03 A2995 RMK A02 SLP141 T01410031 PA1571 DA1951=
0130008414999992016012705524+31000+061900FM-15+049099999V0202901N002119999999N999999999+01731+00191101401ADDMA1101421999999REMMET103MOBOB3 METAR XM18 //049 310619 270552Z AUTO 29004KT 17/02 A2995 RMK A02 SLP140 T01730019 PA1571 DA2316=
0130008414999992016012706524+31000+061900FM-15+049099999V0203301N001019999999N999999999+02001+00161101281ADDMA1101321999999REMMET103MOBOB3 METAR XM18 //049 310619 270652Z AUTO 33002KT 20/02 A2992 RMK A02 SLP128 T02000016 PA1601 DA2660=
0130008414999992016012707524+31000+061900FM-15+049099999V0203001N001019999999N999999999+02041+00161101201ADDMA1101251999999REMMET103MOBOB3 METAR XM18 //049 310619 270752Z AUTO 30002KT 20/02 A2990 RMK A02 SLP120 T02040016 PA1620 DA2730=
0130008414999992016012708524+31000+061900FM-15+049099999V0202601N001019999999N999999999+02041+00231101091ADDMA1101151999999REMMET103MOBOB3 METAR XM18 //049 310619 270852Z AUTO 26002KT 20/02 A2987 RMK A02 SLP109 T02040023 PA1649 DA2770=
0130008414999992016012709524+31000+061900FM-15+049099999V0200201N001519999999N999999999+02081+00261101071ADDMA1101121999999REMMET103MOBOB3 METAR XM18 //049 310619 270952Z AUTO 02003KT 21/03 A2986 RMK A02 SLP107 T02080026 PA1659 DA2830=
0130008414999992016012710524+31000+061900FM-15+049099999V0202901N000519999999N999999999+02081+00231101061ADDMA1101121999999REMMET103MOBOB3 METAR XM18 //049 310619 271052Z AUTO 29001KT 21/02 A2986 RMK A02 SLP106 T02080023 PA1659 DA2828=
0130008414999992016012711524+31000+061900FM-15+049099999V0202701N001519999999N999999999+01971+00361101111ADDMA1101151999999REMMET103MOBOB3 METAR XM18 //049 310619 271152Z AUTO 27003KT 20/04 A2987 RMK A02 SLP111 T01970036 PA1649 DA2700=
0130008414999992016012712524+31000+061900FM-15+049099999V0203001N001019999999N999999999+01831+00261101171ADDMA1101181999999REMMET103MOBOB3 METAR XM18 //049 310619 271252Z AUTO 30002KT 18/03 A2988 RMK A02 SLP117 T01830026 PA1639 DA2520=
0130008414999992016012713524+31000+061900FM-15+049099999V0200401N001019999999N999999999+01621+00341101231ADDMA1101221999999REMMET103MOBOB3 METAR XM18 //049 310619 271352Z AUTO 04002KT 16/03 A2989 RMK A02 SLP123 T01620034 PA1630 DA2270=
0130008414999992016012714524+31000+061900FM-15+049099999V0201701N001019999999N999999999+01581+00291101221ADDMA1101221999999REMMET103MOBOB3 METAR XM18 //049 310619 271452Z AUTO 17002KT 16/03 A2989 RMK A02 SLP122 T01580029 PA1630 DA2220=
0130008414999992016012715524+31000+061900FM-15+049099999V0202801N002119999999N999999999+01511+00271101331ADDMA1101321999999REMMET103MOBOB3 METAR XM18 //049 310619 271552Z AUTO 28004KT 15/03 A2992 RMK A02 SLP133 T01510027 PA1601 DA2101=
0130008414999992016012716524+31000+061900FM-15+049099999V0203001N002619999999N999999999+01381+00101101351ADDMA1101351999999REMMET103MOBOB3 METAR XM18 //049 310619 271652Z AUTO 30005KT 14/01 A2993 RMK A02 SLP135 T01380010 PA1591 DA1926=
0130008414999992016012717524+31000+061900FM-15+049099999V0203201N003119999999N999999999+01311+00061101361ADDMA1101391999999REMMET103MOBOB3 METAR XM18 //049 310619 271752Z AUTO 32006KT 13/01 A2994 RMK A02 SLP136 T01310006 PA1581 DA1829=
0141008414999992016012718524+31000+061900FM-15+049099999V0203201N004119999999N999999999+01261+00071101301ADDMA1101351999999OC100721REMMET106MOBOB3 METAR XM18 //049 310619 271852Z AUTO 32008G14KT 13/01 A2993 RMK A02 SLP130 T01260007 PA1591 DA1783=
0130008414999992016012719524+31000+061900FM-15+049099999V0203201N003619999999N999999999+01201+00021101271ADDMA1101321999999REMMET103MOBOB3 METAR XM18 //049 310619 271952Z AUTO 32007KT 12/00 A2992 RMK A02 SLP127 T01200002 PA1601 DA1721=
0130008414999992016012720524+31000+061900FM-15+049099999V0203001N003119999999N999999999+01121+00031101311ADDMA1101351999999REMMET103MOBOB3 METAR XM18 //049 310619 272052Z AUTO 30006KT 11/00 A2993 RMK A02 SLP131 T01120003 PA1591 DA1614=
0131008414999992016012721524+31000+061900FM-15+049099999V0203201N003619999999N999999999+01071-00011101281ADDMA1101321999999REMMET104MOBOB3 METAR XM18 //049 310619 272152Z AUTO 32007KT 11/M00 A2992 RMK A02 SLP128 T01071001 PA1601 DA1565=
0130008414999992016012722524+31000+061900FM-15+049099999V0203001N003119999999N999999999+00971+00081101251ADDMA1101291999999REMMET103MOBOB3 METAR XM18 //049 310619 272252Z AUTO 30006KT 10/01 A2991 RMK A02 SLP125 T00970008 PA1610 DA1463=
0131008414999992016012723524+31000+061900FM-15+049099999V0203201N003119999999N999999999+00921-00021101231ADDMA1101251999999REMMET104MOBOB3 METAR XM18 //049 310619 272352Z AUTO 32006KT 09/M00 A2990 RMK A02 SLP123 T00921002 PA1620 DA1409=
0131008414999992016012800524+31000+061900FM-15+049099999V0203001N002119999999N999999999+00821-00041101331ADDMA1101321999999REMMET104MOBOB3 METAR XM18 //049 310619 280052Z AUTO 30004KT 08/M00 A2992 RMK A02 SLP133 T00821004 PA1601 DA1264=
0131008414999992016012801524+31000+061900FM-15+049099999V0203201N001519999999N999999999+00771-00061101431ADDMA1101391999999REMMET104MOBOB3 METAR XM18 //049 310619 280152Z AUTO 32003KT 08/M01 A2994 RMK A02 SLP143 T00771006 PA1581 DA1178=
0131008414999992016012802524+31000+061900FM-15+049099999V0203301N003119999999N999999999+00791-00071101501ADDMA1101461999999REMMET104MOBOB3 METAR XM18 //049 310619 280252Z AUTO 33006KT 08/M01 A2996 RMK A02 SLP150 T00791007 PA1562 DA1178=
0131008414999992016012803524+31000+061900FM-15+049099999V0203101N003119999999N999999999+00951-00091101531ADDMA1101491999999REMMET104MOBOB3 METAR XM18 //049 310619 280352Z AUTO 31006KT 10/M01 A2997 RMK A02 SLP153 T00951009 PA1552 DA1356=
0131008414999992016012804524+31000+061900FM-15+049099999V0203301N003119999999N999999999+01161-00111101521ADDMA1101491999999REMMET104MOBOB3 METAR XM18 //049 310619 280452Z AUTO 33006KT 12/M01 A2997 RMK A02 SLP152 T01161011 PA1552 DA1606=
0131008414999992016012805524+31000+061900FM-15+049099999V0203301N003619999999N999999999+01341-00141101441ADDMA1101421999999REMMET104MOBOB3 METAR XM18 //049 310619 280552Z AUTO 33007KT 13/M01 A2995 RMK A02 SLP144 T01341014 PA1571 DA1841=
0131008414999992016012806524+31000+061900FM-15+049099999V0203501N003619999999N999999999+01531-00161101281ADDMA1101291999999REMMET104MOBOB3 METAR XM18 //049 310619 280652Z AUTO 35007KT 15/M02 A2991 RMK A02 SLP128 T01531016 PA1610 DA2110=
0131008414999992016012807524+31000+061900FM-15+049099999V0203301N002119999999N999999999+01661-00191101131ADDMA1101151999999REMMET104MOBOB3 METAR XM18 //049 310619 280752Z AUTO 33004KT 17/M02 A2987 RMK A02 SLP113 T01661019 PA1649 DA2308=
0131008414999992016012808524+31000+061900FM-15+049099999V0203101N000519999999N999999999+01861-00131101051ADDMA1101081999999REMMET104MOBOB3 METAR XM18 //049 310619 280852Z AUTO 31001KT 19/M01 A2985 RMK A02 SLP105 T01861013 PA1668 DA2566=
0131008414999992016012809524+31000+061900FM-15+049099999V0203301N001519999999N999999999+01881-00141101011ADDMA1101051999999REMMET104MOBOB3 METAR XM18 //049 310619 280952Z AUTO 33003KT 19/M01 A2984 RMK A02 SLP101 T01881014 PA1678 DA2601=
0131008414999992016012810524+31000+061900FM-15+049099999V0203101N003119999999N999999999+01791-00131101071ADDMA1101081999999REMMET104MOBOB3 METAR XM18 //049 310619 281052Z AUTO 31006KT 18/M01 A2985 RMK A02 SLP107 T01791013 PA1668 DA2485=
0142008414999992016012811524+31000+061900FM-15+049099999V0203301N004119999999N999999999+01581-00211101171ADDMA1101151999999OC100671REMMET107MOBOB3 METAR XM18 //049 310619 281152Z AUTO 33008G13KT 16/M02 A2987 RMK A02 SLP117 T01581021 PA1649 DA2214=
0131008414999992016012812524+31000+061900FM-15+049099999V0203201N003619999999N999999999+01391-00121101271ADDMA1101221999999REMMET104MOBOB3 METAR XM18 //049 310619 281252Z AUTO 32007KT 14/M01 A2989 RMK A02 SLP127 T01391012 PA1630 DA1972=
0142008414999992016012813524+31000+061900FM-15+049099999V0203201N004619999999N999999999+01261-00251101361ADDMA1101291999999OC100881REMMET107MOBOB3 METAR XM18 //049 310619 281352Z AUTO 32009G17KT 13/M02 A2991 RMK A02 SLP136 T01261025 PA1610 DA1789=
0142008414999992016012814524+31000+061900FM-15+049099999V0203301N005119999999N999999999+01161-00321101481ADDMA1101391999999OC100821REMMET107MOBOB3 METAR XM18 //049 310619 281452Z AUTO 33010G16KT 12/M03 A2994 RMK A02 SLP148 T01161032 PA1581 DA1631=
0131008414999992016012815524+31000+061900FM-15+049099999V0203301N003119999999N999999999+01141-00331101501ADDMA1101421999999REMMET104MOBOB3 METAR XM18 //049 310619 281552Z AUTO 33006KT 11/M03 A2995 RMK A02 SLP150 T01141033 PA1571 DA1595=
0131008414999992016012816524+31000+061900FM-15+049099999V0203201N002119999999N999999999+01051-00341101521ADDMA1101461999999REMMET104MOBOB3 METAR XM18 //049 310619 281652Z AUTO 32004KT 11/M03 A2996 RMK A02 SLP152 T01051034 PA1562 DA1475=
0131008414999992016012817524+31000+061900FM-15+049099999V0203101N003119999999N999999999+00981-00311101511ADDMA1101461999999REMMET104MOBOB3 METAR XM18 //049 310619 281752Z AUTO 31006KT 10/M03 A2996 RMK A02 SLP151 T00981031 PA1562 DA1393=
0131008414999992016012818524+31000+061900FM-15+049099999V0203001N003119999999N999999999+00911-00171101531ADDMA1101491999999REMMET104MOBOB3 METAR XM18 //049 310619 281852Z AUTO 30006KT 09/M02 A2997 RMK A02 SLP153 T00911017 PA1552 DA1304=
0131008414999992016012819524+31000+061900FM-15+049099999V0203101N003119999999N999999999+00891-00141101521ADDMA1101491999999REMMET104MOBOB3 METAR XM18 //049 310619 281952Z AUTO 31006KT 09/M01 A2997 RMK A02 SLP152 T00891014 PA1552 DA1282=
0131008414999992016012820524+31000+061900FM-15+049099999V0203101N003119999999N999999999+00831-00151101541ADDMA1101521999999REMMET104MOBOB3 METAR XM18 //049 310619 282052Z AUTO 31006KT 08/M01 A2998 RMK A02 SLP154 T00831015 PA1542 DA1198=
0131008414999992016012821524+31000+061900FM-15+049099999V0203001N003619999999N999999999+00751-00141101621ADDMA1101591999999REMMET104MOBOB3 METAR XM18 //049 310619 282152Z AUTO 30007KT 08/M01 A3000 RMK A02 SLP162 T00751014 PA1523 DA1077=
0131008414999992016012822524+31000+061900FM-15+049099999V0203201N003619999999N999999999+00771-00121101661ADDMA1101631999999REMMET104MOBOB3 METAR XM18 //049 310619 282252Z AUTO 32007KT 08/M01 A3001 RMK A02 SLP166 T00771012 PA1513 DA1090=
0131008414999992016012823524+31000+061900FM-15+049099999V0203101N003619999999N999999999+00701-00171101761ADDMA1101691999999REMMET104MOBOB3 METAR XM18 //049 310619 282352Z AUTO 31007KT 07/M02 A3003 RMK A02 SLP176 T00701017 PA1494 DA0979=
0131008414999992016012900524+31000+061900FM-15+049099999V0203001N003119999999N999999999+00641-00181101931ADDMA1101861999999REMMET104MOBOB3 METAR XM18 //049 310619 290052Z AUTO 30006KT 06/M02 A3008 RMK A02 SLP193 T00641018 PA1455 DA0858=
0131008414999992016012901524+31000+061900FM-15+049099999V0203001N003619999999N999999999+00611-00181102101ADDMA1102001999999REMMET104MOBOB3 METAR XM18 //049 310619 290152Z AUTO 30007KT 06/M02 A3012 RMK A02 SLP210 T00611018 PA1417 DA0774=
0131008414999992016012902524+31000+061900FM-15+049099999V0203101N003619999999N999999999+00631-00191102251ADDMA1102131999999REMMET104MOBOB3 METAR XM18 //049 310619 290252Z AUTO 31007KT 06/M02 A3016 RMK A02 SLP225 T00631019 PA1378 DA0750=
0142008414999992016012903524+31000+061900FM-15+049099999V0203201N004119999999N999999999+00901-00201102331ADDMA1102231999999OC100721REMMET107MOBOB3 METAR XM18 //049 310619 290352Z AUTO 32008G14KT 09/M02 A3019 RMK A02 SLP233 T00901020 PA1350 DA1039=
0142008414999992016012904524+31000+061900FM-15+049099999V0203301N004619999999N999999999+01131-00291102351ADDMA1102271999999OC100881REMMET107MOBOB3 METAR XM18 //049 310619 290452Z AUTO 33009G17KT 11/M03 A3020 RMK A02 SLP235 T01131029 PA1340 DA1298=
0142008414999992016012905524+31000+061900FM-15+049099999V0203201N004619999999N999999999+01381-00511102331ADDMA1102271999999OC100721REMMET107MOBOB3 METAR XM18 //049 310619 290552Z AUTO 32009G14KT 14/M05 A3020 RMK A02 SLP233 T01381051 PA1340 DA1584=
0142008414999992016012906524+31000+061900FM-15+049099999V0203401N005719999999N999999999+01561-00971102251ADDMA1102201999999OC100931REMMET107MOBOB3 METAR XM18 //049 310619 290652Z AUTO 34011G18KT 16/M10 A3018 RMK A02 SLP225 T01561097 PA1359 DA1802=
0142008414999992016012907524+31000+061900FM-15+049099999V0203401N004619999999N999999999+01581-00851102181ADDMA1102131999999OC100821REMMET107MOBOB3 METAR XM18 //049 310619 290752Z AUTO 34009G16KT 16/M09 A3016 RMK A02 SLP218 T01581085 PA1378 DA1853=
0142008414999992016012908524+31000+061900FM-15+049099999V0203401N003619999999N999999999+01631-00961102151ADDMA1102101999999OC100621REMMET107MOBOB3 METAR XM18 //049 310619 290852Z AUTO 34007G12KT 16/M10 A3015 RMK A02 SLP215 T01631096 PA1388 DA1920=
0142008414999992016012909524+31000+061900FM-15+049099999V0203401N004619999999N999999999+01641-00961102121ADDMA1102071999999OC100821REMMET107MOBOB3 METAR XM18 //049 310619 290952Z AUTO 34009G16KT 16/M10 A3014 RMK A02 SLP212 T01641096 PA1398 DA1943=
0131008414999992016012910524+31000+061900FM-15+049099999V0203201N003119999999N999999999+01611-00911102121ADDMA1102071999999REMMET104MOBOB3 METAR XM18 //049 310619 291052Z AUTO 32006KT 16/M09 A3014 RMK A02 SLP212 T01611091 PA1398 DA1910=
0131008414999992016012911524+31000+061900FM-15+049099999V0203301N002619999999N999999999+01501-00911102211ADDMA1102131999999REMMET104MOBOB3 METAR XM18 //049 310619 291152Z AUTO 33005KT 15/M09 A3016 RMK A02 SLP221 T01501091 PA1378 DA1758=
0131008414999992016012912524+31000+061900FM-15+049099999V0203301N000519999999N999999999+01261-00761102281ADDMA1102171999999REMMET104MOBOB3 METAR XM18 //049 310619 291252Z AUTO 33001KT 13/M08 A3017 RMK A02 SLP228 T01261076 PA1369 DA1468=
0131008414999992016012913524+31000+061900FM-15+049099999V0203301N001019999999N999999999+01181-00841102321ADDMA1102201999999REMMET104MOBOB3 METAR XM18 //049 310619 291352Z AUTO 33002KT 12/M08 A3018 RMK A02 SLP232 T01181084 PA1359 DA1359=
0131008414999992016012914524+31000+061900FM-15+049099999V0203101N001519999999N999999999+01131-00971102361ADDMA1102231999999REMMET104MOBOB3 METAR XM18 //049 310619 291452Z AUTO 31003KT 11/M10 A3019 RMK A02 SLP236 T01131097 PA1350 DA1284=
0131008414999992016012915524+31000+061900FM-15+049099999V0203101N000519999999N999999999+00921-00881102431ADDMA1102301999999REMMET104MOBOB3 METAR XM18 //049 310619 291552Z AUTO 31001KT 09/M09 A3021 RMK A02 SLP243 T00921088 PA1330 DA1011=
0131008414999992016012916524+31000+061900FM-15+049099999V0203201N001019999999N999999999+00911-00941102411ADDMA1102301999999REMMET104MOBOB3 METAR XM18 //049 310619 291652Z AUTO 32002KT 09/M09 A3021 RMK A02 SLP241 T00911094 PA1330 DA0997=
0131008414999992016012917524+31000+061900FM-15+049099999V0202901N002619999999N999999999+00711-00901102361ADDMA1102271999999REMMET104MOBOB3 METAR XM18 //049 310619 291752Z AUTO 29005KT 07/M09 A3020 RMK A02 SLP236 T00711090 PA1340 DA0769=
0131008414999992016012918534+31000+061900FM-15+049099999V0203001N002119999999N999999999+00561-00931102361ADDMA1102271999999REMMET104MOBOB3 METAR XM18 //049 310619 291853Z AUTO 30004KT 06/M09 A3020 RMK A02 SLP236 T00561093 PA1340 DA0586=
0131008414999992016012919524+31000+061900FM-15+049099999V0203101N002619999999N999999999+00511-00901102401ADDMA1102301999999REMMET104MOBOB3 METAR XM18 //049 310619 291952Z AUTO 31005KT 05/M09 A3021 RMK A02 SLP240 T00511090 PA1330 DA0514=
0131008414999992016012920524+31000+061900FM-15+049099999V0203101N002119999999N999999999+00451-00851102371ADDMA1102271999999REMMET104MOBOB3 METAR XM18 //049 310619 292052Z AUTO 31004KT 05/M08 A3020 RMK A02 SLP237 T00451085 PA1340 DA0454=
0131008414999992016012921524+31000+061900FM-15+049099999V0203201N002619999999N999999999+00381-00781102371ADDMA1102271999999REMMET104MOBOB3 METAR XM18 //049 310619 292152Z AUTO 32005KT 04/M08 A3020 RMK A02 SLP237 T00381078 PA1340 DA0370=
0131008414999992016012922524+31000+061900FM-15+049099999V0203201N002619999999N999999999+00341-00731102341ADDMA1102231999999REMMET104MOBOB3 METAR XM18 //049 310619 292252Z AUTO 32005KT 03/M07 A3019 RMK A02 SLP234 T00341073 PA1350 DA0335=
0131008414999992016012923524+31000+061900FM-15+049099999V0203201N002619999999N999999999+00321-00691102361ADDMA1102231999999REMMET104MOBOB3 METAR XM18 //049 310619 292352Z AUTO 32005KT 03/M07 A3019 RMK A02 SLP236 T00321069 PA1350 DA0311=
0131008414999992016013000524+31000+061900FM-15+049099999V0203001N001519999999N999999999+00311-00651102491ADDMA1102341999999REMMET104MOBOB3 METAR XM18 //049 310619 300052Z AUTO 30003KT 03/M06 A3022 RMK A02 SLP249 T00311065 PA1321 DA0265=
0131008414999992016013001524+31000+061900FM-15+049099999V0203001N001519999999N999999999+00301-00631102571ADDMA1102401999999REMMET104MOBOB3 METAR XM18 //049 310619 300152Z AUTO 30003KT 03/M06 A3024 RMK A02 SLP257 T00301063 PA1301 DA0229=
0131008414999992016013002524+31000+061900FM-15+049099999V0203101N002619999999N999999999+00491-00591102631ADDMA1102511999999REMMET104MOBOB3 METAR XM18 //049 310619 300252Z AUTO 31005KT 05/M06 A3027 RMK A02 SLP263 T00491059 PA1282 DA0441=
0131008414999992016013003524+31000+061900FM-15+049099999V0203201N003619999999N999999999+00801-00641102691ADDMA1102571999999REMMET104MOBOB3 METAR XM18 //049 310619 300352Z AUTO 32007KT 08/M06 A3029 RMK A02 SLP269 T00801064 PA1263 DA0792=
0131008414999992016013004524+31000+061900FM-15+049099999V0203401N003619999999N999999999+01061-00671102701ADDMA1102611999999REMMET104MOBOB3 METAR XM18 //049 310619 300452Z AUTO 34007KT 11/M07 A3030 RMK A02 SLP270 T01061067 PA1253 DA1091=
0131008414999992016013005524+31000+061900FM-15+049099999V0203401N003119999999N999999999+01281-00781102701ADDMA1102611999999REMMET104MOBOB3 METAR XM18 //049 310619 300552Z AUTO 34006KT 13/M08 A3030 RMK A02 SLP270 T01281078 PA1253 DA1349=
0131008414999992016013006524+31000+061900FM-15+049099999V0203401N003119999999N999999999+01471-00951102621ADDMA1102541999999REMMET104MOBOB3 METAR XM18 //049 310619 300652Z AUTO 34006KT 15/M10 A3028 RMK A02 SLP262 T01471095 PA1273 DA1591=
0131008414999992016013007524+31000+061900FM-15+049099999V0203301N003119999999N999999999+01551-01051102511ADDMA1102401999999REMMET104MOBOB3 METAR XM18 //049 310619 300752Z AUTO 33006KT 16/M10 A3024 RMK A02 SLP251 T01551105 PA1301 DA1717=
0131008414999992016013008524+31000+061900FM-15+049099999V0203001N002119999999N999999999+01601-01011102441ADDMA1102341999999REMMET104MOBOB3 METAR XM18 //049 310619 300852Z AUTO 30004KT 16/M10 A3022 RMK A02 SLP244 T01601101 PA1321 DA1800=
0131008414999992016013009534+31000+061900FM-15+049099999V0202901N002619999999N999999999+01631-00891102411ADDMA1102301999999REMMET104MOBOB3 METAR XM18 //049 310619 300953Z AUTO 29005KT 16/M09 A3021 RMK A02 SLP241 T01631089 PA1330 DA1851=
0131008414999992016013010524+31000+061900FM-15+049099999V0203201N003119999999N999999999+01611-00841102411ADDMA1102301999999REMMET104MOBOB3 METAR XM18 //049 310619 301052Z AUTO 32006KT 16/M08 A3021 RMK A02 SLP241 T01611084 PA1330 DA1829=
0131008414999992016013011524+31000+061900FM-15+049099999V0203201N002619999999N999999999+01521-00791102461ADDMA1102341999999REMMET104MOBOB3 METAR XM18 //049 310619 301152Z AUTO 32005KT 15/M08 A3022 RMK A02 SLP246 T01521079 PA1321 DA1714=
0131008414999992016013012524+31000+061900FM-15+049099999V0202901N001019999999N999999999+01321-00701102521ADDMA1102371999999REMMET104MOBOB3 METAR XM18 //049 310619 301252Z AUTO 29002KT 13/M07 A3023 RMK A02 SLP252 T01321070 PA1311 DA1470=
0131008414999992016013013524+31000+061900FM-15+049099999V0202801N001019999999N999999999+01241-00771102601ADDMA1102471999999REMMET104MOBOB3 METAR XM18 //049 310619 301352Z AUTO 28002KT 12/M08 A3026 RMK A02 SLP260 T01241077 PA1292 DA1349=
0131008414999992016013014534+31000+061900FM-15+049099999V0203101N001019999999N999999999+01081-00851102601ADDMA1102471999999REMMET104MOBOB3 METAR XM18 //049 310619 301453Z AUTO 31002KT 11/M08 A3026 RMK A02 SLP260 T01081085 PA1292 DA1156=
0131008414999992016013015524+31000+061900FM-15+049099999V0203201N002619999999N999999999+00971-00971102581ADDMA1102471999999REMMET104MOBOB3 METAR XM18 //049 310619 301552Z AUTO 32005KT 10/M10 A3026 RMK A02 SLP258 T00971097 PA1292 DA1021=
0131008414999992016013016524+31000+061900FM-15+049099999V0203101N002619999999N999999999+00831-01011102571ADDMA1102471999999REMMET104MOBOB3 METAR XM18 //049 310619 301652Z AUTO 31005KT 08/M10 A3026 RMK A02 SLP257 T00831101 PA1292 DA0851=
0131008414999992016013017524+31000+061900FM-15+049099999V0203201N002619999999N999999999+00711-00991102591ADDMA1102511999999REMMET104MOBOB3 METAR XM18 //049 310619 301752Z AUTO 32005KT 07/M10 A3027 RMK A02 SLP259 T00711099 PA1282 DA0695=
0131008414999992016013018534+31000+061900FM-15+049099999V0203001N001519999999N999999999+00541-00951102591ADDMA1102511999999REMMET104MOBOB3 METAR XM18 //049 310619 301853Z AUTO 30003KT 05/M09 A3027 RMK A02 SLP259 T00541095 PA1282 DA0489=
0131008414999992016013019524+31000+061900FM-15+049099999V0203101N002619999999N999999999+00531-00961102551ADDMA1102471999999REMMET104MOBOB3 METAR XM18 //049 310619 301952Z AUTO 31005KT 05/M10 A3026 RMK A02 SLP255 T00531096 PA1292 DA0488=
0131008414999992016013020524+31000+061900FM-15+049099999V0203001N003119999999N999999999+00481-00921102551ADDMA1102471999999REMMET104MOBOB3 METAR XM18 //049 310619 302052Z AUTO 30006KT 05/M09 A3026 RMK A02 SLP255 T00481092 PA1292 DA0429=
0131008414999992016013021534+31000+061900FM-15+049099999V0202901N002619999999N999999999+00411-00911102551ADDMA1102471999999REMMET104MOBOB3 METAR XM18 //049 310619 302153Z AUTO 29005KT 04/M09 A3026 RMK A02 SLP255 T00411091 PA1292 DA0343=
0131008414999992016013022524+31000+061900FM-15+049099999V0203101N002619999999N999999999+00461-00891102551ADDMA1102471999999REMMET104MOBOB3 METAR XM18 //049 310619 302252Z AUTO 31005KT 05/M09 A3026 RMK A02 SLP255 T00461089 PA1292 DA0405=
0131008414999992016013023524+31000+061900FM-15+049099999V0203001N002119999999N999999999+00451-00851102561ADDMA1102471999999REMMET104MOBOB3 METAR XM18 //049 310619 302352Z AUTO 30004KT 05/M09 A3026 RMK A02 SLP256 T00451085 PA1292 DA0394=
0131008414999992016013100534+31000+061900FM-15+049099999V0202801N002619999999N999999999+00411-00811102651ADDMA1102541999999REMMET104MOBOB3 METAR XM18 //049 310619 310053Z AUTO 28005KT 04/M08 A3028 RMK A02 SLP265 T00411081 PA1273 DA0322=
0131008414999992016013101524+31000+061900FM-15+049099999V0202901N002619999999N999999999+00341-00801102741ADDMA1102611999999REMMET104MOBOB3 METAR XM18 //049 310619 310152Z AUTO 29005KT 03/M08 A3030 RMK A02 SLP274 T00341080 PA1253 DA0213=
0131008414999992016013102524+31000+061900FM-15+049099999V0202901N002619999999N999999999+00521-00741102851ADDMA1102711999999REMMET104MOBOB3 METAR XM18 //049 310619 310252Z AUTO 29005KT 05/M07 A3033 RMK A02 SLP285 T00521074 PA1225 DA0400=
0131008414999992016013103534+31000+061900FM-15+049099999V0203201N002619999999N999999999+00881-00771102931ADDMA1102811999999REMMET104MOBOB3 METAR XM18 //049 310619 310353Z AUTO 32005KT 09/M08 A3036 RMK A02 SLP293 T00881077 PA1196 DA0801=
0131008414999992016013104524+31000+061900FM-15+049099999V0203001N003119999999N999999999+01111-00771102921ADDMA1102811999999REMMET104MOBOB3 METAR XM18 //049 310619 310452Z AUTO 30006KT 11/M08 A3036 RMK A02 SLP292 T01111077 PA1196 DA1076=
0131008414999992016013105524+31000+061900FM-15+049099999V0203301N003619999999N999999999+01311-00861102871ADDMA1102781999999REMMET104MOBOB3 METAR XM18 //049 310619 310552Z AUTO 33007KT 13/M09 A3035 RMK A02 SLP287 T01311086 PA1206 DA1323=
0142008414999992016013106534+31000+061900FM-15+049099999V0203401N003619999999N999999999+01471-00931102771ADDMA1102671999999OC100671REMMET107MOBOB3 METAR XM18 //049 310619 310653Z AUTO 34007G13KT 15/M09 A3032 RMK A02 SLP277 T01471093 PA1234 DA1544=
0131008414999992016013107534+31000+061900FM-15+049099999V0203001N002619999999N999999999+01541-01021102651ADDMA1102571999999REMMET104MOBOB3 METAR XM18 //049 310619 310753Z AUTO 30005KT 15/M10 A3029 RMK A02 SLP265 T01541102 PA1263 DA1659=
0131008414999992016013108524+31000+061900FM-15+049099999V0203001N003119999999N999999999+01571-01001102581ADDMA1102511999999REMMET104MOBOB3 METAR XM18 //049 310619 310852Z AUTO 30006KT 16/M10 A3027 RMK A02 SLP258 T01571100 PA1282 DA1718=
0131008414999992016013109534+31000+061900FM-15+049099999V0203001N002619999999N999999999+01591-00951102551ADDMA1102471999999REMMET104MOBOB3 METAR XM18 //049 310619 310953Z AUTO 30005KT 16/M10 A3026 RMK A02 SLP255 T01591095 PA1292 DA1755=
0131008414999992016013110524+31000+061900FM-15+049099999V0203101N003119999999N999999999+01541-01011102551ADDMA1102471999999REMMET104MOBOB3 METAR XM18 //049 310619 311052Z AUTO 31006KT 15/M10 A3026 RMK A02 SLP255 T01541101 PA1292 DA1695=
0131008414999992016013111524+31000+061900FM-15+049099999V0203101N002119999999N999999999+01471-00951102531ADDMA1102401999999REMMET104MOBOB3 METAR XM18 //049 310619 311152Z AUTO 31004KT 15/M10 A3024 RMK A02 SLP253 T01471095 PA1301 DA1626=
0131008414999992016013112534+31000+061900FM-15+049099999V0203001N001019999999N999999999+01281-00941102591ADDMA1102471999999REMMET104MOBOB3 METAR XM18 //049 310619 311253Z AUTO 30002KT 13/M09 A3026 RMK A02 SLP259 T01281094 PA1292 DA1391=
0131008414999992016013113524+31000+061900FM-15+049099999V0203201N000519999999N999999999+01041-00841102661ADDMA1102511999999REMMET104MOBOB3 METAR XM18 //049 310619 311352Z AUTO 32001KT 10/M08 A3027 RMK A02 SLP266 T01041084 PA1282 DA1097=
0131008414999992016013114524+31000+061900FM-15+049099999V0202601N001519999999N999999999+01081-00881102671ADDMA1102541999999REMMET104MOBOB3 METAR XM18 //049 310619 311452Z AUTO 26003KT 11/M09 A3028 RMK A02 SLP267 T01081088 PA1273 DA1131=
0131008414999992016013115534+31000+061900FM-15+049099999V0202701N002619999999N999999999+00901-00901102651ADDMA1102541999999REMMET104MOBOB3 METAR XM18 //049 310619 311553Z AUTO 27005KT 09/M09 A3028 RMK A02 SLP265 T00901090 PA1273 DA0915=
0131008414999992016013116524+31000+061900FM-15+049099999V0202701N002119999999N999999999+00731-00901102641ADDMA1102541999999REMMET104MOBOB3 METAR XM18 //049 310619 311652Z AUTO 27004KT 07/M09 A3028 RMK A02 SLP264 T00731090 PA1273 DA0710=
0131008414999992016013117524+31000+061900FM-15+049099999V0202901N002119999999N999999999+00661-00881102631ADDMA1102541999999REMMET104MOBOB3 METAR XM18 //049 310619 311752Z AUTO 29004KT 07/M09 A3028 RMK A02 SLP263 T00661088 PA1273 DA0626=
0131008414999992016013118534+31000+061900FM-15+049099999V0202701N002619999999N999999999+00511-00821102631ADDMA1102541999999REMMET104MOBOB3 METAR XM18 //049 310619 311853Z AUTO 27005KT 05/M08 A3028 RMK A02 SLP263 T00511082 PA1273 DA0445=
0131008414999992016013119524+31000+061900FM-15+049099999V0202701N001519999999N999999999+00461-00811102621ADDMA1102541999999REMMET104MOBOB3 METAR XM18 //049 310619 311952Z AUTO 27003KT 05/M08 A3028 RMK A02 SLP262 T00461081 PA1273 DA0384=
0131008414999992016013120534+31000+061900FM-15+049099999V0202801N001519999999N999999999+00441-00791102591ADDMA1102511999999REMMET104MOBOB3 METAR XM18 //049 310619 312053Z AUTO 28003KT 04/M08 A3027 RMK A02 SLP259 T00441079 PA1282 DA0372=
0131008414999992016013121524+31000+061900FM-15+049099999V0202901N002119999999N999999999+00421-00731102591ADDMA1102511999999REMMET104MOBOB3 METAR XM18 //049 310619 312152Z AUTO 29004KT 04/M07 A3027 RMK A02 SLP259 T00421073 PA1282 DA0349=
0131008414999992016013122524+31000+061900FM-15+049099999V0202901N002619999999N999999999+00361-00731102561ADDMA1102471999999REMMET104MOBOB3 METAR XM18 //049 310619 312252Z AUTO 29005KT 04/M07 A3026 RMK A02 SLP256 T00361073 PA1292 DA0288=
0131008414999992016013123534+31000+061900FM-15+049099999V0203001N001519999999N999999999+00291-00691102581ADDMA1102471999999REMMET104MOBOB3 METAR XM18 //049 310619 312353Z AUTO 30003KT 03/M07 A3026 RMK A02 SLP258 T00291069 PA1292 DA0203=
0131008414999992016020100524+31000+061900FM-15+049099999V0203501N000519999999N999999999+00171-00661102651ADDMA1102511999999REMMET104MOBOB3 METAR XM18 //049 310619 010052Z AUTO 35001KT 02/M07 A3027 RMK A02 SLP265 T00171066 PA1282 DA0043=
0131008414999992016020101534+31000+061900FM-15+049099999V0202801N000519999999N999999999+00201-00611102741ADDMA1102571999999REMMET104MOBOB3 METAR XM18 //049 310619 010153Z AUTO 28001KT 02/M06 A3029 RMK A02 SLP274 T00201061 PA1263 DA0058=
0131008414999992016020102524+31000+061900FM-15+049099999V0202401N000519999999N999999999+00391-00561102791ADDMA1102641999999REMMET104MOBOB3 METAR XM18 //049 310619 010252Z AUTO 24001KT 04/M06 A3031 RMK A02 SLP279 T00391056 PA1244 DA0271=
0131008414999992016020103524+31000+061900FM-15+049099999V0203101N002119999999N999999999+00601-00471102821ADDMA1102671999999REMMET104MOBOB3 METAR XM18 //049 310619 010352Z AUTO 31004KT 06/M05 A3032 RMK A02 SLP282 T00601047 PA1234 DA0521=
0131008414999992016020104524+31000+061900FM-15+049099999V0203201N002119999999N999999999+00851-00441102851ADDMA1102711999999REMMET104MOBOB3 METAR XM18 //049 310619 010452Z AUTO 32004KT 09/M04 A3033 RMK A02 SLP285 T00851044 PA1225 DA0813=
0131008414999992016020105534+31000+061900FM-15+049099999V0203201N002119999999N999999999+01111-00411102751ADDMA1102641999999REMMET104MOBOB3 METAR XM18 //049 310619 010553Z AUTO 32004KT 11/M04 A3031 RMK A02 SLP275 T01111041 PA1244 DA1150=
0131008414999992016020106524+31000+061900FM-15+049099999V0202801N001519999999N999999999+01261-00521102651ADDMA1102541999999REMMET104MOBOB3 METAR XM18 //049 310619 010652Z AUTO 28003KT 13/M05 A3028 RMK A02 SLP265 T01261052 PA1273 DA1359=
0131008414999992016020107524+31000+061900FM-15+049099999V0202701N000519999999N999999999+01461-00601102491ADDMA1102371999999REMMET104MOBOB3 METAR XM18 //049 310619 010752Z AUTO 27001KT 15/M06 A3023 RMK A02 SLP249 T01461060 PA1311 DA1639=
0131008414999992016020108524+31000+061900FM-15+049099999V0200501N001019999999N999999999+01521-00531102381ADDMA1102271999999REMMET104MOBOB3 METAR XM18 //049 310619 010852Z AUTO 05002KT 15/M05 A3020 RMK A02 SLP238 T01521053 PA1340 DA1747=
0131008414999992016020109524+31000+061900FM-15+049099999V0200201N000519999999N999999999+01631-00561102331ADDMA1102231999999REMMET104MOBOB3 METAR XM18 //049 310619 010952Z AUTO 02001KT 16/M06 A3019 RMK A02 SLP233 T01631056 PA1350 DA1887=
0131008414999992016020110524+31000+061900FM-15+049099999V0200401N000519999999N999999999+01601-00591102301ADDMA1102201999999REMMET104MOBOB3 METAR XM18 //049 310619 011052Z AUTO 04001KT 16/M06 A3018 RMK A02 SLP230 T01601059 PA1359 DA1862=
0131008414999992016020111524+31000+061900FM-15+049099999V0200801N001019999999N999999999+01521-00661102321ADDMA1102201999999REMMET104MOBOB3 METAR XM18 //049 310619 011152Z AUTO 08002KT 15/M07 A3018 RMK A02 SLP232 T01521066 PA1359 DA1766=
0131008414999992016020112524+31000+061900FM-15+049099999V0200801N001519999999N999999999+01331-00691102391ADDMA1102231999999REMMET104MOBOB3 METAR XM18 //049 310619 011252Z AUTO 08003KT 13/M07 A3019 RMK A02 SLP239 T01331069 PA1350 DA1530=
0131008414999992016020113524+31000+061900FM-15+049099999V0200801N001519999999N999999999+01201-00701102441ADDMA1102271999999REMMET104MOBOB3 METAR XM18 //049 310619 011352Z AUTO 08003KT 12/M07 A3020 RMK A02 SLP244 T01201070 PA1340 DA1364=
0131008414999992016020114524+31000+061900FM-15+049099999V0203201N000519999999N999999999+00961-00581102481ADDMA1102301999999REMMET104MOBOB3 METAR XM18 //049 310619 011452Z AUTO 32001KT 10/M06 A3021 RMK A02 SLP248 T00961058 PA1330 DA1070=
0131008414999992016020115524+31000+061900FM-15+049099999V0203201N000519999999N999999999+00831-00581102471ADDMA1102301999999REMMET104MOBOB3 METAR XM18 //049 310619 011552Z AUTO 32001KT 08/M06 A3021 RMK A02 SLP247 T00831058 PA1330 DA0914=
0131008414999992016020116524+31000+061900FM-15+049099999V0202901N000519999999N999999999+00701-00611102491ADDMA1102341999999REMMET104MOBOB3 METAR XM18 //049 310619 011652Z AUTO 29001KT 07/M06 A3022 RMK A02 SLP249 T00701061 PA1321 DA0743=
0131008414999992016020117534+31000+061900FM-15+049099999V0202901N000519999999N999999999+00641-00611102431ADDMA1102301999999REMMET104MOBOB3 METAR XM18 //049 310619 011753Z AUTO 29001KT 06/M06 A3021 RMK A02 SLP243 T00641061 PA1330 DA0683=
0131008414999992016020118524+31000+061900FM-15+049099999V0209999C000019999999N999999999+00551-00601102431ADDMA1102301999999REMMET104MOBOB3 METAR XM18 //049 310619 011852Z AUTO 00000KT 06/M06 A3021 RMK A02 SLP243 T00551060 PA1330 DA0573=
0131008414999992016020119524+31000+061900FM-15+049099999V0200201N000519999999N999999999+00521-00651102371ADDMA1102271999999REMMET104MOBOB3 METAR XM18 //049 310619 011952Z AUTO 02001KT 05/M06 A3020 RMK A02 SLP237 T00521065 PA1340 DA0547=
0131008414999992016020120524+31000+061900FM-15+049099999V0209999C000019999999N999999999+00411-00711102381ADDMA1102271999999REMMET104MOBOB3 METAR XM18 //049 310619 012052Z AUTO 00000KT 04/M07 A3020 RMK A02 SLP238 T00411071 PA1340 DA0410=
0131008414999992016020121524+31000+061900FM-15+049099999V0209999C000019999999N999999999+00361-00791102371ADDMA1102271999999REMMET104MOBOB3 METAR XM18 //049 310619 012152Z AUTO 00000KT 04/M08 A3020 RMK A02 SLP237 T00361079 PA1340 DA0345=
0131008414999992016020122524+31000+061900FM-15+049099999V0203201N000519999999N999999999+00331-00771102381ADDMA1102271999999REMMET104MOBOB3 METAR XM18 //049 310619 012252Z AUTO 32001KT 03/M08 A3020 RMK A02 SLP238 T00331077 PA1340 DA0309=
0131008414999992016020123524+31000+061900FM-15+049099999V0203301N000519999999N999999999+00171-00671102441ADDMA1102301999999REMMET104MOBOB3 METAR XM18 //049 310619 012352Z AUTO 33001KT 02/M07 A3021 RMK A02 SLP244 T00171067 PA1330 DA0103=
0131008414999992016020200524+31000+061900FM-15+049099999V0203101N000519999999N999999999+00121-00701102501ADDMA1102341999999REMMET104MOBOB3 METAR XM18 //049 310619 020052Z AUTO 31001KT 01/M07 A3022 RMK A02 SLP250 T00121070 PA1321 DA0027=
0131008414999992016020201524+31000+061900FM-15+049099999V0209999C000019999999N999999999+00091-00761102591ADDMA1102401999999REMMET104MOBOB3 METAR XM18 //049 310619 020152Z AUTO 00000KT 01/M08 A3024 RMK A02 SLP259 T00091076 PA1301 DA-036=
0131008414999992016020202524+31000+061900FM-15+049099999V0203101N000519999999N999999999+00331-00631102631ADDMA1102471999999REMMET104MOBOB3 METAR XM18 //049 310619 020252Z AUTO 31001KT 03/M06 A3026 RMK A02 SLP263 T00331063 PA1292 DA0254=
0131008414999992016020203534+31000+061900FM-15+049099999V0200901N001019999999N999999999+00961-00711102651ADDMA1102541999999REMMET104MOBOB3 METAR XM18 //049 310619 020353Z AUTO 09002KT 10/M07 A3028 RMK A02 SLP265 T00961071 PA1273 DA0994=
0131008414999992016020204524+31000+061900FM-15+049099999V0200101N001019999999N999999999+01191-00651102671ADDMA1102571999999REMMET104MOBOB3 METAR XM18 //049 310619 020452Z AUTO 01002KT 12/M07 A3029 RMK A02 SLP267 T01191065 PA1263 DA1259=
0131008414999992016020205524+31000+061900FM-15+049099999V0200301N001019999999N999999999+01431-00721102621ADDMA1102541999999REMMET104MOBOB3 METAR XM18 //049 310619 020552Z AUTO 03002KT 14/M07 A3028 RMK A02 SLP262 T01431072 PA1273 DA1552=
0131008414999992016020206524+31000+061900FM-15+049099999V0200101N001519999999N999999999+01541-00801102471ADDMA1102371999999REMMET104MOBOB3 METAR XM18 //049 310619 020652Z AUTO 01003KT 15/M08 A3023 RMK A02 SLP247 T01541080 PA1311 DA1725=
0131008414999992016020207534+31000+061900FM-15+049099999V0201701N001019999999N999999999+01671-00851102351ADDMA1102271999999REMMET104MOBOB3 METAR XM18 //049 310619 020753Z AUTO 17002KT 17/M08 A3020 RMK A02 SLP235 T01671085 PA1340 DA1911=
0131008414999992016020208524+31000+061900FM-15+049099999V0201301N001019999999N999999999+01781-00861102281ADDMA1102201999999REMMET104MOBOB3 METAR XM18 //049 310619 020852Z AUTO 13002KT 18/M09 A3018 RMK A02 SLP228 T01781086 PA1359 DA2062=
0131008414999992016020209524+31000+061900FM-15+049099999V0200301N000519999999N999999999+01851-00901102211ADDMA1102131999999REMMET104MOBOB3 METAR XM18 //049 310619 020952Z AUTO 03001KT 19/M09 A3016 RMK A02 SLP221 T01851090 PA1378 DA2165=
0131008414999992016020210524+31000+061900FM-15+049099999V0201101N000519999999N999999999+01851-00891102211ADDMA1102131999999REMMET104MOBOB3 METAR XM18 //049 310619 021052Z AUTO 11001KT 19/M09 A3016 RMK A02 SLP221 T01851089 PA1378 DA2165=
0131008414999992016020211534+31000+061900FM-15+049099999V0200701N001519999999N999999999+01691-00901102211ADDMA1102101999999REMMET104MOBOB3 METAR XM18 //049 310619 021153Z AUTO 07003KT 17/M09 A3015 RMK A02 SLP221 T01691090 PA1388 DA1992=
0131008414999992016020212524+31000+061900FM-15+049099999V0203201N000519999999N999999999+01431-00341102271ADDMA1102131999999REMMET104MOBOB3 METAR XM18 //049 310619 021252Z AUTO 32001KT 14/M03 A3016 RMK A02 SLP227 T01431034 PA1378 DA1698=
0131008414999992016020213524+31000+061900FM-15+049099999V0200501N001019999999N999999999+01241-00691102301ADDMA1102131999999REMMET104MOBOB3 METAR XM18 //049 310619 021352Z AUTO 05002KT 12/M07 A3016 RMK A02 SLP230 T01241069 PA1378 DA1459=
0131008414999992016020214534+31000+061900FM-15+049099999V0203501N000519999999N999999999+01041-00461102301ADDMA1102131999999REMMET104MOBOB3 METAR XM18 //049 310619 021453Z AUTO 35001KT 10/M05 A3016 RMK A02 SLP230 T01041046 PA1378 DA1231=
0131008414999992016020215524+31000+061900FM-15+049099999V0203601N001019999999N999999999+00961-00561102241ADDMA1102131999999REMMET104MOBOB3 METAR XM18 //049 310619 021552Z AUTO 36002KT 10/M06 A3016 RMK A02 SLP224 T00961056 PA1378 DA1131=
0131008414999992016020216524+31000+061900FM-15+049099999V0203501N001019999999N999999999+00821-00711102261ADDMA1102171999999REMMET104MOBOB3 METAR XM18 //049 310619 021652Z AUTO 35002KT 08/M07 A3017 RMK A02 SLP226 T00821071 PA1369 DA0944=
0131008414999992016020217524+31000+061900FM-15+049099999V0209999C000019999999N999999999+00721-00751102251ADDMA1102171999999REMMET104MOBOB3 METAR XM18 //049 310619 021752Z AUTO 00000KT 07/M08 A3017 RMK A02 SLP225 T00721075 PA1369 DA0822=
0131008414999992016020218534+31000+061900FM-15+049099999V0203101N000519999999N999999999+00651-00651102211ADDMA1102131999999REMMET104MOBOB3 METAR XM18 //049 310619 021853Z AUTO 31001KT 07/M06 A3016 RMK A02 SLP221 T00651065 PA1378 DA0753=
0131008414999992016020219524+31000+061900FM-15+049099999V0200601N001019999999N999999999+00731-00821102151ADDMA1102101999999REMMET104MOBOB3 METAR XM18 //049 310619 021952Z AUTO 06002KT 07/M08 A3015 RMK A02 SLP215 T00731082 PA1388 DA0856=
0131008414999992016020220524+31000+061900FM-15+049099999V0200101N001019999999N999999999+00591-00781102081ADDMA1102031999999REMMET104MOBOB3 METAR XM18 //049 310619 022052Z AUTO 01002KT 06/M08 A3013 RMK A02 SLP208 T00591078 PA1407 DA0711=
0131008414999992016020221524+31000+061900FM-15+049099999V0200201N000519999999N999999999+00461-00631102091ADDMA1102031999999REMMET104MOBOB3 METAR XM18 //049 310619 022152Z AUTO 02001KT 05/M06 A3013 RMK A02 SLP209 T00461063 PA1407 DA0558=
0131008414999992016020222524+31000+061900FM-15+049099999V0203401N000519999999N999999999+00451-00781102131ADDMA1102071999999REMMET104MOBOB3 METAR XM18 //049 310619 022252Z AUTO 34001KT 05/M08 A3014 RMK A02 SLP213 T00451078 PA1398 DA0528=
0131008414999992016020223534+31000+061900FM-15+049099999V0203301N001519999999N999999999+00311-00761102121ADDMA1102031999999REMMET104MOBOB3 METAR XM18 //049 310619 022353Z AUTO 33003KT 03/M08 A3013 RMK A02 SLP212 T00311076 PA1407 DA0369=
0131008414999992016020300524+31000+061900FM-15+049099999V0200401N001519999999N999999999+00481-00771102241ADDMA1102131999999REMMET104MOBOB3 METAR XM18 //049 310619 030052Z AUTO 04003KT 05/M08 A3016 RMK A02 SLP224 T00481077 PA1378 DA0541=
0131008414999992016020301524+31000+061900FM-15+049099999V0203601N001519999999N999999999+00361-00821102311ADDMA1102171999999REMMET104MOBOB3 METAR XM18 //049 310619 030152Z AUTO 36003KT 04/M08 A3017 RMK A02 SLP231 T00361082 PA1369 DA0380=
0131008414999992016020302524+31000+061900FM-15+049099999V0203601N002119999999N999999999+00451-00631102361ADDMA1102201999999REMMET104MOBOB3 METAR XM18 //049 310619 030252Z AUTO 36004KT 05/M06 A3018 RMK A02 SLP236 T00451063 PA1359 DA0486=
0131008414999992016020303534+31000+061900FM-15+049099999V0200701N001519999999N999999999+00971-00581102341ADDMA1102231999999REMMET104MOBOB3 METAR XM18 //049 310619 030353Z AUTO 07003KT 10/M06 A3019 RMK A02 SLP234 T00971058 PA1350 DA1106=
0131008414999992016020304524+31000+061900FM-15+049099999V0200801N001019999999N999999999+01391-00731102351ADDMA1102271999999REMMET104MOBOB3 METAR XM18 //049 310619 030452Z AUTO 08002KT 14/M07 A3020 RMK A02 SLP235 T01391073 PA1340 DA1587=
0131008414999992016020305524+31000+061900FM-15+049099999V0201401N002119999999N999999999+01471-00891102281ADDMA1102201999999REMMET104MOBOB3 METAR XM18 //049 310619 030552Z AUTO 14004KT 15/M09 A3018 RMK A02 SLP228 T01471089 PA1359 DA1700=
0131008414999992016020306534+31000+061900FM-15+049099999V0202301N001019999999N999999999+01581-00941102211ADDMA1102131999999REMMET104MOBOB3 METAR XM18 //049 310619 030653Z AUTO 23002KT 16/M09 A3016 RMK A02 SLP221 T01581094 PA1378 DA1850=
0131008414999992016020307524+31000+061900FM-15+049099999V0202601N000519999999N999999999+01881-00931102061ADDMA1102031999999REMMET104MOBOB3 METAR XM18 //049 310619 030752Z AUTO 26001KT 19/M09 A3013 RMK A02 SLP206 T01881093 PA1407 DA2234=
0131008414999992016020308534+31000+061900FM-15+049099999V0202501N001019999999N999999999+01901-01021101961ADDMA1101931999999REMMET104MOBOB3 METAR XM18 //049 310619 030853Z AUTO 25002KT 19/M10 A3010 RMK A02 SLP196 T01901102 PA1436 DA2290=
0131008414999992016020309534+31000+061900FM-15+049099999V0200101N001019999999N999999999+02021-00911101931ADDMA1101901999999REMMET104MOBOB3 METAR XM18 //049 310619 030953Z AUTO 01002KT 20/M09 A3009 RMK A02 SLP193 T02021091 PA1446 DA2443=
0131008414999992016020310524+31000+061900FM-15+049099999V0200101N001019999999N999999999+01921-00971101901ADDMA1101861999999REMMET104MOBOB3 METAR XM18 //049 310619 031052Z AUTO 01002KT 19/M10 A3008 RMK A02 SLP190 T01921097 PA1455 DA2338=
0131008414999992016020311524+31000+061900FM-15+049099999V0203201N001019999999N999999999+01881-00631101891ADDMA1101831999999REMMET104MOBOB3 METAR XM18 //049 310619 031152Z AUTO 32002KT 19/M06 A3007 RMK A02 SLP189 T01881063 PA1465 DA2316=
0131008414999992016020312524+31000+061900FM-15+049099999V0202701N000519999999N999999999+01601-00751101901ADDMA1101831999999REMMET104MOBOB3 METAR XM18 //049 310619 031252Z AUTO 27001KT 16/M08 A3007 RMK A02 SLP190 T01601075 PA1465 DA1987=
0131008414999992016020313534+31000+061900FM-15+049099999V0203101N000519999999N999999999+01421-00581101961ADDMA1101861999999REMMET104MOBOB3 METAR XM18 //049 310619 031353Z AUTO 31001KT 14/M06 A3008 RMK A02 SLP196 T01421058 PA1455 DA1771=
0131008414999992016020314524+31000+061900FM-15+049099999V0203101N002119999999N999999999+01411-00671101991ADDMA1101901999999REMMET104MOBOB3 METAR XM18 //049 310619 031452Z AUTO 31004KT 14/M07 A3009 RMK A02 SLP199 T01411067 PA1446 DA1744=
0131008414999992016020315524+31000+061900FM-15+049099999V0203201N002119999999N999999999+01331-00651101951ADDMA1101901999999REMMET104MOBOB3 METAR XM18 //049 310619 031552Z AUTO 32004KT 13/M06 A3009 RMK A02 SLP195 T01331065 PA1446 DA1651=
0131008414999992016020316524+31000+061900FM-15+049099999V0203001N001519999999N999999999+01221-00591101911ADDMA1101901999999REMMET104MOBOB3 METAR XM18 //049 310619 031652Z AUTO 30003KT 12/M06 A3009 RMK A02 SLP191 T01221059 PA1446 DA1523=
0131008414999992016020317534+31000+061900FM-15+049099999V0203201N001519999999N999999999+01131-00571101881ADDMA1101861999999REMMET104MOBOB3 METAR XM18 //049 310619 031753Z AUTO 32003KT 11/M06 A3008 RMK A02 SLP188 T01131057 PA1455 DA1429=
0131008414999992016020318534+31000+061900FM-15+049099999V0203201N001519999999N999999999+00951-00631101851ADDMA1101831999999REMMET104MOBOB3 METAR XM18 //049 310619 031853Z AUTO 32003KT 10/M06 A3007 RMK A02 SLP185 T00951063 PA1465 DA1223=
0131008414999992016020319524+31000+061900FM-15+049099999V0202901N001519999999N999999999+00761-00591101841ADDMA1101831999999REMMET104MOBOB3 METAR XM18 //049 310619 031952Z AUTO 29003KT 08/M06 A3007 RMK A02 SLP184 T00761059 PA1465 DA0996=
0131008414999992016020320524+31000+061900FM-15+049099999V0203001N001519999999N999999999+00611-00561101891ADDMA1101861999999REMMET104MOBOB3 METAR XM18 //049 310619 032052Z AUTO 30003KT 06/M06 A3008 RMK A02 SLP189 T00611056 PA1455 DA0804=
0131008414999992016020321524+31000+061900FM-15+049099999V0203201N003119999999N999999999+00741-00321101861ADDMA1101861999999REMMET104MOBOB3 METAR XM18 //049 310619 032152Z AUTO 32006KT 07/M03 A3008 RMK A02 SLP186 T00741032 PA1455 DA0972=
0131008414999992016020322524+31000+061900FM-15+049099999V0203201N003619999999N999999999+00731-00111101871ADDMA1101861999999REMMET104MOBOB3 METAR XM18 //049 310619 032252Z AUTO 32007KT 07/M01 A3008 RMK A02 SLP187 T00731011 PA1455 DA0971=
0142008414999992016020323524+31000+061900FM-15+049099999V0203201N004119999999N999999999+00711-00031101911ADDMA1101901999999OC100721REMMET107MOBOB3 METAR XM18 //049 310619 032352Z AUTO 32008G14KT 07/M00 A3009 RMK A02 SLP191 T00711003 PA1446 DA0939=
0142008414999992016020400524+31000+061900FM-15+049099999V0203301N004619999999N999999999+00691-00021102011ADDMA1101961999999OC100881REMMET107MOBOB3 METAR XM18 //049 310619 040052Z AUTO 33009G17KT 07/M00 A3011 RMK A02 SLP201 T00691002 PA1427 DA0892=
0142008414999992016020401524+31000+061900FM-15+049099999V0203201N004619999999N999999999+00691-00011102141ADDMA1102071999999OC100721REMMET107MOBOB3 METAR XM18 //049 310619 040152Z AUTO 32009G14KT 07/M00 A3014 RMK A02 SLP214 T00691001 PA1398 DA0857=
0141008414999992016020402524+31000+061900FM-15+049099999V0203301N005719999999N999999999+00771+00021102201ADDMA1102131999999OC100931REMMET106MOBOB3 METAR XM18 //049 310619 040252Z AUTO 33011G18KT 08/00 A3016 RMK A02 SLP220 T00770002 PA1378 DA0931=
0141008414999992016020403524+31000+061900FM-15+049099999V0203301N006719999999N999999999+00921+00021102271ADDMA1102201999999OC101131REMMET106MOBOB3 METAR XM18 //049 310619 040352Z AUTO 33013G22KT 09/00 A3018 RMK A02 SLP227 T00920002 PA1359 DA1087=
0142008414999992016020404524+31000+061900FM-15+049099999V0203301N006719999999N999999999+01111-00021102301ADDMA1102231999999OC101181REMMET107MOBOB3 METAR XM18 //049 310619 040452Z AUTO 33013G23KT 11/M00 A3019 RMK A02 SLP230 T01111002 PA1350 DA1301=
0142008414999992016020405524+31000+061900FM-15+049099999V0203401N007719999999N999999999+01331-00071102251ADDMA1102201999999OC101131REMMET107MOBOB3 METAR XM18 //049 310619 040552Z AUTO 34015G22KT 13/M01 A3018 RMK A02 SLP225 T01331007 PA1359 DA1570=
0142008414999992016020406524+31000+061900FM-15+049099999V0203301N006719999999N999999999+01521-00151102181ADDMA1102131999999OC101181REMMET107MOBOB3 METAR XM18 //049 310619 040652Z AUTO 33013G23KT 15/M02 A3016 RMK A02 SLP218 T01521015 PA1378 DA1813=
0142008414999992016020407524+31000+061900FM-15+049099999V0203201N006219999999N999999999+01621-00231102111ADDMA1102071999999OC101031REMMET107MOBOB3 METAR XM18 //049 310619 040752Z AUTO 32012G20KT 16/M02 A3014 RMK A02 SLP211 T01621023 PA1398 DA1950=
0142008414999992016020408524+31000+061900FM-15+049099999V0203201N005119999999N999999999+01751-00221102041ADDMA1102001999999OC100981REMMET107MOBOB3 METAR XM18 //049 310619 040852Z AUTO 32010G19KT 18/M02 A3012 RMK A02 SLP204 T01751022 PA1417 DA2125=
0142008414999992016020409524+31000+061900FM-15+049099999V0203201N006219999999N999999999+01721-00251102031ADDMA1102001999999OC101031REMMET107MOBOB3 METAR XM18 //049 310619 040952Z AUTO 32012G20KT 17/M03 A3012 RMK A02 SLP203 T01721025 PA1417 DA2088=
0142008414999992016020410524+31000+061900FM-15+049099999V0203201N005719999999N999999999+01601-00281102051ADDMA1102001999999OC101081REMMET107MOBOB3 METAR XM18 //049 310619 041052Z AUTO 32011G21KT 16/M03 A3012 RMK A02 SLP205 T01601028 PA1417 DA1947=
0142008414999992016020411534+31000+061900FM-15+049099999V0203101N004619999999N999999999+01451-00221102141ADDMA1102071999999OC100821REMMET107MOBOB3 METAR XM18 //049 310619 041153Z AUTO 31009G16KT 15/M02 A3014 RMK A02 SLP214 T01451022 PA1398 DA1751=
0142008414999992016020412524+31000+061900FM-15+049099999V0203101N004119999999N999999999+01311-00221102231ADDMA1102131999999OC100821REMMET107MOBOB3 METAR XM18 //049 310619 041252Z AUTO 31008G16KT 13/M02 A3016 RMK A02 SLP223 T01311022 PA1378 DA1562=
0142008414999992016020413524+31000+061900FM-15+049099999V0203201N005119999999N999999999+01201-00211102311ADDMA1102201999999OC100981REMMET107MOBOB3 METAR XM18 //049 310619 041352Z AUTO 32010G19KT 12/M02 A3018 RMK A02 SLP231 T01201021 PA1359 DA1409=
0142008414999992016020414534+31000+061900FM-15+049099999V0203201N005119999999N999999999+01131-00211102341ADDMA1102231999999OC100981REMMET107MOBOB3 METAR XM18 //049 310619 041453Z AUTO 32010G19KT 11/M02 A3019 RMK A02 SLP234 T01131021 PA1350 DA1314=
0142008414999992016020415524+31000+061900FM-15+049099999V0203101N005719999999N999999999+01111-00251102401ADDMA1102301999999OC101081REMMET107MOBOB3 METAR XM18 //049 310619 041552Z AUTO 31011G21KT 11/M03 A3021 RMK A02 SLP240 T01111025 PA1330 DA1264=
0142008414999992016020416524+31000+061900FM-15+049099999V0203101N005719999999N999999999+01081-00241102351ADDMA1102271999999OC101031REMMET107MOBOB3 METAR XM18 //049 310619 041652Z AUTO 31011G20KT 11/M02 A3020 RMK A02 SLP235 T01081024 PA1340 DA1241=
0142008414999992016020417524+31000+061900FM-15+049099999V0203001N004119999999N999999999+00981-00211102371ADDMA1102301999999OC100821REMMET107MOBOB3 METAR XM18 //049 310619 041752Z AUTO 30008G16KT 10/M02 A3021 RMK A02 SLP237 T00981021 PA1330 DA1111=
0142008414999992016020418524+31000+061900FM-15+049099999V0203101N005119999999N999999999+00941-00211102281ADDMA1102231999999OC101031REMMET107MOBOB3 METAR XM18 //049 310619 041852Z AUTO 31010G20KT 09/M02 A3019 RMK A02 SLP228 T00941021 PA1350 DA1087=
0142008414999992016020419524+31000+061900FM-15+049099999V0203101N005119999999N999999999+00911-00231102281ADDMA1102231999999OC101031REMMET107MOBOB3 METAR XM18 //049 310619 041952Z AUTO 31010G20KT 09/M02 A3019 RMK A02 SLP228 T00911023 PA1350 DA1050=
0142008414999992016020420534+31000+061900FM-15+049099999V0202901N005719999999N999999999+00861-00241102231ADDMA1102201999999OC100931REMMET107MOBOB3 METAR XM18 //049 310619 042053Z AUTO 29011G18KT 09/M02 A3018 RMK A02 SLP223 T00861024 PA1359 DA1001=
0142008414999992016020421524+31000+061900FM-15+049099999V0203001N003619999999N999999999+00821-00251102241ADDMA1102201999999OC100671REMMET107MOBOB3 METAR XM18 //049 310619 042152Z AUTO 30007G13KT 08/M02 A3018 RMK A02 SLP224 T00821025 PA1359 DA0953=
0142008414999992016020422524+31000+061900FM-15+049099999V0202901N004119999999N999999999+00791-00271102261ADDMA1102201999999OC100671REMMET107MOBOB3 METAR XM18 //049 310619 042252Z AUTO 29008G13KT 08/M03 A3018 RMK A02 SLP226 T00791027 PA1359 DA0915=
0142008414999992016020423534+31000+061900FM-15+049099999V0202901N004119999999N999999999+00751-00291102311ADDMA1102231999999OC100771REMMET107MOBOB3 METAR XM18 //049 310619 042353Z AUTO 29008G15KT 08/M03 A3019 RMK A02 SLP231 T00751029 PA1350 DA0854=
0142008414999992016020500524+31000+061900FM-15+049099999V0202901N003619999999N999999999+00741-00331102361ADDMA1102271999999OC100621REMMET107MOBOB3 METAR XM18 //049 310619 050052Z AUTO 29007G12KT 07/M03 A3020 RMK A02 SLP236 T00741033 PA1340 DA0828=
0142008414999992016020501534+31000+061900FM-15+049099999V0203001N003619999999N999999999+00761-00351102451ADDMA1102341999999OC100621REMMET107MOBOB3 METAR XM18 //049 310619 050153Z AUTO 30007G12KT 08/M04 A3022 RMK A02 SLP245 T00761035 PA1321 DA0827=
0142008414999992016020502524+31000+061900FM-15+049099999V0203001N004619999999N999999999+00871-00331102481ADDMA1102371999999OC100931REMMET107MOBOB3 METAR XM18 //049 310619 050252Z AUTO 30009G18KT 09/M03 A3023 RMK A02 SLP248 T00871033 PA1311 DA0949=
0142008414999992016020503524+31000+061900FM-15+049099999V0203101N004619999999N999999999+01121-00381102561ADDMA1102511999999OC100881REMMET107MOBOB3 METAR XM18 //049 310619 050352Z AUTO 31009G17KT 11/M04 A3027 RMK A02 SLP256 T01121038 PA1282 DA1210=
0142008414999992016020504524+31000+061900FM-15+049099999V0203201N004119999999N999999999+01341-00401102541ADDMA1102511999999OC100821REMMET107MOBOB3 METAR XM18 //049 310619 050452Z AUTO 32008G16KT 13/M04 A3027 RMK A02 SLP254 T01341040 PA1282 DA1471=
0142008414999992016020505534+31000+061900FM-15+049099999V0203201N005119999999N999999999+01521-00431102501ADDMA1102471999999OC100931REMMET107MOBOB3 METAR XM18 //049 310619 050553Z AUTO 32010G18KT 15/M04 A3026 RMK A02 SLP250 T01521043 PA1292 DA1693=
0142008414999992016020506524+31000+061900FM-15+049099999V0203201N004619999999N999999999+01711-00481102371ADDMA1102341999999OC100931REMMET107MOBOB3 METAR XM18 //049 310619 050652Z AUTO 32009G18KT 17/M05 A3022 RMK A02 SLP237 T01711048 PA1321 DA1947=
0142008414999992016020507524+31000+061900FM-15+049099999V0203201N005119999999N999999999+01851-00511102221ADDMA1102201999999OC100931REMMET107MOBOB3 METAR XM18 //049 310619 050752Z AUTO 32010G18KT 19/M05 A3018 RMK A02 SLP222 T01851051 PA1359 DA2156=
0142008414999992016020508534+31000+061900FM-15+049099999V0203301N006219999999N999999999+01961-00621102111ADDMA1102101999999OC101131REMMET107MOBOB3 METAR XM18 //049 310619 050853Z AUTO 33012G22KT 20/M06 A3015 RMK A02 SLP211 T01961062 PA1388 DA2313=
0142008414999992016020509524+31000+061900FM-15+049099999V0203201N005119999999N999999999+02001-00681102071ADDMA1102071999999OC100981REMMET107MOBOB3 METAR XM18 //049 310619 050952Z AUTO 32010G19KT 20/M07 A3014 RMK A02 SLP207 T02001068 PA1398 DA2369=
0142008414999992016020510534+31000+061900FM-15+049099999V0203301N005119999999N999999999+02001-00841102041ADDMA1102031999999OC100981REMMET107MOBOB3 METAR XM18 //049 310619 051053Z AUTO 33010G19KT 20/M08 A3013 RMK A02 SLP204 T02001084 PA1407 DA2375=
0142008414999992016020511524+31000+061900FM-15+049099999V0203101N003619999999N999999999+01871-00861102091ADDMA1102071999999OC100771REMMET107MOBOB3 METAR XM18 //049 310619 051152Z AUTO 31007G15KT 19/M09 A3014 RMK A02 SLP209 T01871086 PA1398 DA2213=
0131008414999992016020512524+31000+061900FM-15+049099999V0203201N003619999999N999999999+01631-00891102121ADDMA1102071999999REMMET104MOBOB3 METAR XM18 //049 310619 051252Z AUTO 32007KT 16/M09 A3014 RMK A02 SLP212 T01631089 PA1398 DA1934=
0131008414999992016020513524+31000+061900FM-15+049099999V0203201N002619999999N999999999+01441-00891102141ADDMA1102071999999REMMET104MOBOB3 METAR XM18 //049 310619 051352Z AUTO 32005KT 14/M09 A3014 RMK A02 SLP214 T01441089 PA1398 DA1712=
0131008414999992016020514534+31000+061900FM-15+049099999V0202901N002619999999N999999999+01281-00861102211ADDMA1102131999999REMMET104MOBOB3 METAR XM18 //049 310619 051453Z AUTO 29005KT 13/M09 A3016 RMK A02 SLP221 T01281086 PA1378 DA1500=
0131008414999992016020515534+31000+061900FM-15+049099999V0202701N002119999999N999999999+01131-00831102171ADDMA1102101999999REMMET104MOBOB3 METAR XM18 //049 310619 051553Z AUTO 27004KT 11/M08 A3015 RMK A02 SLP217 T01131083 PA1388 DA1335=
0131008414999992016020516524+31000+061900FM-15+049099999V0203001N002119999999N999999999+01071-00781102151ADDMA1102101999999REMMET104MOBOB3 METAR XM18 //049 310619 051652Z AUTO 30004KT 11/M08 A3015 RMK A02 SLP215 T01071078 PA1388 DA1266=
0131008414999992016020517524+31000+061900FM-15+049099999V0202901N002619999999N999999999+01001-00831102101ADDMA1102071999999REMMET104MOBOB3 METAR XM18 //049 310619 051752Z AUTO 29005KT 10/M08 A3014 RMK A02 SLP210 T01001083 PA1398 DA1192=
0131008414999992016020518534+31000+061900FM-15+049099999V0202901N002619999999N999999999+00941-00811101981ADDMA1101961999999REMMET104MOBOB3 METAR XM18 //049 310619 051853Z AUTO 29005KT 09/M08 A3011 RMK A02 SLP198 T00941081 PA1427 DA1157=
0131008414999992016020519524+31000+061900FM-15+049099999V0202601N002119999999N999999999+00861-00821101981ADDMA1101961999999REMMET104MOBOB3 METAR XM18 //049 310619 051952Z AUTO 26004KT 09/M08 A3011 RMK A02 SLP198 T00861082 PA1427 DA1061=
0131008414999992016020520534+31000+061900FM-15+049099999V0202601N002619999999N999999999+00711-00741101941ADDMA1101931999999REMMET104MOBOB3 METAR XM18 //049 310619 052053Z AUTO 26005KT 07/M07 A3010 RMK A02 SLP194 T00711074 PA1436 DA0894=
0131008414999992016020521524+31000+061900FM-15+049099999V0202701N003119999999N999999999+00721-00641101941ADDMA1101931999999REMMET104MOBOB3 METAR XM18 //049 310619 052152Z AUTO 27006KT 07/M06 A3010 RMK A02 SLP194 T00721064 PA1436 DA0910=
0131008414999992016020522524+31000+061900FM-15+049099999V0202701N002619999999N999999999+00711-00811101901ADDMA1101901999999REMMET104MOBOB3 METAR XM18 //049 310619 052252Z AUTO 27005KT 07/M08 A3009 RMK A02 SLP190 T00711081 PA1446 DA0904=
0131008414999992016020523524+31000+061900FM-15+049099999V0202701N002619999999N999999999+00611-00841101931ADDMA1101901999999REMMET104MOBOB3 METAR XM18 //049 310619 052352Z AUTO 27005KT 06/M08 A3009 RMK A02 SLP193 T00611084 PA1446 DA0781=
0131008414999992016020600524+31000+061900FM-15+049099999V0202701N002619999999N999999999+00551-00861101961ADDMA1101901999999REMMET104MOBOB3 METAR XM18 //049 310619 060052Z AUTO 27005KT 06/M09 A3009 RMK A02 SLP196 T00551086 PA1446 DA0707=
0131008414999992016020601524+31000+061900FM-15+049099999V0202701N002119999999N999999999+00591-00891102051ADDMA1101961999999REMMET104MOBOB3 METAR XM18 //049 310619 060152Z AUTO 27004KT 06/M09 A3011 RMK A02 SLP205 T00591089 PA1427 DA0731=
0131008414999992016020602524+31000+061900FM-15+049099999V0202901N002619999999N999999999+00841-00731102071ADDMA1102001999999REMMET104MOBOB3 METAR XM18 //049 310619 060252Z AUTO 29005KT 08/M07 A3012 RMK A02 SLP207 T00841073 PA1417 DA1028=
0131008414999992016020603534+31000+061900FM-15+049099999V0203201N001519999999N999999999+01111-00721102131ADDMA1102071999999REMMET104MOBOB3 METAR XM18 //049 310619 060353Z AUTO 32003KT 11/M07 A3014 RMK A02 SLP213 T01111072 PA1398 DA1328=
0131008414999992016020604524+31000+061900FM-15+049099999V0203301N003119999999N999999999+01371-00761102111ADDMA1102071999999REMMET104MOBOB3 METAR XM18 //049 310619 060452Z AUTO 33006KT 14/M08 A3014 RMK A02 SLP211 T01371076 PA1398 DA1634=
0131008414999992016020605524+31000+061900FM-15+049099999V0202901N001519999999N999999999+01531-00701102071ADDMA1102031999999REMMET104MOBOB3 METAR XM18 //049 310619 060552Z AUTO 29003KT 15/M07 A3013 RMK A02 SLP207 T01531070 PA1407 DA1836=
0131008414999992016020606534+31000+061900FM-15+049099999V0202701N001519999999N999999999+01741-00751101941ADDMA1101931999999REMMET104MOBOB3 METAR XM18 //049 310619 060653Z AUTO 27003KT 17/M08 A3010 RMK A02 SLP194 T01741075 PA1436 DA2114=
0131008414999992016020607524+31000+061900FM-15+049099999V0203101N002119999999N999999999+01891-01041101831ADDMA1101831999999REMMET104MOBOB3 METAR XM18 //049 310619 060752Z AUTO 31004KT 19/M10 A3007 RMK A02 SLP183 T01891104 PA1465 DA2313=
0131008414999992016020608524+31000+061900FM-15+049099999V0203001N001019999999N999999999+02021-01011101761ADDMA1101761999999REMMET104MOBOB3 METAR XM18 //049 310619 060852Z AUTO 30002KT 20/M10 A3005 RMK A02 SLP176 T02021101 PA1484 DA2487=
0131008414999992016020609534+31000+061900FM-15+049099999V0201101N000519999999N999999999+02141-01171101671ADDMA1101661999999REMMET104MOBOB3 METAR XM18 //049 310619 060953Z AUTO 11001KT 21/M12 A3002 RMK A02 SLP167 T02141117 PA1504 DA2643=
0131008414999992016020610524+31000+061900FM-15+049099999V0201101N001019999999N999999999+02121-01161101641ADDMA1101631999999REMMET104MOBOB3 METAR XM18 //049 310619 061052Z AUTO 11002KT 21/M12 A3001 RMK A02 SLP164 T02121116 PA1513 DA2633=
0131008414999992016020611524+31000+061900FM-15+049099999V0203501N000519999999N999999999+02031-01191101661ADDMA1101631999999REMMET104MOBOB3 METAR XM18 //049 310619 061152Z AUTO 35001KT 20/M12 A3001 RMK A02 SLP166 T02031119 PA1513 DA2529=
0131008414999992016020612534+31000+061900FM-15+049099999V0201901N000519999999N999999999+01781-00921101691ADDMA1101631999999REMMET104MOBOB3 METAR XM18 //049 310619 061253Z AUTO 19001KT 18/M09 A3001 RMK A02 SLP169 T01781092 PA1513 DA2250=
0131008414999992016020613524+31000+061900FM-15+049099999V0201401N001019999999N999999999+01601-00931101741ADDMA1101661999999REMMET104MOBOB3 METAR XM18 //049 310619 061352Z AUTO 14002KT 16/M09 A3002 RMK A02 SLP174 T01601093 PA1504 DA2029=
0131008414999992016020614534+31000+061900FM-15+049099999V0201201N001519999999N999999999+01421-01011101741ADDMA1101661999999REMMET104MOBOB3 METAR XM18 //049 310619 061453Z AUTO 12003KT 14/M10 A3002 RMK A02 SLP174 T01421101 PA1504 DA1816=
0131008414999992016020615524+31000+061900FM-15+049099999V0202201N001019999999N999999999+01411-00941101781ADDMA1101761999999REMMET104MOBOB3 METAR XM18 //049 310619 061552Z AUTO 22002KT 14/M09 A3005 RMK A02 SLP178 T01411094 PA1484 DA1782=
0131008414999992016020616524+31000+061900FM-15+049099999V0203501N000519999999N999999999+01031-00761101791ADDMA1101761999999REMMET104MOBOB3 METAR XM18 //049 310619 061652Z AUTO 35001KT 10/M08 A3005 RMK A02 SLP179 T01031076 PA1484 DA1338=
0131008414999992016020617524+31000+061900FM-15+049099999V0209999C000019999999N999999999+00861-00831101791ADDMA1101761999999REMMET104MOBOB3 METAR XM18 //049 310619 061752Z AUTO 00000KT 09/M08 A3005 RMK A02 SLP179 T00861083 PA1484 DA1132=
0131008414999992016020618524+31000+061900FM-15+049099999V0201201N001019999999N999999999+00871-00921101741ADDMA1101691999999REMMET104MOBOB3 METAR XM18 //049 310619 061852Z AUTO 12002KT 09/M09 A3003 RMK A02 SLP174 T00871092 PA1494 DA1153=
0131008414999992016020619524+31000+061900FM-15+049099999V0201401N001019999999N999999999+00861-01021101691ADDMA1101661999999REMMET104MOBOB3 METAR XM18 //049 310619 061952Z AUTO 14002KT 09/M10 A3002 RMK A02 SLP169 T00861102 PA1504 DA1150=
0131008414999992016020620524+31000+061900FM-15+049099999V0209999C000019999999N999999999+00671-01001101691ADDMA1101661999999REMMET104MOBOB3 METAR XM18 //049 310619 062052Z AUTO 00000KT 07/M10 A3002 RMK A02 SLP169 T00671100 PA1504 DA0921=
0131008414999992016020621524+31000+061900FM-15+049099999V0200701N001019999999N999999999+00521-00971101661ADDMA1101631999999REMMET104MOBOB3 METAR XM18 //049 310619 062152Z AUTO 07002KT 05/M10 A3001 RMK A02 SLP166 T00521097 PA1513 DA0751=
0131008414999992016020622524+31000+061900FM-15+049099999V0200401N000519999999N999999999+00381-00981101711ADDMA1101661999999REMMET104MOBOB3 METAR XM18 //049 310619 062252Z AUTO 04001KT 04/M10 A3002 RMK A02 SLP171 T00381098 PA1504 DA0567=
0131008414999992016020623524+31000+061900FM-15+049099999V0202801N000519999999N999999999+00231-00911101771ADDMA1101691999999REMMET104MOBOB3 METAR XM18 //049 310619 062352Z AUTO 28001KT 02/M09 A3003 RMK A02 SLP177 T00231091 PA1494 DA0373=
0131008414999992016020700524+31000+061900FM-15+049099999V0203401N000519999999N999999999+00201-00911101871ADDMA1101791999999REMMET104MOBOB3 METAR XM18 //049 310619 070052Z AUTO 34001KT 02/M09 A3006 RMK A02 SLP187 T00201091 PA1475 DA0312=
0131008414999992016020701524+31000+061900FM-15+049099999V0203101N000519999999N999999999+00171-00941101971ADDMA1101861999999REMMET104MOBOB3 METAR XM18 //049 310619 070152Z AUTO 31001KT 02/M09 A3008 RMK A02 SLP197 T00171094 PA1455 DA0249=
0131008414999992016020702524+31000+061900FM-15+049099999V0200301N000519999999N999999999+00441-00871102071ADDMA1101961999999REMMET104MOBOB3 METAR XM18 //049 310619 070252Z AUTO 03001KT 04/M09 A3011 RMK A02 SLP207 T00441087 PA1427 DA0548=
0131008414999992016020703524+31000+061900FM-15+049099999V0203601N000519999999N999999999+00831-00741102101ADDMA1102031999999REMMET104MOBOB3 METAR XM18 //049 310619 070352Z AUTO 36001KT 08/M07 A3013 RMK A02 SLP210 T00831074 PA1407 DA1003=
0131008414999992016020704524+31000+061900FM-15+049099999V0200301N001019999999N999999999+01321-00771102121ADDMA1102071999999REMMET104MOBOB3 METAR XM18 //049 310619 070452Z AUTO 03002KT 13/M08 A3014 RMK A02 SLP212 T01321077 PA1398 DA1575=
0131008414999992016020705524+31000+061900FM-15+049099999V0201201N001019999999N999999999+01581-00821102081ADDMA1102031999999REMMET104MOBOB3 METAR XM18 //049 310619 070552Z AUTO 12002KT 16/M08 A3013 RMK A02 SLP208 T01581082 PA1407 DA1890=
0131008414999992016020706524+31000+061900FM-15+049099999V0200901N001019999999N999999999+01781-00971101951ADDMA1101931999999REMMET104MOBOB3 METAR XM18 //049 310619 070652Z AUTO 09002KT 18/M10 A3010 RMK A02 SLP195 T01781097 PA1436 DA2153=
0131008414999992016020707524+31000+061900FM-15+049099999V0200601N001019999999N999999999+01971-01131101791ADDMA1101791999999REMMET104MOBOB3 METAR XM18 //049 310619 070752Z AUTO 06002KT 20/M11 A3006 RMK A02 SLP179 T01971113 PA1475 DA2415=
0131008414999992016020708524+31000+061900FM-15+049099999V0201101N000519999999N999999999+02201-01091101711ADDMA1101691999999REMMET104MOBOB3 METAR XM18 //049 310619 070852Z AUTO 11001KT 22/M11 A3003 RMK A02 SLP171 T02201109 PA1494 DA2702=
0131008414999992016020709524+31000+061900FM-15+049099999V0203001N000519999999N999999999+02211-01231101651ADDMA1101631999999REMMET104MOBOB3 METAR XM18 //049 310619 070952Z AUTO 30001KT 22/M12 A3001 RMK A02 SLP165 T02211123 PA1513 DA2733=
0131008414999992016020710524+31000+061900FM-15+049099999V0200201N002119999999N999999999+02191-01201101601ADDMA1101561999999REMMET104MOBOB3 METAR XM18 //049 310619 071052Z AUTO 02004KT 22/M12 A2999 RMK A02 SLP160 T02191120 PA1533 DA2735=
0131008414999992016020711524+31000+061900FM-15+049099999V0200201N001019999999N999999999+02151-01011101621ADDMA1101561999999REMMET104MOBOB3 METAR XM18 //049 310619 071152Z AUTO 02002KT 22/M10 A2999 RMK A02 SLP162 T02151101 PA1533 DA2695=
0131008414999992016020712524+31000+061900FM-15+049099999V0203101N000519999999N999999999+01651-00521101671ADDMA1101561999999REMMET104MOBOB3 METAR XM18 //049 310619 071252Z AUTO 31001KT 17/M05 A2999 RMK A02 SLP167 T01651052 PA1533 DA2138=
0131008414999992016020713524+31000+061900FM-15+049099999V0203301N000519999999N999999999+01461-00901101731ADDMA1101591999999REMMET104MOBOB3 METAR XM18 //049 310619 071352Z AUTO 33001KT 15/M09 A3000 RMK A02 SLP173 T01461090 PA1523 DA1890=
0131008414999992016020714524+31000+061900FM-15+049099999V0203201N000519999999N999999999+01281-00891101721ADDMA1101591999999REMMET104MOBOB3 METAR XM18 //049 310619 071452Z AUTO 32001KT 13/M09 A3000 RMK A02 SLP172 T01281089 PA1523 DA1678=
0131008414999992016020715524+31000+061900FM-15+049099999V0203301N000519999999N999999999+01181-01081101731ADDMA1101631999999REMMET104MOBOB3 METAR XM18 //049 310619 071552Z AUTO 33001KT 12/M11 A3001 RMK A02 SLP173 T01181108 PA1513 DA1542=
0131008414999992016020716524+31000+061900FM-15+049099999V0203301N000519999999N999999999+01161-01241101641ADDMA1101591999999REMMET104MOBOB3 METAR XM18 //049 310619 071652Z AUTO 33001KT 12/M12 A3000 RMK A02 SLP164 T01161124 PA1523 DA1526=
0131008414999992016020717524+31000+061900FM-15+049099999V0209999C000019999999N999999999+00881-01051101641ADDMA1101591999999REMMET104MOBOB3 METAR XM18 //049 310619 071752Z AUTO 00000KT 09/M10 A3000 RMK A02 SLP164 T00881105 PA1523 DA1197=
0131008414999992016020718524+31000+061900FM-15+049099999V0201601N000519999999N999999999+01031-01181101571ADDMA1101561999999REMMET104MOBOB3 METAR XM18 //049 310619 071852Z AUTO 16001KT 10/M12 A2999 RMK A02 SLP157 T01031118 PA1533 DA1385=
0131008414999992016020719524+31000+061900FM-15+049099999V0209999C000019999999N999999999+00751-00871101511ADDMA1101491999999REMMET104MOBOB3 METAR XM18 //049 310619 071952Z AUTO 00000KT 08/M09 A2997 RMK A02 SLP151 T00751087 PA1552 DA1082=
0131008414999992016020720524+31000+061900FM-15+049099999V0200401N001019999999N999999999+00801-00871101481ADDMA1101491999999REMMET104MOBOB3 METAR XM18 //049 310619 072052Z AUTO 04002KT 08/M09 A2997 RMK A02 SLP148 T00801087 PA1552 DA1142=
0131008414999992016020721524+31000+061900FM-15+049099999V0200501N001019999999N999999999+00641-00801101461ADDMA1101461999999REMMET104MOBOB3 METAR XM18 //049 310619 072152Z AUTO 05002KT 06/M08 A2996 RMK A02 SLP146 T00641080 PA1562 DA0963=
0131008414999992016020722524+31000+061900FM-15+049099999V0201101N000519999999N999999999+00551-00801101471ADDMA1101461999999REMMET104MOBOB3 METAR XM18 //049 310619 072252Z AUTO 11001KT 06/M08 A2996 RMK A02 SLP147 T00551080 PA1562 DA0854=
0131008414999992016020723524+31000+061900FM-15+049099999V0200601N000519999999N999999999+00501-00801101481ADDMA1101461999999REMMET104MOBOB3 METAR XM18 //049 310619 072352Z AUTO 06001KT 05/M08 A2996 RMK A02 SLP148 T00501080 PA1562 DA0793=
0131008414999992016020800524+31000+061900FM-15+049099999V0200901N001019999999N999999999+00491-00781101571ADDMA1101491999999REMMET104MOBOB3 METAR XM18 //049 310619 080052Z AUTO 09002KT 05/M08 A2997 RMK A02 SLP157 T00491078 PA1552 DA0769=
0131008414999992016020801524+31000+061900FM-15+049099999V0200901N001519999999N999999999+00531-00811101621ADDMA1101521999999REMMET104MOBOB3 METAR XM18 //049 310619 080152Z AUTO 09003KT 05/M08 A2998 RMK A02 SLP162 T00531081 PA1542 DA0805=
0131008414999992016020802524+31000+061900FM-15+049099999V0200801N000519999999N999999999+00841-00871101681ADDMA1101591999999REMMET104MOBOB3 METAR XM18 //049 310619 080252Z AUTO 08001KT 08/M09 A3000 RMK A02 SLP168 T00841087 PA1523 DA1155=
0131008414999992016020803524+31000+061900FM-15+049099999V0202201N000519999999N999999999+01131-00941101731ADDMA1101661999999REMMET104MOBOB3 METAR XM18 //049 310619 080352Z AUTO 22001KT 11/M09 A3002 RMK A02 SLP173 T01131094 PA1504 DA1475=
0131008414999992016020804524+31000+061900FM-15+049099999V0201401N001019999999N999999999+01441-00981101741ADDMA1101691999999REMMET104MOBOB3 METAR XM18 //049 310619 080452Z AUTO 14002KT 14/M10 A3003 RMK A02 SLP174 T01441098 PA1494 DA1828=
0131008414999992016020805524+31000+061900FM-15+049099999V0201201N001519999999N999999999+01811-00951101661ADDMA1101631999999REMMET104MOBOB3 METAR XM18 //049 310619 080552Z AUTO 12003KT 18/M10 A3001 RMK A02 SLP166 T01811095 PA1513 DA2283=
0131008414999992016020806524+31000+061900FM-15+049099999V0202701N001519999999N999999999+02031-01041101551ADDMA1101561999999REMMET104MOBOB3 METAR XM18 //049 310619 080652Z AUTO 27003KT 20/M10 A2999 RMK A02 SLP155 T02031104 PA1533 DA2557=
0131008414999992016020807524+31000+061900FM-15+049099999V0200201N002119999999N999999999+02211-00971101411ADDMA1101421999999REMMET104MOBOB3 METAR XM18 //049 310619 080752Z AUTO 02004KT 22/M10 A2995 RMK A02 SLP141 T02211097 PA1571 DA2812=
0131008414999992016020808524+31000+061900FM-15+049099999V0201201N002119999999N999999999+02351-01211101291ADDMA1101321999999REMMET104MOBOB3 METAR XM18 //049 310619 080852Z AUTO 12004KT 24/M12 A2992 RMK A02 SLP129 T02351121 PA1601 DA2999=
0131008414999992016020809524+31000+061900FM-15+049099999V0201101N002119999999N999999999+02381-01281101231ADDMA1101251999999REMMET104MOBOB3 METAR XM18 //049 310619 080952Z AUTO 11004KT 24/M13 A2990 RMK A02 SLP123 T02381128 PA1620 DA3055=
0131008414999992016020810524+31000+061900FM-15+049099999V0201201N001019999999N999999999+02411-01281101201ADDMA1101221999999REMMET104MOBOB3 METAR XM18 //049 310619 081052Z AUTO 12002KT 24/M13 A2989 RMK A02 SLP120 T02411128 PA1630 DA3100=
0131008414999992016020811524+31000+061900FM-15+049099999V0200501N001019999999N999999999+02291-01191101181ADDMA1101181999999REMMET104MOBOB3 METAR XM18 //049 310619 081152Z AUTO 05002KT 23/M12 A2988 RMK A02 SLP118 T02291119 PA1639 DA2979=
0131008414999992016020812524+31000+061900FM-15+049099999V0202101N001019999999N999999999+02041-00931101241ADDMA1101221999999REMMET104MOBOB3 METAR XM18 //049 310619 081252Z AUTO 21002KT 20/M09 A2989 RMK A02 SLP124 T02041093 PA1630 DA2691=
0131008414999992016020813524+31000+061900FM-15+049099999V0209999C000019999999N999999999+01621-00741101281ADDMA1101221999999REMMET104MOBOB3 METAR XM18 //049 310619 081352Z AUTO 00000KT 16/M07 A2989 RMK A02 SLP128 T01621074 PA1630 DA2213=
0131008414999992016020814524+31000+061900FM-15+049099999V0203001N000519999999N999999999+01551-00711101221ADDMA1101181999999REMMET104MOBOB3 METAR XM18 //049 310619 081452Z AUTO 30001KT 16/M07 A2988 RMK A02 SLP122 T01551071 PA1639 DA2145=
0131008414999992016020815524+31000+061900FM-15+049099999V0202401N000519999999N999999999+01411-00751101171ADDMA1101151999999REMMET104MOBOB3 METAR XM18 //049 310619 081552Z AUTO 24001KT 14/M07 A2987 RMK A02 SLP117 T01411075 PA1649 DA1992=
0131008414999992016020816524+31000+061900FM-15+049099999V0201801N000519999999N999999999+01351-00881101181ADDMA1101181999999REMMET104MOBOB3 METAR XM18 //049 310619 081652Z AUTO 18001KT 14/M09 A2988 RMK A02 SLP118 T01351088 PA1639 DA1905=
0131008414999992016020817524+31000+061900FM-15+049099999V0202701N001019999999N999999999+01311-00631101141ADDMA1101181999999REMMET104MOBOB3 METAR XM18 //049 310619 081752Z AUTO 27002KT 13/M06 A2988 RMK A02 SLP114 T01311063 PA1639 DA1867=
0131008414999992016020818524+31000+061900FM-15+049099999V0201801N000519999999N999999999+01221-00951101061ADDMA1101121999999REMMET104MOBOB3 METAR XM18 //049 310619 081852Z AUTO 18001KT 12/M09 A2986 RMK A02 SLP106 T01221095 PA1659 DA1773=
0131008414999992016020819524+31000+061900FM-15+049099999V0202801N000519999999N999999999+01061-00771101021ADDMA1101081999999REMMET104MOBOB3 METAR XM18 //049 310619 081952Z AUTO 28001KT 11/M08 A2985 RMK A02 SLP102 T01061077 PA1668 DA1601=
0131008414999992016020820524+31000+061900FM-15+049099999V0201801N000519999999N999999999+00911-00681101021ADDMA1101081999999REMMET104MOBOB3 METAR XM18 //049 310619 082052Z AUTO 18001KT 09/M07 A2985 RMK A02 SLP102 T00911068 PA1668 DA1425=
0131008414999992016020821524+31000+061900FM-15+049099999V0202501N000519999999N999999999+00921-00601100981ADDMA1101051999999REMMET104MOBOB3 METAR XM18 //049 310619 082152Z AUTO 25001KT 09/M06 A2984 RMK A02 SLP098 T00921060 PA1678 DA1453=
0131008414999992016020822524+31000+061900FM-15+049099999V0202601N001019999999N999999999+00821-00501100991ADDMA1101051999999REMMET104MOBOB3 METAR XM18 //049 310619 082252Z AUTO 26002KT 08/M05 A2984 RMK A02 SLP099 T00821050 PA1678 DA1337=
0131008414999992016020823524+31000+061900FM-15+049099999V0201701N001019999999N999999999+00841-00571101001ADDMA1101051999999REMMET104MOBOB3 METAR XM18 //049 310619 082352Z AUTO 17002KT 08/M06 A2984 RMK A02 SLP100 T00841057 PA1678 DA1358=
0131008414999992016020900524+31000+061900FM-15+049099999V0202601N001519999999N999999999+00741-00761101141ADDMA1101151999999REMMET104MOBOB3 METAR XM18 //049 310619 090052Z AUTO 26003KT 07/M08 A2987 RMK A02 SLP114 T00741076 PA1649 DA1194=
0131008414999992016020901524+31000+061900FM-15+049099999V0203001N001519999999N999999999+00571-00681101311ADDMA1101251999999REMMET104MOBOB3 METAR XM18 //049 310619 090152Z AUTO 30003KT 06/M07 A2990 RMK A02 SLP131 T00571068 PA1620 DA0955=
0131008414999992016020902524+31000+061900FM-15+049099999V0203101N002119999999N999999999+00731-00161101411ADDMA1101351999999REMMET104MOBOB3 METAR XM18 //049 310619 090252Z AUTO 31004KT 07/M02 A2993 RMK A02 SLP141 T00731016 PA1591 DA1136=
0130008414999992016020903524+31000+061900FM-15+049099999V0203101N003119999999N999999999+01191+00021101481ADDMA1101461999999REMMET103MOBOB3 METAR XM18 //049 310619 090352Z AUTO 31006KT 12/00 A2996 RMK A02 SLP148 T01190002 PA1562 DA1661=
0141008414999992016020904524+31000+061900FM-15+049099999V0203201N005719999999N999999999+01431+00001101501ADDMA1101491999999OC100981REMMET106MOBOB3 METAR XM18 //049 310619 090452Z AUTO 32011G19KT 14/00 A2997 RMK A02 SLP150 T01430000 PA1552 DA1931=
0142008414999992016020905524+31000+061900FM-15+049099999V0203101N004619999999N999999999+01591-00071101521ADDMA1101521999999OC100881REMMET107MOBOB3 METAR XM18 //049 310619 090552Z AUTO 31009G17KT 16/M01 A2998 RMK A02 SLP152 T01591007 PA1542 DA2101=
0142008414999992016020906524+31000+061900FM-15+049099999V0203001N004619999999N999999999+01701-00041101481ADDMA1101491999999OC100821REMMET107MOBOB3 METAR XM18 //049 310619 090652Z AUTO 30009G16KT 17/M00 A2997 RMK A02 SLP148 T01701004 PA1552 DA2243=
0142008414999992016020907524+31000+061900FM-15+049099999V0203101N004619999999N999999999+01791-00111101381ADDMA1101391999999OC100771REMMET107MOBOB3 METAR XM18 //049 310619 090752Z AUTO 31009G15KT 18/M01 A2994 RMK A02 SLP138 T01791011 PA1581 DA2379=
0142008414999992016020908524+31000+061900FM-15+049099999V0203301N006219999999N999999999+01921-00161101281ADDMA1101291999999OC100981REMMET107MOBOB3 METAR XM18 //049 310619 090852Z AUTO 33012G19KT 19/M02 A2991 RMK A02 SLP128 T01921016 PA1610 DA2562=
0142008414999992016020909524+31000+061900FM-15+049099999V0203301N005719999999N999999999+01901-00171101241ADDMA1101251999999OC100931REMMET107MOBOB3 METAR XM18 //049 310619 090952Z AUTO 33011G18KT 19/M02 A2990 RMK A02 SLP124 T01901017 PA1620 DA2550=
0142008414999992016020910524+31000+061900FM-15+049099999V0203301N004619999999N999999999+01851-00191101291ADDMA1101291999999OC100881REMMET107MOBOB3 METAR XM18 //049 310619 091052Z AUTO 33009G17KT 19/M02 A2991 RMK A02 SLP129 T01851019 PA1610 DA2480=
0142008414999992016020911524+31000+061900FM-15+049099999V0203301N005719999999N999999999+01641-00221101421ADDMA1101391999999OC100981REMMET107MOBOB3 METAR XM18 //049 310619 091152Z AUTO 33011G19KT 16/M02 A2994 RMK A02 SLP142 T01641022 PA1581 DA2199=
0142008414999992016020912524+31000+061900FM-15+049099999V0203201N005119999999N999999999+01381-00251101571ADDMA1101491999999OC100881REMMET107MOBOB3 METAR XM18 //049 310619 091252Z AUTO 32010G17KT 14/M02 A2997 RMK A02 SLP157 T01381025 PA1552 DA1858=
0142008414999992016020913524+31000+061900FM-15+049099999V0203201N006219999999N999999999+01271-00221101701ADDMA1101591999999OC101031REMMET107MOBOB3 METAR XM18 //049 310619 091352Z AUTO 32012G20KT 13/M02 A3000 RMK A02 SLP170 T01271022 PA1523 DA1694=
0142008414999992016020914524+31000+061900FM-15+049099999V0203201N005119999999N999999999+01201-00191101801ADDMA1101691999999OC100981REMMET107MOBOB3 METAR XM18 //049 310619 091452Z AUTO 32010G19KT 12/M02 A3003 RMK A02 SLP180 T01201019 PA1494 DA1577=
0142008414999992016020915524+31000+061900FM-15+049099999V0203201N006219999999N999999999+01101-00261101801ADDMA1101761999999OC101031REMMET107MOBOB3 METAR XM18 //049 310619 091552Z AUTO 32012G20KT 11/M03 A3005 RMK A02 SLP180 T01101026 PA1484 DA1443=
0142008414999992016020916524+31000+061900FM-15+049099999V0203201N007719999999N999999999+00911-00361101831ADDMA1101791999999OC101441REMMET107MOBOB3 METAR XM18 //049 310619 091652Z AUTO 32015G28KT 09/M04 A3006 RMK A02 SLP183 T00911036 PA1475 DA1199=
0142008414999992016020917524+31000+061900FM-15+049099999V0203201N007219999999N999999999+00761-00431101941ADDMA1101901999999OC101291REMMET107MOBOB3 METAR XM18 //049 310619 091752Z AUTO 32014G25KT 08/M04 A3009 RMK A02 SLP194 T00761043 PA1446 DA0979=
0142008414999992016020918524+31000+061900FM-15+049099999V0203201N007219999999N999999999+00611-00481101981ADDMA1101931999999OC101241REMMET107MOBOB3 METAR XM18 //049 310619 091852Z AUTO 32014G24KT 06/M05 A3010 RMK A02 SLP198 T00611048 PA1436 DA0783=
0142008414999992016020919524+31000+061900FM-15+049099999V0203201N006219999999N999999999+00481-00491102021ADDMA1101961999999OC101031REMMET107MOBOB3 METAR XM18 //049 310619 091952Z AUTO 32012G20KT 05/M05 A3011 RMK A02 SLP202 T00481049 PA1427 DA0612=
0142008414999992016020920524+31000+061900FM-15+049099999V0203201N005719999999N999999999+00391-00501102051ADDMA1102001999999OC101181REMMET107MOBOB3 METAR XM18 //049 310619 092052Z AUTO 32011G23KT 04/M05 A3012 RMK A02 SLP205 T00391050 PA1417 DA0489=
0142008414999992016020921534+31000+061900FM-15+049099999V0203101N005719999999N999999999+00311-00531102131ADDMA1102071999999OC100931REMMET107MOBOB3 METAR XM18 //049 310619 092153Z AUTO 31011G18KT 03/M05 A3014 RMK A02 SLP213 T00311053 PA1398 DA0365=
0142008414999992016020922524+31000+061900FM-15+049099999V0203101N005119999999N999999999+00271-00551102221ADDMA1102131999999OC100981REMMET107MOBOB3 METAR XM18 //049 310619 092252Z AUTO 31010G19KT 03/M06 A3016 RMK A02 SLP222 T00271055 PA1378 DA0291=
0142008414999992016020923524+31000+061900FM-15+049099999V0203101N005119999999N999999999+00251-00571102281ADDMA1102171999999OC100881REMMET107MOBOB3 METAR XM18 //049 310619 092352Z AUTO 31010G17KT 03/M06 A3017 RMK A02 SLP228 T00251057 PA1369 DA0254=
0142008414999992016021000524+31000+061900FM-15+049099999V0203201N005119999999N999999999+00211-00611102451ADDMA1102301999999OC100931REMMET107MOBOB3 METAR XM18 //049 310619 100052Z AUTO 32010G18KT 02/M06 A3021 RMK A02 SLP245 T00211061 PA1330 DA0154=
0142008414999992016021001524+31000+061900FM-15+049099999V0203001N004119999999N999999999+00181-00641102611ADDMA1102471999999OC100821REMMET107MOBOB3 METAR XM18 //049 310619 100152Z AUTO 30008G16KT 02/M06 A3026 RMK A02 SLP261 T00181064 PA1292 DA0068=
0142008414999992016021002524+31000+061900FM-15+049099999V0203301N004619999999N999999999+00271-00681102751ADDMA1102611999999OC100771REMMET107MOBOB3 METAR XM18 //049 310619 100252Z AUTO 33009G15KT 03/M07 A3030 RMK A02 SLP275 T00271068 PA1253 DA0130=
0142008414999992016021003534+31000+061900FM-15+049099999V0203101N005119999999N999999999+00451-00661102821ADDMA1102671999999OC100931REMMET107MOBOB3 METAR XM18 //049 310619 100353Z AUTO 31010G18KT 05/M07 A3032 RMK A02 SLP282 T00451066 PA1234 DA0329=
0142008414999992016021004524+31000+061900FM-15+049099999V0203101N005119999999N999999999+00601-00661102821ADDMA1102671999999OC100931REMMET107MOBOB3 METAR XM18 //049 310619 100452Z AUTO 31010G18KT 06/M07 A3032 RMK A02 SLP282 T00601066 PA1234 DA0512=
0142008414999992016021005524+31000+061900FM-15+049099999V0203201N006219999999N999999999+00791-00711102821ADDMA1102671999999OC101081REMMET107MOBOB3 METAR XM18 //049 310619 100552Z AUTO 32012G21KT 08/M07 A3032 RMK A02 SLP282 T00791071 PA1234 DA0741=
0142008414999992016021006524+31000+061900FM-15+049099999V0203101N006219999999N999999999+00861-00811102721ADDMA1102571999999OC101241REMMET107MOBOB3 METAR XM18 //049 310619 100652Z AUTO 31012G24KT 09/M08 A3029 RMK A02 SLP272 T00861081 PA1263 DA0858=
0142008414999992016021007524+31000+061900FM-15+049099999V0203101N007219999999N999999999+00911-00921102661ADDMA1102511999999OC101241REMMET107MOBOB3 METAR XM18 //049 310619 100752Z AUTO 31014G24KT 09/M09 A3027 RMK A02 SLP266 T00911092 PA1282 DA0938=
0142008414999992016021008524+31000+061900FM-15+049099999V0203101N006719999999N999999999+00951-00891102521ADDMA1102341999999OC101181REMMET107MOBOB3 METAR XM18 //049 310619 100852Z AUTO 31013G23KT 10/M09 A3022 RMK A02 SLP252 T00951089 PA1321 DA1035=
0142008414999992016021009524+31000+061900FM-15+049099999V0203101N006219999999N999999999+00991-00921102451ADDMA1102271999999OC101081REMMET107MOBOB3 METAR XM18 //049 310619 100952Z AUTO 31012G21KT 10/M09 A3020 RMK A02 SLP245 T00991092 PA1340 DA1106=
0142008414999992016021010524+31000+061900FM-15+049099999V0203201N007219999999N999999999+00971-01001102421ADDMA1102231999999OC101341REMMET107MOBOB3 METAR XM18 //049 310619 101052Z AUTO 32014G26KT 10/M10 A3019 RMK A02 SLP242 T00971100 PA1350 DA1091=
0142008414999992016021011524+31000+061900FM-15+049099999V0203301N006219999999N999999999+00911-00981102471ADDMA1102271999999OC100981REMMET107MOBOB3 METAR XM18 //049 310619 101152Z AUTO 33012G19KT 09/M10 A3020 RMK A02 SLP247 T00911098 PA1340 DA1008=
0142008414999992016021012524+31000+061900FM-15+049099999V0203101N004119999999N999999999+00761-00981102521ADDMA1102301999999OC100771REMMET107MOBOB3 METAR XM18 //049 310619 101252Z AUTO 31008G15KT 08/M10 A3021 RMK A02 SLP252 T00761098 PA1330 DA0815=
0131008414999992016021013524+31000+061900FM-15+049099999V0203101N003119999999N999999999+00621-00951102611ADDMA1102371999999REMMET104MOBOB3 METAR XM18 //049 310619 101352Z AUTO 31006KT 06/M09 A3023 RMK A02 SLP261 T00621095 PA1311 DA0622=
0142008414999992016021014524+31000+061900FM-15+049099999V0203101N004119999999N999999999+00511-00941102621ADDMA1102371999999OC100881REMMET107MOBOB3 METAR XM18 //049 310619 101452Z AUTO 31008G17KT 05/M09 A3023 RMK A02 SLP262 T00511094 PA1311 DA0488=
0142008414999992016021015524+31000+061900FM-15+049099999V0203001N004619999999N999999999+00421-01031102611ADDMA1102371999999OC100981REMMET107MOBOB3 METAR XM18 //049 310619 101552Z AUTO 30009G19KT 04/M10 A3023 RMK A02 SLP261 T00421103 PA1311 DA0375=
0142008414999992016021016524+31000+061900FM-15+049099999V0203101N004619999999N999999999+00381-00961102631ADDMA1102401999999OC100881REMMET107MOBOB3 METAR XM18 //049 310619 101652Z AUTO 31009G17KT 04/M10 A3024 RMK A02 SLP263 T00381096 PA1301 DA0316=
0142008414999992016021017524+31000+061900FM-15+049099999V0203001N005719999999N999999999+00341-00921102581ADDMA1102371999999OC100931REMMET107MOBOB3 METAR XM18 //049 310619 101752Z AUTO 30011G18KT 03/M09 A3023 RMK A02 SLP258 T00341092 PA1311 DA0280=
0142008414999992016021018524+31000+061900FM-15+049099999V0203001N005119999999N999999999+00211-01011102581ADDMA1102371999999OC100931REMMET107MOBOB3 METAR XM18 //049 310619 101852Z AUTO 30010G18KT 02/M10 A3023 RMK A02 SLP258 T00211101 PA1311 DA0117=
0142008414999992016021019524+31000+061900FM-15+049099999V0203101N005719999999N999999999+00131-01011102551ADDMA1102341999999OC101131REMMET107MOBOB3 METAR XM18 //049 310619 101952Z AUTO 31011G22KT 01/M10 A3022 RMK A02 SLP255 T00131101 PA1321 DA0029=
0142008414999992016021020524+31000+061900FM-15+049099999V0203001N006719999999N999999999+00071-01051102481ADDMA1102271999999OC101131REMMET107MOBOB3 METAR XM18 //049 310619 102052Z AUTO 30013G22KT 01/M10 A3020 RMK A02 SLP248 T00071105 PA1340 DA-023=
0142008414999992016021021524+31000+061900FM-15+049099999V0203001N005119999999N999999999+00001-01061102481ADDMA1102271999999OC100931REMMET107MOBOB3 METAR XM18 //049 310619 102152Z AUTO 30010G18KT 00/M11 A3020 RMK A02 SLP248 T00001106 PA1340 DA-110=
0143008414999992016021022524+31000+061900FM-15+049099999V0203001N005119999999N999999999-00031-01031102491ADDMA1102271999999OC100981REMMET108MOBOB3 METAR XM18 //049 310619 102252Z AUTO 30010G19KT M00/M10 A3020 RMK A02 SLP249 T10031103 PA1340 DA-147=
0143008414999992016021023524+31000+061900FM-15+049099999V0203301N005119999999N999999999-00041-01041102461ADDMA1102231999999OC100881REMMET108MOBOB3 METAR XM18 //049 310619 102352Z AUTO 33010G17KT M00/M10 A3019 RMK A02 SLP246 T10041104 PA1350 DA-148=
0143008414999992016021100524+31000+061900FM-15+049099999V0202901N004619999999N999999999-00061-01011102521ADDMA1102271999999OC100771REMMET108MOBOB3 METAR XM18 //049 310619 110052Z AUTO 29009G15KT M01/M10 A3020 RMK A02 SLP252 T10061101 PA1340 DA-184=
0143008414999992016021101524+31000+061900FM-15+049099999V0202801N004119999999N999999999-00081-01001102571ADDMA1102301999999OC100671REMMET108MOBOB3 METAR XM18 //049 310619 110152Z AUTO 28008G13KT M01/M10 A3021 RMK A02 SLP257 T10081100 PA1330 DA-221=
0142008414999992016021102524+31000+061900FM-15+049099999V0203001N004619999999N999999999+00031-00961102611ADDMA1102341999999OC100931REMMET107MOBOB3 METAR XM18 //049 310619 110252Z AUTO 30009G18KT 00/M10 A3022 RMK A02 SLP261 T00031096 PA1321 DA-094=
0142008414999992016021103524+31000+061900FM-15+049099999V0203001N005719999999N999999999+00211-00951102601ADDMA1102341999999OC101081REMMET107MOBOB3 METAR XM18 //049 310619 110352Z AUTO 30011G21KT 02/M10 A3022 RMK A02 SLP260 T00211095 PA1321 DA0130=
0142008414999992016021104524+31000+061900FM-15+049099999V0202901N005119999999N999999999+00401-00931102511ADDMA1102271999999OC101031REMMET107MOBOB3 METAR XM18 //049 310619 110452Z AUTO 29010G20KT 04/M09 A3020 RMK A02 SLP251 T00401093 PA1340 DA0390=
0142008414999992016021105524+31000+061900FM-15+049099999V0202901N004619999999N999999999+00541-00931102501ADDMA1102271999999OC100881REMMET107MOBOB3 METAR XM18 //049 310619 110552Z AUTO 29009G17KT 05/M09 A3020 RMK A02 SLP250 T00541093 PA1340 DA0561=
0131008414999992016021106524+31000+061900FM-15+049099999V0203001N003619999999N999999999+00711-00911102381ADDMA1102171999999REMMET104MOBOB3 METAR XM18 //049 310619 110652Z AUTO 30007KT 07/M09 A3017 RMK A02 SLP238 T00711091 PA1369 DA0805=
0142008414999992016021107524+31000+061900FM-15+049099999V0202801N004119999999N999999999+00811-01001102241ADDMA1102031999999OC100721REMMET107MOBOB3 METAR XM18 //049 310619 110752Z AUTO 28008G14KT 08/M10 A3013 RMK A02 SLP224 T00811100 PA1407 DA0970=
0131008414999992016021108524+31000+061900FM-15+049099999V0202901N003119999999N999999999+00941-01051102121ADDMA1101931999999REMMET104MOBOB3 METAR XM18 //049 310619 110852Z AUTO 29006KT 09/M10 A3010 RMK A02 SLP212 T00941105 PA1436 DA1161=
0142008414999992016021109524+31000+061900FM-15+049099999V0202901N004619999999N999999999+00981-01071102051ADDMA1101861999999OC100721REMMET107MOBOB3 METAR XM18 //049 310619 110952Z AUTO 29009G14KT 10/M11 A3008 RMK A02 SLP205 T00981107 PA1455 DA1232=
0131008414999992016021110524+31000+061900FM-15+049099999V0203301N003119999999N999999999+01051-01131102011ADDMA1101831999999REMMET104MOBOB3 METAR XM18 //049 310619 111052Z AUTO 33006KT 11/M11 A3007 RMK A02 SLP201 T01051113 PA1465 DA1326=
0131008414999992016021111524+31000+061900FM-15+049099999V0203001N002619999999N999999999+01011-01031101981ADDMA1101791999999REMMET104MOBOB3 METAR XM18 //049 310619 111152Z AUTO 30005KT 10/M10 A3006 RMK A02 SLP198 T01011103 PA1475 DA1293=
0131008414999992016021112534+31000+061900FM-15+049099999V0203201N001019999999N999999999+00851-01021102001ADDMA1101791999999REMMET104MOBOB3 METAR XM18 //049 310619 111253Z AUTO 32002KT 09/M10 A3006 RMK A02 SLP200 T00851102 PA1475 DA1102=
0131008414999992016021113524+31000+061900FM-15+049099999V0209999C000019999999N999999999+00691-01041102021ADDMA1101791999999REMMET104MOBOB3 METAR XM18 //049 310619 111352Z AUTO 00000KT 07/M10 A3006 RMK A02 SLP202 T00691104 PA1475 DA0908=
0131008414999992016021114534+31000+061900FM-15+049099999V0202301N001019999999N999999999+00671-00941102081ADDMA1101861999999REMMET104MOBOB3 METAR XM18 //049 310619 111453Z AUTO 23002KT 07/M09 A3008 RMK A02 SLP208 T00671094 PA1455 DA0863=
0131008414999992016021115524+31000+061900FM-15+049099999V0202701N001519999999N999999999+00561-00881102001ADDMA1101791999999REMMET104MOBOB3 METAR XM18 //049 310619 111552Z AUTO 27003KT 06/M09 A3006 RMK A02 SLP200 T00561088 PA1475 DA0755=
0131008414999992016021116524+31000+061900FM-15+049099999V0202701N002119999999N999999999+00401-00841102001ADDMA1101791999999REMMET104MOBOB3 METAR XM18 //049 310619 111652Z AUTO 27004KT 04/M08 A3006 RMK A02 SLP200 T00401084 PA1475 DA0561=
0131008414999992016021117524+31000+061900FM-15+049099999V0202601N002619999999N999999999+00301-00881102001ADDMA1101791999999REMMET104MOBOB3 METAR XM18 //049 310619 111752Z AUTO 26005KT 03/M09 A3006 RMK A02 SLP200 T00301088 PA1475 DA0436=
0131008414999992016021118524+31000+061900FM-15+049099999V0202801N002119999999N999999999+00341-00901101971ADDMA1101791999999REMMET104MOBOB3 METAR XM18 //049 310619 111852Z AUTO 28004KT 03/M09 A3006 RMK A02 SLP197 T00341090 PA1475 DA0485=
0131008414999992016021119534+31000+061900FM-15+049099999V0202701N001019999999N999999999+00291-00911101971ADDMA1101791999999REMMET104MOBOB3 METAR XM18 //049 310619 111953Z AUTO 27002KT 03/M09 A3006 RMK A02 SLP197 T00291091 PA1475 DA0423=
0131008414999992016021120524+31000+061900FM-15+049099999V0203301N003119999999N999999999+00251-00941101851ADDMA1101661999999REMMET104MOBOB3 METAR XM18 //049 310619 112052Z AUTO 33006KT 03/M09 A3002 RMK A02 SLP185 T00251094 PA1504 DA0408=
0131008414999992016021121524+31000+061900FM-15+049099999V0203101N002119999999N999999999+00281-00951101881ADDMA1101691999999REMMET104MOBOB3 METAR XM18 //049 310619 112152Z AUTO 31004KT 03/M09 A3003 RMK A02 SLP188 T00281095 PA1494 DA0433=
0131008414999992016021122524+31000+061900FM-15+049099999V0203101N002119999999N999999999+00291-00961101871ADDMA1101691999999REMMET104MOBOB3 METAR XM18 //049 310619 112252Z AUTO 31004KT 03/M10 A3003 RMK A02 SLP187 T00291096 PA1494 DA0445=
0131008414999992016021123524+31000+061900FM-15+049099999V0203001N002619999999N999999999+00231-00911101921ADDMA1101761999999REMMET104MOBOB3 METAR XM18 //049 310619 112352Z AUTO 30005KT 02/M09 A3005 RMK A02 SLP192 T00231091 PA1484 DA0361=
0131008414999992016021200534+31000+061900FM-15+049099999V0203101N002119999999N999999999+00231-00821102011ADDMA1101831999999REMMET104MOBOB3 METAR XM18 //049 310619 120053Z AUTO 31004KT 02/M08 A3007 RMK A02 SLP201 T00231082 PA1465 DA0339=
0131008414999992016021201524+31000+061900FM-15+049099999V0203301N003119999999N999999999+00221-00791102101ADDMA1101901999999REMMET104MOBOB3 METAR XM18 //049 310619 120152Z AUTO 33006KT 02/M08 A3009 RMK A02 SLP210 T00221079 PA1446 DA0304=
0131008414999992016021202524+31000+061900FM-15+049099999V0203001N002619999999N999999999+00291-00731102201ADDMA1102001999999REMMET104MOBOB3 METAR XM18 //049 310619 120252Z AUTO 30005KT 03/M07 A3012 RMK A02 SLP220 T00291073 PA1417 DA0357=
0131008414999992016021203524+31000+061900FM-15+049099999V0203201N003119999999N999999999+00531-00741102261ADDMA1102071999999REMMET104MOBOB3 METAR XM18 //049 310619 120352Z AUTO 32006KT 05/M07 A3014 RMK A02 SLP226 T00531074 PA1398 DA0627=
0131008414999992016021204524+31000+061900FM-15+049099999V0203201N002619999999N999999999+00751-00731102291ADDMA1102101999999REMMET104MOBOB3 METAR XM18 //049 310619 120452Z AUTO 32005KT 08/M07 A3015 RMK A02 SLP229 T00751073 PA1388 DA0883=
0142008414999992016021205534+31000+061900FM-15+049099999V0203301N003619999999N999999999+00941-00791102241ADDMA1102071999999OC100671REMMET107MOBOB3 METAR XM18 //049 310619 120553Z AUTO 33007G13KT 09/M08 A3014 RMK A02 SLP224 T00941079 PA1398 DA1122=
0131008414999992016021206524+31000+061900FM-15+049099999V0203101N002619999999N999999999+01071-00801102191ADDMA1102031999999REMMET104MOBOB3 METAR XM18 //049 310619 120652Z AUTO 31005KT 11/M08 A3013 RMK A02 SLP219 T01071080 PA1407 DA1289=
0131008414999992016021207524+31000+061900FM-15+049099999V0203201N003119999999N999999999+01201-00821102071ADDMA1101931999999REMMET104MOBOB3 METAR XM18 //049 310619 120752Z AUTO 32006KT 12/M08 A3010 RMK A02 SLP207 T01201082 PA1436 DA1479=
0131008414999992016021208524+31000+061900FM-15+049099999V0203101N002619999999N999999999+01281-00851102031ADDMA1101901999999REMMET104MOBOB3 METAR XM18 //049 310619 120852Z AUTO 31005KT 13/M09 A3009 RMK A02 SLP203 T01281085 PA1446 DA1584=
0142008414999992016021209524+31000+061900FM-15+049099999V0203401N004119999999N999999999+01361-00941101981ADDMA1101861999999OC100671REMMET107MOBOB3 METAR XM18 //049 310619 120952Z AUTO 34008G13KT 14/M09 A3008 RMK A02 SLP198 T01361094 PA1455 DA1688=
0131008414999992016021210524+31000+061900FM-15+049099999V0203001N002119999999N999999999+01361-01001102021ADDMA1101901999999REMMET104MOBOB3 METAR XM18 //049 310619 121052Z AUTO 30004KT 14/M10 A3009 RMK A02 SLP202 T01361100 PA1446 DA1674=
0131008414999992016021211534+31000+061900FM-15+049099999V0203101N001519999999N999999999+01331-00911102061ADDMA1101931999999REMMET104MOBOB3 METAR XM18 //049 310619 121153Z AUTO 31003KT 13/M09 A3010 RMK A02 SLP206 T01331091 PA1436 DA1629=
0131008414999992016021212524+31000+061900FM-15+049099999V0203301N001019999999N999999999+01161-00841102121ADDMA1101961999999REMMET104MOBOB3 METAR XM18 //049 310619 121252Z AUTO 33002KT 12/M08 A3011 RMK A02 SLP212 T01161084 PA1427 DA1418=
0131008414999992016021213524+31000+061900FM-15+049099999V0203201N000519999999N999999999+00961-00831102171ADDMA1102001999999REMMET104MOBOB3 METAR XM18 //049 310619 121352Z AUTO 32001KT 10/M08 A3012 RMK A02 SLP217 T00961083 PA1417 DA1168=
0131008414999992016021214524+31000+061900FM-15+049099999V0209999C000019999999N999999999+00831-00891102251ADDMA1102071999999REMMET104MOBOB3 METAR XM18 //049 310619 121452Z AUTO 00000KT 08/M09 A3014 RMK A02 SLP225 T00831089 PA1398 DA0986=
0131008414999992016021215534+31000+061900FM-15+049099999V0203101N001519999999N999999999+00881-00841102291ADDMA1102131999999REMMET104MOBOB3 METAR XM18 //049 310619 121553Z AUTO 31003KT 09/M08 A3016 RMK A02 SLP229 T00881084 PA1378 DA1024=
0131008414999992016021216524+31000+061900FM-15+049099999V0202601N002119999999N999999999+00701-00811102291ADDMA1102131999999REMMET104MOBOB3 METAR XM18 //049 310619 121652Z AUTO 26004KT 07/M08 A3016 RMK A02 SLP229 T00701081 PA1378 DA0808=
0131008414999992016021217524+31000+061900FM-15+049099999V0202801N002119999999N999999999+00511-00751102291ADDMA1102131999999REMMET104MOBOB3 METAR XM18 //049 310619 121752Z AUTO 28004KT 05/M08 A3016 RMK A02 SLP229 T00511075 PA1378 DA0578=
0131008414999992016021218524+31000+061900FM-15+049099999V0202701N001519999999N999999999+00401-00721102251ADDMA1102101999999REMMET104MOBOB3 METAR XM18 //049 310619 121852Z AUTO 27003KT 04/M07 A3015 RMK A02 SLP225 T00401072 PA1388 DA0457=
0131008414999992016021219534+31000+061900FM-15+049099999V0203101N001519999999N999999999+00351-00761102211ADDMA1102071999999REMMET104MOBOB3 METAR XM18 //049 310619 121953Z AUTO 31003KT 04/M08 A3014 RMK A02 SLP221 T00351076 PA1398 DA0406=
0131008414999992016021220524+31000+061900FM-15+049099999V0202901N001519999999N999999999+00281-00761102171ADDMA1102031999999REMMET104MOBOB3 METAR XM18 //049 310619 122052Z AUTO 29003KT 03/M08 A3013 RMK A02 SLP217 T00281076 PA1407 DA0332=
0131008414999992016021221524+31000+061900FM-15+049099999V0202901N001519999999N999999999+00251-00751102201ADDMA1102071999999REMMET104MOBOB3 METAR XM18 //049 310619 122152Z AUTO 29003KT 03/M08 A3014 RMK A02 SLP220 T00251075 PA1398 DA0283=
0131008414999992016021222524+31000+061900FM-15+049099999V0202701N001019999999N999999999+00221-00751102201ADDMA1102071999999REMMET104MOBOB3 METAR XM18 //049 310619 122252Z AUTO 27002KT 02/M08 A3014 RMK A02 SLP220 T00221075 PA1398 DA0245=
0131008414999992016021223534+31000+061900FM-15+049099999V0202601N001519999999N999999999+00251-00761102241ADDMA1102101999999REMMET104MOBOB3 METAR XM18 //049 310619 122353Z AUTO 26003KT 03/M08 A3015 RMK A02 SLP224 T00251076 PA1388 DA0270=
0131008414999992016021300524+31000+061900FM-15+049099999V0202701N002119999999N999999999+00121-00741102311ADDMA1102131999999REMMET104MOBOB3 METAR XM18 //049 310619 130052Z AUTO 27004KT 01/M07 A3016 RMK A02 SLP231 T00121074 PA1378 DA0098=
0131008414999992016021301524+31000+061900FM-15+049099999V0202701N001019999999N999999999+00111-00741102371ADDMA1102171999999REMMET104MOBOB3 METAR XM18 //049 310619 130152Z AUTO 27002KT 01/M07 A3017 RMK A02 SLP237 T00111074 PA1369 DA0073=
0131008414999992016021302534+31000+061900FM-15+049099999V0202701N002119999999N999999999+00321-00681102501ADDMA1102301999999REMMET104MOBOB3 METAR XM18 //049 310619 130253Z AUTO 27004KT 03/M07 A3021 RMK A02 SLP250 T00321068 PA1330 DA0288=
0131008414999992016021303524+31000+061900FM-15+049099999V0203301N003119999999N999999999+00611-00691102501ADDMA1102341999999REMMET104MOBOB3 METAR XM18 //049 310619 130352Z AUTO 33006KT 06/M07 A3022 RMK A02 SLP250 T00611069 PA1321 DA0631=
0131008414999992016021304524+31000+061900FM-15+049099999V0203201N003119999999N999999999+00851-00651102561ADDMA1102401999999REMMET104MOBOB3 METAR XM18 //049 310619 130452Z AUTO 32006KT 09/M07 A3024 RMK A02 SLP256 T00851065 PA1301 DA0899=
0131008414999992016021305534+31000+061900FM-15+049099999V0203401N002619999999N999999999+01081-00681102491ADDMA1102341999999REMMET104MOBOB3 METAR XM18 //049 310619 130553Z AUTO 34005KT 11/M07 A3022 RMK A02 SLP249 T01081068 PA1321 DA1198=
0131008414999992016021306524+31000+061900FM-15+049099999V0203101N001519999999N999999999+01291-00671102411ADDMA1102271999999REMMET104MOBOB3 METAR XM18 //049 310619 130652Z AUTO 31003KT 13/M07 A3020 RMK A02 SLP241 T01291067 PA1340 DA1472=
0131008414999992016021307524+31000+061900FM-15+049099999V0203501N002119999999N999999999+01511-00741102281ADDMA1102171999999REMMET104MOBOB3 METAR XM18 //049 310619 130752Z AUTO 35004KT 15/M07 A3017 RMK A02 SLP228 T01511074 PA1369 DA1763=
0131008414999992016021308534+31000+061900FM-15+049099999V0203501N002119999999N999999999+01561-00821102211ADDMA1102101999999REMMET104MOBOB3 METAR XM18 //049 310619 130853Z AUTO 35004KT 16/M08 A3015 RMK A02 SLP221 T01561082 PA1388 DA1843=
0131008414999992016021309524+31000+061900FM-15+049099999V0203401N001019999999N999999999+01661-00771102171ADDMA1102071999999REMMET104MOBOB3 METAR XM18 //049 310619 130952Z AUTO 34002KT 17/M08 A3014 RMK A02 SLP217 T01661077 PA1398 DA1973=
0131008414999992016021310524+31000+061900FM-15+049099999V0203401N001519999999N999999999+01641-00811102171ADDMA1102071999999REMMET104MOBOB3 METAR XM18 //049 310619 131052Z AUTO 34003KT 16/M08 A3014 RMK A02 SLP217 T01641081 PA1398 DA1948=
0131008414999992016021311534+31000+061900FM-15+049099999V0203501N002119999999N999999999+01561-00821102211ADDMA1102101999999REMMET104MOBOB3 METAR XM18 //049 310619 131153Z AUTO 35004KT 16/M08 A3015 RMK A02 SLP221 T01561082 PA1388 DA1843=
0131008414999992016021312524+31000+061900FM-15+049099999V0203201N000519999999N999999999+01301-00621102291ADDMA1102131999999REMMET104MOBOB3 METAR XM18 //049 310619 131252Z AUTO 32001KT 13/M06 A3016 RMK A02 SLP229 T01301062 PA1378 DA1533=
0131008414999992016021313534+31000+061900FM-15+049099999V0200501N001519999999N999999999+01241-00761102301ADDMA1102131999999REMMET104MOBOB3 METAR XM18 //049 310619 131353Z AUTO 05003KT 12/M08 A3016 RMK A02 SLP230 T01241076 PA1378 DA1457=
0131008414999992016021314534+31000+061900FM-15+049099999V0203001N000519999999N999999999+00971-00671102381ADDMA1102201999999REMMET104MOBOB3 METAR XM18 //049 310619 131453Z AUTO 30001KT 10/M07 A3018 RMK A02 SLP238 T00971067 PA1359 DA1115=
0131008414999992016021315524+31000+061900FM-15+049099999V0203001N000519999999N999999999+00871-00601102361ADDMA1102201999999REMMET104MOBOB3 METAR XM18 //049 310619 131552Z AUTO 30001KT 09/M06 A3018 RMK A02 SLP236 T00871060 PA1359 DA0997=
0131008414999992016021316524+31000+061900FM-15+049099999V0202901N000519999999N999999999+00731-00621102351ADDMA1102201999999REMMET104MOBOB3 METAR XM18 //049 310619 131652Z AUTO 29001KT 07/M06 A3018 RMK A02 SLP235 T00731062 PA1359 DA0827=
0131008414999992016021317534+31000+061900FM-15+049099999V0202801N001019999999N999999999+00681-00741102331ADDMA1102201999999REMMET104MOBOB3 METAR XM18 //049 310619 131753Z AUTO 28002KT 07/M07 A3018 RMK A02 SLP233 T00681074 PA1359 DA0762=
0131008414999992016021318524+31000+061900FM-15+049099999V0203201N001019999999N999999999+00621-00861102311ADDMA1102201999999REMMET104MOBOB3 METAR XM18 //049 310619 131852Z AUTO 32002KT 06/M09 A3018 RMK A02 SLP231 T00621086 PA1359 DA0685=
0131008414999992016021319524+31000+061900FM-15+049099999V0202901N001519999999N999999999+00561-00941102291ADDMA1102201999999REMMET104MOBOB3 METAR XM18 //049 310619 131952Z AUTO 29003KT 06/M09 A3018 RMK A02 SLP229 T00561094 PA1359 DA0609=
0131008414999992016021320534+31000+061900FM-15+049099999V0203101N001519999999N999999999+00411-00961102271ADDMA1102171999999REMMET104MOBOB3 METAR XM18 //049 310619 132053Z AUTO 31003KT 04/M10 A3017 RMK A02 SLP227 T00411096 PA1369 DA0437=
0131008414999992016021321524+31000+061900FM-15+049099999V0203201N002619999999N999999999+00391-00981102261ADDMA1102171999999REMMET104MOBOB3 METAR XM18 //049 310619 132152Z AUTO 32005KT 04/M10 A3017 RMK A02 SLP226 T00391098 PA1369 DA0412=
0131008414999992016021322524+31000+061900FM-15+049099999V0203101N001519999999N999999999+00391-00971102261ADDMA1102171999999REMMET104MOBOB3 METAR XM18 //049 310619 132252Z AUTO 31003KT 04/M10 A3017 RMK A02 SLP226 T00391097 PA1369 DA0412=
0131008414999992016021323524+31000+061900FM-15+049099999V0203001N001019999999N999999999+00291-00931102351ADDMA1102231999999REMMET104MOBOB3 METAR XM18 //049 310619 132352Z AUTO 30002KT 03/M09 A3019 RMK A02 SLP235 T00291093 PA1350 DA0266=
0131008414999992016021400524+31000+061900FM-15+049099999V0203501N000519999999N999999999+00161-00951102431ADDMA1102271999999REMMET104MOBOB3 METAR XM18 //049 310619 140052Z AUTO 35001KT 02/M09 A3020 RMK A02 SLP243 T00161095 PA1340 DA0093=
0131008414999992016021401534+31000+061900FM-15+049099999V0209999C000019999999N999999999+00181-00911102541ADDMA1102371999999REMMET104MOBOB3 METAR XM18 //049 310619 140153Z AUTO 00000KT 02/M09 A3023 RMK A02 SLP254 T00181091 PA1311 DA0082=
0131008414999992016021402524+31000+061900FM-15+049099999V0203201N001519999999N999999999+00441-00811102621ADDMA1102471999999REMMET104MOBOB3 METAR XM18 //049 310619 140252Z AUTO 32003KT 04/M08 A3026 RMK A02 SLP262 T00441081 PA1292 DA0383=
0131008414999992016021403524+31000+061900FM-15+049099999V0203301N002619999999N999999999+00831-00771102621ADDMA1102511999999REMMET104MOBOB3 METAR XM18 //049 310619 140352Z AUTO 33005KT 08/M08 A3027 RMK A02 SLP262 T00831077 PA1282 DA0847=
0131008414999992016021404524+31000+061900FM-15+049099999V0203301N002619999999N999999999+01141-00861102681ADDMA1102571999999REMMET104MOBOB3 METAR XM18 //049 310619 140452Z AUTO 33005KT 11/M09 A3029 RMK A02 SLP268 T01141086 PA1263 DA1192=
0131008414999992016021405534+31000+061900FM-15+049099999V0203301N002119999999N999999999+01331-00961102621ADDMA1102541999999REMMET104MOBOB3 METAR XM18 //049 310619 140553Z AUTO 33004KT 13/M10 A3028 RMK A02 SLP262 T01331096 PA1273 DA1426=
0131008414999992016021406524+31000+061900FM-15+049099999V0203601N001019999999N999999999+01581-01081102501ADDMA1102401999999REMMET104MOBOB3 METAR XM18 //049 310619 140652Z AUTO 36002KT 16/M11 A3024 RMK A02 SLP250 T01581108 PA1301 DA1751=
0131008414999992016021407524+31000+061900FM-15+049099999V0201501N000519999999N999999999+01721-01131102381ADDMA1102301999999REMMET104MOBOB3 METAR XM18 //049 310619 140752Z AUTO 15001KT 17/M11 A3021 RMK A02 SLP238 T01721113 PA1330 DA1949=
0131008414999992016021408524+31000+061900FM-15+049099999V0200801N001019999999N999999999+01821-01051102281ADDMA1102201999999REMMET104MOBOB3 METAR XM18 //049 310619 140852Z AUTO 08002KT 18/M10 A3018 RMK A02 SLP228 T01821105 PA1359 DA2102=
0131008414999992016021409524+31000+061900FM-15+049099999V0203201N001519999999N999999999+01731-01091102251ADDMA1102171999999REMMET104MOBOB3 METAR XM18 //049 310619 140952Z AUTO 32003KT 17/M11 A3017 RMK A02 SLP225 T01731109 PA1369 DA2009=
0131008414999992016021410524+31000+061900FM-15+049099999V0203601N001019999999N999999999+01771-01121102211ADDMA1102131999999REMMET104MOBOB3 METAR XM18 //049 310619 141052Z AUTO 36002KT 18/M11 A3016 RMK A02 SLP221 T01771112 PA1378 DA2066=
0131008414999992016021411524+31000+061900FM-15+049099999V0203301N000519999999N999999999+01681-01121102231ADDMA1102131999999REMMET104MOBOB3 METAR XM18 //049 310619 141152Z AUTO 33001KT 17/M11 A3016 RMK A02 SLP223 T01681112 PA1378 DA1961=
0131008414999992016021412534+31000+061900FM-15+049099999V0200501N000519999999N999999999+01491-01051102301ADDMA1102171999999REMMET104MOBOB3 METAR XM18 //049 310619 141253Z AUTO 05001KT 15/M10 A3017 RMK A02 SLP230 T01491105 PA1369 DA1730=
0131008414999992016021413524+31000+061900FM-15+049099999V0209999C000019999999N999999999+01161-00921102371ADDMA1102201999999REMMET104MOBOB3 METAR XM18 //049 310619 141352Z AUTO 00000KT 12/M09 A3018 RMK A02 SLP237 T01161092 PA1359 DA1332=
0131008414999992016021414524+31000+061900FM-15+049099999V0202901N000519999999N999999999+00951-00901102401ADDMA1102231999999REMMET104MOBOB3 METAR XM18 //049 310619 141452Z AUTO 29001KT 10/M09 A3019 RMK A02 SLP240 T00951090 PA1350 DA1071=
0131008414999992016021415534+31000+061900FM-15+049099999V0209999C000019999999N999999999+00761-00901102381ADDMA1102231999999REMMET104MOBOB3 METAR XM18 //049 310619 141553Z AUTO 00000KT 08/M09 A3019 RMK A02 SLP238 T00761090 PA1350 DA0842=
0131008414999992016021416524+31000+061900FM-15+049099999V0203101N000519999999N999999999+00731-00801102351ADDMA1102231999999REMMET104MOBOB3 METAR XM18 //049 310619 141652Z AUTO 31001KT 07/M08 A3019 RMK A02 SLP235 T00731080 PA1350 DA0809=
0131008414999992016021417534+31000+061900FM-15+049099999V0202901N000519999999N999999999+00681-00711102301ADDMA1102201999999REMMET104MOBOB3 METAR XM18 //049 310619 141753Z AUTO 29001KT 07/M07 A3018 RMK A02 SLP230 T00681071 PA1359 DA0763=
0131008414999992016021418524+31000+061900FM-15+049099999V0203401N000519999999N999999999+00631-00711102281ADDMA1102201999999REMMET104MOBOB3 METAR XM18 //049 310619 141852Z AUTO 34001KT 06/M07 A3018 RMK A02 SLP228 T00631071 PA1359 DA0702=
0131008414999992016021419534+31000+061900FM-15+049099999V0203401N000519999999N999999999+00601-00901102231ADDMA1102171999999REMMET104MOBOB3 METAR XM18 //049 310619 141953Z AUTO 34001KT 06/M09 A3017 RMK A02 SLP223 T00601090 PA1369 DA0671=
0131008414999992016021420524+31000+061900FM-15+049099999V0200301N000519999999N999999999+00391-00921102241ADDMA1102171999999REMMET104MOBOB3 METAR XM18 //049 310619 142052Z AUTO 03001KT 04/M09 A3017 RMK A02 SLP224 T00391092 PA1369 DA0414=
0131008414999992016021421524+31000+061900FM-15+049099999V0200801N000519999999N999999999+00461-01111102251ADDMA1102171999999REMMET104MOBOB3 METAR XM18 //049 310619 142152Z AUTO 08001KT 05/M11 A3017 RMK A02 SLP225 T00461111 PA1369 DA0494=
0131008414999992016021422524+31000+061900FM-15+049099999V0203501N000519999999N999999999+00311-00991102221ADDMA1102131999999REMMET104MOBOB3 METAR XM18 //049 310619 142252Z AUTO 35001KT 03/M10 A3016 RMK A02 SLP222 T00311099 PA1378 DA0325=
0131008414999992016021423524+31000+061900FM-15+049099999V0203201N000519999999N999999999+00221-01031102281ADDMA1102171999999REMMET104MOBOB3 METAR XM18 //049 310619 142352Z AUTO 32001KT 02/M10 A3017 RMK A02 SLP228 T00221103 PA1369 DA0200=
0131008414999992016021500534+31000+061900FM-15+049099999V0203201N000519999999N999999999+00091-01141102381ADDMA1102231999999REMMET104MOBOB3 METAR XM18 //049 310619 150053Z AUTO 32001KT 01/M11 A3019 RMK A02 SLP238 T00091114 PA1350 DA0012=
0131008414999992016021501524+31000+061900FM-15+049099999V0200101N000519999999N999999999+00071-01181102531ADDMA1102341999999REMMET104MOBOB3 METAR XM18 //049 310619 150152Z AUTO 01001KT 01/M12 A3022 RMK A02 SLP253 T00071118 PA1321 DA-050=
0131008414999992016021502524+31000+061900FM-15+049099999V0203301N000519999999N999999999+00171-01171102611ADDMA1102401999999REMMET104MOBOB3 METAR XM18 //049 310619 150252Z AUTO 33001KT 02/M12 A3024 RMK A02 SLP261 T00171117 PA1301 DA0050=
0131008414999992016021503534+31000+061900FM-15+049099999V0203501N001019999999N999999999+00591-00931102701ADDMA1102541999999REMMET104MOBOB3 METAR XM18 //049 310619 150353Z AUTO 35002KT 06/M09 A3028 RMK A02 SLP270 T00591093 PA1273 DA0539=
0131008414999992016021504524+31000+061900FM-15+049099999V0203601N001019999999N999999999+01111-00831102641ADDMA1102541999999REMMET104MOBOB3 METAR XM18 //049 310619 150452Z AUTO 36002KT 11/M08 A3028 RMK A02 SLP264 T01111083 PA1273 DA1169=
0131008414999992016021505524+31000+061900FM-15+049099999V0200401N001019999999N999999999+01451-01111102541ADDMA1102471999999REMMET104MOBOB3 METAR XM18 //049 310619 150552Z AUTO 04002KT 15/M11 A3026 RMK A02 SLP254 T01451111 PA1292 DA1586=
0131008414999992016021506524+31000+061900FM-15+049099999V0200201N000519999999N999999999+01801-01121102441ADDMA1102371999999REMMET104MOBOB3 METAR XM18 //049 310619 150652Z AUTO 02001KT 18/M11 A3023 RMK A02 SLP244 T01801112 PA1311 DA2018=
0131008414999992016021507534+31000+061900FM-15+049099999V0202201N001019999999N999999999+01821-01171102371ADDMA1102301999999REMMET104MOBOB3 METAR XM18 //049 310619 150753Z AUTO 22002KT 18/M12 A3021 RMK A02 SLP237 T01821117 PA1330 DA2063=
0131008414999992016021508524+31000+061900FM-15+049099999V0209999C000019999999N999999999+01952-01291102301ADDMA1102231999999REMMET104MOBOB3 METAR XM18 //049 310619 150852Z AUTO 00000KT 20/M13 A3019 RMK A02 SLP230 T01951129 PA1350 DA2234=
0131008414999992016021509524+31000+061900FM-15+049099999V0203401N001519999999N999999999+01921-01471102231ADDMA1102171999999REMMET104MOBOB3 METAR XM18 //049 310619 150952Z AUTO 34003KT 19/M15 A3017 RMK A02 SLP223 T01921147 PA1369 DA2219=
0131008414999992016021515524+31000+061900FM-15+049099999V0202701N000519999999N999999999+01121-01131102441ADDMA1102301999999REMMET104MOBOB3 METAR XM18 //049 310619 151552Z AUTO 27001KT 11/M11 A3021 RMK A02 SLP244 T01121113 PA1330 DA1243=
0131008414999992016021516524+31000+061900FM-15+049099999V0203501N000519999999N999999999+00921-01171102411ADDMA1102301999999REMMET104MOBOB3 METAR XM18 //049 310619 151652Z AUTO 35001KT 09/M12 A3021 RMK A02 SLP241 T00921117 PA1330 DA1003=
0131008414999992016021519534+31000+061900FM-15+049099999V0203401N001019999999N999999999+00681-01041102291ADDMA1102231999999REMMET104MOBOB3 METAR XM18 //049 310619 151953Z AUTO 34002KT 07/M10 A3019 RMK A02 SLP229 T00681104 PA1350 DA0740=
0131008414999992016021520534+31000+061900FM-15+049099999V0203301N001019999999N999999999+00561-01181102251ADDMA1102201999999REMMET104MOBOB3 METAR XM18 //049 310619 152053Z AUTO 33002KT 06/M12 A3018 RMK A02 SLP225 T00561118 PA1359 DA0602=
0131008414999992016021521524+31000+061900FM-15+049099999V0203301N000519999999N999999999+00401-01221102271ADDMA1102201999999REMMET104MOBOB3 METAR XM18 //049 310619 152152Z AUTO 33001KT 04/M12 A3018 RMK A02 SLP227 T00401122 PA1359 DA0405=
0131008414999992016021522524+31000+061900FM-15+049099999V0203401N001019999999N999999999+00361-01321102311ADDMA1102231999999REMMET104MOBOB3 METAR XM18 //049 310619 152252Z AUTO 34002KT 04/M13 A3019 RMK A02 SLP231 T00361132 PA1350 DA0342=
0131008414999992016021523534+31000+061900FM-15+049099999V0203401N000519999999N999999999+00301-01261102351ADDMA1102271999999REMMET104MOBOB3 METAR XM18 //049 310619 152353Z AUTO 34001KT 03/M13 A3020 RMK A02 SLP235 T00301126 PA1340 DA0257=
0131008414999992016021600524+31000+061900FM-15+049099999V0203101N000519999999N999999999+00241-01271102461ADDMA1102341999999REMMET104MOBOB3 METAR XM18 //049 310619 160052Z AUTO 31001KT 02/M13 A3022 RMK A02 SLP246 T00241127 PA1321 DA0159=
0131008414999992016021601524+31000+061900FM-15+049099999V0203501N001019999999N999999999+00191-01311102581ADDMA1102401999999REMMET104MOBOB3 METAR XM18 //049 310619 160152Z AUTO 35002KT 02/M13 A3024 RMK A02 SLP258 T00191131 PA1301 DA0072=
0131008414999992016021602524+31000+061900FM-15+049099999V0203501N000519999999N999999999+00431-01091102641ADDMA1102511999999REMMET104MOBOB3 METAR XM18 //049 310619 160252Z AUTO 35001KT 04/M11 A3027 RMK A02 SLP264 T00431109 PA1282 DA0350=
0131008414999992016021603534+31000+061900FM-15+049099999V0200301N001019999999N999999999+00951-01151102661ADDMA1102571999999REMMET104MOBOB3 METAR XM18 //049 310619 160353Z AUTO 03002KT 10/M11 A3029 RMK A02 SLP266 T00951115 PA1263 DA0956=
0131008414999992016021604524+31000+061900FM-15+049099999V0203501N001019999999N999999999+01251-00931102641ADDMA1102571999999REMMET104MOBOB3 METAR XM18 //049 310619 160452Z AUTO 35002KT 13/M09 A3029 RMK A02 SLP264 T01251093 PA1263 DA1320=
0131008414999992016021605524+31000+061900FM-15+049099999V0202701N001519999999N999999999+01541-01011102581ADDMA1102541999999REMMET104MOBOB3 METAR XM18 //049 310619 160552Z AUTO 27003KT 15/M10 A3028 RMK A02 SLP258 T01541101 PA1273 DA1671=
0131008414999992016021606524+31000+061900FM-15+049099999V0200701N000519999999N999999999+01941-01181102441ADDMA1102401999999REMMET104MOBOB3 METAR XM18 //049 310619 160652Z AUTO 07001KT 19/M12 A3024 RMK A02 SLP244 T01941118 PA1301 DA2166=
0131008414999992016021607524+31000+061900FM-15+049099999V0203101N000519999999N999999999+01951-01311102381ADDMA1102341999999REMMET104MOBOB3 METAR XM18 //049 310619 160752Z AUTO 31001KT 20/M13 A3022 RMK A02 SLP238 T01951131 PA1321 DA2198=
0131008414999992016021608534+31000+061900FM-15+049099999V0203201N001519999999N999999999+02021-01361102281ADDMA1102231999999REMMET104MOBOB3 METAR XM18 //049 310619 160853Z AUTO 32003KT 20/M14 A3019 RMK A02 SLP228 T02021136 PA1350 DA2312=
0131008414999992016021609524+31000+061900FM-15+049099999V0200101N002619999999N999999999+02061-01421102261ADDMA1102201999999REMMET104MOBOB3 METAR XM18 //049 310619 160952Z AUTO 01005KT 21/M14 A3018 RMK A02 SLP226 T02061142 PA1359 DA2369=
0131008414999992016021610524+31000+061900FM-15+049099999V0200201N001019999999N999999999+02101-01481102261ADDMA1102201999999REMMET104MOBOB3 METAR XM18 //049 310619 161052Z AUTO 02002KT 21/M15 A3018 RMK A02 SLP226 T02101148 PA1359 DA2413=
0131008414999992016021611524+31000+061900FM-15+049099999V0203101N000519999999N999999999+02001-01411102271ADDMA1102201999999REMMET104MOBOB3 METAR XM18 //049 310619 161152Z AUTO 31001KT 20/M14 A3018 RMK A02 SLP227 T02001141 PA1359 DA2300=
0131008414999992016021612524+31000+061900FM-15+049099999V0203401N001019999999N999999999+01671-00951102311ADDMA1102201999999REMMET104MOBOB3 METAR XM18 //049 310619 161252Z AUTO 34002KT 17/M09 A3018 RMK A02 SLP231 T01671095 PA1359 DA1931=
0131008414999992016021613534+31000+061900FM-15+049099999V0203201N001019999999N999999999+01511-01161102371ADDMA1102231999999REMMET104MOBOB3 METAR XM18 //049 310619 161353Z AUTO 32002KT 15/M12 A3019 RMK A02 SLP237 T01511116 PA1350 DA1727=
0131008414999992016021614524+31000+061900FM-15+049099999V0202901N000519999999N999999999+01381-01141102361ADDMA1102231999999REMMET104MOBOB3 METAR XM18 //049 310619 161452Z AUTO 29001KT 14/M11 A3019 RMK A02 SLP236 T01381114 PA1350 DA1574=
0131008414999992016021615524+31000+061900FM-15+049099999V0202701N001019999999N999999999+01301-01061102351ADDMA1102271999999REMMET104MOBOB3 METAR XM18 //049 310619 161552Z AUTO 27002KT 13/M11 A3020 RMK A02 SLP235 T01301106 PA1340 DA1470=
0131008414999992016021616534+31000+061900FM-15+049099999V0202801N001019999999N999999999+01191-01071102361ADDMA1102301999999REMMET104MOBOB3 METAR XM18 //049 310619 161653Z AUTO 28002KT 12/M11 A3021 RMK A02 SLP236 T01191107 PA1330 DA1328=
0131008414999992016021617534+31000+061900FM-15+049099999V0202701N001019999999N999999999+01081-01081102311ADDMA1102271999999REMMET104MOBOB3 METAR XM18 //049 310619 161753Z AUTO 27002KT 11/M11 A3020 RMK A02 SLP231 T01081108 PA1340 DA1208=
0131008414999992016021618524+31000+061900FM-15+049099999V0202901N001019999999N999999999+01031-01021102241ADDMA1102231999999REMMET104MOBOB3 METAR XM18 //049 310619 161852Z AUTO 29002KT 10/M10 A3019 RMK A02 SLP224 T01031102 PA1350 DA1163=
0131008414999992016021619534+31000+061900FM-15+049099999V0202901N003119999999N999999999+01021-00791102241ADDMA1102231999999REMMET104MOBOB3 METAR XM18 //049 310619 161953Z AUTO 29006KT 10/M08 A3019 RMK A02 SLP224 T01021079 PA1350 DA1158=
0131008414999992016021623524+31000+061900FM-15+049099999V0203101N001519999999N999999999+00691-00741102261ADDMA1102231999999REMMET104MOBOB3 METAR XM18 //049 310619 162352Z AUTO 31003KT 07/M07 A3019 RMK A02 SLP226 T00691074 PA1350 DA0762=
0131008414999992016021700524+31000+061900FM-15+049099999V0203101N001519999999N999999999+00671-00591102371ADDMA1102301999999REMMET104MOBOB3 METAR XM18 //049 310619 170052Z AUTO 31003KT 07/M06 A3021 RMK A02 SLP237 T00671059 PA1330 DA0720=
0131008414999992016021701534+31000+061900FM-15+049099999V0203101N001519999999N999999999+00711-00451102491ADDMA1102401999999REMMET104MOBOB3 METAR XM18 //049 310619 170153Z AUTO 31003KT 07/M04 A3024 RMK A02 SLP249 T00711045 PA1301 DA0739=
0131008414999992016021702524+31000+061900FM-15+049099999V0203301N002619999999N999999999+00851-00341102601ADDMA1102541999999REMMET104MOBOB3 METAR XM18 //049 310619 170252Z AUTO 33005KT 09/M03 A3028 RMK A02 SLP260 T00851034 PA1273 DA0877=
0131008414999992016021703534+31000+061900FM-15+049099999V0203401N003619999999N999999999+01071-00331102621ADDMA1102571999999REMMET104MOBOB3 METAR XM18 //049 310619 170353Z AUTO 34007KT 11/M03 A3029 RMK A02 SLP262 T01071033 PA1263 DA1130=
0142008414999992016021704524+31000+061900FM-15+049099999V0203301N004619999999N999999999+01341-00361102571ADDMA1102541999999OC100771REMMET107MOBOB3 METAR XM18 //049 310619 170452Z AUTO 33009G15KT 13/M04 A3028 RMK A02 SLP257 T01341036 PA1273 DA1461=
0131008414999992016021705524+31000+061900FM-15+049099999V0203301N003119999999N999999999+01581-00421102551ADDMA1102541999999REMMET104MOBOB3 METAR XM18 //049 310619 170552Z AUTO 33006KT 16/M04 A3028 RMK A02 SLP255 T01581042 PA1273 DA1739=
0131008414999992016021706524+31000+061900FM-15+049099999V0203301N002119999999N999999999+01741-00481102431ADDMA1102401999999REMMET104MOBOB3 METAR XM18 //049 310619 170652Z AUTO 33004KT 17/M05 A3024 RMK A02 SLP243 T01741048 PA1301 DA1959=
0131008414999992016021707524+31000+061900FM-15+049099999V0203101N001519999999N999999999+01821-00581102321ADDMA1102301999999REMMET104MOBOB3 METAR XM18 //049 310619 170752Z AUTO 31003KT 18/M06 A3021 RMK A02 SLP232 T01821058 PA1330 DA2083=
0131008414999992016021708524+31000+061900FM-15+049099999V0203401N001019999999N999999999+01941-00571102241ADDMA1102231999999REMMET104MOBOB3 METAR XM18 //049 310619 170852Z AUTO 34002KT 19/M06 A3019 RMK A02 SLP224 T01941057 PA1350 DA2245=
0131008414999992016021709524+31000+061900FM-15+049099999V0202601N001019999999N999999999+02001-00721102161ADDMA1102171999999REMMET104MOBOB3 METAR XM18 //049 310619 170952Z AUTO 26002KT 20/M07 A3017 RMK A02 SLP216 T02001072 PA1369 DA2332=
0131008414999992016021710524+31000+061900FM-15+049099999V0203301N001019999999N999999999+02031-00811102141ADDMA1102131999999REMMET104MOBOB3 METAR XM18 //049 310619 171052Z AUTO 33002KT 20/M08 A3016 RMK A02 SLP214 T02031081 PA1378 DA2375=
