0129008418999992016010100534+03000+131800FM-15+000099999V0200301N003119999999N999999999+02871+02401101341ADDMA1101321999999REMMET102MOBOB2 METAR XM24 //000 030318 010053Z AUTO 03006KT 29/24 A2992 RMK A02 SLP134 T02870240 PA001 DA1975=
0129008418999992016010101534+03000+131800FM-15+000099999V0200501N004119999999N999999999+02871+02411101311ADDMA1101291999999REMMET102MOBOB2 METAR XM24 //000 030318 010153Z AUTO 05008KT 29/24 A2991 RMK A02 SLP131 T02870241 PA010 DA1987=
0129008418999992016010102544+03000+131800FM-15+000099999V0200601N005119999999N999999999+02911+02411101281ADDMA1101251999999REMMET102MOBOB2 METAR XM24 //000 030318 010254Z AUTO 06010KT 29/24 A2990 RMK A02 SLP128 T02910241 PA020 DA2043=
0129008418999992016010103534+03000+131800FM-15+000099999V0200601N004619999999N999999999+02931+02431101171ADDMA1101151999999REMMET102MOBOB2 METAR XM24 //000 030318 010353Z AUTO 06009KT 29/24 A2987 RMK A02 SLP117 T02930243 PA047 DA2104=
0167008418999992016010104534+03000+131800FM-15+000099999V0200701N006719999999N999999999+02761+02381101111ADDAA101000021AW1611MA1101081999999OC100821REMMET115MOBOB2 METAR XM24 //000 030318 010453Z AUTO 07013G16KT -RA 28/24 A2985 RMK A02 SLP111 P0000 T02760238 PA066 DA1927=
0140008418999992016010105534+03000+131800FM-15+000099999V0200401N006719999999N999999999+02751+02331101071ADDMA1101051999999OC100821REMMET105MOBOB2 METAR XM24 //000 030318 010553Z AUTO 04013G16KT 28/23 A2984 RMK A02 SLP107 T02750233 PA075 DA1916=
0140008418999992016010106534+03000+131800FM-15+000099999V0200601N007219999999N999999999+02781+02361101071ADDMA1101051999999OC100881REMMET105MOBOB2 METAR XM24 //000 030318 010653Z AUTO 06014G17KT 28/24 A2984 RMK A02 SLP107 T02780236 PA075 DA1957=
0140008418999992016010107534+03000+131800FM-15+000099999V0200601N005119999999N999999999+02781+02381101111ADDMA1101081999999OC100671REMMET105MOBOB2 METAR XM24 //000 030318 010753Z AUTO 06010G13KT 28/24 A2985 RMK A02 SLP111 T02780238 PA066 DA1948=
0129008418999992016010108534+03000+131800FM-15+000099999V0200701N003619999999N999999999+02751+02401101141ADDMA1101121999999REMMET102MOBOB2 METAR XM24 //000 030318 010853Z AUTO 07007KT 28/24 A2986 RMK A02 SLP114 T02750240 PA057 DA1908=
0129008418999992016010109534+03000+131800FM-15+000099999V0200701N002119999999N999999999+02771+02451101171ADDMA1101151999999REMMET102MOBOB2 METAR XM24 //000 030318 010953Z AUTO 07004KT 28/24 A2987 RMK A02 SLP117 T02770245 PA047 DA1930=
0140008418999992016010110544+03000+131800FM-15+000099999V0200601N005719999999N999999999+02851+02411101211ADDMA1101181999999OC100771REMMET105MOBOB2 METAR XM24 //000 030318 011054Z AUTO 06011G15KT 29/24 A2988 RMK A02 SLP121 T02850241 PA038 DA1999=
0140008418999992016010111534+03000+131800FM-15+000099999V0200701N005119999999N999999999+02821+02411101311ADDMA1101291999999OC100621REMMET105MOBOB2 METAR XM24 //000 030318 011153Z AUTO 07010G12KT 28/24 A2991 RMK A02 SLP131 T02820241 PA010 DA1931=
0167008418999992016010112534+03000+131800FM-15+000099999V0200701N005119999999N999999999+02841+02471101311ADDAA101000021AW1611MA1101291999999OC100671REMMET115MOBOB2 METAR XM24 //000 030318 011253Z AUTO 07010G13KT -RA 28/25 A2991 RMK A02 SLP131 P0000 T02840247 PA010 DA1969=
0140008418999992016010113534+03000+131800FM-15+000099999V0200601N005719999999N999999999+02851+02421101281ADDMA1101251999999OC100671REMMET105MOBOB2 METAR XM24 //000 030318 011353Z AUTO 06011G13KT 29/24 A2990 RMK A02 SLP128 T02850242 PA020 DA1978=
0140008418999992016010114534+03000+131800FM-15+000099999V0200501N005719999999N999999999+02841+02371101281ADDMA1101251999999OC100671REMMET105MOBOB2 METAR XM24 //000 030318 011453Z AUTO 05011G13KT 28/24 A2990 RMK A02 SLP128 T02840237 PA020 DA1957=
0129008418999992016010115534+03000+131800FM-15+000099999V0200601N005119999999N999999999+02841+02421101211ADDMA1101181999999REMMET102MOBOB2 METAR XM24 //000 030318 011553Z AUTO 06010KT 28/24 A2988 RMK A02 SLP121 T02840242 PA038 DA1991=
0167008418999992016010116534+03000+131800FM-15+000099999V0200701N005719999999N999999999+02841+02401101141ADDAA101000021AW1611MA1101121999999OC100671REMMET115MOBOB2 METAR XM24 //000 030318 011653Z AUTO 07011G13KT -RA 28/24 A2986 RMK A02 SLP114 P0000 T02840240 PA057 DA2008=
0140008418999992016010117534+03000+131800FM-15+000099999V0200401N005719999999N999999999+02771+02411101111ADDMA1101081999999OC100721REMMET105MOBOB2 METAR XM24 //000 030318 011753Z AUTO 04011G14KT 28/24 A2985 RMK A02 SLP111 T02770241 PA066 DA1945=
0140008418999992016010118534+03000+131800FM-15+000099999V0200301N005719999999N999999999+02761+02461101111ADDMA1101081999999OC100771REMMET105MOBOB2 METAR XM24 //000 030318 011853Z AUTO 03011G15KT 28/25 A2985 RMK A02 SLP111 T02760246 PA066 DA1944=
0167008418999992016010119534+03000+131800FM-15+000099999V0200501N008819999999N999999999+02681+02271101111ADDAA101000021AW1611MA1101081999999OC101081REMMET115MOBOB2 METAR XM24 //000 030318 011953Z AUTO 05017G21KT -RA 27/23 A2985 RMK A02 SLP111 P0000 T02680227 PA066 DA1811=
0140008418999992016010120534+03000+131800FM-15+000099999V0200601N007219999999N999999999+02811+02411101171ADDMA1101151999999OC100881REMMET105MOBOB2 METAR XM24 //000 030318 012053Z AUTO 06014G17KT 28/24 A2987 RMK A02 SLP117 T02810241 PA047 DA1966=
0140008418999992016010121534+03000+131800FM-15+000099999V0200701N005119999999N999999999+02821+02411101241ADDMA1101221999999OC100671REMMET105MOBOB2 METAR XM24 //000 030318 012153Z AUTO 07010G13KT 28/24 A2989 RMK A02 SLP124 T02820241 PA029 DA1956=
0140008418999992016010122534+03000+131800FM-15+000099999V0200701N005119999999N999999999+02781+02361101311ADDMA1101291999999OC100621REMMET105MOBOB2 METAR XM24 //000 030318 012253Z AUTO 07010G12KT 28/24 A2991 RMK A02 SLP131 T02780236 PA010 DA1877=
0140008418999992016010123534+03000+131800FM-15+000099999V0200701N008819999999N999999999+02781+02391101311ADDMA1101291999999OC101081REMMET105MOBOB2 METAR XM24 //000 030318 012353Z AUTO 07017G21KT 28/24 A2991 RMK A02 SLP131 T02780239 PA010 DA1883=
0140008418999992016010200534+03000+131800FM-15+000099999V0200701N005719999999N999999999+02871+02341101311ADDMA1101291999999OC100721REMMET105MOBOB2 METAR XM24 //000 030318 020053Z AUTO 07011G14KT 29/23 A2991 RMK A02 SLP131 T02870234 PA010 DA1973=
0167008418999992016010201544+03000+131800FM-15+000099999V0200701N005119999999N999999999+02861+02391101241ADDAA101000021AW1611MA1101221999999OC100771REMMET115MOBOB2 METAR XM24 //000 030318 020154Z AUTO 07010G15KT -RA 29/24 A2989 RMK A02 SLP124 P0000 T02860239 PA029 DA1995=
0140008418999992016010202534+03000+131800FM-15+000099999V0200701N006719999999N999999999+02921+02371101171ADDMA1101151999999OC100821REMMET105MOBOB2 METAR XM24 //000 030318 020253Z AUTO 07013G16KT 29/24 A2987 RMK A02 SLP117 T02920237 PA047 DA2081=
0140008418999992016010203534+03000+131800FM-15+000099999V0200601N005719999999N999999999+02921+02411101111ADDMA1101081999999OC100721REMMET105MOBOB2 METAR XM24 //000 030318 020353Z AUTO 06011G14KT 29/24 A2985 RMK A02 SLP111 T02920241 PA066 DA2112=
0167008418999992016010204534+03000+131800FM-15+000099999V0200701N008219999999N999999999+02741+02351101041ADDAA101000021AW1611MA1101021999999OC101031REMMET115MOBOB2 METAR XM24 //000 030318 020453Z AUTO 07016G20KT -RA 27/23 A2983 RMK A02 SLP104 P0000 T02740235 PA084 DA1920=
0140008418999992016010205534+03000+131800FM-15+000099999V0200501N005719999999N999999999+02881+02401100971ADDMA1100951999999OC100671REMMET105MOBOB2 METAR XM24 //000 030318 020553Z AUTO 05011G13KT 29/24 A2981 RMK A02 SLP097 T02880240 PA103 DA2110=
0140008418999992016010206534+03000+131800FM-15+000099999V0200401N006219999999N999999999+02821+02411100971ADDMA1100951999999OC100771REMMET105MOBOB2 METAR XM24 //000 030318 020653Z AUTO 04012G15KT 28/24 A2981 RMK A02 SLP097 T02820241 PA103 DA2046=
0140008418999992016010207534+03000+131800FM-15+000099999V0200801N005119999999N999999999+02821+02431101001ADDMA1100981999999OC100671REMMET105MOBOB2 METAR XM24 //000 030318 020753Z AUTO 08010G13KT 28/24 A2982 RMK A02 SLP100 T02820243 PA094 DA2040=
0167008418999992016010208534+03000+131800FM-15+000099999V0200701N006719999999N999999999+02681+02331101041ADDAA101001531AW1631MA1101021999999OC101241REMMET115MOBOB2 METAR XM24 //000 030318 020853Z AUTO 07013G24KT +RA 27/23 A2983 RMK A02 SLP104 P0006 T02680233 PA084 DA1849=
0167008418999992016010209534+03000+131800FM-15+000099999V0200701N006719999999N999999999+02751+02261101071ADDAA101001531AW1611MA1101051999999OC100821REMMET115MOBOB2 METAR XM24 //000 030318 020953Z AUTO 07013G16KT -RA 28/23 A2984 RMK A02 SLP107 P0006 T02750226 PA075 DA1901=
0140008418999992016010210534+03000+131800FM-15+000099999V0200601N007719999999N999999999+02811+02331101141ADDMA1101121999999OC100981REMMET105MOBOB2 METAR XM24 //000 030318 021053Z AUTO 06015G19KT 28/23 A2986 RMK A02 SLP114 T02810233 PA057 DA1959=
0167008418999992016010211534+03000+131800FM-15+000099999V0200501N009319999999N999999999+02751+02391101211ADDAA101000021AW1611MA1101181999999OC101181REMMET115MOBOB2 METAR XM24 //000 030318 021153Z AUTO 05018G23KT -RA 28/24 A2988 RMK A02 SLP121 P0000 T02750239 PA038 DA1883=
0140008418999992016010212534+03000+131800FM-15+000099999V0200601N009819999999N999999999+02721+02341101241ADDMA1101221999999OC101241REMMET105MOBOB2 METAR XM24 //000 030318 021253Z AUTO 06019G24KT 27/23 A2989 RMK A02 SLP124 T02720234 PA029 DA1827=
0167008418999992016010213534+03000+131800FM-15+000099999V0200401N007719999999N999999999+02721+02211101241ADDAA101000021AW1611MA1101221999999OC101031REMMET115MOBOB2 METAR XM24 //000 030318 021353Z AUTO 04015G20KT -RA 27/22 A2989 RMK A02 SLP124 P0000 T02720221 PA029 DA1799=
0140008418999992016010214534+03000+131800FM-15+000099999V0200601N006219999999N999999999+02861+02431101211ADDMA1101181999999OC101031REMMET105MOBOB2 METAR XM24 //000 030318 021453Z AUTO 06012G20KT 29/24 A2988 RMK A02 SLP121 T02860243 PA038 DA2016=
0167008418999992016010215534+03000+131800FM-15+000099999V0200901N007219999999N999999999+02671+02401101141ADDAA101000021AW1611MA1101121999999OC100881REMMET115MOBOB2 METAR XM24 //000 030318 021553Z AUTO 09014G17KT -RA 27/24 A2986 RMK A02 SLP114 P0000 T02670240 PA057 DA1818=
0140008418999992016010216534+03000+131800FM-15+000099999V0200601N005119999999N999999999+02781+02381101041ADDMA1101021999999OC100771REMMET105MOBOB2 METAR XM24 //000 030318 021653Z AUTO 06010G15KT 28/24 A2983 RMK A02 SLP104 T02780238 PA084 DA1971=
0140008418999992016010217534+03000+131800FM-15+000099999V0200501N006719999999N999999999+02841+02341101001ADDMA1100981999999OC100821REMMET105MOBOB2 METAR XM24 //000 030318 021753Z AUTO 05013G16KT 28/23 A2982 RMK A02 SLP100 T02840234 PA094 DA2041=
0140008418999992016010218534+03000+131800FM-15+000099999V0200501N007219999999N999999999+02851+02431100971ADDMA1100951999999OC100881REMMET105MOBOB2 METAR XM24 //000 030318 021853Z AUTO 05014G17KT 29/24 A2981 RMK A02 SLP097 T02850243 PA103 DA2084=
0140008418999992016010219534+03000+131800FM-15+000099999V0200401N006719999999N999999999+02841+02361101041ADDMA1101021999999OC100821REMMET105MOBOB2 METAR XM24 //000 030318 021953Z AUTO 04013G16KT 28/24 A2983 RMK A02 SLP104 T02840236 PA084 DA2035=
0140008418999992016010220534+03000+131800FM-15+000099999V0200401N006719999999N999999999+02821+02341101141ADDMA1101121999999OC100881REMMET105MOBOB2 METAR XM24 //000 030318 022053Z AUTO 04013G17KT 28/23 A2986 RMK A02 SLP114 T02820234 PA057 DA1973=
0140008418999992016010221534+03000+131800FM-15+000099999V0200501N006719999999N999999999+02831+02331101211ADDMA1101181999999OC100821REMMET105MOBOB2 METAR XM24 //000 030318 022153Z AUTO 05013G16KT 28/23 A2988 RMK A02 SLP121 T02830233 PA038 DA1960=
0140008418999992016010222534+03000+131800FM-15+000099999V0200501N006719999999N999999999+02841+02301101281ADDMA1101251999999OC100821REMMET105MOBOB2 METAR XM24 //000 030318 022253Z AUTO 05013G16KT 28/23 A2990 RMK A02 SLP128 T02840230 PA020 DA1941=
0140008418999992016010223534+03000+131800FM-15+000099999V0200501N007219999999N999999999+02881+02341101311ADDMA1101291999999OC100881REMMET105MOBOB2 METAR XM24 //000 030318 022353Z AUTO 05014G17KT 29/23 A2991 RMK A02 SLP131 T02880234 PA010 DA1983=
0140008418999992016010300534+03000+131800FM-15+000099999V0200501N006219999999N999999999+02891+02351101311ADDMA1101291999999OC100771REMMET105MOBOB2 METAR XM24 //000 030318 030053Z AUTO 05012G15KT 29/24 A2991 RMK A02 SLP131 T02890235 PA010 DA1997=
0140008418999992016010301534+03000+131800FM-15+000099999V0200401N005119999999N999999999+02881+02371101311ADDMA1101291999999OC100671REMMET105MOBOB2 METAR XM24 //000 030318 030153Z AUTO 04010G13KT 29/24 A2991 RMK A02 SLP131 T02880237 PA010 DA1989=
0140008418999992016010302534+03000+131800FM-15+000099999V0200601N005719999999N999999999+02911+02371101241ADDMA1101221999999OC100621REMMET105MOBOB2 METAR XM24 //000 030318 030253Z AUTO 06011G12KT 29/24 A2989 RMK A02 SLP124 T02910237 PA029 DA2046=
0140008418999992016010303534+03000+131800FM-15+000099999V0200501N005119999999N999999999+02901+02331101171ADDMA1101151999999OC100671REMMET105MOBOB2 METAR XM24 //000 030318 030353Z AUTO 05010G13KT 29/23 A2987 RMK A02 SLP117 T02900233 PA047 DA2049=
0129008418999992016010304534+03000+131800FM-15+000099999V0200501N004619999999N999999999+02901+02331101111ADDMA1101081999999REMMET102MOBOB2 METAR XM24 //000 030318 030453Z AUTO 05009KT 29/23 A2985 RMK A02 SLP111 T02900233 PA066 DA2071=
0129008418999992016010305534+03000+131800FM-15+000099999V0200501N004619999999N999999999+02901+02381101041ADDMA1101021999999REMMET102MOBOB2 METAR XM24 //000 030318 030553Z AUTO 05009KT 29/24 A2983 RMK A02 SLP104 T02900238 PA084 DA2105=
0129008418999992016010306534+03000+131800FM-15+000099999V0200501N004119999999N999999999+02921+02391101041ADDMA1101021999999REMMET102MOBOB2 METAR XM24 //000 030318 030653Z AUTO 05008KT 29/24 A2983 RMK A02 SLP104 T02920239 PA084 DA2129=
0129008418999992016010307534+03000+131800FM-15+000099999V0200501N004619999999N999999999+02891+02351101041ADDMA1101021999999REMMET102MOBOB2 METAR XM24 //000 030318 030753Z AUTO 05009KT 29/24 A2983 RMK A02 SLP104 T02890235 PA084 DA2088=
0129008418999992016010308534+03000+131800FM-15+000099999V0200501N004119999999N999999999+02861+02361101141ADDMA1101121999999REMMET102MOBOB2 METAR XM24 //000 030318 030853Z AUTO 05008KT 29/24 A2986 RMK A02 SLP114 T02860236 PA057 DA2023=
0129008418999992016010309534+03000+131800FM-15+000099999V0200401N004619999999N999999999+02841+02361101211ADDMA1101181999999REMMET102MOBOB2 METAR XM24 //000 030318 030953Z AUTO 04009KT 28/24 A2988 RMK A02 SLP121 T02840236 PA038 DA1976=
0129008418999992016010310534+03000+131800FM-15+000099999V0200401N004119999999N999999999+02841+02371101281ADDMA1101251999999REMMET102MOBOB2 METAR XM24 //000 030318 031053Z AUTO 04008KT 28/24 A2990 RMK A02 SLP128 T02840237 PA020 DA1956=
0129008418999992016010311534+03000+131800FM-15+000099999V0200301N002119999999N999999999+02811+02391101341ADDMA1101321999999REMMET102MOBOB2 METAR XM24 //000 030318 031153Z AUTO 03004KT 28/24 A2992 RMK A02 SLP134 T02810239 PA001 DA1904=
0129008418999992016010312534+03000+131800FM-15+000099999V0200401N004119999999N999999999+02821+02381101341ADDMA1101321999999REMMET102MOBOB2 METAR XM24 //000 030318 031253Z AUTO 04008KT 28/24 A2992 RMK A02 SLP134 T02820238 PA001 DA1913=
0129008418999992016010313534+03000+131800FM-15+000099999V0200301N003119999999N999999999+02811+02381101341ADDMA1101321999999REMMET102MOBOB2 METAR XM24 //000 030318 031353Z AUTO 03006KT 28/24 A2992 RMK A02 SLP134 T02810238 PA001 DA1903=
0129008418999992016010314534+03000+131800FM-15+000099999V0200401N003619999999N999999999+02811+02371101311ADDMA1101291999999REMMET102MOBOB2 METAR XM24 //000 030318 031453Z AUTO 04007KT 28/24 A2991 RMK A02 SLP131 T02810237 PA010 DA1913=
0129008418999992016010315534+03000+131800FM-15+000099999V0200501N004619999999N999999999+02811+02341101241ADDMA1101221999999REMMET102MOBOB2 METAR XM24 //000 030318 031553Z AUTO 05009KT 28/23 A2989 RMK A02 SLP124 T02810234 PA029 DA1928=
0129008418999992016010316534+03000+131800FM-15+000099999V0200401N004119999999N999999999+02791+02321101171ADDMA1101151999999REMMET102MOBOB2 METAR XM24 //000 030318 031653Z AUTO 04008KT 28/23 A2987 RMK A02 SLP117 T02790232 PA047 DA1923=
0129008418999992016010317534+03000+131800FM-15+000099999V0200301N003619999999N999999999+02801+02331101111ADDMA1101081999999REMMET102MOBOB2 METAR XM24 //000 030318 031753Z AUTO 03007KT 28/23 A2985 RMK A02 SLP111 T02800233 PA066 DA1961=
0129008418999992016010318534+03000+131800FM-15+000099999V0200301N003619999999N999999999+02791+02331101141ADDMA1101121999999REMMET102MOBOB2 METAR XM24 //000 030318 031853Z AUTO 03007KT 28/23 A2986 RMK A02 SLP114 T02790233 PA057 DA1937=
0129008418999992016010319534+03000+131800FM-15+000099999V0200301N002619999999N999999999+02781+02331101171ADDMA1101151999999REMMET102MOBOB2 METAR XM24 //000 030318 031953Z AUTO 03005KT 28/23 A2987 RMK A02 SLP117 T02780233 PA047 DA1914=
0129008418999992016010320534+03000+131800FM-15+000099999V0200201N003119999999N999999999+02791+02361101241ADDMA1101221999999REMMET102MOBOB2 METAR XM24 //000 030318 032053Z AUTO 02006KT 28/24 A2989 RMK A02 SLP124 T02790236 PA029 DA1911=
0129008418999992016010321534+03000+131800FM-15+000099999V0200201N002119999999N999999999+02791+02341101311ADDMA1101291999999REMMET102MOBOB2 METAR XM24 //000 030318 032153Z AUTO 02004KT 28/23 A2991 RMK A02 SLP131 T02790234 PA010 DA1883=
0129008418999992016010322534+03000+131800FM-15+000099999V0200401N004119999999N999999999+02831+02331101381ADDMA1101351999999REMMET102MOBOB2 METAR XM24 //000 030318 032253Z AUTO 04008KT 28/23 A2993 RMK A02 SLP138 T02830233 PA-08 DA1901=
0129008418999992016010323534+03000+131800FM-15+000099999V0200401N002619999999N999999999+02861+02311101411ADDMA1101391999999REMMET102MOBOB2 METAR XM24 //000 030318 032353Z AUTO 04005KT 29/23 A2994 RMK A02 SLP141 T02860231 PA-17 DA1920=
0129008418999992016010400534+03000+131800FM-15+000099999V0200501N002619999999N999999999+02901+02321101441ADDMA1101421999999REMMET102MOBOB2 METAR XM24 //000 030318 040053Z AUTO 05005KT 29/23 A2995 RMK A02 SLP144 T02900232 PA-27 DA1955=
0129008418999992016010401544+03000+131800FM-15+000099999V0200701N002119999999N999999999+02921+02261101381ADDMA1101351999999REMMET102MOBOB2 METAR XM24 //000 030318 040154Z AUTO 07004KT 29/23 A2993 RMK A02 SLP138 T02920226 PA-08 DA1988=
0129008418999992016010402534+03000+131800FM-15+000099999V0200501N001019999999N999999999+02981+02301101311ADDMA1101291999999REMMET102MOBOB2 METAR XM24 //000 030318 040253Z AUTO 05002KT 30/23 A2991 RMK A02 SLP131 T02980230 PA010 DA2086=
0129008418999992016010403534+03000+131800FM-15+000099999V0201101N001019999999N999999999+03141+02271101281ADDMA1101251999999REMMET102MOBOB2 METAR XM24 //000 030318 040353Z AUTO 11002KT 31/23 A2990 RMK A02 SLP128 T03140227 PA020 DA2269=
0129008418999992016010404544+03000+131800FM-15+000099999V0203501N001019999999N999999999+03041+02311101171ADDMA1101151999999REMMET102MOBOB2 METAR XM24 //000 030318 040454Z AUTO 35002KT 30/23 A2987 RMK A02 SLP117 T03040231 PA047 DA2201=
0129008418999992016010405534+03000+131800FM-15+000099999V0200201N001519999999N999999999+02981+02241101141ADDMA1101121999999REMMET102MOBOB2 METAR XM24 //000 030318 040553Z AUTO 02003KT 30/22 A2986 RMK A02 SLP114 T02980224 PA057 DA2129=
0129008418999992016010406534+03000+131800FM-15+000099999V0200201N001519999999N999999999+02971+02251101141ADDMA1101121999999REMMET102MOBOB2 METAR XM24 //000 030318 040653Z AUTO 02003KT 30/23 A2986 RMK A02 SLP114 T02970225 PA057 DA2122=
0129008418999992016010407534+03000+131800FM-15+000099999V0200101N002119999999N999999999+02961+02381101141ADDMA1101121999999REMMET102MOBOB2 METAR XM24 //000 030318 040753Z AUTO 01004KT 30/24 A2986 RMK A02 SLP114 T02960238 PA057 DA2138=
0129008418999992016010408534+03000+131800FM-15+000099999V0200101N001519999999N999999999+02861+02321101211ADDMA1101181999999REMMET102MOBOB2 METAR XM24 //000 030318 040853Z AUTO 01003KT 29/23 A2988 RMK A02 SLP121 T02860232 PA038 DA1990=
0129008418999992016010409534+03000+131800FM-15+000099999V0203501N001519999999N999999999+02791+02231101281ADDMA1101251999999REMMET102MOBOB2 METAR XM24 //000 030318 040953Z AUTO 35003KT 28/22 A2990 RMK A02 SLP128 T02790223 PA020 DA1871=
0129008418999992016010410534+03000+131800FM-15+000099999V0203601N001519999999N999999999+02821+02331101341ADDMA1101321999999REMMET102MOBOB2 METAR XM24 //000 030318 041053Z AUTO 36003KT 28/23 A2992 RMK A02 SLP134 T02820233 PA001 DA1903=
0129008418999992016010411534+03000+131800FM-15+000099999V0203601N001019999999N999999999+02781+02341101411ADDMA1101391999999REMMET102MOBOB2 METAR XM24 //000 030318 041153Z AUTO 36002KT 28/23 A2994 RMK A02 SLP141 T02780234 PA-17 DA1837=
0129008418999992016010412534+03000+131800FM-15+000099999V0203401N001519999999N999999999+02781+02361101411ADDMA1101391999999REMMET102MOBOB2 METAR XM24 //000 030318 041253Z AUTO 34003KT 28/24 A2994 RMK A02 SLP141 T02780236 PA-17 DA1842=
0129008418999992016010413534+03000+131800FM-15+000099999V0203501N001019999999N999999999+02761+02321101411ADDMA1101391999999REMMET102MOBOB2 METAR XM24 //000 030318 041353Z AUTO 35002KT 28/23 A2994 RMK A02 SLP141 T02760232 PA-17 DA1811=
0129008418999992016010414534+03000+131800FM-15+000099999V0203501N001019999999N999999999+02761+02321101411ADDMA1101391999999REMMET102MOBOB2 METAR XM24 //000 030318 041453Z AUTO 35002KT 28/23 A2994 RMK A02 SLP141 T02760232 PA-17 DA1811=
0129008418999992016010415534+03000+131800FM-15+000099999V0203401N001519999999N999999999+02761+02301101341ADDMA1101321999999REMMET102MOBOB2 METAR XM24 //000 030318 041553Z AUTO 34003KT 28/23 A2992 RMK A02 SLP134 T02760230 PA001 DA1829=
0129008418999992016010416534+03000+131800FM-15+000099999V0203201N001519999999N999999999+02741+02291101241ADDMA1101221999999REMMET102MOBOB2 METAR XM24 //000 030318 041653Z AUTO 32003KT 27/23 A2989 RMK A02 SLP124 T02740229 PA029 DA1837=
0129008418999992016010417534+03000+131800FM-15+000099999V0203301N002119999999N999999999+02751+02321101171ADDMA1101151999999REMMET102MOBOB2 METAR XM24 //000 030318 041753Z AUTO 33004KT 28/23 A2987 RMK A02 SLP117 T02750232 PA047 DA1879=
0129008418999992016010418534+03000+131800FM-15+000099999V0203301N002119999999N999999999+02751+02331101171ADDMA1101151999999REMMET102MOBOB2 METAR XM24 //000 030318 041853Z AUTO 33004KT 28/23 A2987 RMK A02 SLP117 T02750233 PA047 DA1881=
0129008418999992016010419534+03000+131800FM-15+000099999V0203301N001519999999N999999999+02741+02321101211ADDMA1101181999999REMMET102MOBOB2 METAR XM24 //000 030318 041953Z AUTO 33003KT 27/23 A2988 RMK A02 SLP121 T02740232 PA038 DA1855=
0129008418999992016010420534+03000+131800FM-15+000099999V0203401N001519999999N999999999+02741+02301101281ADDMA1101251999999REMMET102MOBOB2 METAR XM24 //000 030318 042053Z AUTO 34003KT 27/23 A2990 RMK A02 SLP128 T02740230 PA020 DA1829=
0129008418999992016010421534+03000+131800FM-15+000099999V0203401N001019999999N999999999+02761+02321101341ADDMA1101321999999REMMET102MOBOB2 METAR XM24 //000 030318 042153Z AUTO 34002KT 28/23 A2992 RMK A02 SLP134 T02760232 PA001 DA1832=
0129008418999992016010422534+03000+131800FM-15+000099999V0203101N001019999999N999999999+02851+02321101411ADDMA1101391999999REMMET102MOBOB2 METAR XM24 //000 030318 042253Z AUTO 31002KT 29/23 A2994 RMK A02 SLP141 T02850232 PA-17 DA1910=
0129008418999992016010423534+03000+131800FM-15+000099999V0203401N001519999999N999999999+02931+02311101411ADDMA1101391999999REMMET102MOBOB2 METAR XM24 //000 030318 042353Z AUTO 34003KT 29/23 A2994 RMK A02 SLP141 T02930231 PA-17 DA1998=
0129008418999992016010500534+03000+131800FM-15+000099999V0203301N002119999999N999999999+02971+02321101411ADDMA1101391999999REMMET102MOBOB2 METAR XM24 //000 030318 050053Z AUTO 33004KT 30/23 A2994 RMK A02 SLP141 T02970232 PA-17 DA2044=
0129008418999992016010501544+03000+131800FM-15+000099999V0203301N002619999999N999999999+03021+02331101381ADDMA1101351999999REMMET102MOBOB2 METAR XM24 //000 030318 050154Z AUTO 33005KT 30/23 A2993 RMK A02 SLP138 T03020233 PA-08 DA2115=
0129008418999992016010502534+03000+131800FM-15+000099999V0203301N002119999999N999999999+03021+02331101311ADDMA1101291999999REMMET102MOBOB2 METAR XM24 //000 030318 050253Z AUTO 33004KT 30/23 A2991 RMK A02 SLP131 T03020233 PA010 DA2136=
0129008418999992016010503534+03000+131800FM-15+000099999V0203301N002119999999N999999999+03051+02261101211ADDMA1101181999999REMMET102MOBOB2 METAR XM24 //000 030318 050353Z AUTO 33004KT 31/23 A2988 RMK A02 SLP121 T03050226 PA038 DA2190=
0129008418999992016010504534+03000+131800FM-15+000099999V0203401N002119999999N999999999+03071+02301101111ADDMA1101081999999REMMET102MOBOB2 METAR XM24 //000 030318 050453Z AUTO 34004KT 31/23 A2985 RMK A02 SLP111 T03070230 PA066 DA2255=
0129008418999992016010505534+03000+131800FM-15+000099999V0203301N003119999999N999999999+03061+02361101041ADDMA1101021999999REMMET102MOBOB2 METAR XM24 //000 030318 050553Z AUTO 33006KT 31/24 A2983 RMK A02 SLP104 T03060236 PA084 DA2280=
0129008418999992016010506534+03000+131800FM-15+000099999V0203301N002119999999N999999999+02991+02321101041ADDMA1101021999999REMMET102MOBOB2 METAR XM24 //000 030318 050653Z AUTO 33004KT 30/23 A2983 RMK A02 SLP104 T02990232 PA084 DA2193=
0129008418999992016010507534+03000+131800FM-15+000099999V0203601N001519999999N999999999+02991+02321101071ADDMA1101051999999REMMET102MOBOB2 METAR XM24 //000 030318 050753Z AUTO 36003KT 30/23 A2984 RMK A02 SLP107 T02990232 PA075 DA2181=
0129008418999992016010508534+03000+131800FM-15+000099999V0203501N001019999999N999999999+02881+02331101111ADDMA1101081999999REMMET102MOBOB2 METAR XM24 //000 030318 050853Z AUTO 35002KT 29/23 A2985 RMK A02 SLP111 T02880233 PA066 DA2049=
0129008418999992016010509534+03000+131800FM-15+000099999V0203601N001519999999N999999999+02801+02341101171ADDMA1101151999999REMMET102MOBOB2 METAR XM24 //000 030318 050953Z AUTO 36003KT 28/23 A2987 RMK A02 SLP117 T02800234 PA047 DA1939=
0129008418999992016010510534+03000+131800FM-15+000099999V0203601N001519999999N999999999+02801+02341101241ADDMA1101221999999REMMET102MOBOB2 METAR XM24 //000 030318 051053Z AUTO 36003KT 28/23 A2989 RMK A02 SLP124 T02800234 PA029 DA1916=
0129008418999992016010511534+03000+131800FM-15+000099999V0203601N002119999999N999999999+02811+02361101281ADDMA1101251999999REMMET102MOBOB2 METAR XM24 //000 030318 051153Z AUTO 36004KT 28/24 A2990 RMK A02 SLP128 T02810236 PA020 DA1921=
0129008418999992016010512534+03000+131800FM-15+000099999V0200301N003119999999N999999999+02791+02371101311ADDMA1101291999999REMMET102MOBOB2 METAR XM24 //000 030318 051253Z AUTO 03006KT 28/24 A2991 RMK A02 SLP131 T02790237 PA010 DA1889=
0129008418999992016010513534+03000+131800FM-15+000099999V0200201N001519999999N999999999+02781+02371101281ADDMA1101251999999REMMET102MOBOB2 METAR XM24 //000 030318 051353Z AUTO 02003KT 28/24 A2990 RMK A02 SLP128 T02780237 PA020 DA1890=
0129008418999992016010514534+03000+131800FM-15+000099999V0200201N002119999999N999999999+02771+02371101281ADDMA1101251999999REMMET102MOBOB2 METAR XM24 //000 030318 051453Z AUTO 02004KT 28/24 A2990 RMK A02 SLP128 T02770237 PA020 DA1878=
0129008418999992016010515534+03000+131800FM-15+000099999V0200301N003619999999N999999999+02781+02341101211ADDMA1101181999999REMMET102MOBOB2 METAR XM24 //000 030318 051553Z AUTO 03007KT 28/23 A2988 RMK A02 SLP121 T02780234 PA038 DA1906=
0129008418999992016010516534+03000+131800FM-15+000099999V0200101N001519999999N999999999+02781+02361101141ADDMA1101121999999REMMET102MOBOB2 METAR XM24 //000 030318 051653Z AUTO 01003KT 28/24 A2986 RMK A02 SLP114 T02780236 PA057 DA1932=
0129008418999992016010517534+03000+131800FM-15+000099999V0200201N002119999999N999999999+02781+02361101111ADDMA1101081999999REMMET102MOBOB2 METAR XM24 //000 030318 051753Z AUTO 02004KT 28/24 A2985 RMK A02 SLP111 T02780236 PA066 DA1944=
0129008418999992016010518534+03000+131800FM-15+000099999V0200101N001519999999N999999999+02781+02351101111ADDMA1101081999999REMMET102MOBOB2 METAR XM24 //000 030318 051853Z AUTO 01003KT 28/23 A2985 RMK A02 SLP111 T02780235 PA066 DA1941=
0129008418999992016010519534+03000+131800FM-15+000099999V0200201N002119999999N999999999+02781+02371101111ADDMA1101081999999REMMET102MOBOB2 METAR XM24 //000 030318 051953Z AUTO 02004KT 28/24 A2985 RMK A02 SLP111 T02780237 PA066 DA1947=
0129008418999992016010520534+03000+131800FM-15+000099999V0200201N002119999999N999999999+02791+02391101141ADDMA1101121999999REMMET102MOBOB2 METAR XM24 //000 030318 052053Z AUTO 02004KT 28/24 A2986 RMK A02 SLP114 T02790239 PA057 DA1950=
0129008418999992016010521534+03000+131800FM-15+000099999V0200301N003119999999N999999999+02791+02351101241ADDMA1101221999999REMMET102MOBOB2 METAR XM24 //000 030318 052153Z AUTO 03006KT 28/23 A2989 RMK A02 SLP124 T02790235 PA029 DA1907=
0129008418999992016010522534+03000+131800FM-15+000099999V0200101N002119999999N999999999+02871+02401101311ADDMA1101291999999REMMET102MOBOB2 METAR XM24 //000 030318 052253Z AUTO 01004KT 29/24 A2991 RMK A02 SLP131 T02870240 PA010 DA1986=
0129008418999992016010523534+03000+131800FM-15+000099999V0200301N003619999999N999999999+02911+02391101341ADDMA1101321999999REMMET102MOBOB2 METAR XM24 //000 030318 052353Z AUTO 03007KT 29/24 A2992 RMK A02 SLP134 T02910239 PA001 DA2016=
0129008418999992016010600534+03000+131800FM-15+000099999V0200401N004119999999N999999999+02911+02361101341ADDMA1101321999999REMMET102MOBOB2 METAR XM24 //000 030318 060053Z AUTO 04008KT 29/24 A2992 RMK A02 SLP134 T02910236 PA001 DA2011=
0129008418999992016010601534+03000+131800FM-15+000099999V0200201N002119999999N999999999+03031+02371101311ADDMA1101291999999REMMET102MOBOB2 METAR XM24 //000 030318 060153Z AUTO 02004KT 30/24 A2991 RMK A02 SLP131 T03030237 PA010 DA2157=
0129008418999992016010602534+03000+131800FM-15+000099999V0200301N003119999999N999999999+03031+02391101241ADDMA1101221999999REMMET102MOBOB2 METAR XM24 //000 030318 060253Z AUTO 03006KT 30/24 A2989 RMK A02 SLP124 T03030239 PA029 DA2184=
0129008418999992016010603534+03000+131800FM-15+000099999V0200201N002619999999N999999999+03041+02371101171ADDMA1101151999999REMMET102MOBOB2 METAR XM24 //000 030318 060353Z AUTO 02005KT 30/24 A2987 RMK A02 SLP117 T03040237 PA047 DA2213=
0129008418999992016010604534+03000+131800FM-15+000099999V0200201N002619999999N999999999+03021+02371101111ADDMA1101081999999REMMET102MOBOB2 METAR XM24 //000 030318 060453Z AUTO 02005KT 30/24 A2985 RMK A02 SLP111 T03020237 PA066 DA2214=
0129008418999992016010605534+03000+131800FM-15+000099999V0200101N002119999999N999999999+03031+02391101041ADDMA1101021999999REMMET102MOBOB2 METAR XM24 //000 030318 060553Z AUTO 01004KT 30/24 A2983 RMK A02 SLP104 T03030239 PA084 DA2252=
0129008418999992016010606544+03000+131800FM-15+000099999V0203501N001019999999N999999999+02971+02301101041ADDMA1101021999999REMMET102MOBOB2 METAR XM24 //000 030318 060654Z AUTO 35002KT 30/23 A2983 RMK A02 SLP104 T02970230 PA084 DA2165=
0129008418999992016010607534+03000+131800FM-15+000099999V0200101N001519999999N999999999+03001+02341101071ADDMA1101051999999REMMET102MOBOB2 METAR XM24 //000 030318 060753Z AUTO 01003KT 30/23 A2984 RMK A02 SLP107 T03000234 PA075 DA2196=
0129008418999992016010608534+03000+131800FM-15+000099999V0203501N001519999999N999999999+02911+02331101111ADDMA1101081999999REMMET102MOBOB2 METAR XM24 //000 030318 060853Z AUTO 35003KT 29/23 A2985 RMK A02 SLP111 T02910233 PA066 DA2084=
0129008418999992016010609534+03000+131800FM-15+000099999V0203601N001519999999N999999999+02831+02331101171ADDMA1101151999999REMMET102MOBOB2 METAR XM24 //000 030318 060953Z AUTO 36003KT 28/23 A2987 RMK A02 SLP117 T02830233 PA047 DA1972=
0129008418999992016010610534+03000+131800FM-15+000099999V0200101N001519999999N999999999+02811+02351101241ADDMA1101221999999REMMET102MOBOB2 METAR XM24 //000 030318 061053Z AUTO 01003KT 28/23 A2989 RMK A02 SLP124 T02810235 PA029 DA1929=
0129008418999992016010611534+03000+131800FM-15+000099999V0200101N002119999999N999999999+02841+02371101281ADDMA1101251999999REMMET102MOBOB2 METAR XM24 //000 030318 061153Z AUTO 01004KT 28/24 A2990 RMK A02 SLP128 T02840237 PA020 DA1956=
0129008418999992016010612534+03000+131800FM-15+000099999V0200101N002119999999N999999999+02821+02371101281ADDMA1101251999999REMMET102MOBOB2 METAR XM24 //000 030318 061253Z AUTO 01004KT 28/24 A2990 RMK A02 SLP128 T02820237 PA020 DA1934=
0129008418999992016010613534+03000+131800FM-15+000099999V0203601N002119999999N999999999+02811+02371101241ADDMA1101221999999REMMET102MOBOB2 METAR XM24 //000 030318 061353Z AUTO 36004KT 28/24 A2989 RMK A02 SLP124 T02810237 PA029 DA1935=
0129008418999992016010614534+03000+131800FM-15+000099999V0203601N001519999999N999999999+02781+02361101211ADDMA1101181999999REMMET102MOBOB2 METAR XM24 //000 030318 061453Z AUTO 36003KT 28/24 A2988 RMK A02 SLP121 T02780236 PA038 DA1911=
0129008418999992016010615534+03000+131800FM-15+000099999V0203401N001519999999N999999999+02751+02361101141ADDMA1101121999999REMMET102MOBOB2 METAR XM24 //000 030318 061553Z AUTO 34003KT 28/24 A2986 RMK A02 SLP114 T02750236 PA057 DA1899=
0129008418999992016010616534+03000+131800FM-15+000099999V0200101N001519999999N999999999+02741+02351101111ADDMA1101081999999REMMET102MOBOB2 METAR XM24 //000 030318 061653Z AUTO 01003KT 27/23 A2985 RMK A02 SLP111 T02740235 PA066 DA1896=
0129008418999992016010617534+03000+131800FM-15+000099999V0203401N001519999999N999999999+02741+02381101041ADDMA1101021999999REMMET102MOBOB2 METAR XM24 //000 030318 061753Z AUTO 34003KT 27/24 A2983 RMK A02 SLP104 T02740238 PA084 DA1928=
0129008418999992016010618534+03000+131800FM-15+000099999V0203301N003119999999N999999999+02761+02361101071ADDMA1101051999999REMMET102MOBOB2 METAR XM24 //000 030318 061853Z AUTO 33006KT 28/24 A2984 RMK A02 SLP107 T02760236 PA075 DA1933=
0129008418999992016010619534+03000+131800FM-15+000099999V0203401N002619999999N999999999+02761+02351101111ADDMA1101081999999REMMET102MOBOB2 METAR XM24 //000 030318 061953Z AUTO 34005KT 28/23 A2985 RMK A02 SLP111 T02760235 PA066 DA1919=
0129008418999992016010620534+03000+131800FM-15+000099999V0203301N003119999999N999999999+02771+02361101171ADDMA1101151999999REMMET102MOBOB2 METAR XM24 //000 030318 062053Z AUTO 33006KT 28/24 A2987 RMK A02 SLP117 T02770236 PA047 DA1910=
0129008418999992016010621534+03000+131800FM-15+000099999V0203301N003619999999N999999999+02791+02341101211ADDMA1101181999999REMMET102MOBOB2 METAR XM24 //000 030318 062153Z AUTO 33007KT 28/23 A2988 RMK A02 SLP121 T02790234 PA038 DA1917=
0129008418999992016010622534+03000+131800FM-15+000099999V0203401N002619999999N999999999+02861+02341101311ADDMA1101291999999REMMET102MOBOB2 METAR XM24 //000 030318 062253Z AUTO 34005KT 29/23 A2991 RMK A02 SLP131 T02860234 PA010 DA1961=
0129008418999992016010623534+03000+131800FM-15+000099999V0203301N003619999999N999999999+02941+02351101311ADDMA1101291999999REMMET102MOBOB2 METAR XM24 //000 030318 062353Z AUTO 33007KT 29/24 A2991 RMK A02 SLP131 T02940235 PA010 DA2053=
0129008418999992016010700534+03000+131800FM-15+000099999V0203301N003119999999N999999999+03011+02361101341ADDMA1101321999999REMMET102MOBOB2 METAR XM24 //000 030318 070053Z AUTO 33006KT 30/24 A2992 RMK A02 SLP134 T03010236 PA001 DA2120=
0129008418999992016010701534+03000+131800FM-15+000099999V0203201N003619999999N999999999+03011+02291101311ADDMA1101291999999REMMET102MOBOB2 METAR XM24 //000 030318 070153Z AUTO 32007KT 30/23 A2991 RMK A02 SLP131 T03010229 PA010 DA2117=
0129008418999992016010702534+03000+131800FM-15+000099999V0203201N003619999999N999999999+03021+02261101241ADDMA1101221999999REMMET102MOBOB2 METAR XM24 //000 030318 070253Z AUTO 32007KT 30/23 A2989 RMK A02 SLP124 T03020226 PA029 DA2144=
0129008418999992016010703534+03000+131800FM-15+000099999V0203301N004119999999N999999999+03021+02331101171ADDMA1101151999999REMMET102MOBOB2 METAR XM24 //000 030318 070353Z AUTO 33008KT 30/23 A2987 RMK A02 SLP117 T03020233 PA047 DA2183=
0129008418999992016010704544+03000+131800FM-15+000099999V0203201N004119999999N999999999+02981+02321101071ADDMA1101051999999REMMET102MOBOB2 METAR XM24 //000 030318 070454Z AUTO 32008KT 30/23 A2984 RMK A02 SLP107 T02980232 PA075 DA2171=
0140008418999992016010705534+03000+131800FM-15+000099999V0203201N004619999999N999999999+02971+02351101071ADDMA1101051999999OC100621REMMET105MOBOB2 METAR XM24 //000 030318 070553Z AUTO 32009G12KT 30/23 A2984 RMK A02 SLP107 T02970235 PA075 DA2165=
0129008418999992016010706534+03000+131800FM-15+000099999V0203101N004119999999N999999999+02931+02351101071ADDMA1101051999999REMMET102MOBOB2 METAR XM24 //000 030318 070653Z AUTO 31008KT 29/24 A2984 RMK A02 SLP107 T02930235 PA075 DA2121=
0140008418999992016010707534+03000+131800FM-15+000099999V0203201N004619999999N999999999+02901+02361101111ADDMA1101081999999OC100621REMMET105MOBOB2 METAR XM24 //000 030318 070753Z AUTO 32009G12KT 29/24 A2985 RMK A02 SLP111 T02900236 PA066 DA2079=
0129008418999992016010708534+03000+131800FM-15+000099999V0203201N004119999999N999999999+02851+02341101171ADDMA1101151999999REMMET102MOBOB2 METAR XM24 //000 030318 070853Z AUTO 32008KT 29/23 A2987 RMK A02 SLP117 T02850234 PA047 DA1994=
0129008418999992016010709534+03000+131800FM-15+000099999V0203101N004119999999N999999999+02821+02351101241ADDMA1101221999999REMMET102MOBOB2 METAR XM24 //000 030318 070953Z AUTO 31008KT 28/23 A2989 RMK A02 SLP124 T02820235 PA029 DA1941=
0129008418999992016010710534+03000+131800FM-15+000099999V0203201N003119999999N999999999+02811+02351101311ADDMA1101291999999REMMET102MOBOB2 METAR XM24 //000 030318 071053Z AUTO 32006KT 28/24 A2991 RMK A02 SLP131 T02810235 PA010 DA1908=
0129008418999992016010711534+03000+131800FM-15+000099999V0203001N003119999999N999999999+02811+02341101341ADDMA1101321999999REMMET102MOBOB2 METAR XM24 //000 030318 071153Z AUTO 30006KT 28/23 A2992 RMK A02 SLP134 T02810234 PA001 DA1894=
0129008418999992016010712534+03000+131800FM-15+000099999V0203101N003619999999N999999999+02791+02351101341ADDMA1101321999999REMMET102MOBOB2 METAR XM24 //000 030318 071253Z AUTO 31007KT 28/23 A2992 RMK A02 SLP134 T02790235 PA001 DA1873=
0129008418999992016010713534+03000+131800FM-15+000099999V0203101N003619999999N999999999+02781+02311101311ADDMA1101291999999REMMET102MOBOB2 METAR XM24 //000 030318 071353Z AUTO 31007KT 28/23 A2991 RMK A02 SLP131 T02780231 PA010 DA1865=
0129008418999992016010714534+03000+131800FM-15+000099999V0203001N004119999999N999999999+02761+02301101281ADDMA1101251999999REMMET102MOBOB2 METAR XM24 //000 030318 071453Z AUTO 30008KT 28/23 A2990 RMK A02 SLP128 T02760230 PA020 DA1852=
0129008418999992016010715534+03000+131800FM-15+000099999V0203101N004119999999N999999999+02751+02311101241ADDMA1101221999999REMMET102MOBOB2 METAR XM24 //000 030318 071553Z AUTO 31008KT 28/23 A2989 RMK A02 SLP124 T02750231 PA029 DA1854=
0129008418999992016010716534+03000+131800FM-15+000099999V0203001N004119999999N999999999+02751+02271101141ADDMA1101121999999REMMET102MOBOB2 METAR XM24 //000 030318 071653Z AUTO 30008KT 28/23 A2986 RMK A02 SLP114 T02750227 PA057 DA1880=
0129008418999992016010717534+03000+131800FM-15+000099999V0203001N003619999999N999999999+02751+02251101071ADDMA1101051999999REMMET102MOBOB2 METAR XM24 //000 030318 071753Z AUTO 30007KT 28/22 A2984 RMK A02 SLP107 T02750225 PA075 DA1897=
0129008418999992016010718534+03000+131800FM-15+000099999V0203101N003119999999N999999999+02741+02261101041ADDMA1101021999999REMMET102MOBOB2 METAR XM24 //000 030318 071853Z AUTO 31006KT 27/23 A2983 RMK A02 SLP104 T02740226 PA084 DA1901=
0129008418999992016010719534+03000+131800FM-15+000099999V0203001N002619999999N999999999+02761+02261101071ADDMA1101051999999REMMET102MOBOB2 METAR XM24 //000 030318 071953Z AUTO 30005KT 28/23 A2984 RMK A02 SLP107 T02760226 PA075 DA1911=
0129008418999992016010721534+03000+131800FM-15+000099999V0202701N003619999999N999999999+02771+02241101211ADDMA1101181999999REMMET102MOBOB2 METAR XM24 //000 030318 072153Z AUTO 27007KT 28/22 A2988 RMK A02 SLP121 T02770224 PA038 DA1873=
0129008418999992016010722534+03000+131800FM-15+000099999V0202901N003619999999N999999999+02821+02281101311ADDMA1101291999999REMMET102MOBOB2 METAR XM24 //000 030318 072253Z AUTO 29007KT 28/23 A2991 RMK A02 SLP131 T02820228 PA010 DA1903=
0129008418999992016010723534+03000+131800FM-15+000099999V0203001N003119999999N999999999+02851+02221101341ADDMA1101321999999REMMET102MOBOB2 METAR XM24 //000 030318 072353Z AUTO 30006KT 29/22 A2992 RMK A02 SLP134 T02850222 PA001 DA1912=
0129008418999992016010800534+03000+131800FM-15+000099999V0202901N003119999999N999999999+02871+02221101311ADDMA1101291999999REMMET102MOBOB2 METAR XM24 //000 030318 080053Z AUTO 29006KT 29/22 A2991 RMK A02 SLP131 T02870222 PA010 DA1946=
0129008418999992016010801534+03000+131800FM-15+000099999V0202801N003619999999N999999999+02891+02261101281ADDMA1101251999999REMMET102MOBOB2 METAR XM24 //000 030318 080153Z AUTO 28007KT 29/23 A2990 RMK A02 SLP128 T02890226 PA020 DA1988=
0129008418999992016010802534+03000+131800FM-15+000099999V0202801N003619999999N999999999+02891+02191101211ADDMA1101181999999REMMET102MOBOB2 METAR XM24 //000 030318 080253Z AUTO 28007KT 29/22 A2988 RMK A02 SLP121 T02890219 PA038 DA1997=
0129008418999992016010803534+03000+131800FM-15+000099999V0202801N003619999999N999999999+02901+02151101141ADDMA1101121999999REMMET102MOBOB2 METAR XM24 //000 030318 080353Z AUTO 28007KT 29/21 A2986 RMK A02 SLP114 T02900215 PA057 DA2022=
0129008418999992016010804534+03000+131800FM-15+000099999V0202901N003619999999N999999999+02941+02251101041ADDMA1101021999999REMMET102MOBOB2 METAR XM24 //000 030318 080453Z AUTO 29007KT 29/23 A2983 RMK A02 SLP104 T02940225 PA084 DA2123=
0129008418999992016010805534+03000+131800FM-15+000099999V0202901N004119999999N999999999+02921+02251101041ADDMA1101021999999REMMET102MOBOB2 METAR XM24 //000 030318 080553Z AUTO 29008KT 29/23 A2983 RMK A02 SLP104 T02920225 PA084 DA2100=
0129008418999992016010806534+03000+131800FM-15+000099999V0202901N004119999999N999999999+02901+02291101001ADDMA1100981999999REMMET102MOBOB2 METAR XM24 //000 030318 080653Z AUTO 29008KT 29/23 A2982 RMK A02 SLP100 T02900229 PA094 DA2097=
0129008418999992016010807534+03000+131800FM-15+000099999V0202901N003619999999N999999999+02901+02331101041ADDMA1101021999999REMMET102MOBOB2 METAR XM24 //000 030318 080753Z AUTO 29007KT 29/23 A2983 RMK A02 SLP104 T02900233 PA084 DA2095=
0129008418999992016010808534+03000+131800FM-15+000099999V0202901N003619999999N999999999+02861+02291101071ADDMA1101051999999REMMET102MOBOB2 METAR XM24 //000 030318 080853Z AUTO 29007KT 29/23 A2984 RMK A02 SLP107 T02860229 PA075 DA2029=
0129008418999992016010809534+03000+131800FM-15+000099999V0202801N004119999999N999999999+02821+02241101141ADDMA1101121999999REMMET102MOBOB2 METAR XM24 //000 030318 080953Z AUTO 28008KT 28/22 A2986 RMK A02 SLP114 T02820224 PA057 DA1952=
0129008418999992016010810534+03000+131800FM-15+000099999V0202901N003119999999N999999999+02811+02191101241ADDMA1101221999999REMMET102MOBOB2 METAR XM24 //000 030318 081053Z AUTO 29006KT 28/22 A2989 RMK A02 SLP124 T02810219 PA029 DA1895=
0129008418999992016010811534+03000+131800FM-15+000099999V0202901N003119999999N999999999+02811+02211101281ADDMA1101251999999REMMET102MOBOB2 METAR XM24 //000 030318 081153Z AUTO 29006KT 28/22 A2990 RMK A02 SLP128 T02810221 PA020 DA1889=
0129008418999992016010812534+03000+131800FM-15+000099999V0202901N003119999999N999999999+02791+02251101281ADDMA1101251999999REMMET102MOBOB2 METAR XM24 //000 030318 081253Z AUTO 29006KT 28/22 A2990 RMK A02 SLP128 T02790225 PA020 DA1874=
0129008418999992016010813534+03000+131800FM-15+000099999V0202901N003119999999N999999999+02771+02261101241ADDMA1101221999999REMMET102MOBOB2 METAR XM24 //000 030318 081353Z AUTO 29006KT 28/23 A2989 RMK A02 SLP124 T02770226 PA029 DA1866=
0129008418999992016010814534+03000+131800FM-15+000099999V0203001N002119999999N999999999+02731+02241101241ADDMA1101221999999REMMET102MOBOB2 METAR XM24 //000 030318 081453Z AUTO 30004KT 27/22 A2989 RMK A02 SLP124 T02730224 PA029 DA1816=
0129008418999992016010815534+03000+131800FM-15+000099999V0203201N001519999999N999999999+02691+02281101171ADDMA1101151999999REMMET102MOBOB2 METAR XM24 //000 030318 081553Z AUTO 32003KT 27/23 A2987 RMK A02 SLP117 T02690228 PA047 DA1802=
0129008418999992016010816534+03000+131800FM-15+000099999V0203101N001519999999N999999999+02671+02261101111ADDMA1101081999999REMMET102MOBOB2 METAR XM24 //000 030318 081653Z AUTO 31003KT 27/23 A2985 RMK A02 SLP111 T02670226 PA066 DA1799=
0129008418999992016010817534+03000+131800FM-15+000099999V0202901N001519999999N999999999+02691+02251101071ADDMA1101051999999REMMET102MOBOB2 METAR XM24 //000 030318 081753Z AUTO 29003KT 27/22 A2984 RMK A02 SLP107 T02690225 PA075 DA1831=
0129008418999992016010818534+03000+131800FM-15+000099999V0202901N002119999999N999999999+02711+02241101141ADDMA1101121999999REMMET102MOBOB2 METAR XM24 //000 030318 081853Z AUTO 29004KT 27/22 A2986 RMK A02 SLP114 T02710224 PA057 DA1828=
0129008418999992016010819534+03000+131800FM-15+000099999V0203101N001519999999N999999999+02721+02241101141ADDMA1101121999999REMMET102MOBOB2 METAR XM24 //000 030318 081953Z AUTO 31003KT 27/22 A2986 RMK A02 SLP114 T02720224 PA057 DA1840=
0129008418999992016010820534+03000+131800FM-15+000099999V0203101N001519999999N999999999+02711+02291101211ADDMA1101181999999REMMET102MOBOB2 METAR XM24 //000 030318 082053Z AUTO 31003KT 27/23 A2988 RMK A02 SLP121 T02710229 PA038 DA1816=
0129008418999992016010821534+03000+131800FM-15+000099999V0202901N001019999999N999999999+02741+02291101241ADDMA1101221999999REMMET102MOBOB2 METAR XM24 //000 030318 082153Z AUTO 29002KT 27/23 A2989 RMK A02 SLP124 T02740229 PA029 DA1839=
0129008418999992016010822534+03000+131800FM-15+000099999V0202401N001019999999N999999999+02821+02241101311ADDMA1101291999999REMMET102MOBOB2 METAR XM24 //000 030318 082253Z AUTO 24002KT 28/22 A2991 RMK A02 SLP131 T02820224 PA010 DA1895=
0129008418999992016010823534+03000+131800FM-15+000099999V0202501N001019999999N999999999+02921+02241101311ADDMA1101291999999REMMET102MOBOB2 METAR XM24 //000 030318 082353Z AUTO 25002KT 29/22 A2991 RMK A02 SLP131 T02920224 PA010 DA2005=
0129008418999992016010900534+03000+131800FM-15+000099999V0202301N001019999999N999999999+02971+02231101311ADDMA1101291999999REMMET102MOBOB2 METAR XM24 //000 030318 090053Z AUTO 23002KT 30/22 A2991 RMK A02 SLP131 T02970223 PA010 DA2060=
0129008418999992016010901534+03000+131800FM-15+000099999V0202801N001519999999N999999999+02971+02221101311ADDMA1101291999999REMMET102MOBOB2 METAR XM24 //000 030318 090153Z AUTO 28003KT 30/22 A2991 RMK A02 SLP131 T02970222 PA010 DA2057=
0129008418999992016010902534+03000+131800FM-15+000099999V0202201N001519999999N999999999+03051+02191101241ADDMA1101221999999REMMET102MOBOB2 METAR XM24 //000 030318 090253Z AUTO 22003KT 31/22 A2989 RMK A02 SLP124 T03050219 PA029 DA2163=
0129008418999992016010903544+03000+131800FM-15+000099999V0202801N001019999999N999999999+03051+02191101171ADDMA1101151999999REMMET102MOBOB2 METAR XM24 //000 030318 090354Z AUTO 28002KT 31/22 A2987 RMK A02 SLP117 T03050219 PA047 DA2186=
0129008418999992016010904534+03000+131800FM-15+000099999V0202401N001019999999N999999999+03111+02171101111ADDMA1101081999999REMMET102MOBOB2 METAR XM24 //000 030318 090453Z AUTO 24002KT 31/22 A2985 RMK A02 SLP111 T03110217 PA066 DA2272=
0129008418999992016010905534+03000+131800FM-15+000099999V0200701N001519999999N999999999+03071+02161101041ADDMA1101021999999REMMET102MOBOB2 METAR XM24 //000 030318 090553Z AUTO 07003KT 31/22 A2983 RMK A02 SLP104 T03070216 PA084 DA2248=
0129008418999992016010906534+03000+131800FM-15+000099999V0201001N002119999999N999999999+02961+02251101041ADDMA1101021999999REMMET102MOBOB2 METAR XM24 //000 030318 090653Z AUTO 10004KT 30/23 A2983 RMK A02 SLP104 T02960225 PA084 DA2145=
0129008418999992016010907534+03000+131800FM-15+000099999V0201201N001519999999N999999999+02911+02191101071ADDMA1101051999999REMMET102MOBOB2 METAR XM24 //000 030318 090753Z AUTO 12003KT 29/22 A2984 RMK A02 SLP107 T02910219 PA075 DA2065=
0129008418999992016010908534+03000+131800FM-15+000099999V0201101N001019999999N999999999+02881+02201101111ADDMA1101081999999REMMET102MOBOB2 METAR XM24 //000 030318 090853Z AUTO 11002KT 29/22 A2985 RMK A02 SLP111 T02880220 PA066 DA2022=
0129008418999992016010909534+03000+131800FM-15+000099999V0201501N000519999999N999999999+02811+02211101171ADDMA1101151999999REMMET102MOBOB2 METAR XM24 //000 030318 090953Z AUTO 15001KT 28/22 A2987 RMK A02 SLP117 T02810221 PA047 DA1922=
0129008418999992016010910534+03000+131800FM-15+000099999V0201201N001019999999N999999999+02801+02271101241ADDMA1101221999999REMMET102MOBOB2 METAR XM24 //000 030318 091053Z AUTO 12002KT 28/23 A2989 RMK A02 SLP124 T02800227 PA029 DA1902=
0129008418999992016010911534+03000+131800FM-15+000099999V0209999C000019999999N999999999+02741+02261101281ADDMA1101251999999REMMET102MOBOB2 METAR XM24 //000 030318 091153Z AUTO 00000KT 27/23 A2990 RMK A02 SLP128 T02740226 PA020 DA1821=
0129008418999992016010912534+03000+131800FM-15+000099999V0209999C000019999999N999999999+02701+02271101241ADDMA1101221999999REMMET102MOBOB2 METAR XM24 //000 030318 091253Z AUTO 00000KT 27/23 A2989 RMK A02 SLP124 T02700227 PA029 DA1789=
0129008418999992016010913534+03000+131800FM-15+000099999V0200601N001019999999N999999999+02771+02271101241ADDMA1101221999999REMMET102MOBOB2 METAR XM24 //000 030318 091353Z AUTO 06002KT 28/23 A2989 RMK A02 SLP124 T02770227 PA029 DA1867=
0129008418999992016010914534+03000+131800FM-15+000099999V0200701N001019999999N999999999+02761+02281101241ADDMA1101221999999REMMET102MOBOB2 METAR XM24 //000 030318 091453Z AUTO 07002KT 28/23 A2989 RMK A02 SLP124 T02760228 PA029 DA1859=
0129008418999992016010915534+03000+131800FM-15+000099999V0200501N001519999999N999999999+02751+02281101211ADDMA1101181999999REMMET102MOBOB2 METAR XM24 //000 030318 091553Z AUTO 05003KT 28/23 A2988 RMK A02 SLP121 T02750228 PA038 DA1858=
0129008418999992016010916534+03000+131800FM-15+000099999V0200601N002119999999N999999999+02731+02261101141ADDMA1101121999999REMMET102MOBOB2 METAR XM24 //000 030318 091653Z AUTO 06004KT 27/23 A2986 RMK A02 SLP114 T02730226 PA057 DA1856=
0129008418999992016010917534+03000+131800FM-15+000099999V0200501N002119999999N999999999+02711+02271101071ADDMA1101051999999REMMET102MOBOB2 METAR XM24 //000 030318 091753Z AUTO 05004KT 27/23 A2984 RMK A02 SLP107 T02710227 PA075 DA1858=
0129008418999992016010918534+03000+131800FM-15+000099999V0200601N002619999999N999999999+02721+02271101071ADDMA1101051999999REMMET102MOBOB2 METAR XM24 //000 030318 091853Z AUTO 06005KT 27/23 A2984 RMK A02 SLP107 T02720227 PA075 DA1869=
0129008418999992016010919534+03000+131800FM-15+000099999V0200601N002619999999N999999999+02771+02261101111ADDMA1101081999999REMMET102MOBOB2 METAR XM24 //000 030318 091953Z AUTO 06005KT 28/23 A2985 RMK A02 SLP111 T02770226 PA066 DA1911=
0129008418999992016010920534+03000+131800FM-15+000099999V0200601N002619999999N999999999+02771+02261101171ADDMA1101151999999REMMET102MOBOB2 METAR XM24 //000 030318 092053Z AUTO 06005KT 28/23 A2987 RMK A02 SLP117 T02770226 PA047 DA1888=
0129008418999992016010921534+03000+131800FM-15+000099999V0200601N002619999999N999999999+02801+02261101241ADDMA1101221999999REMMET102MOBOB2 METAR XM24 //000 030318 092153Z AUTO 06005KT 28/23 A2989 RMK A02 SLP124 T02800226 PA029 DA1899=
0129008418999992016010922534+03000+131800FM-15+000099999V0200701N003119999999N999999999+02851+02221101311ADDMA1101291999999REMMET102MOBOB2 METAR XM24 //000 030318 092253Z AUTO 07006KT 29/22 A2991 RMK A02 SLP131 T02850222 PA010 DA1924=
0129008418999992016010923534+03000+131800FM-15+000099999V0200801N003119999999N999999999+02891+02241101381ADDMA1101351999999REMMET102MOBOB2 METAR XM24 //000 030318 092353Z AUTO 08006KT 29/22 A2993 RMK A02 SLP138 T02890224 PA-08 DA1950=
0129008418999992016011000534+03000+131800FM-15+000099999V0200701N003119999999N999999999+02901+02241101341ADDMA1101321999999REMMET102MOBOB2 METAR XM24 //000 030318 100053Z AUTO 07006KT 29/22 A2992 RMK A02 SLP134 T02900224 PA001 DA1972=
0129008418999992016011001544+03000+131800FM-15+000099999V0200701N003619999999N999999999+02911+02291101281ADDMA1101251999999REMMET102MOBOB2 METAR XM24 //000 030318 100154Z AUTO 07007KT 29/23 A2990 RMK A02 SLP128 T02910229 PA020 DA2016=
0129008418999992016011002534+03000+131800FM-15+000099999V0200701N003619999999N999999999+02911+02281101241ADDMA1101221999999REMMET102MOBOB2 METAR XM24 //000 030318 100253Z AUTO 07007KT 29/23 A2989 RMK A02 SLP124 T02910228 PA029 DA2027=
0129008418999992016011003534+03000+131800FM-15+000099999V0200701N003619999999N999999999+02931+02321101171ADDMA1101151999999REMMET102MOBOB2 METAR XM24 //000 030318 100353Z AUTO 07007KT 29/23 A2987 RMK A02 SLP117 T02930232 PA047 DA2079=
0129008418999992016011004534+03000+131800FM-15+000099999V0200801N003119999999N999999999+02951+02261101071ADDMA1101051999999REMMET102MOBOB2 METAR XM24 //000 030318 100453Z AUTO 08006KT 30/23 A2984 RMK A02 SLP107 T02950226 PA075 DA2123=
0129008418999992016011005534+03000+131800FM-15+000099999V0200901N003119999999N999999999+02941+02231101041ADDMA1101021999999REMMET102MOBOB2 METAR XM24 //000 030318 100553Z AUTO 09006KT 29/22 A2983 RMK A02 SLP104 T02940223 PA084 DA2118=
0129008418999992016011006534+03000+131800FM-15+000099999V0200701N002619999999N999999999+02951+02321101041ADDMA1101021999999REMMET102MOBOB2 METAR XM24 //000 030318 100653Z AUTO 07005KT 30/23 A2983 RMK A02 SLP104 T02950232 PA084 DA2149=
0129008418999992016011007534+03000+131800FM-15+000099999V0200901N002619999999N999999999+02931+02331101071ADDMA1101051999999REMMET102MOBOB2 METAR XM24 //000 030318 100753Z AUTO 09005KT 29/23 A2984 RMK A02 SLP107 T02930233 PA075 DA2117=
0129008418999992016011008534+03000+131800FM-15+000099999V0200901N002619999999N999999999+02861+02311101111ADDMA1101081999999REMMET102MOBOB2 METAR XM24 //000 030318 100853Z AUTO 09005KT 29/23 A2985 RMK A02 SLP111 T02860231 PA066 DA2023=
0129008418999992016011009534+03000+131800FM-15+000099999V0201101N002119999999N999999999+02821+02281101141ADDMA1101121999999REMMET102MOBOB2 METAR XM24 //000 030318 100953Z AUTO 11004KT 28/23 A2986 RMK A02 SLP114 T02820228 PA057 DA1961=
0129008418999992016011010534+03000+131800FM-15+000099999V0201001N001519999999N999999999+02821+02331101171ADDMA1101151999999REMMET102MOBOB2 METAR XM24 //000 030318 101053Z AUTO 10003KT 28/23 A2987 RMK A02 SLP117 T02820233 PA047 DA1959=
0129008418999992016011011534+03000+131800FM-15+000099999V0200901N001019999999N999999999+02781+02351101241ADDMA1101221999999REMMET102MOBOB2 METAR XM24 //000 030318 101153Z AUTO 09002KT 28/24 A2989 RMK A02 SLP124 T02780235 PA029 DA1897=
0129008418999992016011012534+03000+131800FM-15+000099999V0201001N002119999999N999999999+02801+02351101281ADDMA1101251999999REMMET102MOBOB2 METAR XM24 //000 030318 101253Z AUTO 10004KT 28/23 A2990 RMK A02 SLP128 T02800235 PA020 DA1907=
0129008418999992016011013534+03000+131800FM-15+000099999V0201101N002119999999N999999999+02781+02301101281ADDMA1101251999999REMMET102MOBOB2 METAR XM24 //000 030318 101353Z AUTO 11004KT 28/23 A2990 RMK A02 SLP128 T02780230 PA020 DA1874=
0129008418999992016011014534+03000+131800FM-15+000099999V0201001N001519999999N999999999+02781+02301101241ADDMA1101221999999REMMET102MOBOB2 METAR XM24 //000 030318 101453Z AUTO 10003KT 28/23 A2989 RMK A02 SLP124 T02780230 PA029 DA1886=
0129008418999992016011015534+03000+131800FM-15+000099999V0201101N001519999999N999999999+02751+02311101211ADDMA1101181999999REMMET102MOBOB2 METAR XM24 //000 030318 101553Z AUTO 11003KT 28/23 A2988 RMK A02 SLP121 T02750231 PA038 DA1866=
0134008418999992016011016534+03000+131800FM-15+000099999V0200901N001519999999N009999199+02741+02351101071ADDMA1101051999999REMMET107MOBOB2 METAR XM24 //000 030318 101653Z AUTO 09003KT 9999 27/24 A2984 RMK A02 SLP107 T02740235 PA075 DA1909=
0134008418999992016011017534+03000+131800FM-15+000099999V0201001N001019999999N009999199+02701+02341101041ADDMA1101021999999REMMET107MOBOB2 METAR XM24 //000 030318 101753Z AUTO 10002KT 9999 27/23 A2983 RMK A02 SLP104 T02700234 PA084 DA1874=
0134008418999992016011018534+03000+131800FM-15+000099999V0201001N001019999999N009999199+02681+02341101041ADDMA1101021999999REMMET107MOBOB2 METAR XM24 //000 030318 101853Z AUTO 10002KT 9999 27/23 A2983 RMK A02 SLP104 T02680234 PA084 DA1850=
0134008418999992016011019534+03000+131800FM-15+000099999V0200601N002119999999N009999199+02701+02341101071ADDMA1101051999999REMMET107MOBOB2 METAR XM24 //000 030318 101953Z AUTO 06004KT 9999 27/23 A2984 RMK A02 SLP107 T02700234 PA075 DA1862=
0129008418999992016011020534+03000+131800FM-15+000099999V0200401N002119999999N999999999+02741+02311101111ADDMA1101081999999REMMET102MOBOB2 METAR XM24 //000 030318 102053Z AUTO 04004KT 27/23 A2985 RMK A02 SLP111 T02740231 PA066 DA1888=
0129008418999992016011021534+03000+131800FM-15+000099999V0200301N002119999999N999999999+02751+02341101141ADDMA1101121999999REMMET102MOBOB2 METAR XM24 //000 030318 102153Z AUTO 03004KT 28/23 A2986 RMK A02 SLP114 T02750234 PA057 DA1896=
0129008418999992016011022534+03000+131800FM-15+000099999V0200301N001019999999N999999999+02811+02301101241ADDMA1101221999999REMMET102MOBOB2 METAR XM24 //000 030318 102253Z AUTO 03002KT 28/23 A2989 RMK A02 SLP124 T02810230 PA029 DA1918=
0129008418999992016011023534+03000+131800FM-15+000099999V0200301N001519999999N999999999+02851+02231101311ADDMA1101291999999REMMET102MOBOB2 METAR XM24 //000 030318 102353Z AUTO 03003KT 29/22 A2991 RMK A02 SLP131 T02850223 PA010 DA1927=
0129008418999992016011100534+03000+131800FM-15+000099999V0200401N002619999999N999999999+02911+02301101281ADDMA1101251999999REMMET102MOBOB2 METAR XM24 //000 030318 110053Z AUTO 04005KT 29/23 A2990 RMK A02 SLP128 T02910230 PA020 DA2020=
0129008418999992016011101534+03000+131800FM-15+000099999V0200501N002619999999N999999999+02881+02291101241ADDMA1101221999999REMMET102MOBOB2 METAR XM24 //000 030318 110153Z AUTO 05005KT 29/23 A2989 RMK A02 SLP124 T02880229 PA029 DA1994=
0129008418999992016011102534+03000+131800FM-15+000099999V0200301N002119999999N999999999+02951+02271101171ADDMA1101151999999REMMET102MOBOB2 METAR XM24 //000 030318 110253Z AUTO 03004KT 30/23 A2987 RMK A02 SLP117 T02950227 PA047 DA2092=
0129008418999992016011103544+03000+131800FM-15+000099999V0200601N001519999999N999999999+02951+02241101111ADDMA1101081999999REMMET102MOBOB2 METAR XM24 //000 030318 110354Z AUTO 06003KT 30/22 A2985 RMK A02 SLP111 T02950224 PA066 DA2109=
0129008418999992016011104534+03000+131800FM-15+000099999V0200301N002119999999N999999999+02981+02291100971ADDMA1100951999999REMMET102MOBOB2 METAR XM24 //000 030318 110453Z AUTO 03004KT 30/23 A2981 RMK A02 SLP097 T02980229 PA103 DA2198=
0129008418999992016011105534+03000+131800FM-15+000099999V0200401N002619999999N999999999+02951+02301100941ADDMA1100911999999REMMET102MOBOB2 METAR XM24 //000 030318 110553Z AUTO 04005KT 30/23 A2980 RMK A02 SLP094 T02950230 PA112 DA2178=
0129008418999992016011106534+03000+131800FM-15+000099999V0200501N002619999999N999999999+02921+02261100941ADDMA1100911999999REMMET102MOBOB2 METAR XM24 //000 030318 110653Z AUTO 05005KT 29/23 A2980 RMK A02 SLP094 T02920226 PA112 DA2136=
0129008418999992016011107534+03000+131800FM-15+000099999V0200601N001519999999N999999999+02911+02261101001ADDMA1100981999999REMMET102MOBOB2 METAR XM24 //000 030318 110753Z AUTO 06003KT 29/23 A2982 RMK A02 SLP100 T02910226 PA094 DA2102=
0129008418999992016011108534+03000+131800FM-15+000099999V0200301N001519999999N999999999+02881+02281101041ADDMA1101021999999REMMET102MOBOB2 METAR XM24 //000 030318 110853Z AUTO 03003KT 29/23 A2983 RMK A02 SLP104 T02880228 PA084 DA2062=
0129008418999992016011109534+03000+131800FM-15+000099999V0200301N003119999999N999999999+02831+02341101071ADDMA1101051999999REMMET102MOBOB2 METAR XM24 //000 030318 110953Z AUTO 03006KT 28/23 A2984 RMK A02 SLP107 T02830234 PA075 DA2007=
0129008418999992016011110534+03000+131800FM-15+000099999V0200101N001519999999N999999999+02821+02311101141ADDMA1101121999999REMMET102MOBOB2 METAR XM24 //000 030318 111053Z AUTO 01003KT 28/23 A2986 RMK A02 SLP114 T02820231 PA057 DA1967=
0129008418999992016011111534+03000+131800FM-15+000099999V0203601N001519999999N999999999+02791+02251101211ADDMA1101181999999REMMET102MOBOB2 METAR XM24 //000 030318 111153Z AUTO 36003KT 28/22 A2988 RMK A02 SLP121 T02790225 PA038 DA1897=
0129008418999992016011112544+03000+131800FM-15+000099999V0203601N001019999999N999999999+02781+02281101211ADDMA1101181999999REMMET102MOBOB2 METAR XM24 //000 030318 111254Z AUTO 36002KT 28/23 A2988 RMK A02 SLP121 T02780228 PA038 DA1892=
0129008418999992016011113534+03000+131800FM-15+000099999V0203601N000519999999N999999999+02771+02241101241ADDMA1101221999999REMMET102MOBOB2 METAR XM24 //000 030318 111353Z AUTO 36001KT 28/22 A2989 RMK A02 SLP124 T02770224 PA029 DA1862=
0129008418999992016011114534+03000+131800FM-15+000099999V0202901N002619999999N999999999+02791+02341101211ADDMA1101181999999REMMET102MOBOB2 METAR XM24 //000 030318 111453Z AUTO 29005KT 28/23 A2988 RMK A02 SLP121 T02790234 PA038 DA1916=
0129008418999992016011115534+03000+131800FM-15+000099999V0203601N001519999999N999999999+02751+02281101141ADDMA1101121999999REMMET102MOBOB2 METAR XM24 //000 030318 111553Z AUTO 36003KT 28/23 A2986 RMK A02 SLP114 T02750228 PA057 DA1883=
0129008418999992016011116534+03000+131800FM-15+000099999V0203601N001519999999N999999999+02751+02291101071ADDMA1101051999999REMMET102MOBOB2 METAR XM24 //000 030318 111653Z AUTO 36003KT 28/23 A2984 RMK A02 SLP107 T02750229 PA075 DA1906=
0129008418999992016011117534+03000+131800FM-15+000099999V0203601N001519999999N999999999+02701+02271101071ADDMA1101051999999REMMET102MOBOB2 METAR XM24 //000 030318 111753Z AUTO 36003KT 27/23 A2984 RMK A02 SLP107 T02700227 PA075 DA1845=
0129008418999992016011118534+03000+131800FM-15+000099999V0203501N001519999999N999999999+02681+02281101071ADDMA1101051999999REMMET102MOBOB2 METAR XM24 //000 030318 111853Z AUTO 35003KT 27/23 A2984 RMK A02 SLP107 T02680228 PA075 DA1827=
0129008418999992016011119534+03000+131800FM-15+000099999V0203401N002119999999N999999999+02671+02251101071ADDMA1101051999999REMMET102MOBOB2 METAR XM24 //000 030318 111953Z AUTO 34004KT 27/23 A2984 RMK A02 SLP107 T02670225 PA075 DA1809=
0129008418999992016011120534+03000+131800FM-15+000099999V0203401N002619999999N999999999+02731+02251101141ADDMA1101121999999REMMET102MOBOB2 METAR XM24 //000 030318 112053Z AUTO 34005KT 27/22 A2986 RMK A02 SLP114 T02730225 PA057 DA1853=
0129008418999992016011121534+03000+131800FM-15+000099999V0203301N003619999999N999999999+02761+02271101241ADDMA1101221999999REMMET102MOBOB2 METAR XM24 //000 030318 112153Z AUTO 33007KT 28/23 A2989 RMK A02 SLP124 T02760227 PA029 DA1857=
0129008418999992016011122534+03000+131800FM-15+000099999V0203301N003119999999N999999999+02831+02311101281ADDMA1101251999999REMMET102MOBOB2 METAR XM24 //000 030318 112253Z AUTO 33006KT 28/23 A2990 RMK A02 SLP128 T02830231 PA020 DA1932=
0129008418999992016011123534+03000+131800FM-15+000099999V0203401N002619999999N999999999+02941+02311101341ADDMA1101321999999REMMET102MOBOB2 METAR XM24 //000 030318 112353Z AUTO 34005KT 29/23 A2992 RMK A02 SLP134 T02940231 PA001 DA2032=
0129008418999992016011200544+03000+131800FM-15+000099999V0203501N002119999999N999999999+03031+02321101341ADDMA1101321999999REMMET102MOBOB2 METAR XM24 //000 030318 120054Z AUTO 35004KT 30/23 A2992 RMK A02 SLP134 T03030232 PA001 DA2134=
0129008418999992016011201534+03000+131800FM-15+000099999V0203401N002619999999N999999999+03041+02311101311ADDMA1101291999999REMMET102MOBOB2 METAR XM24 //000 030318 120153Z AUTO 34005KT 30/23 A2991 RMK A02 SLP131 T03040231 PA010 DA2154=
0129008418999992016011202534+03000+131800FM-15+000099999V0203501N002619999999N999999999+03081+02281101241ADDMA1101221999999REMMET102MOBOB2 METAR XM24 //000 030318 120253Z AUTO 35005KT 31/23 A2989 RMK A02 SLP124 T03080228 PA029 DA2216=
0129008418999992016011203534+03000+131800FM-15+000099999V0203401N002619999999N999999999+03131+02311101141ADDMA1101121999999REMMET102MOBOB2 METAR XM24 //000 030318 120353Z AUTO 34005KT 31/23 A2986 RMK A02 SLP114 T03130231 PA057 DA2311=
0129008418999992016011204534+03000+131800FM-15+000099999V0203201N003619999999N999999999+03011+02301101071ADDMA1101051999999REMMET102MOBOB2 METAR XM24 //000 030318 120453Z AUTO 32007KT 30/23 A2984 RMK A02 SLP107 T03010230 PA075 DA2200=
0129008418999992016011205534+03000+131800FM-15+000099999V0203101N003119999999N999999999+02961+02351101001ADDMA1100981999999REMMET102MOBOB2 METAR XM24 //000 030318 120553Z AUTO 31006KT 30/23 A2982 RMK A02 SLP100 T02960235 PA094 DA2177=
0129008418999992016011206534+03000+131800FM-15+000099999V0203201N001519999999N999999999+03001+02261101001ADDMA1100981999999REMMET102MOBOB2 METAR XM24 //000 030318 120653Z AUTO 32003KT 30/23 A2982 RMK A02 SLP100 T03000226 PA094 DA2203=
0129008418999992016011207534+03000+131800FM-15+000099999V0203401N001519999999N999999999+02971+02281101071ADDMA1101051999999REMMET102MOBOB2 METAR XM24 //000 030318 120753Z AUTO 34003KT 30/23 A2984 RMK A02 SLP107 T02970228 PA075 DA2150=
0129008418999992016011208534+03000+131800FM-15+000099999V0203101N001019999999N999999999+02921+02261101071ADDMA1101051999999REMMET102MOBOB2 METAR XM24 //000 030318 120853Z AUTO 31002KT 29/23 A2984 RMK A02 SLP107 T02920226 PA075 DA2089=
0129008418999992016011209534+03000+131800FM-15+000099999V0203301N001519999999N999999999+02831+02281101111ADDMA1101081999999REMMET102MOBOB2 METAR XM24 //000 030318 120953Z AUTO 33003KT 28/23 A2985 RMK A02 SLP111 T02830228 PA066 DA1983=
0129008418999992016011210534+03000+131800FM-15+000099999V0200101N001519999999N999999999+02811+02281101141ADDMA1101121999999REMMET102MOBOB2 METAR XM24 //000 030318 121053Z AUTO 01003KT 28/23 A2986 RMK A02 SLP114 T02810228 PA057 DA1949=
0129008418999992016011211534+03000+131800FM-15+000099999V0203601N001019999999N999999999+02811+02271101211ADDMA1101181999999REMMET102MOBOB2 METAR XM24 //000 030318 121153Z AUTO 36002KT 28/23 A2988 RMK A02 SLP121 T02810227 PA038 DA1924=
0129008418999992016011212534+03000+131800FM-15+000099999V0200501N001519999999N999999999+02831+02321101211ADDMA1101181999999REMMET102MOBOB2 METAR XM24 //000 030318 121253Z AUTO 05003KT 28/23 A2988 RMK A02 SLP121 T02830232 PA038 DA1956=
0129008418999992016011213534+03000+131800FM-15+000099999V0200701N001519999999N999999999+02841+02281101171ADDMA1101151999999REMMET102MOBOB2 METAR XM24 //000 030318 121353Z AUTO 07003KT 28/23 A2987 RMK A02 SLP117 T02840228 PA047 DA1971=
0129008418999992016011214534+03000+131800FM-15+000099999V0200401N002619999999N999999999+02831+02381101141ADDMA1101121999999REMMET102MOBOB2 METAR XM24 //000 030318 121453Z AUTO 04005KT 28/24 A2986 RMK A02 SLP114 T02830238 PA057 DA1992=
0134008418999992016011215534+03000+131800FM-15+000099999V0200701N003619999999N009999199+02791+02461101111ADDMA1101081999999REMMET107MOBOB2 METAR XM24 //000 030318 121553Z AUTO 07007KT 9999 28/25 A2985 RMK A02 SLP111 T02790246 PA066 DA1978=
0134008418999992016011216534+03000+131800FM-15+000099999V0200601N003119999999N009999199+02771+02421101041ADDMA1101021999999REMMET107MOBOB2 METAR XM24 //000 030318 121653Z AUTO 06006KT 9999 28/24 A2983 RMK A02 SLP104 T02770242 PA084 DA1968=
0161008418999992016011217534+03000+131800FM-15+000099999V0200301N002619999999N009000199+02641+02371101041ADDAA101002231AW1611MA1101021999999REMMET117MOBOB2 METAR XM24 //000 030318 121753Z AUTO 03005KT 9000 -RA 26/24 A2983 RMK A02 SLP104 P0009 T02640237 PA084 DA1811=
0161008418999992016011218534+03000+131800FM-15+000099999V0200601N003619999999N009000199+02631+02351101041ADDAA101000531AW1611MA1101021999999REMMET117MOBOB2 METAR XM24 //000 030318 121853Z AUTO 06007KT 9000 -RA 26/24 A2983 RMK A02 SLP104 P0002 T02630235 PA084 DA1797=
0161008418999992016011219534+03000+131800FM-15+000099999V0200701N002119999999N009000199+02651+02391101041ADDAA101000021AW1611MA1101021999999REMMET117MOBOB2 METAR XM24 //000 030318 121953Z AUTO 07004KT 9000 -RA 27/24 A2983 RMK A02 SLP104 P0000 T02650239 PA084 DA1828=
0134008418999992016011220534+03000+131800FM-15+000099999V0200201N000519999999N009999199+02671+02391101111ADDMA1101081999999REMMET107MOBOB2 METAR XM24 //000 030318 122053Z AUTO 02001KT 9999 27/24 A2985 RMK A02 SLP111 T02670239 PA066 DA1828=
0129008418999992016011221534+03000+131800FM-15+000099999V0201601N000519999999N999999999+02681+02401101141ADDMA1101121999999REMMET102MOBOB2 METAR XM24 //000 030318 122153Z AUTO 16001KT 27/24 A2986 RMK A02 SLP114 T02680240 PA057 DA1829=
0129008418999992016011222534+03000+131800FM-15+000099999V0200501N002619999999N999999999+02781+02381101211ADDMA1101181999999REMMET102MOBOB2 METAR XM24 //000 030318 122253Z AUTO 05005KT 28/24 A2988 RMK A02 SLP121 T02780238 PA038 DA1915=
0129008418999992016011223534+03000+131800FM-15+000099999V0200401N004119999999N999999999+02811+02371101241ADDMA1101221999999REMMET102MOBOB2 METAR XM24 //000 030318 122353Z AUTO 04008KT 28/24 A2989 RMK A02 SLP124 T02810237 PA029 DA1935=
0140008418999992016011300534+03000+131800FM-15+000099999V0200701N005719999999N999999999+02851+02351101241ADDMA1101221999999OC100721REMMET105MOBOB2 METAR XM24 //000 030318 130053Z AUTO 07011G14KT 29/23 A2989 RMK A02 SLP124 T02850235 PA029 DA1974=
0129008418999992016011301534+03000+131800FM-15+000099999V0200701N004619999999N999999999+02881+02391101211ADDMA1101181999999REMMET102MOBOB2 METAR XM24 //000 030318 130153Z AUTO 07009KT 29/24 A2988 RMK A02 SLP121 T02880239 PA038 DA2029=
0129008418999992016011302534+03000+131800FM-15+000099999V0200601N004119999999N999999999+02891+02381101141ADDMA1101121999999REMMET102MOBOB2 METAR XM24 //000 030318 130253Z AUTO 06008KT 29/24 A2986 RMK A02 SLP114 T02890238 PA057 DA2059=
0129008418999992016011303534+03000+131800FM-15+000099999V0200601N004119999999N999999999+02921+02351101071ADDMA1101051999999REMMET102MOBOB2 METAR XM24 //000 030318 130353Z AUTO 06008KT 29/24 A2984 RMK A02 SLP107 T02920235 PA075 DA2110=
0140008418999992016011304534+03000+131800FM-15+000099999V0200601N005119999999N999999999+02911+02391100971ADDMA1100951999999OC100671REMMET105MOBOB2 METAR XM24 //000 030318 130453Z AUTO 06010G13KT 29/24 A2981 RMK A02 SLP097 T02910239 PA103 DA2143=
0129008418999992016011305534+03000+131800FM-15+000099999V0200601N004619999999N999999999+02911+02401100941ADDMA1100911999999REMMET102MOBOB2 METAR XM24 //000 030318 130553Z AUTO 06009KT 29/24 A2980 RMK A02 SLP094 T02910240 PA112 DA2155=
0129008418999992016011306534+03000+131800FM-15+000099999V0200601N004619999999N999999999+02941+02431100941ADDMA1100911999999REMMET102MOBOB2 METAR XM24 //000 030318 130653Z AUTO 06009KT 29/24 A2980 RMK A02 SLP094 T02940243 PA112 DA2196=
0129008418999992016011307534+03000+131800FM-15+000099999V0200601N004619999999N999999999+02881+02331100971ADDMA1100951999999REMMET102MOBOB2 METAR XM24 //000 030318 130753Z AUTO 06009KT 29/23 A2981 RMK A02 SLP097 T02880233 PA103 DA2095=
0129008418999992016011308534+03000+131800FM-15+000099999V0200601N004119999999N999999999+02881+02391101001ADDMA1100981999999REMMET102MOBOB2 METAR XM24 //000 030318 130853Z AUTO 06008KT 29/24 A2982 RMK A02 SLP100 T02880239 PA094 DA2097=
0129008418999992016011309534+03000+131800FM-15+000099999V0200601N004619999999N999999999+02841+02341101041ADDMA1101021999999REMMET102MOBOB2 METAR XM24 //000 030318 130953Z AUTO 06009KT 28/23 A2983 RMK A02 SLP104 T02840234 PA084 DA2031=
0129008418999992016011310534+03000+131800FM-15+000099999V0200701N004119999999N999999999+02821+02341101141ADDMA1101121999999REMMET102MOBOB2 METAR XM24 //000 030318 131053Z AUTO 07008KT 28/23 A2986 RMK A02 SLP114 T02820234 PA057 DA1974=
0129008418999992016011311534+03000+131800FM-15+000099999V0200501N004619999999N999999999+02821+02311101171ADDMA1101151999999REMMET102MOBOB2 METAR XM24 //000 030318 131153Z AUTO 05009KT 28/23 A2987 RMK A02 SLP117 T02820231 PA047 DA1955=
0129008418999992016011312534+03000+131800FM-15+000099999V0200601N003119999999N999999999+02811+02271101211ADDMA1101181999999REMMET102MOBOB2 METAR XM24 //000 030318 131253Z AUTO 06006KT 28/23 A2988 RMK A02 SLP121 T02810227 PA038 DA1924=
0129008418999992016011313534+03000+131800FM-15+000099999V0200701N003619999999N999999999+02811+02331101171ADDMA1101151999999REMMET102MOBOB2 METAR XM24 //000 030318 131353Z AUTO 07007KT 28/23 A2987 RMK A02 SLP117 T02810233 PA047 DA1948=
0129008418999992016011314534+03000+131800FM-15+000099999V0200601N003619999999N999999999+02801+02331101111ADDMA1101081999999REMMET102MOBOB2 METAR XM24 //000 030318 131453Z AUTO 06007KT 28/23 A2985 RMK A02 SLP111 T02800233 PA066 DA1960=
0129008418999992016011315534+03000+131800FM-15+000099999V0200501N003619999999N999999999+02781+02291101041ADDMA1101021999999REMMET102MOBOB2 METAR XM24 //000 030318 131553Z AUTO 05007KT 28/23 A2983 RMK A02 SLP104 T02780229 PA084 DA1952=
0129008418999992016011316534+03000+131800FM-15+000099999V0200501N004619999999N999999999+02781+02291100971ADDMA1100951999999REMMET102MOBOB2 METAR XM24 //000 030318 131653Z AUTO 05009KT 28/23 A2981 RMK A02 SLP097 T02780229 PA103 DA1975=
0129008418999992016011317534+03000+131800FM-15+000099999V0200401N004119999999N999999999+02751+02301100901ADDMA1100881999999REMMET102MOBOB2 METAR XM24 //000 030318 131753Z AUTO 04008KT 28/23 A2979 RMK A02 SLP090 T02750230 PA122 DA1965=
0129008418999992016011318534+03000+131800FM-15+000099999V0200601N003619999999N999999999+02731+02291100871ADDMA1100851999999REMMET102MOBOB2 METAR XM24 //000 030318 131853Z AUTO 06007KT 27/23 A2978 RMK A02 SLP087 T02730229 PA131 DA1953=
0129008418999992016011319534+03000+131800FM-15+000099999V0200501N003619999999N999999999+02731+02301100941ADDMA1100911999999REMMET102MOBOB2 METAR XM24 //000 030318 131953Z AUTO 05007KT 27/23 A2980 RMK A02 SLP094 T02730230 PA112 DA1932=
0129008418999992016011320534+03000+131800FM-15+000099999V0200601N003119999999N999999999+02721+02361100971ADDMA1100951999999REMMET102MOBOB2 METAR XM24 //000 030318 132053Z AUTO 06006KT 27/24 A2981 RMK A02 SLP097 T02720236 PA103 DA1922=
0129008418999992016011321534+03000+131800FM-15+000099999V0200601N003619999999N999999999+02751+02301101071ADDMA1101051999999REMMET102MOBOB2 METAR XM24 //000 030318 132153Z AUTO 06007KT 28/23 A2984 RMK A02 SLP107 T02750230 PA075 DA1909=
0129008418999992016011322534+03000+131800FM-15+000099999V0200701N003619999999N999999999+02831+02331101141ADDMA1101121999999REMMET102MOBOB2 METAR XM24 //000 030318 132253Z AUTO 07007KT 28/23 A2986 RMK A02 SLP114 T02830233 PA057 DA1982=
0129008418999992016011323534+03000+131800FM-15+000099999V0200401N003619999999N999999999+02841+02321101171ADDMA1101151999999REMMET102MOBOB2 METAR XM24 //000 030318 132353Z AUTO 04007KT 28/23 A2987 RMK A02 SLP117 T02840232 PA047 DA1979=
0129008418999992016011400534+03000+131800FM-15+000099999V0200501N003619999999N999999999+02851+02331101171ADDMA1101151999999REMMET102MOBOB2 METAR XM24 //000 030318 140053Z AUTO 05007KT 29/23 A2987 RMK A02 SLP117 T02850233 PA047 DA1993=
0129008418999992016011401534+03000+131800FM-15+000099999V0200601N003619999999N999999999+02881+02301101111ADDMA1101081999999REMMET102MOBOB2 METAR XM24 //000 030318 140153Z AUTO 06007KT 29/23 A2985 RMK A02 SLP111 T02880230 PA066 DA2042=
0129008418999992016011402534+03000+131800FM-15+000099999V0200501N003119999999N999999999+02921+02391101071ADDMA1101051999999REMMET102MOBOB2 METAR XM24 //000 030318 140253Z AUTO 05006KT 29/24 A2984 RMK A02 SLP107 T02920239 PA075 DA2119=
0129008418999992016011403534+03000+131800FM-15+000099999V0200601N002619999999N999999999+02911+02341101001ADDMA1100981999999REMMET102MOBOB2 METAR XM24 //000 030318 140353Z AUTO 06005KT 29/23 A2982 RMK A02 SLP100 T02910234 PA094 DA2120=
0129008418999992016011404534+03000+131800FM-15+000099999V0200501N002119999999N999999999+02941+02361100901ADDMA1100881999999REMMET102MOBOB2 METAR XM24 //000 030318 140453Z AUTO 05004KT 29/24 A2979 RMK A02 SLP090 T02940236 PA122 DA2190=
0129008418999992016011405534+03000+131800FM-15+000099999V0200501N002619999999N999999999+02941+02391100871ADDMA1100851999999REMMET102MOBOB2 METAR XM24 //000 030318 140553Z AUTO 05005KT 29/24 A2978 RMK A02 SLP087 T02940239 PA131 DA2209=
0129008418999992016011406534+03000+131800FM-15+000099999V0200501N002619999999N999999999+02921+02371100871ADDMA1100851999999REMMET102MOBOB2 METAR XM24 //000 030318 140653Z AUTO 05005KT 29/24 A2978 RMK A02 SLP087 T02920237 PA131 DA2182=
0129008418999992016011407534+03000+131800FM-15+000099999V0200501N002119999999N999999999+02881+02431100871ADDMA1100851999999REMMET102MOBOB2 METAR XM24 //000 030318 140753Z AUTO 05004KT 29/24 A2978 RMK A02 SLP087 T02880243 PA131 DA2151=
0129008418999992016011408534+03000+131800FM-15+000099999V0200501N002619999999N999999999+02841+02401100941ADDMA1100911999999REMMET102MOBOB2 METAR XM24 //000 030318 140853Z AUTO 05005KT 28/24 A2980 RMK A02 SLP094 T02840240 PA112 DA2078=
0129008418999992016011409534+03000+131800FM-15+000099999V0200501N004119999999N999999999+02821+02491100971ADDMA1100951999999REMMET102MOBOB2 METAR XM24 //000 030318 140953Z AUTO 05008KT 28/25 A2981 RMK A02 SLP097 T02820249 PA103 DA2065=
0129008418999992016011410534+03000+131800FM-15+000099999V0200501N004119999999N999999999+02791+02441101001ADDMA1100981999999REMMET102MOBOB2 METAR XM24 //000 030318 141053Z AUTO 05008KT 28/24 A2982 RMK A02 SLP100 T02790244 PA094 DA2008=
0156008418999992016011411534+03000+131800FM-15+000099999V0200601N004119999999N999999999+02811+02431101071ADDAA101000021AW1611MA1101051999999REMMET112MOBOB2 METAR XM24 //000 030318 141153Z AUTO 06008KT -RA 28/24 A2984 RMK A02 SLP107 P0000 T02810243 PA075 DA2005=
0129008418999992016011412544+03000+131800FM-15+000099999V0200701N003119999999N999999999+02821+02411101071ADDMA1101051999999REMMET102MOBOB2 METAR XM24 //000 030318 141254Z AUTO 07006KT 28/24 A2984 RMK A02 SLP107 T02820241 PA075 DA2013=
0129008418999992016011413534+03000+131800FM-15+000099999V0200601N003619999999N999999999+02811+02361101071ADDMA1101051999999REMMET102MOBOB2 METAR XM24 //000 030318 141353Z AUTO 06007KT 28/24 A2984 RMK A02 SLP107 T02810236 PA075 DA1990=
0129008418999992016011414534+03000+131800FM-15+000099999V0200501N003619999999N999999999+02801+02421101041ADDMA1101021999999REMMET102MOBOB2 METAR XM24 //000 030318 141453Z AUTO 05007KT 28/24 A2983 RMK A02 SLP104 T02800242 PA084 DA2004=
0129008418999992016011415534+03000+131800FM-15+000099999V0200501N003619999999N999999999+02791+02431100971ADDMA1100951999999REMMET102MOBOB2 METAR XM24 //000 030318 141553Z AUTO 05007KT 28/24 A2981 RMK A02 SLP097 T02790243 PA103 DA2017=
0161008418999992016011416534+03000+131800FM-15+000099999V0200401N003619999999N009000199+02671+02361100941ADDAA101000021AW1611MA1100911999999REMMET117MOBOB2 METAR XM24 //000 030318 141653Z AUTO 04007KT 9000 -RA 27/24 A2980 RMK A02 SLP094 P0000 T02670236 PA112 DA1879=
0129008418999992016011417534+03000+131800FM-15+000099999V0200501N005119999999N999999999+02711+02361100871ADDMA1100851999999REMMET102MOBOB2 METAR XM24 //000 030318 141753Z AUTO 05010KT 27/24 A2978 RMK A02 SLP087 T02710236 PA131 DA1946=
0172008418999992016011418534+03000+131800FM-15+000099999V0200501N006719999999N009000199+02671+02361100841ADDAA101000731AW1611MA1100811999999OC100821REMMET120MOBOB2 METAR XM24 //000 030318 141853Z AUTO 05013G16KT 9000 -RA 27/24 A2977 RMK A02 SLP084 P0003 T02670236 PA140 DA1912=
0129008418999992016011419534+03000+131800FM-15+000099999V0200601N004619999999N999999999+02721+02401100871ADDMA1100851999999REMMET102MOBOB2 METAR XM24 //000 030318 141953Z AUTO 06009KT 27/24 A2978 RMK A02 SLP087 T02720240 PA131 DA1966=
0129008418999992016011420534+03000+131800FM-15+000099999V0200501N003619999999N999999999+02711+02341100941ADDMA1100911999999REMMET102MOBOB2 METAR XM24 //000 030318 142053Z AUTO 05007KT 27/23 A2980 RMK A02 SLP094 T02710234 PA112 DA1919=
0156008418999992016011421534+03000+131800FM-15+000099999V0200101N002119999999N999999999+02631+02341101001ADDAA101000231AW1611MA1100981999999REMMET112MOBOB2 METAR XM24 //000 030318 142153Z AUTO 01004KT -RA 26/23 A2982 RMK A02 SLP100 P0001 T02630234 PA094 DA1806=
0140008418999992016011422534+03000+131800FM-15+000099999V0200601N005119999999N999999999+02731+02381101041ADDMA1101021999999OC100721REMMET105MOBOB2 METAR XM24 //000 030318 142253Z AUTO 06010G14KT 27/24 A2983 RMK A02 SLP104 T02730238 PA084 DA1915=
0140008418999992016011423534+03000+131800FM-15+000099999V0200601N006219999999N999999999+02741+02421101071ADDMA1101051999999OC100771REMMET105MOBOB2 METAR XM24 //000 030318 142353Z AUTO 06012G15KT 27/24 A2984 RMK A02 SLP107 T02740242 PA075 DA1923=
0140008418999992016011500534+03000+131800FM-15+000099999V0200601N007219999999N999999999+02681+02361101071ADDMA1101051999999OC100881REMMET105MOBOB2 METAR XM24 //000 030318 150053Z AUTO 06014G17KT 27/24 A2984 RMK A02 SLP107 T02680236 PA075 DA1844=
0140008418999992016011501544+03000+131800FM-15+000099999V0200501N005119999999N999999999+02671+02321101041ADDMA1101021999999OC100621REMMET105MOBOB2 METAR XM24 //000 030318 150154Z AUTO 05010G12KT 27/23 A2983 RMK A02 SLP104 T02670232 PA084 DA1834=
0167008418999992016011502534+03000+131800FM-15+000099999V0200601N007219999999N999999999+02691+02391100971ADDAA101000021AW1611MA1100951999999OC100931REMMET115MOBOB2 METAR XM24 //000 030318 150253Z AUTO 06014G18KT -RA 27/24 A2981 RMK A02 SLP097 P0000 T02690239 PA103 DA1897=
0156008418999992016011503534+03000+131800FM-15+000099999V0200801N003119999999N999999999+02631+02381100941ADDAA101001531AW1631MA1100911999999REMMET112MOBOB2 METAR XM24 //000 030318 150353Z AUTO 08006KT +RA 26/24 A2980 RMK A02 SLP094 P0006 T02630238 PA112 DA1837=
0167008418999992016011504534+03000+131800FM-15+000099999V0200601N005119999999N999999999+02741+02381100841ADDAA101000021AW1611MA1100811999999OC100671REMMET115MOBOB2 METAR XM24 //000 030318 150453Z AUTO 06010G13KT -RA 27/24 A2977 RMK A02 SLP084 P0000 T02740238 PA140 DA1996=
0167008418999992016011505534+03000+131800FM-15+000099999V0200701N006719999999N999999999+02761+02411100771ADDAA101000021AW1611MA1100741999999OC100821REMMET115MOBOB2 METAR XM24 //000 030318 150553Z AUTO 07013G16KT -RA 28/24 A2975 RMK A02 SLP077 P0000 T02760241 PA159 DA2048=
0129008418999992016011506534+03000+131800FM-15+000099999V0200801N003619999999N999999999+02761+02411100771ADDMA1100741999999REMMET102MOBOB2 METAR XM24 //000 030318 150653Z AUTO 08007KT 28/24 A2975 RMK A02 SLP077 T02760241 PA159 DA2047=
0129008418999992016011507534+03000+131800FM-15+000099999V0200501N004119999999N999999999+02811+02391100771ADDMA1100741999999REMMET102MOBOB2 METAR XM24 //000 030318 150753Z AUTO 05008KT 28/24 A2975 RMK A02 SLP077 T02810239 PA159 DA2098=
0140008418999992016011508534+03000+131800FM-15+000099999V0200601N005119999999N999999999+02821+02371100801ADDMA1100781999999OC100721REMMET105MOBOB2 METAR XM24 //000 030318 150853Z AUTO 06010G14KT 28/24 A2976 RMK A02 SLP080 T02820237 PA149 DA2093=
0156008418999992016011509534+03000+131800FM-15+000099999V0200601N004119999999N999999999+02821+02381100871ADDAA101000021AW1611MA1100851999999REMMET112MOBOB2 METAR XM24 //000 030318 150953Z AUTO 06008KT -RA 28/24 A2978 RMK A02 SLP087 P0000 T02820238 PA131 DA2072=
0140008418999992016011510534+03000+131800FM-15+000099999V0200601N005119999999N999999999+02831+02401100941ADDMA1100911999999OC100621REMMET105MOBOB2 METAR XM24 //000 030318 151053Z AUTO 06010G12KT 28/24 A2980 RMK A02 SLP094 T02830240 PA112 DA2066=
0129008418999992016011511534+03000+131800FM-15+000099999V0200601N004619999999N999999999+02831+02401101001ADDMA1100981999999REMMET102MOBOB2 METAR XM24 //000 030318 151153Z AUTO 06009KT 28/24 A2982 RMK A02 SLP100 T02830240 PA094 DA2044=
0167008418999992016011512534+03000+131800FM-15+000099999V0200801N007219999999N999999999+02791+02421100971ADDAA101000021AW1611MA1100951999999OC100931REMMET115MOBOB2 METAR XM24 //000 030318 151253Z AUTO 08014G18KT -RA 28/24 A2981 RMK A02 SLP097 P0000 T02790242 PA103 DA2015=
0156008418999992016011513534+03000+131800FM-15+000099999V0200601N004119999999N999999999+02731+02341100971ADDAA101000021AW1611MA1100951999999REMMET112MOBOB2 METAR XM24 //000 030318 151353Z AUTO 06008KT -RA 27/23 A2981 RMK A02 SLP097 P0000 T02730234 PA103 DA1929=
0129008418999992016011514534+03000+131800FM-15+000099999V0200701N003619999999N999999999+02791+02451100941ADDMA1100911999999REMMET102MOBOB2 METAR XM24 //000 030318 151453Z AUTO 07007KT 28/24 A2980 RMK A02 SLP094 T02790245 PA112 DA2033=
0129008418999992016011515534+03000+131800FM-15+000099999V0200201N002119999999N999999999+02701+02261100871ADDMA1100851999999REMMET102MOBOB2 METAR XM24 //000 030318 151553Z AUTO 02004KT 27/23 A2978 RMK A02 SLP087 T02700226 PA131 DA1913=
0156008418999992016011516534+03000+131800FM-15+000099999V0200401N004119999999N999999999+02791+02381100801ADDAA101000021AW1611MA1100781999999REMMET112MOBOB2 METAR XM24 //000 030318 151653Z AUTO 04008KT -RA 28/24 A2976 RMK A02 SLP080 P0000 T02790238 PA149 DA2062=
0129008418999992016011517534+03000+131800FM-15+000099999V0200401N004119999999N999999999+02811+02421100771ADDMA1100741999999REMMET102MOBOB2 METAR XM24 //000 030318 151753Z AUTO 04008KT 28/24 A2975 RMK A02 SLP077 T02810242 PA159 DA2106=
0129008418999992016011518534+03000+131800FM-15+000099999V0200401N004619999999N999999999+02781+02411100701ADDMA1100681999999REMMET102MOBOB2 METAR XM24 //000 030318 151853Z AUTO 04009KT 28/24 A2973 RMK A02 SLP070 T02780241 PA177 DA2092=
0140008418999992016011519534+03000+131800FM-15+000099999V0200401N004619999999N999999999+02771+02371100771ADDMA1100741999999OC100621REMMET105MOBOB2 METAR XM24 //000 030318 151953Z AUTO 04009G12KT 28/24 A2975 RMK A02 SLP077 T02770237 PA159 DA2050=
0140008418999992016011520534+03000+131800FM-15+000099999V0200501N005719999999N999999999+02781+02391100841ADDMA1100811999999OC100721REMMET105MOBOB2 METAR XM24 //000 030318 152053Z AUTO 05011G14KT 28/24 A2977 RMK A02 SLP084 T02780239 PA140 DA2043=
0140008418999992016011521534+03000+131800FM-15+000099999V0200501N005719999999N999999999+02781+02371100901ADDMA1100881999999OC100721REMMET105MOBOB2 METAR XM24 //000 030318 152153Z AUTO 05011G14KT 28/24 A2979 RMK A02 SLP090 T02780237 PA122 DA2016=
0140008418999992016011522534+03000+131800FM-15+000099999V0200501N005719999999N999999999+02811+02401100971ADDMA1100951999999OC100671REMMET105MOBOB2 METAR XM24 //000 030318 152253Z AUTO 05011G13KT 28/24 A2981 RMK A02 SLP097 T02810240 PA103 DA2032=
0140008418999992016011523534+03000+131800FM-15+000099999V0200501N005719999999N999999999+02831+02361101001ADDMA1100981999999OC100721REMMET105MOBOB2 METAR XM24 //000 030318 152353Z AUTO 05011G14KT 28/24 A2982 RMK A02 SLP100 T02830236 PA094 DA2034=
0140008418999992016011600534+03000+131800FM-15+000099999V0200401N005119999999N999999999+02861+02401100971ADDMA1100951999999OC100621REMMET105MOBOB2 METAR XM24 //000 030318 160053Z AUTO 04010G12KT 29/24 A2981 RMK A02 SLP097 T02860240 PA103 DA2088=
0140008418999992016011601534+03000+131800FM-15+000099999V0200501N005119999999N999999999+02871+02351100941ADDMA1100911999999OC100621REMMET105MOBOB2 METAR XM24 //000 030318 160153Z AUTO 05010G12KT 29/24 A2980 RMK A02 SLP094 T02870235 PA112 DA2100=
0129008418999992016011602534+03000+131800FM-15+000099999V0200501N004619999999N999999999+02891+02371100901ADDMA1100881999999REMMET102MOBOB2 METAR XM24 //000 030318 160253Z AUTO 05009KT 29/24 A2979 RMK A02 SLP090 T02890237 PA122 DA2138=
0140008418999992016011603534+03000+131800FM-15+000099999V0200401N005119999999N999999999+02891+02361100871ADDMA1100851999999OC100621REMMET105MOBOB2 METAR XM24 //000 030318 160353Z AUTO 04010G12KT 29/24 A2978 RMK A02 SLP087 T02890236 PA131 DA2148=
0129008418999992016011604534+03000+131800FM-15+000099999V0200501N004619999999N999999999+02911+02401100771ADDMA1100741999999REMMET102MOBOB2 METAR XM24 //000 030318 160453Z AUTO 05009KT 29/24 A2975 RMK A02 SLP077 T02910240 PA159 DA2212=
0129008418999992016011605534+03000+131800FM-15+000099999V0200501N004619999999N999999999+02891+02351100731ADDMA1100711999999REMMET102MOBOB2 METAR XM24 //000 030318 160553Z AUTO 05009KT 29/23 A2974 RMK A02 SLP073 T02890235 PA168 DA2190=
0129008418999992016011606534+03000+131800FM-15+000099999V0200401N004119999999N999999999+02891+02341100701ADDMA1100681999999REMMET102MOBOB2 METAR XM24 //000 030318 160653Z AUTO 04008KT 29/23 A2973 RMK A02 SLP070 T02890234 PA177 DA2200=
0129008418999992016011607544+03000+131800FM-15+000099999V0200401N003619999999N999999999+02891+02391100731ADDMA1100711999999REMMET102MOBOB2 METAR XM24 //000 030318 160754Z AUTO 04007KT 29/24 A2974 RMK A02 SLP073 T02890239 PA168 DA2200=
0129008418999992016011608534+03000+131800FM-15+000099999V0200401N004119999999N999999999+02851+02381100771ADDMA1100741999999REMMET102MOBOB2 METAR XM24 //000 030318 160853Z AUTO 04008KT 29/24 A2975 RMK A02 SLP077 T02850238 PA159 DA2141=
0167008418999992016011609534+03000+131800FM-15+000099999V0200701N005719999999N999999999+02751+02441100841ADDAA101000021AW1611MA1100811999999OC100721REMMET115MOBOB2 METAR XM24 //000 030318 160953Z AUTO 07011G14KT -RA 28/24 A2977 RMK A02 SLP084 P0000 T02750244 PA140 DA2021=
0129008418999992016011610534+03000+131800FM-15+000099999V0200501N004119999999N999999999+02791+02411100871ADDMA1100851999999REMMET102MOBOB2 METAR XM24 //000 030318 161053Z AUTO 05008KT 28/24 A2978 RMK A02 SLP087 T02790241 PA131 DA2048=
0129008418999992016011611534+03000+131800FM-15+000099999V0200401N004619999999N999999999+02821+02421100941ADDMA1100911999999REMMET102MOBOB2 METAR XM24 //000 030318 161153Z AUTO 04009KT 28/24 A2980 RMK A02 SLP094 T02820242 PA112 DA2060=
0156008418999992016011612534+03000+131800FM-15+000099999V0200201N001519999999N999999999+02711+02381100971ADDAA101000021AW1611MA1100951999999REMMET112MOBOB2 METAR XM24 //000 030318 161253Z AUTO 02003KT -RA 27/24 A2981 RMK A02 SLP097 P0000 T02710238 PA103 DA1915=
0129008418999992016011613534+03000+131800FM-15+000099999V0200401N003119999999N999999999+02811+02451101001ADDMA1100981999999REMMET102MOBOB2 METAR XM24 //000 030318 161353Z AUTO 04006KT 28/24 A2982 RMK A02 SLP100 T02810245 PA094 DA2032=
0129008418999992016011614534+03000+131800FM-15+000099999V0200301N003119999999N999999999+02791+02411100971ADDMA1100951999999REMMET102MOBOB2 METAR XM24 //000 030318 161453Z AUTO 03006KT 28/24 A2981 RMK A02 SLP097 T02790241 PA103 DA2012=
0129008418999992016011615534+03000+131800FM-15+000099999V0200401N003619999999N999999999+02811+02401100901ADDMA1100881999999REMMET102MOBOB2 METAR XM24 //000 030318 161553Z AUTO 04007KT 28/24 A2979 RMK A02 SLP090 T02810240 PA122 DA2055=
0129008418999992016011616534+03000+131800FM-15+000099999V0200401N003619999999N999999999+02801+02381100841ADDMA1100811999999REMMET102MOBOB2 METAR XM24 //000 030318 161653Z AUTO 04007KT 28/24 A2977 RMK A02 SLP084 T02800238 PA140 DA2063=
0129008418999992016011617534+03000+131800FM-15+000099999V0200401N003619999999N999999999+02781+02351100801ADDMA1100781999999REMMET102MOBOB2 METAR XM24 //000 030318 161753Z AUTO 04007KT 28/23 A2976 RMK A02 SLP080 T02780235 PA149 DA2044=
0140008418999992016011618534+03000+131800FM-15+000099999V0200401N005719999999N999999999+02711+02331100801ADDMA1100781999999OC100721REMMET105MOBOB2 METAR XM24 //000 030318 161853Z AUTO 04011G14KT 27/23 A2976 RMK A02 SLP080 T02710233 PA149 DA1963=
0129008418999992016011619534+03000+131800FM-15+000099999V0200301N002619999999N999999999+02751+02411100801ADDMA1100781999999REMMET102MOBOB2 METAR XM24 //000 030318 161953Z AUTO 03005KT 28/24 A2976 RMK A02 SLP080 T02750241 PA149 DA2025=
0129008418999992016011620534+03000+131800FM-15+000099999V0200601N003619999999N999999999+02781+02361100871ADDMA1100851999999REMMET102MOBOB2 METAR XM24 //000 030318 162053Z AUTO 06007KT 28/24 A2978 RMK A02 SLP087 T02780236 PA131 DA2025=
0129008418999992016011621534+03000+131800FM-15+000099999V0200601N003619999999N999999999+02801+02411100941ADDMA1100911999999REMMET102MOBOB2 METAR XM24 //000 030318 162153Z AUTO 06007KT 28/24 A2980 RMK A02 SLP094 T02800241 PA112 DA2036=
0167008418999992016011622534+03000+131800FM-15+000099999V0200301N005119999999N999999999+02771+02401101001ADDAA101000731AW1611MA1100981999999OC100771REMMET115MOBOB2 METAR XM24 //000 030318 162253Z AUTO 03010G15KT -RA 28/24 A2982 RMK A02 SLP100 P0003 T02770240 PA094 DA1976=
0129008418999992016011623534+03000+131800FM-15+000099999V0200501N004119999999N999999999+02811+02431101041ADDMA1101021999999REMMET102MOBOB2 METAR XM24 //000 030318 162353Z AUTO 05008KT 28/24 A2983 RMK A02 SLP104 T02810243 PA084 DA2017=
0129008418999992016011700534+03000+131800FM-15+000099999V0200601N004119999999N999999999+02861+02391101041ADDMA1101021999999REMMET102MOBOB2 METAR XM24 //000 030318 170053Z AUTO 06008KT 29/24 A2983 RMK A02 SLP104 T02860239 PA084 DA2064=
0129008418999992016011701534+03000+131800FM-15+000099999V0200601N004119999999N999999999+02861+02371101001ADDMA1100981999999REMMET102MOBOB2 METAR XM24 //000 030318 170153Z AUTO 06008KT 29/24 A2982 RMK A02 SLP100 T02860237 PA094 DA2071=
0129008418999992016011702534+03000+131800FM-15+000099999V0200601N004119999999N999999999+02881+02401100971ADDMA1100951999999REMMET102MOBOB2 METAR XM24 //000 030318 170253Z AUTO 06008KT 29/24 A2981 RMK A02 SLP097 T02880240 PA103 DA2111=
0129008418999992016011703534+03000+131800FM-15+000099999V0200601N003619999999N999999999+02911+02381100841ADDMA1100811999999REMMET102MOBOB2 METAR XM24 //000 030318 170353Z AUTO 06007KT 29/24 A2977 RMK A02 SLP084 T02910238 PA140 DA2186=
0129008418999992016011704534+03000+131800FM-15+000099999V0200701N004119999999N999999999+02921+02371100801ADDMA1100781999999REMMET102MOBOB2 METAR XM24 //000 030318 170453Z AUTO 07008KT 29/24 A2976 RMK A02 SLP080 T02920237 PA149 DA2206=
0140008418999992016011705534+03000+131800FM-15+000099999V0200401N004619999999N999999999+02881+02381100731ADDMA1100711999999OC100671REMMET105MOBOB2 METAR XM24 //000 030318 170553Z AUTO 04009G13KT 29/24 A2974 RMK A02 SLP073 T02880238 PA168 DA2187=
0129008418999992016011706534+03000+131800FM-15+000099999V0200601N004119999999N999999999+02911+02351100731ADDMA1100711999999REMMET102MOBOB2 METAR XM24 //000 030318 170653Z AUTO 06008KT 29/24 A2974 RMK A02 SLP073 T02910235 PA168 DA2213=
0129008418999992016011707534+03000+131800FM-15+000099999V0200501N004119999999N999999999+02891+02391100731ADDMA1100711999999REMMET102MOBOB2 METAR XM24 //000 030318 170753Z AUTO 05008KT 29/24 A2974 RMK A02 SLP073 T02890239 PA168 DA2199=
0129008418999992016011708534+03000+131800FM-15+000099999V0200501N004119999999N999999999+02851+02441100771ADDMA1100741999999REMMET102MOBOB2 METAR XM24 //000 030318 170853Z AUTO 05008KT 29/24 A2975 RMK A02 SLP077 T02850244 PA159 DA2154=
0129008418999992016011709534+03000+131800FM-15+000099999V0200601N003119999999N999999999+02821+02421100841ADDMA1100811999999REMMET102MOBOB2 METAR XM24 //000 030318 170953Z AUTO 06006KT 28/24 A2977 RMK A02 SLP084 T02820242 PA140 DA2094=
0129008418999992016011710534+03000+131800FM-15+000099999V0200501N003619999999N999999999+02871+02461100901ADDMA1100881999999REMMET102MOBOB2 METAR XM24 //000 030318 171053Z AUTO 05007KT 29/25 A2979 RMK A02 SLP090 T02870246 PA122 DA2136=
0167008418999992016011711534+03000+131800FM-15+000099999V0200401N004619999999N999999999+02721+02341100971ADDAA101000531AW1611MA1100951999999OC100671REMMET115MOBOB2 METAR XM24 //000 030318 171153Z AUTO 04009G13KT -RA 27/23 A2981 RMK A02 SLP097 P0002 T02720234 PA103 DA1919=
0156008418999992016011712534+03000+131800FM-15+000099999V0200601N004119999999N999999999+02821+02411101001ADDAA101000021AW1611MA1100981999999REMMET112MOBOB2 METAR XM24 //000 030318 171253Z AUTO 06008KT -RA 28/24 A2982 RMK A02 SLP100 P0000 T02820241 PA094 DA2035=
0167008418999992016011713534+03000+131800FM-15+000099999V0200501N004619999999N999999999+02831+02391100971ADDAA101000021AW1611MA1100951999999OC100621REMMET115MOBOB2 METAR XM24 //000 030318 171353Z AUTO 05009G12KT -RA 28/24 A2981 RMK A02 SLP097 P0000 T02830239 PA103 DA2053=
0167008418999992016011714534+03000+131800FM-15+000099999V0200601N005719999999N999999999+02761+02411100941ADDAA101000021AW1611MA1100911999999OC100671REMMET115MOBOB2 METAR XM24 //000 030318 171453Z AUTO 06011G13KT -RA 28/24 A2980 RMK A02 SLP094 P0000 T02760241 PA112 DA1989=
0156008418999992016011715534+03000+131800FM-15+000099999V0200401N004119999999N999999999+02751+02451100871ADDAA101000021AW1611MA1100851999999REMMET112MOBOB2 METAR XM24 //000 030318 171553Z AUTO 04008KT -RA 28/24 A2978 RMK A02 SLP087 P0000 T02750245 PA131 DA2010=
0129008418999992016011716534+03000+131800FM-15+000099999V0200501N004119999999N999999999+02751+02401100801ADDMA1100781999999REMMET102MOBOB2 METAR XM24 //000 030318 171653Z AUTO 05008KT 28/24 A2976 RMK A02 SLP080 T02750240 PA149 DA2023=
0129008418999992016011717534+03000+131800FM-15+000099999V0200401N004619999999N999999999+02781+02421100731ADDMA1100711999999REMMET102MOBOB2 METAR XM24 //000 030318 171753Z AUTO 04009KT 28/24 A2974 RMK A02 SLP073 T02780242 PA168 DA2082=
0129008418999992016011718534+03000+131800FM-15+000099999V0200601N004119999999N999999999+02801+02391100731ADDMA1100711999999REMMET102MOBOB2 METAR XM24 //000 030318 171853Z AUTO 06008KT 28/24 A2974 RMK A02 SLP073 T02800239 PA168 DA2100=
0140008418999992016011719534+03000+131800FM-15+000099999V0200601N004619999999N999999999+02801+02421100771ADDMA1100741999999OC100621REMMET105MOBOB2 METAR XM24 //000 030318 171953Z AUTO 06009G12KT 28/24 A2975 RMK A02 SLP077 T02800242 PA159 DA2095=
0140008418999992016011720534+03000+131800FM-15+000099999V0200401N006219999999N999999999+02721+02371100801ADDMA1100781999999OC100771REMMET105MOBOB2 METAR XM24 //000 030318 172053Z AUTO 04012G15KT 27/24 A2976 RMK A02 SLP080 T02720237 PA149 DA1982=
0140008418999992016011721534+03000+131800FM-15+000099999V0200501N004619999999N999999999+02791+02421100901ADDMA1100881999999OC100671REMMET105MOBOB2 METAR XM24 //000 030318 172153Z AUTO 05009G13KT 28/24 A2979 RMK A02 SLP090 T02790242 PA122 DA2038=
0129008418999992016011722534+03000+131800FM-15+000099999V0200601N004619999999N999999999+02821+02441100971ADDMA1100951999999REMMET102MOBOB2 METAR XM24 //000 030318 172253Z AUTO 06009KT 28/24 A2981 RMK A02 SLP097 T02820244 PA103 DA2052=
0129008418999992016011723534+03000+131800FM-15+000099999V0200601N005119999999N999999999+02811+02411101071ADDMA1101051999999REMMET102MOBOB2 METAR XM24 //000 030318 172353Z AUTO 06010KT 28/24 A2984 RMK A02 SLP107 T02810241 PA075 DA2001=
0129008418999992016011800534+03000+131800FM-15+000099999V0200701N004619999999N999999999+02801+02371101071ADDMA1101051999999REMMET102MOBOB2 METAR XM24 //000 030318 180053Z AUTO 07009KT 28/24 A2984 RMK A02 SLP107 T02800237 PA075 DA1980=
0129008418999992016011801534+03000+131800FM-15+000099999V0200601N003619999999N999999999+02871+02461101041ADDMA1101021999999REMMET102MOBOB2 METAR XM24 //000 030318 180153Z AUTO 06007KT 29/25 A2983 RMK A02 SLP104 T02870246 PA084 DA2092=
0140008418999992016011802534+03000+131800FM-15+000099999V0200701N005119999999N999999999+02831+02441100971ADDMA1100951999999OC100671REMMET105MOBOB2 METAR XM24 //000 030318 180253Z AUTO 07010G13KT 28/24 A2981 RMK A02 SLP097 T02830244 PA103 DA2063=
0129008418999992016011803534+03000+131800FM-15+000099999V0200701N004619999999N999999999+02891+02471100901ADDMA1100881999999REMMET102MOBOB2 METAR XM24 //000 030318 180353Z AUTO 07009KT 29/25 A2979 RMK A02 SLP090 T02890247 PA122 DA2161=
0129008418999992016011804534+03000+131800FM-15+000099999V0200701N004119999999N999999999+02901+02391100841ADDMA1100811999999REMMET102MOBOB2 METAR XM24 //000 030318 180453Z AUTO 07008KT 29/24 A2977 RMK A02 SLP084 T02900239 PA140 DA2177=
0129008418999992016011805534+03000+131800FM-15+000099999V0200801N004119999999N999999999+02931+02431100771ADDMA1100741999999REMMET102MOBOB2 METAR XM24 //000 030318 180553Z AUTO 08008KT 29/24 A2975 RMK A02 SLP077 T02930243 PA159 DA2242=
0129008418999992016011806534+03000+131800FM-15+000099999V0200601N003619999999N999999999+02881+02401100771ADDMA1100741999999REMMET102MOBOB2 METAR XM24 //000 030318 180653Z AUTO 06007KT 29/24 A2975 RMK A02 SLP077 T02880240 PA159 DA2179=
0129008418999992016011807534+03000+131800FM-15+000099999V0200601N004119999999N999999999+02911+02441100771ADDMA1100741999999REMMET102MOBOB2 METAR XM24 //000 030318 180753Z AUTO 06008KT 29/24 A2975 RMK A02 SLP077 T02910244 PA159 DA2222=
0129008418999992016011808534+03000+131800FM-15+000099999V0200501N004619999999N999999999+02881+02471100871ADDMA1100851999999REMMET102MOBOB2 METAR XM24 //000 030318 180853Z AUTO 05009KT 29/25 A2978 RMK A02 SLP087 T02880247 PA131 DA2162=
0129008418999992016011809534+03000+131800FM-15+000099999V0200501N004619999999N999999999+02871+02451100941ADDMA1100911999999REMMET102MOBOB2 METAR XM24 //000 030318 180953Z AUTO 05009KT 29/25 A2980 RMK A02 SLP094 T02870245 PA112 DA2123=
0140008418999992016011810534+03000+131800FM-15+000099999V0200501N005719999999N999999999+02861+02431101001ADDMA1100981999999OC100671REMMET105MOBOB2 METAR XM24 //000 030318 181053Z AUTO 05011G13KT 29/24 A2982 RMK A02 SLP100 T02860243 PA094 DA2083=
0156008418999992016011811534+03000+131800FM-15+000099999V0200501N004119999999N999999999+02831+02491101111ADDAA101000021AW1611MA1101081999999REMMET112MOBOB2 METAR XM24 //000 030318 181153Z AUTO 05008KT -RA 28/25 A2985 RMK A02 SLP111 P0000 T02830249 PA066 DA2029=
0167008418999992016011812534+03000+131800FM-15+000099999V0200701N005119999999N999999999+02841+02411101111ADDAA101000531AW1611MA1101081999999OC100721REMMET115MOBOB2 METAR XM24 //000 030318 181253Z AUTO 07010G14KT -RA 28/24 A2985 RMK A02 SLP111 P0002 T02840241 PA066 DA2022=
0156008418999992016011813534+03000+131800FM-15+000099999V0200301N003619999999N999999999+02761+02431101111ADDAA101000021AW1611MA1101081999999REMMET112MOBOB2 METAR XM24 //000 030318 181353Z AUTO 03007KT -RA 28/24 A2985 RMK A02 SLP111 P0000 T02760243 PA066 DA1939=
0140008418999992016011814534+03000+131800FM-15+000099999V0200301N004119999999N999999999+02791+02451101071ADDMA1101051999999OC100621REMMET105MOBOB2 METAR XM24 //000 030318 181453Z AUTO 03008G12KT 28/24 A2984 RMK A02 SLP107 T02790245 PA075 DA1987=
0129008418999992016011815534+03000+131800FM-15+000099999V0200101N002619999999N999999999+02761+02451101001ADDMA1100981999999REMMET102MOBOB2 METAR XM24 //000 030318 181553Z AUTO 01005KT 28/25 A2982 RMK A02 SLP100 T02760245 PA094 DA1977=
0140008418999992016011816534+03000+131800FM-15+000099999V0200301N005719999999N999999999+02811+02421100901ADDMA1100881999999OC100771REMMET105MOBOB2 METAR XM24 //000 030318 181653Z AUTO 03011G15KT 28/24 A2979 RMK A02 SLP090 T02810242 PA122 DA2059=
0140008418999992016011817534+03000+131800FM-15+000099999V0200301N005119999999N999999999+02831+02451100841ADDMA1100811999999OC100671REMMET105MOBOB2 METAR XM24 //000 030318 181753Z AUTO 03010G13KT 28/24 A2977 RMK A02 SLP084 T02830245 PA140 DA2111=
0140008418999992016011818534+03000+131800FM-15+000099999V0200301N005119999999N999999999+02821+02451100801ADDMA1100781999999OC100721REMMET105MOBOB2 METAR XM24 //000 030318 181853Z AUTO 03010G14KT 28/25 A2976 RMK A02 SLP080 T02820245 PA149 DA2113=
0140008418999992016011819534+03000+131800FM-15+000099999V0200401N006719999999N999999999+02811+02441100801ADDMA1100781999999OC100881REMMET105MOBOB2 METAR XM24 //000 030318 181953Z AUTO 04013G17KT 28/24 A2976 RMK A02 SLP080 T02810244 PA149 DA2098=
0140008418999992016011820534+03000+131800FM-15+000099999V0200401N007219999999N999999999+02811+02431100871ADDMA1100851999999OC100881REMMET105MOBOB2 METAR XM24 //000 030318 182053Z AUTO 04014G17KT 28/24 A2978 RMK A02 SLP087 T02810243 PA131 DA2075=
0140008418999992016011821534+03000+131800FM-15+000099999V0200301N006719999999N999999999+02811+02441100971ADDMA1100951999999OC100881REMMET105MOBOB2 METAR XM24 //000 030318 182153Z AUTO 03013G17KT 28/24 A2981 RMK A02 SLP097 T02810244 PA103 DA2042=
0140008418999992016011822534+03000+131800FM-15+000099999V0200501N007719999999N999999999+02851+02411101071ADDMA1101051999999OC100981REMMET105MOBOB2 METAR XM24 //000 030318 182253Z AUTO 05015G19KT 29/24 A2984 RMK A02 SLP107 T02850241 PA075 DA2046=
0140008418999992016011823534+03000+131800FM-15+000099999V0200401N007219999999N999999999+02881+02391101141ADDMA1101121999999OC100881REMMET105MOBOB2 METAR XM24 //000 030318 182353Z AUTO 04014G17KT 29/24 A2986 RMK A02 SLP114 T02880239 PA057 DA2051=
0140008418999992016011900534+03000+131800FM-15+000099999V0200401N006719999999N999999999+02891+02441101111ADDMA1101081999999OC100821REMMET105MOBOB2 METAR XM24 //000 030318 190053Z AUTO 04013G16KT 29/24 A2985 RMK A02 SLP111 T02890244 PA066 DA2086=
0140008418999992016011901534+03000+131800FM-15+000099999V0200501N005719999999N999999999+02891+02311101071ADDMA1101051999999OC100721REMMET105MOBOB2 METAR XM24 //000 030318 190153Z AUTO 05011G14KT 29/23 A2984 RMK A02 SLP107 T02890231 PA075 DA2067=
0129008418999992016011902534+03000+131800FM-15+000099999V0200301N005119999999N999999999+02951+02341100971ADDMA1100951999999REMMET102MOBOB2 METAR XM24 //000 030318 190253Z AUTO 03010KT 30/23 A2981 RMK A02 SLP097 T02950234 PA103 DA2175=
0129008418999992016011903534+03000+131800FM-15+000099999V0200301N004119999999N999999999+02991+02481100941ADDMA1100911999999REMMET102MOBOB2 METAR XM24 //000 030318 190353Z AUTO 03008KT 30/25 A2980 RMK A02 SLP094 T02990248 PA112 DA2264=
0156008418999992016011904534+03000+131800FM-15+000099999V0200501N004119999999N999999999+02791+02441100871ADDAA101002731AW1611MA1100851999999REMMET112MOBOB2 METAR XM24 //000 030318 190453Z AUTO 05008KT -RA 28/24 A2978 RMK A02 SLP087 P0011 T02790244 PA131 DA2054=
0140008418999992016011905534+03000+131800FM-15+000099999V0200601N006719999999N999999999+02881+02431100801ADDMA1100781999999OC100881REMMET105MOBOB2 METAR XM24 //000 030318 190553Z AUTO 06013G17KT 29/24 A2976 RMK A02 SLP080 T02880243 PA149 DA2176=
0140008418999992016011906534+03000+131800FM-15+000099999V0200501N006719999999N999999999+02871+02351100801ADDMA1100781999999OC100881REMMET105MOBOB2 METAR XM24 //000 030318 190653Z AUTO 05013G17KT 29/24 A2976 RMK A02 SLP080 T02870235 PA149 DA2146=
0140008418999992016011907534+03000+131800FM-15+000099999V0200601N006219999999N999999999+02881+02411100841ADDMA1100811999999OC100771REMMET105MOBOB2 METAR XM24 //000 030318 190753Z AUTO 06012G15KT 29/24 A2977 RMK A02 SLP084 T02880241 PA140 DA2159=
0140008418999992016011908534+03000+131800FM-15+000099999V0200501N005719999999N999999999+02871+02451100871ADDMA1100851999999OC100671REMMET105MOBOB2 METAR XM24 //000 030318 190853Z AUTO 05011G13KT 29/25 A2978 RMK A02 SLP087 T02870245 PA131 DA2146=
0129008418999992016011909534+03000+131800FM-15+000099999V0200301N003619999999N999999999+02851+02471100971ADDMA1100951999999REMMET102MOBOB2 METAR XM24 //000 030318 190953Z AUTO 03007KT 29/25 A2981 RMK A02 SLP097 T02850247 PA103 DA2094=
0140008418999992016011910534+03000+131800FM-15+000099999V0200301N005119999999N999999999+02821+02421101041ADDMA1101021999999OC100721REMMET105MOBOB2 METAR XM24 //000 030318 191053Z AUTO 03010G14KT 28/24 A2983 RMK A02 SLP104 T02820242 PA084 DA2025=
0140008418999992016011911534+03000+131800FM-15+000099999V0200401N005119999999N999999999+02811+02371101111ADDMA1101081999999OC100621REMMET105MOBOB2 METAR XM24 //000 030318 191153Z AUTO 04010G12KT 28/24 A2985 RMK A02 SLP111 T02810237 PA066 DA1980=
0156008418999992016011912534+03000+131800FM-15+000099999V0200401N005119999999N999999999+02821+02421101111ADDAA101000021AW1611MA1101081999999REMMET112MOBOB2 METAR XM24 //000 030318 191253Z AUTO 04010KT -RA 28/24 A2985 RMK A02 SLP111 P0000 T02820242 PA066 DA2002=
0156008418999992016011913534+03000+131800FM-15+000099999V0200301N004119999999N999999999+02811+02441101141ADDAA101000021AW1611MA1101121999999REMMET112MOBOB2 METAR XM24 //000 030318 191353Z AUTO 03008KT -RA 28/24 A2986 RMK A02 SLP114 P0000 T02810244 PA057 DA1986=
0129008418999992016011914534+03000+131800FM-15+000099999V0200401N005119999999N999999999+02801+02431101111ADDMA1101081999999REMMET102MOBOB2 METAR XM24 //000 030318 191453Z AUTO 04010KT 28/24 A2985 RMK A02 SLP111 T02800243 PA066 DA1983=
0167008418999992016011915534+03000+131800FM-15+000099999V0200401N005719999999N999999999+02791+02451101071ADDAA101000021AW1611MA1101051999999OC100721REMMET115MOBOB2 METAR XM24 //000 030318 191553Z AUTO 04011G14KT -RA 28/25 A2984 RMK A02 SLP107 P0000 T02790245 PA075 DA1988=
0129008418999992016011916534+03000+131800FM-15+000099999V0200401N004619999999N999999999+02801+02481101001ADDMA1100981999999REMMET102MOBOB2 METAR XM24 //000 030318 191653Z AUTO 04009KT 28/25 A2982 RMK A02 SLP100 T02800248 PA094 DA2029=
0140008418999992016011917534+03000+131800FM-15+000099999V0200701N005119999999N999999999+02801+02491100971ADDMA1100951999999OC100621REMMET105MOBOB2 METAR XM24 //000 030318 191753Z AUTO 07010G12KT 28/25 A2981 RMK A02 SLP097 T02800249 PA103 DA2042=
0140008418999992016011918534+03000+131800FM-15+000099999V0200701N005719999999N999999999+02811+02461100941ADDMA1100911999999OC100721REMMET105MOBOB2 METAR XM24 //000 030318 191853Z AUTO 07011G14KT 28/25 A2980 RMK A02 SLP094 T02810246 PA112 DA2057=
0140008418999992016011919534+03000+131800FM-15+000099999V0200801N006219999999N999999999+02811+02461100971ADDMA1100951999999OC100721REMMET105MOBOB2 METAR XM24 //000 030318 191953Z AUTO 08012G14KT 28/25 A2981 RMK A02 SLP097 T02810246 PA103 DA2046=
0140008418999992016011920534+03000+131800FM-15+000099999V0200701N006219999999N999999999+02791+02461101001ADDMA1100981999999OC100721REMMET105MOBOB2 METAR XM24 //000 030318 192053Z AUTO 07012G14KT 28/25 A2982 RMK A02 SLP100 T02790246 PA094 DA2012=
0140008418999992016011921534+03000+131800FM-15+000099999V0200701N006719999999N999999999+02801+02471101071ADDMA1101051999999OC100821REMMET105MOBOB2 METAR XM24 //000 030318 192153Z AUTO 07013G16KT 28/25 A2984 RMK A02 SLP107 T02800247 PA075 DA2002=
0167008418999992016011922534+03000+131800FM-15+000099999V0200701N006219999999N999999999+02781+02441101141ADDAA101000021AW1611MA1101121999999OC100821REMMET115MOBOB2 METAR XM24 //000 030318 192253Z AUTO 07012G16KT -RA 28/24 A2986 RMK A02 SLP114 P0000 T02780244 PA057 DA1951=
0167008418999992016011923534+03000+131800FM-15+000099999V0200701N006219999999N999999999+02831+02471101241ADDAA101002031AW1611MA1101221999999OC100771REMMET115MOBOB2 METAR XM24 //000 030318 192353Z AUTO 07012G15KT -RA 28/25 A2989 RMK A02 SLP124 P0008 T02830247 PA029 DA1979=
0140008418999992016012000534+03000+131800FM-15+000099999V0200801N006719999999N999999999+02871+02481101211ADDMA1101181999999OC100981REMMET105MOBOB2 METAR XM24 //000 030318 200053Z AUTO 08013G19KT 29/25 A2988 RMK A02 SLP121 T02870248 PA038 DA2038=
0167008418999992016012001534+03000+131800FM-15+000099999V0200401N008219999999N999999999+02761+02491101171ADDAA101000021AW1611MA1101151999999OC100981REMMET115MOBOB2 METAR XM24 //000 030318 200153Z AUTO 04016G19KT -RA 28/25 A2987 RMK A02 SLP117 P0000 T02760249 PA047 DA1929=
0140008418999992016012002534+03000+131800FM-15+000099999V0200501N006719999999N999999999+02841+02441101141ADDMA1101121999999OC100821REMMET105MOBOB2 METAR XM24 //000 030318 200253Z AUTO 05013G16KT 28/24 A2986 RMK A02 SLP114 T02840244 PA057 DA2018=
0140008418999992016012003534+03000+131800FM-15+000099999V0200601N007719999999N999999999+02871+02441101071ADDMA1101051999999OC100931REMMET105MOBOB2 METAR XM24 //000 030318 200353Z AUTO 06015G18KT 29/24 A2984 RMK A02 SLP107 T02870244 PA075 DA2075=
0167008418999992016012004534+03000+131800FM-15+000099999V0200501N006719999999N999999999+02711+02421101001ADDAA101002231AW1631MA1100981999999OC100931REMMET115MOBOB2 METAR XM24 //000 030318 200453Z AUTO 05013G18KT +RA 27/24 A2982 RMK A02 SLP100 P0009 T02710242 PA094 DA1914=
0156008418999992016012005534+03000+131800FM-15+000099999V0200201N003119999999N999999999+02741+02391100941ADDAA101000021AW1611MA1100911999999REMMET112MOBOB2 METAR XM24 //000 030318 200553Z AUTO 02006KT -RA 27/24 A2980 RMK A02 SLP094 P0000 T02740239 PA112 DA1963=
0140008418999992016012006534+03000+131800FM-15+000099999V0200601N008219999999N999999999+02911+02381100901ADDMA1100881999999OC100981REMMET105MOBOB2 METAR XM24 //000 030318 200653Z AUTO 06016G19KT 29/24 A2979 RMK A02 SLP090 T02910238 PA122 DA2162=
0140008418999992016012007534+03000+131800FM-15+000099999V0200501N008219999999N999999999+02881+02461100941ADDMA1100911999999OC100981REMMET105MOBOB2 METAR XM24 //000 030318 200753Z AUTO 05016G19KT 29/25 A2980 RMK A02 SLP094 T02880246 PA112 DA2135=
0140008418999992016012008534+03000+131800FM-15+000099999V0200701N007719999999N999999999+02741+02411100971ADDMA1100951999999OC100981REMMET105MOBOB2 METAR XM24 //000 030318 200853Z AUTO 07015G19KT 27/24 A2981 RMK A02 SLP097 T02740241 PA103 DA1957=
0167008418999992016012009534+03000+131800FM-15+000099999V0200501N006219999999N999999999+02771+02451100971ADDAA101000021AW1611MA1100951999999OC100771REMMET115MOBOB2 METAR XM24 //000 030318 200953Z AUTO 05012G15KT -RA 28/25 A2981 RMK A02 SLP097 P0000 T02770245 PA103 DA1999=
0140008418999992016012010534+03000+131800FM-15+000099999V0200401N008219999999N999999999+02871+02411101071ADDMA1101051999999OC101081REMMET105MOBOB2 METAR XM24 //000 030318 201053Z AUTO 04016G21KT 29/24 A2984 RMK A02 SLP107 T02870241 PA075 DA2067=
0140008418999992016012011534+03000+131800FM-15+000099999V0200401N008819999999N999999999+02861+02361101141ADDMA1101121999999OC101081REMMET105MOBOB2 METAR XM24 //000 030318 201153Z AUTO 04017G21KT 29/24 A2986 RMK A02 SLP114 T02860236 PA057 DA2022=
0140008418999992016012012534+03000+131800FM-15+000099999V0200401N009319999999N999999999+02841+02321101141ADDMA1101121999999OC101131REMMET105MOBOB2 METAR XM24 //000 030318 201253Z AUTO 04018G22KT 28/23 A2986 RMK A02 SLP114 T02840232 PA057 DA1992=
0140008418999992016012013534+03000+131800FM-15+000099999V0200501N008219999999N999999999+02811+02351101141ADDMA1101121999999OC101031REMMET105MOBOB2 METAR XM24 //000 030318 201353Z AUTO 05016G20KT 28/23 A2986 RMK A02 SLP114 T02810235 PA057 DA1963=
0140008418999992016012014534+03000+131800FM-15+000099999V0200501N007719999999N999999999+02801+02271101111ADDMA1101081999999OC100931REMMET105MOBOB2 METAR XM24 //000 030318 201453Z AUTO 05015G18KT 28/23 A2985 RMK A02 SLP111 T02800227 PA066 DA1947=
0140008418999992016012015534+03000+131800FM-15+000099999V0200501N007719999999N999999999+02811+02291101071ADDMA1101051999999OC100981REMMET105MOBOB2 METAR XM24 //000 030318 201553Z AUTO 05015G19KT 28/23 A2984 RMK A02 SLP107 T02810229 PA075 DA1974=
0140008418999992016012016534+03000+131800FM-15+000099999V0200501N008219999999N999999999+02801+02291101001ADDMA1100981999999OC101031REMMET105MOBOB2 METAR XM24 //000 030318 201653Z AUTO 05016G20KT 28/23 A2982 RMK A02 SLP100 T02800229 PA094 DA1987=
0140008418999992016012017534+03000+131800FM-15+000099999V0200401N008219999999N999999999+02811+02371100941ADDMA1100911999999OC101031REMMET105MOBOB2 METAR XM24 //000 030318 201753Z AUTO 04016G20KT 28/24 A2980 RMK A02 SLP094 T02810237 PA112 DA2037=
0140008418999992016012018534+03000+131800FM-15+000099999V0200401N009319999999N999999999+02801+02321100901ADDMA1100881999999OC101131REMMET105MOBOB2 METAR XM24 //000 030318 201853Z AUTO 04018G22KT 28/23 A2979 RMK A02 SLP090 T02800232 PA122 DA2026=
0140008418999992016012019534+03000+131800FM-15+000099999V0200401N008819999999N999999999+02811+02371100941ADDMA1100911999999OC101131REMMET105MOBOB2 METAR XM24 //000 030318 201953Z AUTO 04017G22KT 28/24 A2980 RMK A02 SLP094 T02810237 PA112 DA2037=
0140008418999992016012020534+03000+131800FM-15+000099999V0200401N008219999999N999999999+02811+02361100971ADDMA1100951999999OC101031REMMET105MOBOB2 METAR XM24 //000 030318 202053Z AUTO 04016G20KT 28/24 A2981 RMK A02 SLP097 T02810236 PA103 DA2024=
0140008418999992016012021534+03000+131800FM-15+000099999V0200401N007219999999N999999999+02821+02381101071ADDMA1101051999999OC100881REMMET105MOBOB2 METAR XM24 //000 030318 202153Z AUTO 04014G17KT 28/24 A2984 RMK A02 SLP107 T02820238 PA075 DA2006=
0140008418999992016012022534+03000+131800FM-15+000099999V0200401N007219999999N999999999+02831+02351101071ADDMA1101051999999OC100881REMMET105MOBOB2 METAR XM24 //000 030318 202253Z AUTO 04014G17KT 28/24 A2984 RMK A02 SLP107 T02830235 PA075 DA2010=
0140008418999992016012023534+03000+131800FM-15+000099999V0200501N007219999999N999999999+02841+02381101141ADDMA1101121999999OC100881REMMET105MOBOB2 METAR XM24 //000 030318 202353Z AUTO 05014G17KT 28/24 A2986 RMK A02 SLP114 T02840238 PA057 DA2005=
0140008418999992016012100534+03000+131800FM-15+000099999V0200401N007219999999N999999999+02861+02431101171ADDMA1101151999999OC100881REMMET105MOBOB2 METAR XM24 //000 030318 210053Z AUTO 04014G17KT 29/24 A2987 RMK A02 SLP117 T02860243 PA047 DA2028=
0140008418999992016012101534+03000+131800FM-15+000099999V0200401N006219999999N999999999+02871+02421101141ADDMA1101121999999OC100721REMMET105MOBOB2 METAR XM24 //000 030318 210153Z AUTO 04012G14KT 29/24 A2986 RMK A02 SLP114 T02870242 PA057 DA2046=
0140008418999992016012102544+03000+131800FM-15+000099999V0200401N006219999999N999999999+02871+02421101071ADDMA1101051999999OC100771REMMET105MOBOB2 METAR XM24 //000 030318 210254Z AUTO 04012G15KT 29/24 A2984 RMK A02 SLP107 T02870242 PA075 DA2069=
0140008418999992016012103534+03000+131800FM-15+000099999V0200501N006219999999N999999999+02881+02461100971ADDMA1100951999999OC100721REMMET105MOBOB2 METAR XM24 //000 030318 210353Z AUTO 05012G14KT 29/25 A2981 RMK A02 SLP097 T02880246 PA103 DA2123=
0167008418999992016012104534+03000+131800FM-15+000099999V0200701N006719999999N999999999+02801+02451100901ADDAA101000731AW1611MA1100881999999OC100821REMMET115MOBOB2 METAR XM24 //000 030318 210453Z AUTO 07013G16KT -RA 28/25 A2979 RMK A02 SLP090 P0003 T02800245 PA122 DA2056=
0140008418999992016012105534+03000+131800FM-15+000099999V0200601N006719999999N999999999+02881+02461100841ADDMA1100811999999OC100881REMMET105MOBOB2 METAR XM24 //000 030318 210553Z AUTO 06013G17KT 29/25 A2977 RMK A02 SLP084 T02880246 PA140 DA2170=
0167008418999992016012106534+03000+131800FM-15+000099999V0200601N006719999999N999999999+02811+02451100841ADDAA101000731AW1611MA1100811999999OC100881REMMET115MOBOB2 METAR XM24 //000 030318 210653Z AUTO 06013G17KT -RA 28/25 A2977 RMK A02 SLP084 P0003 T02810245 PA140 DA2090=
0140008418999992016012107534+03000+131800FM-15+000099999V0200701N006719999999N999999999+02871+02441100871ADDMA1100851999999OC100821REMMET105MOBOB2 METAR XM24 //000 030318 210753Z AUTO 07013G16KT 29/24 A2978 RMK A02 SLP087 T02870244 PA131 DA2142=
0140008418999992016012108534+03000+131800FM-15+000099999V0200601N007719999999N999999999+02871+02411100901ADDMA1100881999999OC100881REMMET105MOBOB2 METAR XM24 //000 030318 210853Z AUTO 06015G17KT 29/24 A2979 RMK A02 SLP090 T02870241 PA122 DA2125=
0140008418999992016012109534+03000+131800FM-15+000099999V0200701N007719999999N999999999+02851+02421100941ADDMA1100911999999OC100931REMMET105MOBOB2 METAR XM24 //000 030318 210953Z AUTO 07015G18KT 29/24 A2980 RMK A02 SLP094 T02850242 PA112 DA2094=
0140008418999992016012110534+03000+131800FM-15+000099999V0200601N007719999999N999999999+02851+02401101001ADDMA1100981999999OC100981REMMET105MOBOB2 METAR XM24 //000 030318 211053Z AUTO 06015G19KT 29/24 A2982 RMK A02 SLP100 T02850240 PA094 DA2066=
0140008418999992016012111534+03000+131800FM-15+000099999V0200501N007719999999N999999999+02841+02421101071ADDMA1101051999999OC100931REMMET105MOBOB2 METAR XM24 //000 030318 211153Z AUTO 05015G18KT 28/24 A2984 RMK A02 SLP107 T02840242 PA075 DA2037=
0140008418999992016012112534+03000+131800FM-15+000099999V0200501N007719999999N999999999+02821+02371101041ADDMA1101021999999OC101031REMMET105MOBOB2 METAR XM24 //000 030318 211253Z AUTO 05015G20KT 28/24 A2983 RMK A02 SLP104 T02820237 PA084 DA2013=
0140008418999992016012113534+03000+131800FM-15+000099999V0200601N008819999999N999999999+02801+02331100971ADDMA1100951999999OC101081REMMET105MOBOB2 METAR XM24 //000 030318 211353Z AUTO 06017G21KT 28/23 A2981 RMK A02 SLP097 T02800233 PA103 DA2005=
0140008418999992016012114534+03000+131800FM-15+000099999V0200601N008819999999N999999999+02801+02351100971ADDMA1100951999999OC101031REMMET105MOBOB2 METAR XM24 //000 030318 211453Z AUTO 06017G20KT 28/23 A2981 RMK A02 SLP097 T02800235 PA103 DA2009=
0140008418999992016012115534+03000+131800FM-15+000099999V0200501N007719999999N999999999+02781+02341100941ADDMA1100911999999OC100931REMMET105MOBOB2 METAR XM24 //000 030318 211553Z AUTO 05015G18KT 28/23 A2980 RMK A02 SLP094 T02780234 PA112 DA1997=
0140008418999992016012116534+03000+131800FM-15+000099999V0200501N008219999999N999999999+02771+02341100871ADDMA1100851999999OC100981REMMET105MOBOB2 METAR XM24 //000 030318 211653Z AUTO 05016G19KT 28/23 A2978 RMK A02 SLP087 T02770234 PA131 DA2009=
0140008418999992016012117534+03000+131800FM-15+000099999V0200501N007219999999N999999999+02771+02351100801ADDMA1100781999999OC100931REMMET105MOBOB2 METAR XM24 //000 030318 211753Z AUTO 05014G18KT 28/24 A2976 RMK A02 SLP080 T02770235 PA149 DA2034=
0140008418999992016012118534+03000+131800FM-15+000099999V0200501N007219999999N999999999+02781+02371100801ADDMA1100781999999OC100931REMMET105MOBOB2 METAR XM24 //000 030318 211853Z AUTO 05014G18KT 28/24 A2976 RMK A02 SLP080 T02780237 PA149 DA2050=
0140008418999992016012119534+03000+131800FM-15+000099999V0200501N006719999999N999999999+02801+02361100871ADDMA1100851999999OC100821REMMET105MOBOB2 METAR XM24 //000 030318 211953Z AUTO 05013G16KT 28/24 A2978 RMK A02 SLP087 T02800236 PA131 DA2046=
0140008418999992016012120534+03000+131800FM-15+000099999V0200501N006719999999N999999999+02801+02401100901ADDMA1100881999999OC100771REMMET105MOBOB2 METAR XM24 //000 030318 212053Z AUTO 05013G15KT 28/24 A2979 RMK A02 SLP090 T02800240 PA122 DA2045=
0140008418999992016012121534+03000+131800FM-15+000099999V0200501N007719999999N999999999+02811+02331101001ADDMA1100981999999OC100931REMMET105MOBOB2 METAR XM24 //000 030318 212153Z AUTO 05015G18KT 28/23 A2982 RMK A02 SLP100 T02810233 PA094 DA2005=
0140008418999992016012122534+03000+131800FM-15+000099999V0200601N008219999999N999999999+02821+02311101111ADDMA1101081999999OC101031REMMET105MOBOB2 METAR XM24 //000 030318 212253Z AUTO 06016G20KT 28/23 A2985 RMK A02 SLP111 T02820231 PA066 DA1977=
0140008418999992016012123534+03000+131800FM-15+000099999V0200501N007719999999N999999999+02821+02321101141ADDMA1101121999999OC100931REMMET105MOBOB2 METAR XM24 //000 030318 212353Z AUTO 05015G18KT 28/23 A2986 RMK A02 SLP114 T02820232 PA057 DA1968=
0140008418999992016012200534+03000+131800FM-15+000099999V0200501N007219999999N999999999+02841+02381101141ADDMA1101121999999OC100881REMMET105MOBOB2 METAR XM24 //000 030318 220053Z AUTO 05014G17KT 28/24 A2986 RMK A02 SLP114 T02840238 PA057 DA2003=
0140008418999992016012201534+03000+131800FM-15+000099999V0200401N007719999999N999999999+02861+02301101071ADDMA1101051999999OC100931REMMET105MOBOB2 METAR XM24 //000 030318 220153Z AUTO 04015G18KT 29/23 A2984 RMK A02 SLP107 T02860230 PA075 DA2031=
0140008418999992016012202534+03000+131800FM-15+000099999V0200401N008219999999N999999999+02851+02321101041ADDMA1101021999999OC100981REMMET105MOBOB2 METAR XM24 //000 030318 220253Z AUTO 04016G19KT 29/23 A2983 RMK A02 SLP104 T02850232 PA084 DA2036=
0140008418999992016012203534+03000+131800FM-15+000099999V0200301N006219999999N999999999+02891+02291100971ADDMA1100951999999OC100881REMMET105MOBOB2 METAR XM24 //000 030318 220353Z AUTO 03012G17KT 29/23 A2981 RMK A02 SLP097 T02890229 PA103 DA2098=
0140008418999992016012204534+03000+131800FM-15+000099999V0200301N005119999999N999999999+02901+02291100901ADDMA1100881999999OC100771REMMET105MOBOB2 METAR XM24 //000 030318 220453Z AUTO 03010G15KT 29/23 A2979 RMK A02 SLP090 T02900229 PA122 DA2131=
0129008418999992016012205534+03000+131800FM-15+000099999V0200201N003119999999N999999999+02911+02191100871ADDMA1100851999999REMMET102MOBOB2 METAR XM24 //000 030318 220553Z AUTO 02006KT 29/22 A2978 RMK A02 SLP087 T02910219 PA131 DA2133=
0129008418999992016012206534+03000+131800FM-15+000099999V0200201N003119999999N999999999+02901+02211100871ADDMA1100851999999REMMET102MOBOB2 METAR XM24 //000 030318 220653Z AUTO 02006KT 29/22 A2978 RMK A02 SLP087 T02900221 PA131 DA2126=
0140008418999992016012207534+03000+131800FM-15+000099999V0200301N004619999999N999999999+02851+02271100871ADDMA1100851999999OC100721REMMET105MOBOB2 METAR XM24 //000 030318 220753Z AUTO 03009G14KT 29/23 A2978 RMK A02 SLP087 T02850227 PA131 DA2082=
0140008418999992016012208534+03000+131800FM-15+000099999V0200301N003619999999N999999999+02821+02271100941ADDMA1100911999999OC100721REMMET105MOBOB2 METAR XM24 //000 030318 220853Z AUTO 03007G14KT 28/23 A2980 RMK A02 SLP094 T02820227 PA112 DA2026=
0129008418999992016012209534+03000+131800FM-15+000099999V0200301N003619999999N999999999+02791+02271101001ADDMA1100981999999REMMET102MOBOB2 METAR XM24 //000 030318 220953Z AUTO 03007KT 28/23 A2982 RMK A02 SLP100 T02790227 PA094 DA1970=
0129008418999992016012210534+03000+131800FM-15+000099999V0200301N004119999999N999999999+02801+02321101071ADDMA1101051999999REMMET102MOBOB2 METAR XM24 //000 030318 221053Z AUTO 03008KT 28/23 A2984 RMK A02 SLP107 T02800232 PA075 DA1969=
0140008418999992016012211534+03000+131800FM-15+000099999V0200301N005119999999N999999999+02801+02291101141ADDMA1101121999999OC100771REMMET105MOBOB2 METAR XM24 //000 030318 221153Z AUTO 03010G15KT 28/23 A2986 RMK A02 SLP114 T02800229 PA057 DA1940=
0129008418999992016012212534+03000+131800FM-15+000099999V0200301N003119999999N999999999+02781+02331101171ADDMA1101151999999REMMET102MOBOB2 METAR XM24 //000 030318 221253Z AUTO 03006KT 28/23 A2987 RMK A02 SLP117 T02780233 PA047 DA1914=
0129008418999992016012213534+03000+131800FM-15+000099999V0200301N003619999999N999999999+02761+02301101171ADDMA1101151999999REMMET102MOBOB2 METAR XM24 //000 030318 221353Z AUTO 03007KT 28/23 A2987 RMK A02 SLP117 T02760230 PA047 DA1887=
0129008418999992016012214534+03000+131800FM-15+000099999V0200101N002119999999N999999999+02741+02301101141ADDMA1101121999999REMMET102MOBOB2 METAR XM24 //000 030318 221453Z AUTO 01004KT 27/23 A2986 RMK A02 SLP114 T02740230 PA057 DA1875=
0129008418999992016012215534+03000+131800FM-15+000099999V0200201N002119999999N999999999+02711+02301101111ADDMA1101081999999REMMET102MOBOB2 METAR XM24 //000 030318 221553Z AUTO 02004KT 27/23 A2985 RMK A02 SLP111 T02710230 PA066 DA1853=
0129008418999992016012216534+03000+131800FM-15+000099999V0200101N002119999999N999999999+02711+02321101041ADDMA1101021999999REMMET102MOBOB2 METAR XM24 //000 030318 221653Z AUTO 01004KT 27/23 A2983 RMK A02 SLP104 T02710232 PA084 DA1880=
0129008418999992016012217534+03000+131800FM-15+000099999V0203601N001519999999N999999999+02701+02311100971ADDMA1100951999999REMMET102MOBOB2 METAR XM24 //000 030318 221753Z AUTO 36003KT 27/23 A2981 RMK A02 SLP097 T02700231 PA103 DA1890=
0129008418999992016012218534+03000+131800FM-15+000099999V0203401N001519999999N999999999+02651+02291100941ADDMA1100911999999REMMET102MOBOB2 METAR XM24 //000 030318 221853Z AUTO 34003KT 27/23 A2980 RMK A02 SLP094 T02650229 PA112 DA1841=
0129008418999992016012219534+03000+131800FM-15+000099999V0203501N001519999999N999999999+02661+02301100971ADDMA1100951999999REMMET102MOBOB2 METAR XM24 //000 030318 221953Z AUTO 35003KT 27/23 A2981 RMK A02 SLP097 T02660230 PA103 DA1842=
0129008418999992016012220534+03000+131800FM-15+000099999V0203401N001519999999N999999999+02711+02331101001ADDMA1100981999999REMMET102MOBOB2 METAR XM24 //000 030318 222053Z AUTO 34003KT 27/23 A2982 RMK A02 SLP100 T02710233 PA094 DA1894=
0129008418999992016012221534+03000+131800FM-15+000099999V0203501N002119999999N999999999+02711+02301101071ADDMA1101051999999REMMET102MOBOB2 METAR XM24 //000 030318 222153Z AUTO 35004KT 27/23 A2984 RMK A02 SLP107 T02710230 PA075 DA1863=
0129008418999992016012222534+03000+131800FM-15+000099999V0203501N002119999999N999999999+02821+02351101141ADDMA1101121999999REMMET102MOBOB2 METAR XM24 //000 030318 222253Z AUTO 35004KT 28/23 A2986 RMK A02 SLP114 T02820235 PA057 DA1974=
0129008418999992016012223534+03000+131800FM-15+000099999V0203501N002119999999N999999999+02871+02361101241ADDMA1101221999999REMMET102MOBOB2 METAR XM24 //000 030318 222353Z AUTO 35004KT 29/24 A2989 RMK A02 SLP124 T02870236 PA029 DA1998=
0140008418999992016012300534+03000+131800FM-15+000099999V0200101N004119999999N999999999+02701+02351101241ADDMA1101221999999OC100671REMMET105MOBOB2 METAR XM24 //000 030318 230053Z AUTO 01008G13KT 27/23 A2989 RMK A02 SLP124 T02700235 PA029 DA1806=
0129008418999992016012301534+03000+131800FM-15+000099999V0200201N003619999999N999999999+02611+02331101171ADDMA1101151999999REMMET102MOBOB2 METAR XM24 //000 030318 230153Z AUTO 02007KT 26/23 A2987 RMK A02 SLP117 T02610233 PA047 DA1723=
0156008418999992016012302534+03000+131800FM-15+000099999V0200401N004619999999N999999999+02701+02331101141ADDAA101000021AW1611MA1101121999999REMMET112MOBOB2 METAR XM24 //000 030318 230253Z AUTO 04009KT -RA 27/23 A2986 RMK A02 SLP114 P0000 T02700233 PA057 DA1836=
0129008418999992016012303534+03000+131800FM-15+000099999V0200201N002119999999N999999999+02881+02341101071ADDMA1101051999999REMMET102MOBOB2 METAR XM24 //000 030318 230353Z AUTO 02004KT 29/23 A2984 RMK A02 SLP107 T02880234 PA075 DA2062=
0129008418999992016012304534+03000+131800FM-15+000099999V0202901N003119999999N999999999+02841+02301101001ADDMA1100981999999REMMET102MOBOB2 METAR XM24 //000 030318 230453Z AUTO 29006KT 28/23 A2982 RMK A02 SLP100 T02840230 PA094 DA2032=
0129008418999992016012305534+03000+131800FM-15+000099999V0203101N003119999999N999999999+02831+02281100941ADDMA1100911999999REMMET102MOBOB2 METAR XM24 //000 030318 230553Z AUTO 31006KT 28/23 A2980 RMK A02 SLP094 T02830228 PA112 DA2040=
0129008418999992016012306534+03000+131800FM-15+000099999V0203201N002619999999N999999999+02831+02361100941ADDMA1100911999999REMMET102MOBOB2 METAR XM24 //000 030318 230653Z AUTO 32005KT 28/24 A2980 RMK A02 SLP094 T02830236 PA112 DA2058=
0129008418999992016012307534+03000+131800FM-15+000099999V0203201N003119999999N999999999+02811+02411100971ADDMA1100951999999REMMET102MOBOB2 METAR XM24 //000 030318 230753Z AUTO 32006KT 28/24 A2981 RMK A02 SLP097 T02810241 PA103 DA2034=
0167008418999992016012308534+03000+131800FM-15+000099999V0200401N005719999999N999999999+02641+02381101041ADDAA101003831AW1611MA1101021999999OC100671REMMET115MOBOB2 METAR XM24 //000 030318 230853Z AUTO 04011G13KT -RA 26/24 A2983 RMK A02 SLP104 P0015 T02640238 PA084 DA1814=
0129008418999992016012309534+03000+131800FM-15+000099999V0200301N002619999999N999999999+02621+02311101111ADDMA1101081999999REMMET102MOBOB2 METAR XM24 //000 030318 230953Z AUTO 03005KT 26/23 A2985 RMK A02 SLP111 T02620231 PA066 DA1754=
0129008418999992016012310534+03000+131800FM-15+000099999V0200101N001519999999N999999999+02681+02381101141ADDMA1101121999999REMMET102MOBOB2 METAR XM24 //000 030318 231053Z AUTO 01003KT 27/24 A2986 RMK A02 SLP114 T02680238 PA057 DA1825=
0129008418999992016012311534+03000+131800FM-15+000099999V0203401N001019999999N999999999+02651+02341101211ADDMA1101181999999REMMET102MOBOB2 METAR XM24 //000 030318 231153Z AUTO 34002KT 27/23 A2988 RMK A02 SLP121 T02650234 PA038 DA1759=
0129008418999992016012312534+03000+131800FM-15+000099999V0203001N003619999999N999999999+02671+02331101281ADDMA1101251999999REMMET102MOBOB2 METAR XM24 //000 030318 231253Z AUTO 30007KT 27/23 A2990 RMK A02 SLP128 T02670233 PA020 DA1758=
0129008418999992016012313534+03000+131800FM-15+000099999V0203101N003119999999N999999999+02581+02321101241ADDMA1101221999999REMMET102MOBOB2 METAR XM24 //000 030318 231353Z AUTO 31006KT 26/23 A2989 RMK A02 SLP124 T02580232 PA029 DA1664=
0129008418999992016012314534+03000+131800FM-15+000099999V0203301N003119999999N999999999+02591+02311101241ADDMA1101221999999REMMET102MOBOB2 METAR XM24 //000 030318 231453Z AUTO 33006KT 26/23 A2989 RMK A02 SLP124 T02590231 PA029 DA1673=
0140008418999992016012315534+03000+131800FM-15+000099999V0203201N005119999999N999999999+02611+02311101141ADDMA1101121999999OC100671REMMET105MOBOB2 METAR XM24 //000 030318 231553Z AUTO 32010G13KT 26/23 A2986 RMK A02 SLP114 T02610231 PA057 DA1731=
0129008418999992016012316534+03000+131800FM-15+000099999V0203501N002119999999N999999999+02601+02321101071ADDMA1101051999999REMMET102MOBOB2 METAR XM24 //000 030318 231653Z AUTO 35004KT 26/23 A2984 RMK A02 SLP107 T02600232 PA075 DA1745=
0129008418999992016012317534+03000+131800FM-15+000099999V0203601N003119999999N999999999+02601+02271101001ADDMA1100981999999REMMET102MOBOB2 METAR XM24 //000 030318 231753Z AUTO 36006KT 26/23 A2982 RMK A02 SLP100 T02600227 PA094 DA1756=
0129008418999992016012318534+03000+131800FM-15+000099999V0200301N004619999999N999999999+02621+02311100971ADDMA1100951999999REMMET102MOBOB2 METAR XM24 //000 030318 231853Z AUTO 03009KT 26/23 A2981 RMK A02 SLP097 T02620231 PA103 DA1800=
0129008418999992016012319534+03000+131800FM-15+000099999V0200501N004119999999N999999999+02721+02301100971ADDMA1100951999999REMMET102MOBOB2 METAR XM24 //000 030318 231953Z AUTO 05008KT 27/23 A2981 RMK A02 SLP097 T02720230 PA103 DA1909=
0140008418999992016012320534+03000+131800FM-15+000099999V0200401N005719999999N999999999+02721+02291101001ADDMA1100981999999OC100721REMMET105MOBOB2 METAR XM24 //000 030318 232053Z AUTO 04011G14KT 27/23 A2982 RMK A02 SLP100 T02720229 PA094 DA1896=
0129008418999992016012321534+03000+131800FM-15+000099999V0200201N003119999999N999999999+02741+02331101141ADDMA1101121999999REMMET102MOBOB2 METAR XM24 //000 030318 232153Z AUTO 02006KT 27/23 A2986 RMK A02 SLP114 T02740233 PA057 DA1882=
0129008418999992016012322534+03000+131800FM-15+000099999V0200501N004619999999N999999999+02751+02271101211ADDMA1101181999999REMMET102MOBOB2 METAR XM24 //000 030318 232253Z AUTO 05009KT 28/23 A2988 RMK A02 SLP121 T02750227 PA038 DA1857=
0129008418999992016012323534+03000+131800FM-15+000099999V0200501N004119999999N999999999+02741+02381101281ADDMA1101251999999REMMET102MOBOB2 METAR XM24 //000 030318 232353Z AUTO 05008KT 27/24 A2990 RMK A02 SLP128 T02740238 PA020 DA1847=
0129008418999992016012400534+03000+131800FM-15+000099999V0200301N004619999999N999999999+02791+02391101241ADDMA1101221999999REMMET102MOBOB2 METAR XM24 //000 030318 240053Z AUTO 03009KT 28/24 A2989 RMK A02 SLP124 T02790239 PA029 DA1916=
0129008418999992016012401534+03000+131800FM-15+000099999V0200401N004119999999N999999999+02831+02381101241ADDMA1101221999999REMMET102MOBOB2 METAR XM24 //000 030318 240153Z AUTO 04008KT 28/24 A2989 RMK A02 SLP124 T02830238 PA029 DA1960=
0140008418999992016012402534+03000+131800FM-15+000099999V0200401N005719999999N999999999+02821+02391101141ADDMA1101121999999OC100721REMMET105MOBOB2 METAR XM24 //000 030318 240253Z AUTO 04011G14KT 28/24 A2986 RMK A02 SLP114 T02820239 PA057 DA1985=
0129008418999992016012403534+03000+131800FM-15+000099999V0200501N005119999999N999999999+02841+02381101071ADDMA1101051999999REMMET102MOBOB2 METAR XM24 //000 030318 240353Z AUTO 05010KT 28/24 A2984 RMK A02 SLP107 T02840238 PA075 DA2026=
0129008418999992016012404534+03000+131800FM-15+000099999V0200601N004619999999N999999999+02861+02311101041ADDMA1101021999999REMMET102MOBOB2 METAR XM24 //000 030318 240453Z AUTO 06009KT 29/23 A2983 RMK A02 SLP104 T02860231 PA084 DA2046=
0129008418999992016012405534+03000+131800FM-15+000099999V0200401N004119999999N999999999+02821+02401101001ADDMA1100981999999REMMET102MOBOB2 METAR XM24 //000 030318 240553Z AUTO 04008KT 28/24 A2982 RMK A02 SLP100 T02820240 PA094 DA2033=
0140008418999992016012406534+03000+131800FM-15+000099999V0200401N005119999999N999999999+02801+02241100941ADDMA1100911999999OC100621REMMET105MOBOB2 METAR XM24 //000 030318 240653Z AUTO 04010G12KT 28/22 A2980 RMK A02 SLP094 T02800224 PA112 DA1998=
0129008418999992016012407534+03000+131800FM-15+000099999V0200501N004619999999N999999999+02831+02331100971ADDMA1100951999999REMMET102MOBOB2 METAR XM24 //000 030318 240753Z AUTO 05009KT 28/23 A2981 RMK A02 SLP097 T02830233 PA103 DA2040=
0129008418999992016012408534+03000+131800FM-15+000099999V0200401N004619999999N999999999+02821+02321101041ADDMA1101021999999REMMET102MOBOB2 METAR XM24 //000 030318 240853Z AUTO 04009KT 28/23 A2983 RMK A02 SLP104 T02820232 PA084 DA2004=
0129008418999992016012409534+03000+131800FM-15+000099999V0200401N004119999999N999999999+02811+02361101111ADDMA1101081999999REMMET102MOBOB2 METAR XM24 //000 030318 240953Z AUTO 04008KT 28/24 A2985 RMK A02 SLP111 T02810236 PA066 DA1978=
0129008418999992016012410534+03000+131800FM-15+000099999V0200401N003619999999N999999999+02811+02331101171ADDMA1101151999999REMMET102MOBOB2 METAR XM24 //000 030318 241053Z AUTO 04007KT 28/23 A2987 RMK A02 SLP117 T02810233 PA047 DA1949=
0129008418999992016012411534+03000+131800FM-15+000099999V0200501N004119999999N999999999+02801+02281101241ADDMA1101221999999REMMET102MOBOB2 METAR XM24 //000 030318 241153Z AUTO 05008KT 28/23 A2989 RMK A02 SLP124 T02800228 PA029 DA1903=
0129008418999992016012412534+03000+131800FM-15+000099999V0200501N004119999999N999999999+02791+02301101241ADDMA1101221999999REMMET102MOBOB2 METAR XM24 //000 030318 241253Z AUTO 05008KT 28/23 A2989 RMK A02 SLP124 T02790230 PA029 DA1896=
0129008418999992016012413534+03000+131800FM-15+000099999V0200501N004119999999N999999999+02791+02351101241ADDMA1101221999999REMMET102MOBOB2 METAR XM24 //000 030318 241353Z AUTO 05008KT 28/23 A2989 RMK A02 SLP124 T02790235 PA029 DA1907=
0129008418999992016012414534+03000+131800FM-15+000099999V0200401N004119999999N999999999+02781+02341101241ADDMA1101221999999REMMET102MOBOB2 METAR XM24 //000 030318 241453Z AUTO 04008KT 28/23 A2989 RMK A02 SLP124 T02780234 PA029 DA1894=
0140008418999992016012415534+03000+131800FM-15+000099999V0200401N005119999999N999999999+02771+02351101171ADDMA1101151999999OC100671REMMET105MOBOB2 METAR XM24 //000 030318 241553Z AUTO 04010G13KT 28/23 A2987 RMK A02 SLP117 T02770235 PA047 DA1908=
0129008418999992016012416534+03000+131800FM-15+000099999V0200501N004619999999N999999999+02761+02331101111ADDMA1101081999999REMMET102MOBOB2 METAR XM24 //000 030318 241653Z AUTO 05009KT 28/23 A2985 RMK A02 SLP111 T02760233 PA066 DA1914=
0129008418999992016012417534+03000+131800FM-15+000099999V0200501N004619999999N999999999+02711+02191101071ADDMA1101051999999REMMET102MOBOB2 METAR XM24 //000 030318 241753Z AUTO 05009KT 27/22 A2984 RMK A02 SLP107 T02710219 PA075 DA1842=
0129008418999992016012418534+03000+131800FM-15+000099999V0200301N004119999999N999999999+02711+02251101071ADDMA1101051999999REMMET102MOBOB2 METAR XM24 //000 030318 241853Z AUTO 03008KT 27/23 A2984 RMK A02 SLP107 T02710225 PA075 DA1854=
0140008418999992016012419534+03000+131800FM-15+000099999V0200401N005719999999N999999999+02731+02271101111ADDMA1101081999999OC100671REMMET105MOBOB2 METAR XM24 //000 030318 241953Z AUTO 04011G13KT 27/23 A2985 RMK A02 SLP111 T02730227 PA066 DA1868=
0140008418999992016012420534+03000+131800FM-15+000099999V0200401N006219999999N999999999+02761+02271101141ADDMA1101121999999OC100771REMMET105MOBOB2 METAR XM24 //000 030318 242053Z AUTO 04012G15KT 28/23 A2986 RMK A02 SLP114 T02760227 PA057 DA1891=
0140008418999992016012421534+03000+131800FM-15+000099999V0200301N006219999999N999999999+02751+02241101211ADDMA1101181999999OC100771REMMET105MOBOB2 METAR XM24 //000 030318 242153Z AUTO 03012G15KT 28/22 A2988 RMK A02 SLP121 T02750224 PA038 DA1850=
0140008418999992016012422534+03000+131800FM-15+000099999V0200401N006719999999N999999999+02791+02201101311ADDMA1101291999999OC100821REMMET105MOBOB2 METAR XM24 //000 030318 242253Z AUTO 04013G16KT 28/22 A2991 RMK A02 SLP131 T02790220 PA010 DA1852=
0140008418999992016012423534+03000+131800FM-15+000099999V0200501N006719999999N999999999+02791+02241101381ADDMA1101351999999OC100821REMMET105MOBOB2 METAR XM24 //000 030318 242353Z AUTO 05013G16KT 28/22 A2993 RMK A02 SLP138 T02790224 PA-08 DA1839=
0140008418999992016012500534+03000+131800FM-15+000099999V0200401N006719999999N999999999+02811+02261101381ADDMA1101351999999OC100881REMMET105MOBOB2 METAR XM24 //000 030318 250053Z AUTO 04013G17KT 28/23 A2993 RMK A02 SLP138 T02810226 PA-08 DA1865=
0140008418999992016012501534+03000+131800FM-15+000099999V0200601N006719999999N999999999+02821+02291101341ADDMA1101321999999OC100821REMMET105MOBOB2 METAR XM24 //000 030318 250153Z AUTO 06013G16KT 28/23 A2992 RMK A02 SLP134 T02820229 PA001 DA1894=
0140008418999992016012502534+03000+131800FM-15+000099999V0200401N006719999999N999999999+02831+02281101281ADDMA1101251999999OC100881REMMET105MOBOB2 METAR XM24 //000 030318 250253Z AUTO 04013G17KT 28/23 A2990 RMK A02 SLP128 T02830228 PA020 DA1925=
0140008418999992016012503534+03000+131800FM-15+000099999V0200501N007219999999N999999999+02851+02261101171ADDMA1101151999999OC100881REMMET105MOBOB2 METAR XM24 //000 030318 250353Z AUTO 05014G17KT 29/23 A2987 RMK A02 SLP117 T02850226 PA047 DA1978=
0140008418999992016012504534+03000+131800FM-15+000099999V0200401N007219999999N999999999+02861+02321101111ADDMA1101081999999OC100881REMMET105MOBOB2 METAR XM24 //000 030318 250453Z AUTO 04014G17KT 29/23 A2985 RMK A02 SLP111 T02860232 PA066 DA2025=
0140008418999992016012505534+03000+131800FM-15+000099999V0200401N007219999999N999999999+02881+02241101071ADDMA1101051999999OC100821REMMET105MOBOB2 METAR XM24 //000 030318 250553Z AUTO 04014G16KT 29/22 A2984 RMK A02 SLP107 T02880224 PA075 DA2042=
0140008418999992016012506534+03000+131800FM-15+000099999V0200401N007719999999N999999999+02851+02281101001ADDMA1100981999999OC100931REMMET105MOBOB2 METAR XM24 //000 030318 250653Z AUTO 04015G18KT 29/23 A2982 RMK A02 SLP100 T02850228 PA094 DA2039=
0140008418999992016012507534+03000+131800FM-15+000099999V0200401N007219999999N999999999+02851+02341101041ADDMA1101021999999OC100881REMMET105MOBOB2 METAR XM24 //000 030318 250753Z AUTO 04014G17KT 29/23 A2983 RMK A02 SLP104 T02850234 PA084 DA2041=
0140008418999992016012508534+03000+131800FM-15+000099999V0200301N006219999999N999999999+02811+02351101071ADDMA1101051999999OC100821REMMET105MOBOB2 METAR XM24 //000 030318 250853Z AUTO 03012G16KT 28/24 A2984 RMK A02 SLP107 T02810235 PA075 DA1988=
0140008418999992016012509534+03000+131800FM-15+000099999V0200401N007219999999N999999999+02801+02321101141ADDMA1101121999999OC100931REMMET105MOBOB2 METAR XM24 //000 030318 250953Z AUTO 04014G18KT 28/23 A2986 RMK A02 SLP114 T02800232 PA057 DA1947=
0140008418999992016012510534+03000+131800FM-15+000099999V0200401N007719999999N999999999+02821+02381101171ADDMA1101151999999OC100931REMMET105MOBOB2 METAR XM24 //000 030318 251053Z AUTO 04015G18KT 28/24 A2987 RMK A02 SLP117 T02820238 PA047 DA1970=
0140008418999992016012511534+03000+131800FM-15+000099999V0200401N007719999999N999999999+02801+02311101241ADDMA1101221999999OC100881REMMET105MOBOB2 METAR XM24 //000 030318 251153Z AUTO 04015G17KT 28/23 A2989 RMK A02 SLP124 T02800231 PA029 DA1910=
0140008418999992016012512534+03000+131800FM-15+000099999V0200301N007219999999N999999999+02781+02311101241ADDMA1101221999999OC100931REMMET105MOBOB2 METAR XM24 //000 030318 251253Z AUTO 03014G18KT 28/23 A2989 RMK A02 SLP124 T02780231 PA029 DA1888=
0140008418999992016012513534+03000+131800FM-15+000099999V0200401N007219999999N999999999+02791+02351101281ADDMA1101251999999OC100881REMMET105MOBOB2 METAR XM24 //000 030318 251353Z AUTO 04014G17KT 28/23 A2990 RMK A02 SLP128 T02790235 PA020 DA1896=
0140008418999992016012514534+03000+131800FM-15+000099999V0200301N007719999999N999999999+02781+02311101281ADDMA1101251999999OC100931REMMET105MOBOB2 METAR XM24 //000 030318 251453Z AUTO 03015G18KT 28/23 A2990 RMK A02 SLP128 T02780231 PA020 DA1877=
0140008418999992016012515534+03000+131800FM-15+000099999V0200401N006719999999N999999999+02751+02261101241ADDMA1101221999999OC100821REMMET105MOBOB2 METAR XM24 //000 030318 251553Z AUTO 04013G16KT 28/23 A2989 RMK A02 SLP124 T02750226 PA029 DA1843=
0140008418999992016012516534+03000+131800FM-15+000099999V0200401N006719999999N999999999+02741+02251101211ADDMA1101181999999OC100821REMMET105MOBOB2 METAR XM24 //000 030318 251653Z AUTO 04013G16KT 27/23 A2988 RMK A02 SLP121 T02740225 PA038 DA1841=
0140008418999992016012517534+03000+131800FM-15+000099999V0200301N007719999999N999999999+02711+02161101141ADDMA1101121999999OC101031REMMET105MOBOB2 METAR XM24 //000 030318 251753Z AUTO 03015G20KT 27/22 A2986 RMK A02 SLP114 T02710216 PA057 DA1813=
0140008418999992016012518534+03000+131800FM-15+000099999V0200301N007219999999N999999999+02691+02131101111ADDMA1101081999999OC100931REMMET105MOBOB2 METAR XM24 //000 030318 251853Z AUTO 03014G18KT 27/21 A2985 RMK A02 SLP111 T02690213 PA066 DA1795=
0140008418999992016012519534+03000+131800FM-15+000099999V0200401N006719999999N999999999+02711+02181101141ADDMA1101121999999OC100881REMMET105MOBOB2 METAR XM24 //000 030318 251953Z AUTO 04013G17KT 27/22 A2986 RMK A02 SLP114 T02710218 PA057 DA1816=
0140008418999992016012520534+03000+131800FM-15+000099999V0200401N006719999999N999999999+02731+02211101171ADDMA1101151999999OC100881REMMET105MOBOB2 METAR XM24 //000 030318 252053Z AUTO 04013G17KT 27/22 A2987 RMK A02 SLP117 T02730221 PA047 DA1834=
0140008418999992016012521534+03000+131800FM-15+000099999V0200401N007219999999N999999999+02771+02231101241ADDMA1101221999999OC100881REMMET105MOBOB2 METAR XM24 //000 030318 252153Z AUTO 04014G17KT 28/22 A2989 RMK A02 SLP124 T02770223 PA029 DA1858=
0140008418999992016012522534+03000+131800FM-15+000099999V0200401N006719999999N999999999+02791+02241101311ADDMA1101291999999OC100821REMMET105MOBOB2 METAR XM24 //000 030318 252253Z AUTO 04013G16KT 28/22 A2991 RMK A02 SLP131 T02790224 PA010 DA1861=
0140008418999992016012523534+03000+131800FM-15+000099999V0200401N006719999999N999999999+02811+02241101381ADDMA1101351999999OC100881REMMET105MOBOB2 METAR XM24 //000 030318 252353Z AUTO 04013G17KT 28/22 A2993 RMK A02 SLP138 T02810224 PA-08 DA1860=
0140008418999992016012600534+03000+131800FM-15+000099999V0200501N007219999999N999999999+02821+02221101381ADDMA1101351999999OC100821REMMET105MOBOB2 METAR XM24 //000 030318 260053Z AUTO 05014G16KT 28/22 A2993 RMK A02 SLP138 T02820222 PA-08 DA1868=
0140008418999992016012601534+03000+131800FM-15+000099999V0200501N006219999999N999999999+02841+02241101311ADDMA1101291999999OC100771REMMET105MOBOB2 METAR XM24 //000 030318 260153Z AUTO 05012G15KT 28/22 A2991 RMK A02 SLP131 T02840224 PA010 DA1917=
0140008418999992016012602534+03000+131800FM-15+000099999V0200401N005719999999N999999999+02861+02301101281ADDMA1101251999999OC100721REMMET105MOBOB2 METAR XM24 //000 030318 260253Z AUTO 04011G14KT 29/23 A2990 RMK A02 SLP128 T02860230 PA020 DA1965=
0140008418999992016012603534+03000+131800FM-15+000099999V0200501N005719999999N999999999+02871+02341101241ADDMA1101221999999OC100721REMMET105MOBOB2 METAR XM24 //000 030318 260353Z AUTO 05011G14KT 29/23 A2989 RMK A02 SLP124 T02870234 PA029 DA1995=
0140008418999992016012604534+03000+131800FM-15+000099999V0200401N006219999999N999999999+02871+02331101141ADDMA1101121999999OC100771REMMET105MOBOB2 METAR XM24 //000 030318 260453Z AUTO 04012G15KT 29/23 A2986 RMK A02 SLP114 T02870233 PA057 DA2027=
0140008418999992016012605534+03000+131800FM-15+000099999V0200601N006219999999N999999999+02881+02371101071ADDMA1101051999999OC100721REMMET105MOBOB2 METAR XM24 //000 030318 260553Z AUTO 06012G14KT 29/24 A2984 RMK A02 SLP107 T02880237 PA075 DA2068=
0129008418999992016012606534+03000+131800FM-15+000099999V0200601N004119999999N999999999+02861+02341101071ADDMA1101051999999REMMET102MOBOB2 METAR XM24 //000 030318 260653Z AUTO 06008KT 29/23 A2984 RMK A02 SLP107 T02860234 PA075 DA2041=
0129008418999992016012607534+03000+131800FM-15+000099999V0200701N004619999999N999999999+02841+02391101071ADDMA1101051999999REMMET102MOBOB2 METAR XM24 //000 030318 260753Z AUTO 07009KT 28/24 A2984 RMK A02 SLP107 T02840239 PA075 DA2029=
0140008418999992016012608534+03000+131800FM-15+000099999V0200501N006219999999N999999999+02821+02361101111ADDMA1101081999999OC100721REMMET105MOBOB2 METAR XM24 //000 030318 260853Z AUTO 05012G14KT 28/24 A2985 RMK A02 SLP111 T02820236 PA066 DA1989=
0140008418999992016012609534+03000+131800FM-15+000099999V0200501N007219999999N999999999+02821+02341101141ADDMA1101121999999OC100881REMMET105MOBOB2 METAR XM24 //000 030318 260953Z AUTO 05014G17KT 28/23 A2986 RMK A02 SLP114 T02820234 PA057 DA1973=
0140008418999992016012610534+03000+131800FM-15+000099999V0200501N007219999999N999999999+02811+02311101171ADDMA1101151999999OC100881REMMET105MOBOB2 METAR XM24 //000 030318 261053Z AUTO 05014G17KT 28/23 A2987 RMK A02 SLP117 T02810231 PA047 DA1943=
0140008418999992016012611534+03000+131800FM-15+000099999V0200501N006719999999N999999999+02791+02281101241ADDMA1101221999999OC100771REMMET105MOBOB2 METAR XM24 //000 030318 261153Z AUTO 05013G15KT 28/23 A2989 RMK A02 SLP124 T02790228 PA029 DA1891=
0140008418999992016012612534+03000+131800FM-15+000099999V0200501N006219999999N999999999+02781+02331101281ADDMA1101251999999OC100821REMMET105MOBOB2 METAR XM24 //000 030318 261253Z AUTO 05012G16KT 28/23 A2990 RMK A02 SLP128 T02780233 PA020 DA1880=
0140008418999992016012613534+03000+131800FM-15+000099999V0200501N006719999999N999999999+02781+02321101241ADDMA1101221999999OC100771REMMET105MOBOB2 METAR XM24 //000 030318 261353Z AUTO 05013G15KT 28/23 A2989 RMK A02 SLP124 T02780232 PA029 DA1889=
0140008418999992016012614534+03000+131800FM-15+000099999V0200501N006719999999N999999999+02771+02311101241ADDMA1101221999999OC100821REMMET105MOBOB2 METAR XM24 //000 030318 261453Z AUTO 05013G16KT 28/23 A2989 RMK A02 SLP124 T02770231 PA029 DA1877=
0140008418999992016012615534+03000+131800FM-15+000099999V0200501N006719999999N999999999+02761+02281101241ADDMA1101221999999OC100821REMMET105MOBOB2 METAR XM24 //000 030318 261553Z AUTO 05013G16KT 28/23 A2989 RMK A02 SLP124 T02760228 PA029 DA1859=
0140008418999992016012616534+03000+131800FM-15+000099999V0200501N005719999999N999999999+02761+02311101211ADDMA1101181999999OC100671REMMET105MOBOB2 METAR XM24 //000 030318 261653Z AUTO 05011G13KT 28/23 A2988 RMK A02 SLP121 T02760231 PA038 DA1876=
0140008418999992016012617534+03000+131800FM-15+000099999V0200501N005719999999N999999999+02741+02291101141ADDMA1101121999999OC100671REMMET105MOBOB2 METAR XM24 //000 030318 261753Z AUTO 05011G13KT 27/23 A2986 RMK A02 SLP114 T02740229 PA057 DA1873=
0129008418999992016012618544+03000+131800FM-15+000099999V0200801N003619999999N999999999+02681+02301101141ADDMA1101121999999REMMET102MOBOB2 METAR XM24 //000 030318 261854Z AUTO 08007KT 27/23 A2986 RMK A02 SLP114 T02680230 PA057 DA1807=
0140008418999992016012619534+03000+131800FM-15+000099999V0200501N006219999999N999999999+02761+02271101141ADDMA1101121999999OC100771REMMET105MOBOB2 METAR XM24 //000 030318 261953Z AUTO 05012G15KT 28/23 A2986 RMK A02 SLP114 T02760227 PA057 DA1890=
0167008418999992016012620534+03000+131800FM-15+000099999V0200701N006219999999N999999999+02741+02281101171ADDAA101001231AW1611MA1101151999999OC100721REMMET115MOBOB2 METAR XM24 //000 030318 262053Z AUTO 07012G14KT -RA 27/23 A2987 RMK A02 SLP117 P0005 T02740228 PA047 DA1858=
0140008418999992016012621534+03000+131800FM-15+000099999V0200601N006219999999N999999999+02751+02261101241ADDMA1101221999999OC100721REMMET105MOBOB2 METAR XM24 //000 030318 262153Z AUTO 06012G14KT 28/23 A2989 RMK A02 SLP124 T02750226 PA029 DA1842=
0140008418999992016012622534+03000+131800FM-15+000099999V0200601N006719999999N999999999+02801+02271101311ADDMA1101291999999OC100771REMMET105MOBOB2 METAR XM24 //000 030318 262253Z AUTO 06013G15KT 28/23 A2991 RMK A02 SLP131 T02800227 PA010 DA1878=
0140008418999992016012623534+03000+131800FM-15+000099999V0200701N006719999999N999999999+02821+02301101341ADDMA1101321999999OC100821REMMET105MOBOB2 METAR XM24 //000 030318 262353Z AUTO 07013G16KT 28/23 A2992 RMK A02 SLP134 T02820230 PA001 DA1895=
0140008418999992016012700534+03000+131800FM-15+000099999V0200701N005119999999N999999999+02821+02271101311ADDMA1101291999999OC100621REMMET105MOBOB2 METAR XM24 //000 030318 270053Z AUTO 07010G12KT 28/23 A2991 RMK A02 SLP131 T02820227 PA010 DA1901=
0140008418999992016012701534+03000+131800FM-15+000099999V0200601N005119999999N999999999+02841+02351101241ADDMA1101221999999OC100671REMMET105MOBOB2 METAR XM24 //000 030318 270153Z AUTO 06010G13KT 28/23 A2989 RMK A02 SLP124 T02840235 PA029 DA1963=
0129008418999992016012702534+03000+131800FM-15+000099999V0200701N003619999999N999999999+02851+02301101241ADDMA1101221999999REMMET102MOBOB2 METAR XM24 //000 030318 270253Z AUTO 07007KT 29/23 A2989 RMK A02 SLP124 T02850230 PA029 DA1963=
0129008418999992016012703534+03000+131800FM-15+000099999V0200801N003619999999N999999999+02871+02271101141ADDMA1101121999999REMMET102MOBOB2 METAR XM24 //000 030318 270353Z AUTO 08007KT 29/23 A2986 RMK A02 SLP114 T02870227 PA057 DA2013=
0129008418999992016012704534+03000+131800FM-15+000099999V0200801N004119999999N999999999+02841+02311101111ADDMA1101081999999REMMET102MOBOB2 METAR XM24 //000 030318 270453Z AUTO 08008KT 28/23 A2985 RMK A02 SLP111 T02840231 PA066 DA2000=
0171008418999992016012705534+03000+131800FM-15+000099999V0200901N011319999999N005000199+02561+02311101071ADDAA101002531AW1621MA1101051999999OC101341REMMET119MOBOB2 METAR XM24 //000 030318 270553Z AUTO 09022G26KT 5000 RA 26/23 A2984 RMK A02 SLP107 P0010 T02560231 PA075 DA1696=
0167008418999992016012706534+03000+131800FM-15+000099999V0200801N005119999999N999999999+02501+02281101071ADDAA101007631AW1611MA1101051999999OC100671REMMET115MOBOB2 METAR XM24 //000 030318 270653Z AUTO 08010G13KT -RA 25/23 A2984 RMK A02 SLP107 P0030 T02500228 PA075 DA1623=
0129008418999992016012707534+03000+131800FM-15+000099999V0200601N004119999999N999999999+02621+02321101041ADDMA1101021999999REMMET102MOBOB2 METAR XM24 //000 030318 270753Z AUTO 06008KT 26/23 A2983 RMK A02 SLP104 T02620232 PA084 DA1778=
0156008418999992016012708534+03000+131800FM-15+000099999V0200301N005119999999N999999999+02651+02301101071ADDAA101000021AW1611MA1101051999999REMMET112MOBOB2 METAR XM24 //000 030318 270853Z AUTO 03010KT -RA 27/23 A2984 RMK A02 SLP107 P0000 T02650230 PA075 DA1796=
0140008418999992016012709534+03000+131800FM-15+000099999V0200401N005119999999N999999999+02681+02321101111ADDMA1101081999999OC100621REMMET105MOBOB2 METAR XM24 //000 030318 270953Z AUTO 04010G12KT 27/23 A2985 RMK A02 SLP111 T02680232 PA066 DA1824=
0129008418999992016012710534+03000+131800FM-15+000099999V0200201N004619999999N999999999+02701+02351101211ADDMA1101181999999REMMET102MOBOB2 METAR XM24 //000 030318 271053Z AUTO 02009KT 27/23 A2988 RMK A02 SLP121 T02700235 PA038 DA1817=
0140008418999992016012711534+03000+131800FM-15+000099999V0200601N007719999999N999999999+02691+02381101241ADDMA1101221999999OC100931REMMET105MOBOB2 METAR XM24 //000 030318 271153Z AUTO 06015G18KT 27/24 A2989 RMK A02 SLP124 T02690238 PA029 DA1803=
0166008418999992016012712544+03000+131800FM-15+000099999V0200401N009319999999N999999999+02651+02371101281ADDAA101000021AW1621MA1101251999999OC101131REMMET114MOBOB2 METAR XM24 //000 030318 271254Z AUTO 04018G22KT RA 27/24 A2990 RMK A02 SLP128 P0000 T02650237 PA020 DA1744=
0156008418999992016012713534+03000+131800FM-15+000099999V0200101N002619999999N999999999+02651+02141101311ADDAA101000231AW1611MA1101291999999REMMET112MOBOB2 METAR XM24 //000 030318 271353Z AUTO 01005KT -RA 27/21 A2991 RMK A02 SLP131 P0001 T02650214 PA010 DA1683=
0140008418999992016012714544+03000+131800FM-15+000099999V0200401N006219999999N999999999+02731+02431101281ADDMA1101251999999OC100721REMMET105MOBOB2 METAR XM24 //000 030318 271454Z AUTO 04012G14KT 27/24 A2990 RMK A02 SLP128 T02730243 PA020 DA1846=
0140008418999992016012715534+03000+131800FM-15+000099999V0200401N007219999999N999999999+02781+02391101211ADDMA1101181999999OC100881REMMET105MOBOB2 METAR XM24 //000 030318 271553Z AUTO 04014G17KT 28/24 A2988 RMK A02 SLP121 T02780239 PA038 DA1918=
0140008418999992016012716534+03000+131800FM-15+000099999V0200501N007219999999N999999999+02771+02361101141ADDMA1101121999999OC100881REMMET105MOBOB2 METAR XM24 //000 030318 271653Z AUTO 05014G17KT 28/24 A2986 RMK A02 SLP114 T02770236 PA057 DA1921=
0140008418999992016012717534+03000+131800FM-15+000099999V0200401N007219999999N999999999+02761+02361101111ADDMA1101081999999OC100881REMMET105MOBOB2 METAR XM24 //000 030318 271753Z AUTO 04014G17KT 28/24 A2985 RMK A02 SLP111 T02760236 PA066 DA1921=
0140008418999992016012718534+03000+131800FM-15+000099999V0200501N006719999999N999999999+02761+02391101071ADDMA1101051999999OC100821REMMET105MOBOB2 METAR XM24 //000 030318 271853Z AUTO 05013G16KT 28/24 A2984 RMK A02 SLP107 T02760239 PA075 DA1941=
0140008418999992016012719534+03000+131800FM-15+000099999V0200501N007719999999N999999999+02761+02351101111ADDMA1101081999999OC101031REMMET105MOBOB2 METAR XM24 //000 030318 271953Z AUTO 05015G20KT 28/23 A2985 RMK A02 SLP111 T02760235 PA066 DA1919=
0140008418999992016012720534+03000+131800FM-15+000099999V0200501N007219999999N999999999+02761+02361101111ADDMA1101081999999OC100881REMMET105MOBOB2 METAR XM24 //000 030318 272053Z AUTO 05014G17KT 28/24 A2985 RMK A02 SLP111 T02760236 PA066 DA1922=
0140008418999992016012721534+03000+131800FM-15+000099999V0200401N007719999999N999999999+02751+02351101141ADDMA1101121999999OC100931REMMET105MOBOB2 METAR XM24 //000 030318 272153Z AUTO 04015G18KT 28/23 A2986 RMK A02 SLP114 T02750235 PA057 DA1897=
0140008418999992016012722534+03000+131800FM-15+000099999V0200501N007719999999N999999999+02781+02391101171ADDMA1101151999999OC100931REMMET105MOBOB2 METAR XM24 //000 030318 272253Z AUTO 05015G18KT 28/24 A2987 RMK A02 SLP117 T02780239 PA047 DA1928=
0140008418999992016012723534+03000+131800FM-15+000099999V0200501N007719999999N999999999+02791+02391101241ADDMA1101221999999OC100981REMMET105MOBOB2 METAR XM24 //000 030318 272353Z AUTO 05015G19KT 28/24 A2989 RMK A02 SLP124 T02790239 PA029 DA1917=
0140008418999992016012800534+03000+131800FM-15+000099999V0200501N007219999999N999999999+02811+02381101241ADDMA1101221999999OC100931REMMET105MOBOB2 METAR XM24 //000 030318 280053Z AUTO 05014G18KT 28/24 A2989 RMK A02 SLP124 T02810238 PA029 DA1937=
0140008418999992016012801534+03000+131800FM-15+000099999V0200501N007219999999N999999999+02811+02391101171ADDMA1101151999999OC100881REMMET105MOBOB2 METAR XM24 //000 030318 280153Z AUTO 05014G17KT 28/24 A2987 RMK A02 SLP117 T02810239 PA047 DA1962=
0140008418999992016012802534+03000+131800FM-15+000099999V0200501N007219999999N999999999+02841+02381101141ADDMA1101121999999OC100881REMMET105MOBOB2 METAR XM24 //000 030318 280253Z AUTO 05014G17KT 28/24 A2986 RMK A02 SLP114 T02840238 PA057 DA2004=
0140008418999992016012803534+03000+131800FM-15+000099999V0200401N007219999999N999999999+02831+02411101041ADDMA1101021999999OC100821REMMET105MOBOB2 METAR XM24 //000 030318 280353Z AUTO 04014G16KT 28/24 A2983 RMK A02 SLP104 T02830241 PA084 DA2035=
0140008418999992016012804534+03000+131800FM-15+000099999V0200601N007719999999N999999999+02811+02381100941ADDMA1100911999999OC100931REMMET105MOBOB2 METAR XM24 //000 030318 280453Z AUTO 06015G18KT 28/24 A2980 RMK A02 SLP094 T02810238 PA112 DA2040=
0140008418999992016012805534+03000+131800FM-15+000099999V0200601N007219999999N999999999+02811+02401100901ADDMA1100881999999OC100931REMMET105MOBOB2 METAR XM24 //000 030318 280553Z AUTO 06014G18KT 28/24 A2979 RMK A02 SLP090 T02810240 PA122 DA2056=
0140008418999992016012806534+03000+131800FM-15+000099999V0200601N007719999999N999999999+02811+02421100871ADDMA1100851999999OC100881REMMET105MOBOB2 METAR XM24 //000 030318 280653Z AUTO 06015G17KT 28/24 A2978 RMK A02 SLP087 T02810242 PA131 DA2071=
0140008418999992016012807534+03000+131800FM-15+000099999V0200601N006719999999N999999999+02801+02421100871ADDMA1100851999999OC100881REMMET105MOBOB2 METAR XM24 //000 030318 280753Z AUTO 06013G17KT 28/24 A2978 RMK A02 SLP087 T02800242 PA131 DA2061=
0140008418999992016012808534+03000+131800FM-15+000099999V0200601N008219999999N999999999+02791+02361100901ADDMA1100881999999OC101031REMMET105MOBOB2 METAR XM24 //000 030318 280853Z AUTO 06016G20KT 28/24 A2979 RMK A02 SLP090 T02790236 PA122 DA2024=
0140008418999992016012809534+03000+131800FM-15+000099999V0200601N007219999999N999999999+02791+02361100941ADDMA1100911999999OC100881REMMET105MOBOB2 METAR XM24 //000 030318 280953Z AUTO 06014G17KT 28/24 A2980 RMK A02 SLP094 T02790236 PA112 DA2011=
0140008418999992016012810534+03000+131800FM-15+000099999V0200601N007719999999N999999999+02791+02371100971ADDMA1100951999999OC100981REMMET105MOBOB2 METAR XM24 //000 030318 281053Z AUTO 06015G19KT 28/24 A2981 RMK A02 SLP097 T02790237 PA103 DA2002=
0140008418999992016012811534+03000+131800FM-15+000099999V0200601N007719999999N999999999+02791+02371101001ADDMA1100981999999OC100931REMMET105MOBOB2 METAR XM24 //000 030318 281153Z AUTO 06015G18KT 28/24 A2982 RMK A02 SLP100 T02790237 PA094 DA1993=
0140008418999992016012812534+03000+131800FM-15+000099999V0200601N007719999999N999999999+02791+02401101001ADDMA1100981999999OC100981REMMET105MOBOB2 METAR XM24 //000 030318 281253Z AUTO 06015G19KT 28/24 A2982 RMK A02 SLP100 T02790240 PA094 DA1999=
0140008418999992016012813534+03000+131800FM-15+000099999V0200601N008819999999N999999999+02781+02391101041ADDMA1101021999999OC101031REMMET105MOBOB2 METAR XM24 //000 030318 281353Z AUTO 06017G20KT 28/24 A2983 RMK A02 SLP104 T02780239 PA084 DA1973=
0140008418999992016012814534+03000+131800FM-15+000099999V0200501N007719999999N999999999+02791+02411101001ADDMA1100981999999OC100931REMMET105MOBOB2 METAR XM24 //000 030318 281453Z AUTO 05015G18KT 28/24 A2982 RMK A02 SLP100 T02790241 PA094 DA2001=
0140008418999992016012815544+03000+131800FM-15+000099999V0200601N007219999999N999999999+02781+02361101001ADDMA1100981999999OC100881REMMET105MOBOB2 METAR XM24 //000 030318 281554Z AUTO 06014G17KT 28/24 A2982 RMK A02 SLP100 T02780236 PA094 DA1979=
0140008418999992016012816534+03000+131800FM-15+000099999V0200601N007219999999N999999999+02771+02341100941ADDMA1100911999999OC100881REMMET105MOBOB2 METAR XM24 //000 030318 281653Z AUTO 06014G17KT 28/23 A2980 RMK A02 SLP094 T02770234 PA112 DA1987=
0139008418999992016012817534+03000+131800FM-15+000099999V0200701N007219999999N999999999+02761+02321999999ADDMA1100881999999OC100881REMMET104MOBOB2 METAR XM24 //000 030318 281753Z AUTO 07014G17KT 28/23 A2979 RMK A02 SLPNO T02760232 PA122 DA1981=
0140008418999992016012818534+03000+131800FM-15+000099999V0200701N006719999999N999999999+02741+02301100901ADDMA1100881999999OC100771REMMET105MOBOB2 METAR XM24 //000 030318 281853Z AUTO 07013G15KT 27/23 A2979 RMK A02 SLP090 T02740230 PA122 DA1954=
0140008418999992016012819534+03000+131800FM-15+000099999V0200701N007219999999N999999999+02751+02301100901ADDMA1100881999999OC100881REMMET105MOBOB2 METAR XM24 //000 030318 281953Z AUTO 07014G17KT 28/23 A2979 RMK A02 SLP090 T02750230 PA122 DA1966=
0140008418999992016012820534+03000+131800FM-15+000099999V0200701N007719999999N999999999+02761+02231100941ADDMA1100911999999OC100931REMMET105MOBOB2 METAR XM24 //000 030318 282053Z AUTO 07015G18KT 28/22 A2980 RMK A02 SLP094 T02760223 PA112 DA1951=
0140008418999992016012821534+03000+131800FM-15+000099999V0200701N007219999999N999999999+02751+02271101041ADDMA1101021999999OC100881REMMET105MOBOB2 METAR XM24 //000 030318 282153Z AUTO 07014G17KT 28/23 A2983 RMK A02 SLP104 T02750227 PA084 DA1914=
0140008418999992016012822534+03000+131800FM-15+000099999V0200601N007219999999N999999999+02771+02251101111ADDMA1101081999999OC100881REMMET105MOBOB2 METAR XM24 //000 030318 282253Z AUTO 06014G17KT 28/23 A2985 RMK A02 SLP111 T02770225 PA066 DA1910=
0140008418999992016012823534+03000+131800FM-15+000099999V0200601N007219999999N999999999+02771+02241101141ADDMA1101121999999OC100821REMMET105MOBOB2 METAR XM24 //000 030318 282353Z AUTO 06014G16KT 28/22 A2986 RMK A02 SLP114 T02770224 PA057 DA1896=
0140008418999992016012900534+03000+131800FM-15+000099999V0200601N007219999999N999999999+02791+02291101141ADDMA1101121999999OC100881REMMET105MOBOB2 METAR XM24 //000 030318 290053Z AUTO 06014G17KT 28/23 A2986 RMK A02 SLP114 T02790229 PA057 DA1928=
0140008418999992016012901534+03000+131800FM-15+000099999V0200701N006719999999N999999999+02811+02281101111ADDMA1101081999999OC100771REMMET105MOBOB2 METAR XM24 //000 030318 290153Z AUTO 07013G15KT 28/23 A2985 RMK A02 SLP111 T02810228 PA066 DA1960=
0140008418999992016012902534+03000+131800FM-15+000099999V0200701N006219999999N999999999+02831+02331101071ADDMA1101051999999OC100771REMMET105MOBOB2 METAR XM24 //000 030318 290253Z AUTO 07012G15KT 28/23 A2984 RMK A02 SLP107 T02830233 PA075 DA2004=
0140008418999992016012903544+03000+131800FM-15+000099999V0200601N005719999999N999999999+02821+02321101001ADDMA1100981999999OC100671REMMET105MOBOB2 METAR XM24 //000 030318 290354Z AUTO 06011G13KT 28/23 A2982 RMK A02 SLP100 T02820232 PA094 DA2014=
0129008418999992016012904534+03000+131800FM-15+000099999V0200701N005119999999N999999999+02821+02311100941ADDMA1100911999999REMMET102MOBOB2 METAR XM24 //000 030318 290453Z AUTO 07010KT 28/23 A2980 RMK A02 SLP094 T02820231 PA112 DA2035=
0129008418999992016012905534+03000+131800FM-15+000099999V0200601N004119999999N999999999+02821+02261100871ADDMA1100851999999REMMET102MOBOB2 METAR XM24 //000 030318 290553Z AUTO 06008KT 28/23 A2978 RMK A02 SLP087 T02820226 PA131 DA2047=
0129008418999992016012906534+03000+131800FM-15+000099999V0200601N004619999999N999999999+02811+02251100871ADDMA1100851999999REMMET102MOBOB2 METAR XM24 //000 030318 290653Z AUTO 06009KT 28/23 A2978 RMK A02 SLP087 T02810225 PA131 DA2034=
0129008418999992016012907534+03000+131800FM-15+000099999V0200601N004619999999N999999999+02781+02281100901ADDMA1100881999999REMMET102MOBOB2 METAR XM24 //000 030318 290753Z AUTO 06009KT 28/23 A2979 RMK A02 SLP090 T02780228 PA122 DA1996=
0129008418999992016012908534+03000+131800FM-15+000099999V0200601N005119999999N999999999+02771+02281100901ADDMA1100881999999REMMET102MOBOB2 METAR XM24 //000 030318 290853Z AUTO 06010KT 28/23 A2979 RMK A02 SLP090 T02770228 PA122 DA1985=
0129008418999992016012909534+03000+131800FM-15+000099999V0200601N005119999999N999999999+02751+02301101001ADDMA1100981999999REMMET102MOBOB2 METAR XM24 //000 030318 290953Z AUTO 06010KT 28/23 A2982 RMK A02 SLP100 T02750230 PA094 DA1932=
0140008418999992016012910534+03000+131800FM-15+000099999V0200501N005119999999N999999999+02741+02311101071ADDMA1101051999999OC100621REMMET105MOBOB2 METAR XM24 //000 030318 291053Z AUTO 05010G12KT 27/23 A2984 RMK A02 SLP107 T02740231 PA075 DA1900=
0129008418999992016012911534+03000+131800FM-15+000099999V0200501N004619999999N999999999+02751+02311101111ADDMA1101081999999REMMET102MOBOB2 METAR XM24 //000 030318 291153Z AUTO 05009KT 28/23 A2985 RMK A02 SLP111 T02750231 PA066 DA1899=
0129008418999992016012912534+03000+131800FM-15+000099999V0200501N004119999999N999999999+02751+02341101141ADDMA1101121999999REMMET102MOBOB2 METAR XM24 //000 030318 291253Z AUTO 05008KT 28/23 A2986 RMK A02 SLP114 T02750234 PA057 DA1895=
0129008418999992016012913534+03000+131800FM-15+000099999V0200501N004619999999N999999999+02741+02341101111ADDMA1101081999999REMMET102MOBOB2 METAR XM24 //000 030318 291353Z AUTO 05009KT 27/23 A2985 RMK A02 SLP111 T02740234 PA066 DA1896=
0140008418999992016012914534+03000+131800FM-15+000099999V0200501N005119999999N999999999+02731+02371101071ADDMA1101051999999OC100621REMMET105MOBOB2 METAR XM24 //000 030318 291453Z AUTO 05010G12KT 27/24 A2984 RMK A02 SLP107 T02730237 PA075 DA1902=
0129008418999992016012915534+03000+131800FM-15+000099999V0200501N004619999999N999999999+02721+02351101041ADDMA1101021999999REMMET102MOBOB2 METAR XM24 //000 030318 291553Z AUTO 05009KT 27/24 A2983 RMK A02 SLP104 T02720235 PA084 DA1899=
0140008418999992016012916534+03000+131800FM-15+000099999V0200401N005119999999N999999999+02711+02371100971ADDMA1100951999999OC100621REMMET105MOBOB2 METAR XM24 //000 030318 291653Z AUTO 04010G12KT 27/24 A2981 RMK A02 SLP097 T02710237 PA103 DA1913=
0140008418999992016012917534+03000+131800FM-15+000099999V0200401N006219999999N999999999+02701+02331100871ADDMA1100851999999OC100771REMMET105MOBOB2 METAR XM24 //000 030318 291753Z AUTO 04012G15KT 27/23 A2978 RMK A02 SLP087 T02700233 PA131 DA1927=
0129008418999992016012918534+03000+131800FM-15+000099999V0200401N005119999999N999999999+02701+02311100871ADDMA1100851999999REMMET102MOBOB2 METAR XM24 //000 030318 291853Z AUTO 04010KT 27/23 A2978 RMK A02 SLP087 T02700231 PA131 DA1924=
0140008418999992016012919534+03000+131800FM-15+000099999V0200401N005119999999N999999999+02681+02301100901ADDMA1100881999999OC100621REMMET105MOBOB2 METAR XM24 //000 030318 291953Z AUTO 04010G12KT 27/23 A2979 RMK A02 SLP090 T02680230 PA122 DA1888=
0140008418999992016012920534+03000+131800FM-15+000099999V0200501N005119999999N999999999+02681+02321100941ADDMA1100911999999OC100621REMMET105MOBOB2 METAR XM24 //000 030318 292053Z AUTO 05010G12KT 27/23 A2980 RMK A02 SLP094 T02680232 PA112 DA1879=
0140008418999992016012921534+03000+131800FM-15+000099999V0200401N005119999999N999999999+02691+02341101001ADDMA1100981999999OC100621REMMET105MOBOB2 METAR XM24 //000 030318 292153Z AUTO 04010G12KT 27/23 A2982 RMK A02 SLP100 T02690234 PA094 DA1873=
0129008418999992016012922534+03000+131800FM-15+000099999V0200301N004619999999N999999999+02721+02351101111ADDMA1101081999999REMMET102MOBOB2 METAR XM24 //000 030318 292253Z AUTO 03009KT 27/23 A2985 RMK A02 SLP111 T02720235 PA066 DA1874=
0129008418999992016012923534+03000+131800FM-15+000099999V0200401N003619999999N999999999+02771+02371101141ADDMA1101121999999REMMET102MOBOB2 METAR XM24 //000 030318 292353Z AUTO 04007KT 28/24 A2986 RMK A02 SLP114 T02770237 PA057 DA1924=
0129008418999992016013000534+03000+131800FM-15+000099999V0200401N003119999999N999999999+02791+02381101171ADDMA1101151999999REMMET102MOBOB2 METAR XM24 //000 030318 300053Z AUTO 04006KT 28/24 A2987 RMK A02 SLP117 T02790238 PA047 DA1938=
0129008418999992016013001534+03000+131800FM-15+000099999V0200301N003119999999N999999999+02811+02391101111ADDMA1101081999999REMMET102MOBOB2 METAR XM24 //000 030318 300153Z AUTO 03006KT 28/24 A2985 RMK A02 SLP111 T02810239 PA066 DA1984=
0129008418999992016013002534+03000+131800FM-15+000099999V0200301N003619999999N999999999+02821+02381101071ADDMA1101051999999REMMET102MOBOB2 METAR XM24 //000 030318 300253Z AUTO 03007KT 28/24 A2984 RMK A02 SLP107 T02820238 PA075 DA2005=
0129008418999992016013003534+03000+131800FM-15+000099999V0200201N002619999999N999999999+02891+02391100971ADDMA1100951999999REMMET102MOBOB2 METAR XM24 //000 030318 300353Z AUTO 02005KT 29/24 A2981 RMK A02 SLP097 T02890239 PA103 DA2121=
0129008418999992016013004534+03000+131800FM-15+000099999V0200301N003119999999N999999999+02921+02391100941ADDMA1100911999999REMMET102MOBOB2 METAR XM24 //000 030318 300453Z AUTO 03006KT 29/24 A2980 RMK A02 SLP094 T02920239 PA112 DA2165=
0129008418999992016013005534+03000+131800FM-15+000099999V0200101N002119999999N999999999+02841+02421100901ADDMA1100881999999REMMET102MOBOB2 METAR XM24 //000 030318 300553Z AUTO 01004KT 28/24 A2979 RMK A02 SLP090 T02840242 PA122 DA2093=
0129008418999992016013006534+03000+131800FM-15+000099999V0200101N002619999999N999999999+02891+02431100871ADDMA1100851999999REMMET102MOBOB2 METAR XM24 //000 030318 300653Z AUTO 01005KT 29/24 A2978 RMK A02 SLP087 T02890243 PA131 DA2163=
0129008418999992016013007534+03000+131800FM-15+000099999V0203601N002619999999N999999999+02831+02411100901ADDMA1100881999999REMMET102MOBOB2 METAR XM24 //000 030318 300753Z AUTO 36005KT 28/24 A2979 RMK A02 SLP090 T02830241 PA122 DA2079=
0129008418999992016013008544+03000+131800FM-15+000099999V0200201N001519999999N999999999+02791+02441100941ADDMA1100911999999REMMET102MOBOB2 METAR XM24 //000 030318 300854Z AUTO 02003KT 28/24 A2980 RMK A02 SLP094 T02790244 PA112 DA2031=
0129008418999992016013009534+03000+131800FM-15+000099999V0200101N001519999999N999999999+02751+02451100971ADDMA1100951999999REMMET102MOBOB2 METAR XM24 //000 030318 300953Z AUTO 01003KT 28/25 A2981 RMK A02 SLP097 T02750245 PA103 DA1978=
0129008418999992016013010534+03000+131800FM-15+000099999V0200201N001519999999N999999999+02721+02451101001ADDMA1100981999999REMMET102MOBOB2 METAR XM24 //000 030318 301053Z AUTO 02003KT 27/25 A2982 RMK A02 SLP100 T02720245 PA094 DA1932=
0129008418999992016013011534+03000+131800FM-15+000099999V0200201N001519999999N999999999+02731+02441101071ADDMA1101051999999REMMET102MOBOB2 METAR XM24 //000 030318 301153Z AUTO 02003KT 27/24 A2984 RMK A02 SLP107 T02730244 PA075 DA1917=
0129008418999992016013012534+03000+131800FM-15+000099999V0203601N002119999999N999999999+02721+02431101071ADDMA1101051999999REMMET102MOBOB2 METAR XM24 //000 030318 301253Z AUTO 36004KT 27/24 A2984 RMK A02 SLP107 T02720243 PA075 DA1904=
0129008418999992016013013534+03000+131800FM-15+000099999V0200301N004619999999N999999999+02701+02461101041ADDMA1101021999999REMMET102MOBOB2 METAR XM24 //000 030318 301353Z AUTO 03009KT 27/25 A2983 RMK A02 SLP104 T02700246 PA084 DA1900=
0156008418999992016013014534+03000+131800FM-15+000099999V0200401N003619999999N999999999+02671+02441101041ADDAA101000531AW1631MA1101021999999REMMET112MOBOB2 METAR XM24 //000 030318 301453Z AUTO 04007KT +RA 27/24 A2983 RMK A02 SLP104 P0002 T02670244 PA084 DA1861=
0167008418999992016013015534+03000+131800FM-15+000099999V0200501N006719999999N999999999+02551+02351100971ADDAA101009631AW1631MA1100951999999OC100771REMMET115MOBOB2 METAR XM24 //000 030318 301553Z AUTO 05013G15KT +RA 26/23 A2981 RMK A02 SLP097 P0038 T02550235 PA103 DA1728=
0156008418999992016013016534+03000+131800FM-15+000099999V0200901N002119999999N999999999+02571+02381100901ADDAA101000531AW1611MA1100881999999REMMET112MOBOB2 METAR XM24 //000 030318 301653Z AUTO 09004KT -RA 26/24 A2979 RMK A02 SLP090 P0002 T02570238 PA122 DA1781=
0167008418999992016013017534+03000+131800FM-15+000099999V0200401N008819999999N999999999+02581+02361100871ADDAA101000231AW1611MA1100851999999OC101131REMMET115MOBOB2 METAR XM24 //000 030318 301753Z AUTO 04017G22KT -RA 26/24 A2978 RMK A02 SLP087 P0001 T02580236 PA131 DA1799=
0167008418999992016013018534+03000+131800FM-15+000099999V0200601N006719999999N999999999+02571+02351100871ADDAA101001031AW1611MA1100851999999OC100821REMMET115MOBOB2 METAR XM24 //000 030318 301853Z AUTO 06013G16KT -RA 26/24 A2978 RMK A02 SLP087 P0004 T02570235 PA131 DA1787=
0156008418999992016013019534+03000+131800FM-15+000099999V0200601N003619999999N999999999+02591+02381100941ADDAA101000021AW1611MA1100911999999REMMET112MOBOB2 METAR XM24 //000 030318 301953Z AUTO 06007KT -RA 26/24 A2980 RMK A02 SLP094 P0000 T02590238 PA112 DA1792=
0156008418999992016013020534+03000+131800FM-15+000099999V0200501N004119999999N999999999+02621+02381100971ADDAA101000231AW1611MA1100951999999REMMET112MOBOB2 METAR XM24 //000 030318 302053Z AUTO 05008KT -RA 26/24 A2981 RMK A02 SLP097 P0001 T02620238 PA103 DA1815=
0156008418999992016013021534+03000+131800FM-15+000099999V0200501N004119999999N999999999+02661+02421100971ADDAA101000021AW1611MA1100951999999REMMET112MOBOB2 METAR XM24 //000 030318 302153Z AUTO 05008KT -RA 27/24 A2981 RMK A02 SLP097 P0000 T02660242 PA103 DA1868=
0129008418999992016013022534+03000+131800FM-15+000099999V0200301N004119999999N999999999+02691+02401101041ADDMA1101021999999REMMET102MOBOB2 METAR XM24 //000 030318 302253Z AUTO 03008KT 27/24 A2983 RMK A02 SLP104 T02690240 PA084 DA1875=
0129008418999992016013023534+03000+131800FM-15+000099999V0200401N003119999999N999999999+02711+02411101111ADDMA1101081999999REMMET102MOBOB2 METAR XM24 //000 030318 302353Z AUTO 04006KT 27/24 A2985 RMK A02 SLP111 T02710241 PA066 DA1877=
0129008418999992016013100534+03000+131800FM-15+000099999V0200401N004119999999N999999999+02721+02401101071ADDMA1101051999999REMMET102MOBOB2 METAR XM24 //000 030318 310053Z AUTO 04008KT 27/24 A2984 RMK A02 SLP107 T02720240 PA075 DA1897=
0129008418999992016013101534+03000+131800FM-15+000099999V0200601N004119999999N999999999+02741+02411101041ADDMA1101021999999REMMET102MOBOB2 METAR XM24 //000 030318 310153Z AUTO 06008KT 27/24 A2983 RMK A02 SLP104 T02740241 PA084 DA1933=
0129008418999992016013102534+03000+131800FM-15+000099999V0200401N004119999999N999999999+02771+02431100941ADDMA1100911999999REMMET102MOBOB2 METAR XM24 //000 030318 310253Z AUTO 04008KT 28/24 A2980 RMK A02 SLP094 T02770243 PA112 DA2007=
0156008418999992016013103534+03000+131800FM-15+000099999V0200401N004119999999N999999999+02761+02441100871ADDAA101000021AW1611MA1100851999999REMMET112MOBOB2 METAR XM24 //000 030318 310353Z AUTO 04008KT -RA 28/24 A2978 RMK A02 SLP087 P0000 T02760244 PA131 DA2020=
0129008418999992016013104534+03000+131800FM-15+000099999V0200301N004119999999N999999999+02801+02421100771ADDMA1100741999999REMMET102MOBOB2 METAR XM24 //000 030318 310453Z AUTO 03008KT 28/24 A2975 RMK A02 SLP077 T02800242 PA159 DA2095=
0129008418999992016013105534+03000+131800FM-15+000099999V0200301N002619999999N999999999+02811+02471100701ADDMA1100681999999REMMET102MOBOB2 METAR XM24 //000 030318 310553Z AUTO 03005KT 28/25 A2973 RMK A02 SLP070 T02810247 PA177 DA2139=
0129008418999992016013106534+03000+131800FM-15+000099999V0200201N002619999999N999999999+02851+02441100701ADDMA1100681999999REMMET102MOBOB2 METAR XM24 //000 030318 310653Z AUTO 02005KT 29/24 A2973 RMK A02 SLP070 T02850244 PA177 DA2178=
0129008418999992016013107534+03000+131800FM-15+000099999V0200101N001519999999N999999999+02811+02441100731ADDMA1100711999999REMMET102MOBOB2 METAR XM24 //000 030318 310753Z AUTO 01003KT 28/24 A2974 RMK A02 SLP073 T02810244 PA168 DA2122=
0129008418999992016013108544+03000+131800FM-15+000099999V0200501N004119999999N999999999+02741+02401100731ADDMA1100711999999REMMET102MOBOB2 METAR XM24 //000 030318 310854Z AUTO 05008KT 27/24 A2974 RMK A02 SLP073 T02740240 PA168 DA2035=
0129008418999992016013109534+03000+131800FM-15+000099999V0200401N004619999999N999999999+02731+02411100801ADDMA1100781999999REMMET102MOBOB2 METAR XM24 //000 030318 310953Z AUTO 04009KT 27/24 A2976 RMK A02 SLP080 T02730241 PA149 DA2003=
0129008418999992016013110534+03000+131800FM-15+000099999V0200401N004119999999N999999999+02721+02401100871ADDMA1100851999999REMMET102MOBOB2 METAR XM24 //000 030318 311053Z AUTO 04008KT 27/24 A2978 RMK A02 SLP087 T02720240 PA131 DA1967=
0129008418999992016013111534+03000+131800FM-15+000099999V0200601N002619999999N999999999+02711+02431100941ADDMA1100911999999REMMET102MOBOB2 METAR XM24 //000 030318 311153Z AUTO 06005KT 27/24 A2980 RMK A02 SLP094 T02710243 PA112 DA1940=
0129008418999992016013112534+03000+131800FM-15+000099999V0200601N002119999999N999999999+02701+02441100941ADDMA1100911999999REMMET102MOBOB2 METAR XM24 //000 030318 311253Z AUTO 06004KT 27/24 A2980 RMK A02 SLP094 T02700244 PA112 DA1930=
0129008418999992016013113534+03000+131800FM-15+000099999V0200601N001519999999N999999999+02701+02451100901ADDMA1100881999999REMMET102MOBOB2 METAR XM24 //000 030318 311353Z AUTO 06003KT 27/25 A2979 RMK A02 SLP090 T02700245 PA122 DA1944=
0129008418999992016013114534+03000+131800FM-15+000099999V0200701N001519999999N999999999+02681+02451100871ADDMA1100851999999REMMET102MOBOB2 METAR XM24 //000 030318 311453Z AUTO 07003KT 27/24 A2978 RMK A02 SLP087 T02680245 PA131 DA1931=
0129008418999992016013115534+03000+131800FM-15+000099999V0200601N002619999999N999999999+02661+02391100841ADDMA1100811999999REMMET102MOBOB2 METAR XM24 //000 030318 311553Z AUTO 06005KT 27/24 A2977 RMK A02 SLP084 T02660239 PA140 DA1907=
0129008418999992016013116534+03000+131800FM-15+000099999V0200701N002119999999N999999999+02671+02381100801ADDMA1100781999999REMMET102MOBOB2 METAR XM24 //000 030318 311653Z AUTO 07004KT 27/24 A2976 RMK A02 SLP080 T02670238 PA149 DA1929=
0129008418999992016013117534+03000+131800FM-15+000099999V0200601N002119999999N999999999+02651+02381100731ADDMA1100711999999REMMET102MOBOB2 METAR XM24 //000 030318 311753Z AUTO 06004KT 27/24 A2974 RMK A02 SLP073 T02650238 PA168 DA1930=
0129008418999992016013118534+03000+131800FM-15+000099999V0200701N002619999999N999999999+02651+02381100731ADDMA1100711999999REMMET102MOBOB2 METAR XM24 //000 030318 311853Z AUTO 07005KT 27/24 A2974 RMK A02 SLP073 T02650238 PA168 DA1930=
0129008418999992016013119534+03000+131800FM-15+000099999V0200901N002119999999N999999999+02651+02391100801ADDMA1100781999999REMMET102MOBOB2 METAR XM24 //000 030318 311953Z AUTO 09004KT 27/24 A2976 RMK A02 SLP080 T02650239 PA149 DA1908=
0129008418999992016013120534+03000+131800FM-15+000099999V0201001N002619999999N999999999+02641+02391100801ADDMA1100781999999REMMET102MOBOB2 METAR XM24 //000 030318 312053Z AUTO 10005KT 26/24 A2976 RMK A02 SLP080 T02640239 PA149 DA1897=
0129008418999992016013121534+03000+131800FM-15+000099999V0200901N002619999999N999999999+02641+02381100871ADDMA1100851999999REMMET102MOBOB2 METAR XM24 //000 030318 312153Z AUTO 09005KT 26/24 A2978 RMK A02 SLP087 T02640238 PA131 DA1872=
0129008418999992016013122534+03000+131800FM-15+000099999V0201001N003119999999N999999999+02671+02381100941ADDMA1100911999999REMMET102MOBOB2 METAR XM24 //000 030318 312253Z AUTO 10006KT 27/24 A2980 RMK A02 SLP094 T02670238 PA112 DA1883=
0129008418999992016013123534+03000+131800FM-15+000099999V0201001N003119999999N999999999+02731+02381100971ADDMA1100951999999REMMET102MOBOB2 METAR XM24 //000 030318 312353Z AUTO 10006KT 27/24 A2981 RMK A02 SLP097 T02730238 PA103 DA1939=
0129008418999992016020100534+03000+131800FM-15+000099999V0200901N003619999999N999999999+02751+02381100971ADDMA1100951999999REMMET102MOBOB2 METAR XM24 //000 030318 010053Z AUTO 09007KT 28/24 A2981 RMK A02 SLP097 T02750238 PA103 DA1962=
0129008418999992016020101534+03000+131800FM-15+000099999V0200801N003619999999N999999999+02771+02411100941ADDMA1100911999999REMMET102MOBOB2 METAR XM24 //000 030318 010153Z AUTO 08007KT 28/24 A2980 RMK A02 SLP094 T02770241 PA112 DA2000=
0129008418999992016020102534+03000+131800FM-15+000099999V0200901N004119999999N999999999+02781+02391100871ADDMA1100851999999REMMET102MOBOB2 METAR XM24 //000 030318 010253Z AUTO 09008KT 28/24 A2978 RMK A02 SLP087 T02780239 PA131 DA2030=
0129008418999992016020103534+03000+131800FM-15+000099999V0201001N003619999999N999999999+02771+02401100801ADDMA1100781999999REMMET102MOBOB2 METAR XM24 //000 030318 010353Z AUTO 10007KT 28/24 A2976 RMK A02 SLP080 T02770240 PA149 DA2045=
0129008418999992016020104534+03000+131800FM-15+000099999V0200901N002619999999N999999999+02811+02401100701ADDMA1100681999999REMMET102MOBOB2 METAR XM24 //000 030318 010453Z AUTO 09005KT 28/24 A2973 RMK A02 SLP070 T02810240 PA177 DA2124=
0129008418999992016020105534+03000+131800FM-15+000099999V0200801N003619999999N999999999+02781+02391100631ADDMA1100611999999REMMET102MOBOB2 METAR XM24 //000 030318 010553Z AUTO 08007KT 28/24 A2971 RMK A02 SLP063 T02780239 PA196 DA2112=
0167008418999992016020106534+03000+131800FM-15+000099999V0200801N005119999999N999999999+02751+02441100671ADDAA101000021AW1611MA1100641999999OC100671REMMET115MOBOB2 METAR XM24 //000 030318 010653Z AUTO 08010G13KT -RA 28/24 A2972 RMK A02 SLP067 P0000 T02750244 PA187 DA2078=
0129008418999992016020107534+03000+131800FM-15+000099999V0200901N003619999999N999999999+02721+02391100701ADDMA1100681999999REMMET102MOBOB2 METAR XM24 //000 030318 010753Z AUTO 09007KT 27/24 A2973 RMK A02 SLP070 T02720239 PA177 DA2020=
0129008418999992016020108534+03000+131800FM-15+000099999V0200801N003619999999N999999999+02741+02411100771ADDMA1100741999999REMMET102MOBOB2 METAR XM24 //000 030318 010853Z AUTO 08007KT 27/24 A2975 RMK A02 SLP077 T02740241 PA159 DA2025=
0129008418999992016020109534+03000+131800FM-15+000099999V0200801N003119999999N999999999+02721+02441100841ADDMA1100811999999REMMET102MOBOB2 METAR XM24 //000 030318 010953Z AUTO 08006KT 27/24 A2977 RMK A02 SLP084 T02720244 PA140 DA1987=
0129008418999992016020110534+03000+131800FM-15+000099999V0200701N003619999999N999999999+02711+02431100871ADDMA1100851999999REMMET102MOBOB2 METAR XM24 //000 030318 011053Z AUTO 07007KT 27/24 A2978 RMK A02 SLP087 T02710243 PA131 DA1961=
0129008418999992016020111534+03000+131800FM-15+000099999V0200701N003119999999N999999999+02691+02431100871ADDMA1100851999999REMMET102MOBOB2 METAR XM24 //000 030318 011153Z AUTO 07006KT 27/24 A2978 RMK A02 SLP087 T02690243 PA131 DA1938=
0129008418999992016020112534+03000+131800FM-15+000099999V0200701N002619999999N999999999+02701+02441100901ADDMA1100881999999REMMET102MOBOB2 METAR XM24 //000 030318 011253Z AUTO 07005KT 27/24 A2979 RMK A02 SLP090 T02700244 PA122 DA1942=
0129008418999992016020113534+03000+131800FM-15+000099999V0200701N002619999999N999999999+02691+02431100901ADDMA1100881999999REMMET102MOBOB2 METAR XM24 //000 030318 011353Z AUTO 07005KT 27/24 A2979 RMK A02 SLP090 T02690243 PA122 DA1928=
0129008418999992016020114534+03000+131800FM-15+000099999V0200701N002619999999N999999999+02701+02451100901ADDMA1100881999999REMMET102MOBOB2 METAR XM24 //000 030318 011453Z AUTO 07005KT 27/24 A2979 RMK A02 SLP090 T02700245 PA122 DA1943=
0129008418999992016020115534+03000+131800FM-15+000099999V0200601N001519999999N999999999+02681+02451100871ADDMA1100851999999REMMET102MOBOB2 METAR XM24 //000 030318 011553Z AUTO 06003KT 27/24 A2978 RMK A02 SLP087 T02680245 PA131 DA1931=
0129008418999992016020116534+03000+131800FM-15+000099999V0200701N001019999999N999999999+02671+02441100801ADDMA1100781999999REMMET102MOBOB2 METAR XM24 //000 030318 011653Z AUTO 07002KT 27/24 A2976 RMK A02 SLP080 T02670244 PA149 DA1942=
0129008418999992016020117534+03000+131800FM-15+000099999V0200601N001519999999N999999999+02661+02441100771ADDMA1100741999999REMMET102MOBOB2 METAR XM24 //000 030318 011753Z AUTO 06003KT 27/24 A2975 RMK A02 SLP077 T02660244 PA159 DA1942=
0129008418999992016020118534+03000+131800FM-15+000099999V0200701N001519999999N999999999+02651+02431100771ADDMA1100741999999REMMET102MOBOB2 METAR XM24 //000 030318 011853Z AUTO 07003KT 27/24 A2975 RMK A02 SLP077 T02650243 PA159 DA1930=
0129008418999992016020119534+03000+131800FM-15+000099999V0200601N002119999999N999999999+02661+02441100801ADDMA1100781999999REMMET102MOBOB2 METAR XM24 //000 030318 011953Z AUTO 06004KT 27/24 A2976 RMK A02 SLP080 T02660244 PA149 DA1930=
0129008418999992016020120534+03000+131800FM-15+000099999V0200601N002619999999N999999999+02671+02451100871ADDMA1100851999999REMMET102MOBOB2 METAR XM24 //000 030318 012053Z AUTO 06005KT 27/25 A2978 RMK A02 SLP087 T02670245 PA131 DA1922=
0129008418999992016020121534+03000+131800FM-15+000099999V0200701N003119999999N999999999+02691+02451100941ADDMA1100911999999REMMET102MOBOB2 METAR XM24 //000 030318 012153Z AUTO 07006KT 27/24 A2980 RMK A02 SLP094 T02690245 PA112 DA1920=
0129008418999992016020122534+03000+131800FM-15+000099999V0200701N003119999999N999999999+02731+02451101001ADDMA1100981999999REMMET102MOBOB2 METAR XM24 //000 030318 012253Z AUTO 07006KT 27/24 A2982 RMK A02 SLP100 T02730245 PA094 DA1943=
0129008418999992016020123534+03000+131800FM-15+000099999V0200801N003119999999N999999999+02761+02441101071ADDMA1101051999999REMMET102MOBOB2 METAR XM24 //000 030318 012353Z AUTO 08006KT 28/24 A2984 RMK A02 SLP107 T02760244 PA075 DA1952=
0129008418999992016020200534+03000+131800FM-15+000099999V0200701N003619999999N999999999+02781+02431101071ADDMA1101051999999REMMET102MOBOB2 METAR XM24 //000 030318 020053Z AUTO 07007KT 28/24 A2984 RMK A02 SLP107 T02780243 PA075 DA1971=
0129008418999992016020201534+03000+131800FM-15+000099999V0200601N003619999999N999999999+02801+02431101001ADDMA1100981999999REMMET102MOBOB2 METAR XM24 //000 030318 020153Z AUTO 06007KT 28/24 A2982 RMK A02 SLP100 T02800243 PA094 DA2017=
0129008418999992016020202534+03000+131800FM-15+000099999V0200701N004119999999N999999999+02811+02441100941ADDMA1100911999999REMMET102MOBOB2 METAR XM24 //000 030318 020253Z AUTO 07008KT 28/24 A2980 RMK A02 SLP094 T02810244 PA112 DA2054=
0129008418999992016020203534+03000+131800FM-15+000099999V0200701N003119999999N999999999+02831+02431100871ADDMA1100851999999REMMET102MOBOB2 METAR XM24 //000 030318 020353Z AUTO 07006KT 28/24 A2978 RMK A02 SLP087 T02830243 PA131 DA2097=
0129008418999992016020204534+03000+131800FM-15+000099999V0200801N003619999999N999999999+02841+02441100771ADDMA1100741999999REMMET102MOBOB2 METAR XM24 //000 030318 020453Z AUTO 08007KT 28/24 A2975 RMK A02 SLP077 T02840244 PA159 DA2144=
0129008418999992016020205534+03000+131800FM-15+000099999V0200801N003119999999N999999999+02841+02441100771ADDMA1100741999999REMMET102MOBOB2 METAR XM24 //000 030318 020553Z AUTO 08006KT 28/24 A2975 RMK A02 SLP077 T02840244 PA159 DA2143=
0129008418999992016020206534+03000+131800FM-15+000099999V0200601N003119999999N999999999+02861+02441100731ADDMA1100711999999REMMET102MOBOB2 METAR XM24 //000 030318 020653Z AUTO 06006KT 29/24 A2974 RMK A02 SLP073 T02860244 PA168 DA2178=
0129008418999992016020207534+03000+131800FM-15+000099999V0200601N003119999999N999999999+02821+02451100801ADDMA1100781999999REMMET102MOBOB2 METAR XM24 //000 030318 020753Z AUTO 06006KT 28/25 A2976 RMK A02 SLP080 T02820245 PA149 DA2113=
0129008418999992016020208534+03000+131800FM-15+000099999V0200501N003619999999N999999999+02791+02441100841ADDMA1100811999999REMMET102MOBOB2 METAR XM24 //000 030318 020853Z AUTO 05007KT 28/24 A2977 RMK A02 SLP084 T02790244 PA140 DA2065=
0129008418999992016020209534+03000+131800FM-15+000099999V0200501N003619999999N999999999+02771+02461100901ADDMA1100881999999REMMET102MOBOB2 METAR XM24 //000 030318 020953Z AUTO 05007KT 28/25 A2979 RMK A02 SLP090 T02770246 PA122 DA2024=
0129008418999992016020210534+03000+131800FM-15+000099999V0200501N004619999999N999999999+02751+02461100941ADDMA1100911999999REMMET102MOBOB2 METAR XM24 //000 030318 021053Z AUTO 05009KT 28/25 A2980 RMK A02 SLP094 T02750246 PA112 DA1990=
0129008418999992016020211534+03000+131800FM-15+000099999V0200301N004119999999N999999999+02751+02471101001ADDMA1100981999999REMMET102MOBOB2 METAR XM24 //000 030318 021153Z AUTO 03008KT 28/25 A2982 RMK A02 SLP100 T02750247 PA094 DA1970=
0140008418999992016020212534+03000+131800FM-15+000099999V0200401N005719999999N999999999+02741+02461101041ADDMA1101021999999OC100721REMMET105MOBOB2 METAR XM24 //000 030318 021253Z AUTO 04011G14KT 27/25 A2983 RMK A02 SLP104 T02740246 PA084 DA1944=
0140008418999992016020213544+03000+131800FM-15+000099999V0200401N005119999999N999999999+02731+02471101041ADDMA1101021999999OC100621REMMET105MOBOB2 METAR XM24 //000 030318 021354Z AUTO 04010G12KT 27/25 A2983 RMK A02 SLP104 T02730247 PA084 DA1937=
0140008418999992016020214534+03000+131800FM-15+000099999V0200501N005119999999N999999999+02741+02461101041ADDMA1101021999999OC100621REMMET105MOBOB2 METAR XM24 //000 030318 021453Z AUTO 05010G12KT 27/25 A2983 RMK A02 SLP104 T02740246 PA084 DA1946=
0129008418999992016020215534+03000+131800FM-15+000099999V0200501N005119999999N999999999+02751+02481100971ADDMA1100951999999REMMET102MOBOB2 METAR XM24 //000 030318 021553Z AUTO 05010KT 28/25 A2981 RMK A02 SLP097 T02750248 PA103 DA1983=
0129008418999992016020216534+03000+131800FM-15+000099999V0200401N004619999999N999999999+02741+02481100941ADDMA1100911999999REMMET102MOBOB2 METAR XM24 //000 030318 021653Z AUTO 04009KT 27/25 A2980 RMK A02 SLP094 T02740248 PA112 DA1984=
0129008418999992016020217534+03000+131800FM-15+000099999V0200501N004619999999N999999999+02711+02441100871ADDMA1100851999999REMMET102MOBOB2 METAR XM24 //000 030318 021753Z AUTO 05009KT 27/24 A2978 RMK A02 SLP087 T02710244 PA131 DA1963=
0129008418999992016020218534+03000+131800FM-15+000099999V0200401N003619999999N999999999+02731+02471100871ADDMA1100851999999REMMET102MOBOB2 METAR XM24 //000 030318 021853Z AUTO 04007KT 27/25 A2978 RMK A02 SLP087 T02730247 PA131 DA1994=
0129008418999992016020219534+03000+131800FM-15+000099999V0200501N003619999999N999999999+02721+02451100901ADDMA1100881999999REMMET102MOBOB2 METAR XM24 //000 030318 021953Z AUTO 05007KT 27/24 A2979 RMK A02 SLP090 T02720245 PA122 DA1965=
0129008418999992016020220534+03000+131800FM-15+000099999V0200401N004119999999N999999999+02701+02441100941ADDMA1100911999999REMMET102MOBOB2 METAR XM24 //000 030318 022053Z AUTO 04008KT 27/24 A2980 RMK A02 SLP094 T02700244 PA112 DA1930=
0129008418999992016020221534+03000+131800FM-15+000099999V0200401N004119999999N999999999+02731+02461101001ADDMA1100981999999REMMET102MOBOB2 METAR XM24 //000 030318 022153Z AUTO 04008KT 27/25 A2982 RMK A02 SLP100 T02730246 PA094 DA1945=
0129008418999992016020222534+03000+131800FM-15+000099999V0200601N004119999999N999999999+02761+02441101111ADDMA1101081999999REMMET102MOBOB2 METAR XM24 //000 030318 022253Z AUTO 06008KT 28/24 A2985 RMK A02 SLP111 T02760244 PA066 DA1940=
0129008418999992016020223534+03000+131800FM-15+000099999V0200601N004119999999N999999999+02791+02451101141ADDMA1101121999999REMMET102MOBOB2 METAR XM24 //000 030318 022353Z AUTO 06008KT 28/24 A2986 RMK A02 SLP114 T02790245 PA057 DA1964=
0156008418999992016020300534+03000+131800FM-15+000099999V0200601N004619999999N999999999+02811+02441101141ADDAA101000021AW1611MA1101121999999REMMET112MOBOB2 METAR XM24 //000 030318 030053Z AUTO 06009KT -RA 28/24 A2986 RMK A02 SLP114 P0000 T02810244 PA057 DA1984=
0129008418999992016020301534+03000+131800FM-15+000099999V0200501N004619999999N999999999+02821+02431101071ADDMA1101051999999REMMET102MOBOB2 METAR XM24 //000 030318 030153Z AUTO 05009KT 28/24 A2984 RMK A02 SLP107 T02820243 PA075 DA2016=
0140008418999992016020302544+03000+131800FM-15+000099999V0200501N005119999999N999999999+02821+02451101001ADDMA1100981999999OC100621REMMET105MOBOB2 METAR XM24 //000 030318 030254Z AUTO 05010G12KT 28/24 A2982 RMK A02 SLP100 T02820245 PA094 DA2043=
0129008418999992016020303534+03000+131800FM-15+000099999V0200501N005119999999N999999999+02841+02451100941ADDMA1100911999999REMMET102MOBOB2 METAR XM24 //000 030318 030353Z AUTO 05010KT 28/24 A2980 RMK A02 SLP094 T02840245 PA112 DA2088=
0129008418999992016020304534+03000+131800FM-15+000099999V0200601N004619999999N999999999+02851+02421100871ADDMA1100851999999REMMET102MOBOB2 METAR XM24 //000 030318 030453Z AUTO 06009KT 29/24 A2978 RMK A02 SLP087 T02850242 PA131 DA2117=
0129008418999992016020305534+03000+131800FM-15+000099999V0200501N005119999999N999999999+02831+02401100801ADDMA1100781999999REMMET102MOBOB2 METAR XM24 //000 030318 030553Z AUTO 05010KT 28/24 A2976 RMK A02 SLP080 T02830240 PA149 DA2113=
0140008418999992016020306534+03000+131800FM-15+000099999V0200501N005119999999N999999999+02841+02431100801ADDMA1100781999999OC100671REMMET105MOBOB2 METAR XM24 //000 030318 030653Z AUTO 05010G13KT 28/24 A2976 RMK A02 SLP080 T02840243 PA149 DA2129=
0140008418999992016020307534+03000+131800FM-15+000099999V0200601N005119999999N999999999+02821+02431100871ADDMA1100851999999OC100671REMMET105MOBOB2 METAR XM24 //000 030318 030753Z AUTO 06010G13KT 28/24 A2978 RMK A02 SLP087 T02820243 PA131 DA2086=
0140008418999992016020308534+03000+131800FM-15+000099999V0200601N005119999999N999999999+02811+02431100901ADDMA1100881999999OC100671REMMET105MOBOB2 METAR XM24 //000 030318 030853Z AUTO 06010G13KT 28/24 A2979 RMK A02 SLP090 T02810243 PA122 DA2063=
0140008418999992016020309534+03000+131800FM-15+000099999V0200601N005119999999N999999999+02791+02451100971ADDMA1100951999999OC100671REMMET105MOBOB2 METAR XM24 //000 030318 030953Z AUTO 06010G13KT 28/25 A2981 RMK A02 SLP097 T02790245 PA103 DA2022=
0129008418999992016020310534+03000+131800FM-15+000099999V0200601N004619999999N999999999+02781+02461101001ADDMA1100981999999REMMET102MOBOB2 METAR XM24 //000 030318 031053Z AUTO 06009KT 28/25 A2982 RMK A02 SLP100 T02780246 PA094 DA2002=
0140008418999992016020311534+03000+131800FM-15+000099999V0200601N005119999999N999999999+02761+02441101041ADDMA1101021999999OC100621REMMET105MOBOB2 METAR XM24 //000 030318 031153Z AUTO 06010G12KT 28/24 A2983 RMK A02 SLP104 T02760244 PA084 DA1963=
0129008418999992016020312534+03000+131800FM-15+000099999V0200601N004119999999N999999999+02771+02471101041ADDMA1101021999999REMMET102MOBOB2 METAR XM24 //000 030318 031253Z AUTO 06008KT 28/25 A2983 RMK A02 SLP104 T02770247 PA084 DA1981=
0140008418999992016020313534+03000+131800FM-15+000099999V0200501N005719999999N999999999+02751+02451101001ADDMA1100981999999OC100621REMMET105MOBOB2 METAR XM24 //000 030318 031353Z AUTO 05011G12KT 28/25 A2982 RMK A02 SLP100 T02750245 PA094 DA1966=
0140008418999992016020314534+03000+131800FM-15+000099999V0200501N005719999999N999999999+02751+02451100971ADDMA1100951999999OC100721REMMET105MOBOB2 METAR XM24 //000 030318 031453Z AUTO 05011G14KT 28/24 A2981 RMK A02 SLP097 T02750245 PA103 DA1976=
0129008418999992016020315534+03000+131800FM-15+000099999V0200401N004619999999N999999999+02741+02441100941ADDMA1100911999999REMMET102MOBOB2 METAR XM24 //000 030318 031553Z AUTO 04009KT 27/24 A2980 RMK A02 SLP094 T02740244 PA112 DA1975=
0140008418999992016020316534+03000+131800FM-15+000099999V0200401N005119999999N999999999+02741+02431100871ADDMA1100851999999OC100671REMMET105MOBOB2 METAR XM24 //000 030318 031653Z AUTO 04010G13KT 27/24 A2978 RMK A02 SLP087 T02740243 PA131 DA1996=
0140008418999992016020317534+03000+131800FM-15+000099999V0200401N005119999999N999999999+02751+02431100841ADDMA1100811999999OC100671REMMET105MOBOB2 METAR XM24 //000 030318 031753Z AUTO 04010G13KT 28/24 A2977 RMK A02 SLP084 T02750243 PA140 DA2018=
0140008418999992016020318534+03000+131800FM-15+000099999V0200301N005119999999N999999999+02731+02431100871ADDMA1100851999999OC100621REMMET105MOBOB2 METAR XM24 //000 030318 031853Z AUTO 03010G12KT 27/24 A2978 RMK A02 SLP087 T02730243 PA131 DA1984=
0140008418999992016020319534+03000+131800FM-15+000099999V0200301N005119999999N999999999+02741+02401100941ADDMA1100911999999OC100621REMMET105MOBOB2 METAR XM24 //000 030318 031953Z AUTO 03010G12KT 27/24 A2980 RMK A02 SLP094 T02740240 PA112 DA1967=
0167008418999992016020320534+03000+131800FM-15+000099999V0200401N005119999999N999999999+02751+02421100971ADDAA101000021AW1611MA1100951999999OC100621REMMET115MOBOB2 METAR XM24 //000 030318 032053Z AUTO 04010G12KT -RA 28/24 A2981 RMK A02 SLP097 P0000 T02750242 PA103 DA1969=
0129008418999992016020321534+03000+131800FM-15+000099999V0200401N005119999999N999999999+02741+02391101041ADDMA1101021999999REMMET102MOBOB2 METAR XM24 //000 030318 032153Z AUTO 04010KT 27/24 A2983 RMK A02 SLP104 T02740239 PA084 DA1929=
0129008418999992016020322534+03000+131800FM-15+000099999V0200301N004119999999N999999999+02751+02421101141ADDMA1101121999999REMMET102MOBOB2 METAR XM24 //000 030318 032253Z AUTO 03008KT 28/24 A2986 RMK A02 SLP114 T02750242 PA057 DA1913=
0129008418999992016020323534+03000+131800FM-15+000099999V0200401N004119999999N999999999+02801+02431101141ADDMA1101121999999REMMET102MOBOB2 METAR XM24 //000 030318 032353Z AUTO 04008KT 28/24 A2986 RMK A02 SLP114 T02800243 PA057 DA1972=
0129008418999992016020400534+03000+131800FM-15+000099999V0200301N003619999999N999999999+02841+02421101071ADDMA1101051999999REMMET102MOBOB2 METAR XM24 //000 030318 040053Z AUTO 03007KT 28/24 A2984 RMK A02 SLP107 T02840242 PA075 DA2037=
0167008418999992016020401534+03000+131800FM-15+000099999V0200501N006219999999N999999999+02761+02381101001ADDAA101000531AW1611MA1100981999999OC100881REMMET115MOBOB2 METAR XM24 //000 030318 040153Z AUTO 05012G17KT -RA 28/24 A2982 RMK A02 SLP100 P0002 T02760238 PA094 DA1960=
0140008418999992016020402544+03000+131800FM-15+000099999V0200401N005119999999N999999999+02801+02441100941ADDMA1100911999999OC100671REMMET105MOBOB2 METAR XM24 //000 030318 040254Z AUTO 04010G13KT 28/24 A2980 RMK A02 SLP094 T02800244 PA112 DA2041=
0140008418999992016020403534+03000+131800FM-15+000099999V0200501N005719999999N999999999+02851+02441100871ADDMA1100851999999OC100671REMMET105MOBOB2 METAR XM24 //000 030318 040353Z AUTO 05011G13KT 29/24 A2978 RMK A02 SLP087 T02850244 PA131 DA2120=
0129008418999992016020404534+03000+131800FM-15+000099999V0200501N005119999999N999999999+02851+02401100801ADDMA1100781999999REMMET102MOBOB2 METAR XM24 //000 030318 040453Z AUTO 05010KT 29/24 A2976 RMK A02 SLP080 T02850240 PA149 DA2134=
0129008418999992016020405534+03000+131800FM-15+000099999V0200501N005119999999N999999999+02841+02441100731ADDMA1100711999999REMMET102MOBOB2 METAR XM24 //000 030318 040553Z AUTO 05010KT 28/24 A2974 RMK A02 SLP073 T02840244 PA168 DA2156=
0140008418999992016020406534+03000+131800FM-15+000099999V0200401N005719999999N999999999+02831+02421100701ADDMA1100681999999OC100721REMMET105MOBOB2 METAR XM24 //000 030318 040653Z AUTO 04011G14KT 28/24 A2973 RMK A02 SLP070 T02830242 PA177 DA2151=
0129008418999992016020407534+03000+131800FM-15+000099999V0200501N005119999999N999999999+02831+02421100731ADDMA1100711999999REMMET102MOBOB2 METAR XM24 //000 030318 040753Z AUTO 05010KT 28/24 A2974 RMK A02 SLP073 T02830242 PA168 DA2139=
0140008418999992016020408534+03000+131800FM-15+000099999V0200401N005119999999N999999999+02821+02441100801ADDMA1100781999999OC100671REMMET105MOBOB2 METAR XM24 //000 030318 040853Z AUTO 04010G13KT 28/24 A2976 RMK A02 SLP080 T02820244 PA149 DA2110=
0140008418999992016020409534+03000+131800FM-15+000099999V0200401N005119999999N999999999+02801+02411100841ADDMA1100811999999OC100621REMMET105MOBOB2 METAR XM24 //000 030318 040953Z AUTO 04010G12KT 28/24 A2977 RMK A02 SLP084 T02800241 PA140 DA2069=
0129008418999992016020410534+03000+131800FM-15+000099999V0200401N004619999999N999999999+02781+02421100871ADDMA1100851999999REMMET102MOBOB2 METAR XM24 //000 030318 041053Z AUTO 04009KT 28/24 A2978 RMK A02 SLP087 T02780242 PA131 DA2038=
0129008418999992016020411534+03000+131800FM-15+000099999V0200401N005119999999N999999999+02781+02441100941ADDMA1100911999999REMMET102MOBOB2 METAR XM24 //000 030318 041153Z AUTO 04010KT 28/24 A2980 RMK A02 SLP094 T02780244 PA112 DA2019=
0140008418999992016020412534+03000+131800FM-15+000099999V0200401N006219999999N999999999+02761+02351101041ADDMA1101021999999OC100721REMMET105MOBOB2 METAR XM24 //000 030318 041253Z AUTO 04012G14KT 28/23 A2983 RMK A02 SLP104 T02760235 PA084 DA1942=
0129008418999992016020413534+03000+131800FM-15+000099999V0200501N004119999999N999999999+02751+02401101001ADDMA1100981999999REMMET102MOBOB2 METAR XM24 //000 030318 041353Z AUTO 05008KT 28/24 A2982 RMK A02 SLP100 T02750240 PA094 DA1953=
0156008418999992016020414534+03000+131800FM-15+000099999V0200601N005119999999N999999999+02711+02401101001ADDAA101000021AW1611MA1100981999999REMMET112MOBOB2 METAR XM24 //000 030318 041453Z AUTO 06010KT -RA 27/24 A2982 RMK A02 SLP100 P0000 T02710240 PA094 DA1910=
0140008418999992016020415534+03000+131800FM-15+000099999V0200601N006219999999N999999999+02781+02391100941ADDMA1100911999999OC100771REMMET105MOBOB2 METAR XM24 //000 030318 041553Z AUTO 06012G15KT 28/24 A2980 RMK A02 SLP094 T02780239 PA112 DA2009=
0140008418999992016020416534+03000+131800FM-15+000099999V0200501N006219999999N999999999+02751+02371100871ADDMA1100851999999OC100771REMMET105MOBOB2 METAR XM24 //000 030318 041653Z AUTO 05012G15KT 28/24 A2978 RMK A02 SLP087 T02750237 PA131 DA1994=
0140008418999992016020417534+03000+131800FM-15+000099999V0200501N006719999999N999999999+02741+02371100801ADDMA1100781999999OC100821REMMET105MOBOB2 METAR XM24 //000 030318 041753Z AUTO 05013G16KT 27/24 A2976 RMK A02 SLP080 T02740237 PA149 DA2005=
0140008418999992016020418534+03000+131800FM-15+000099999V0200501N006719999999N999999999+02741+02361100841ADDMA1100811999999OC100881REMMET105MOBOB2 METAR XM24 //000 030318 041853Z AUTO 05013G17KT 27/24 A2977 RMK A02 SLP084 T02740236 PA140 DA1990=
0140008418999992016020419534+03000+131800FM-15+000099999V0200501N007219999999N999999999+02751+02371100871ADDMA1100851999999OC100931REMMET105MOBOB2 METAR XM24 //000 030318 041953Z AUTO 05014G18KT 28/24 A2978 RMK A02 SLP087 T02750237 PA131 DA1993=
0140008418999992016020420534+03000+131800FM-15+000099999V0200501N007719999999N999999999+02751+02351100871ADDMA1100851999999OC100981REMMET105MOBOB2 METAR XM24 //000 030318 042053Z AUTO 05015G19KT 28/24 A2978 RMK A02 SLP087 T02750235 PA131 DA1989=
0140008418999992016020421534+03000+131800FM-15+000099999V0200501N007219999999N999999999+02741+02291100941ADDMA1100911999999OC100931REMMET105MOBOB2 METAR XM24 //000 030318 042153Z AUTO 05014G18KT 27/23 A2980 RMK A02 SLP094 T02740229 PA112 DA1941=
0140008418999992016020422534+03000+131800FM-15+000099999V0200601N007219999999N999999999+02761+02281101001ADDMA1100981999999OC100931REMMET105MOBOB2 METAR XM24 //000 030318 042253Z AUTO 06014G18KT 28/23 A2982 RMK A02 SLP100 T02760228 PA094 DA1938=
0140008418999992016020423534+03000+131800FM-15+000099999V0200601N007719999999N999999999+02791+02311101041ADDMA1101021999999OC100881REMMET105MOBOB2 METAR XM24 //000 030318 042353Z AUTO 06015G17KT 28/23 A2983 RMK A02 SLP104 T02790231 PA084 DA1967=
0140008418999992016020500534+03000+131800FM-15+000099999V0200601N007219999999N999999999+02801+02291101041ADDMA1101021999999OC100881REMMET105MOBOB2 METAR XM24 //000 030318 050053Z AUTO 06014G17KT 28/23 A2983 RMK A02 SLP104 T02800229 PA084 DA1973=
0140008418999992016020501534+03000+131800FM-15+000099999V0200701N006219999999N999999999+02811+02201100971ADDMA1100951999999OC100721REMMET105MOBOB2 METAR XM24 //000 030318 050153Z AUTO 07012G14KT 28/22 A2981 RMK A02 SLP097 T02810220 PA103 DA1988=
0140008418999992016020502534+03000+131800FM-15+000099999V0200601N005719999999N999999999+02831+02191100901ADDMA1100881999999OC100671REMMET105MOBOB2 METAR XM24 //000 030318 050253Z AUTO 06011G13KT 28/22 A2979 RMK A02 SLP090 T02830219 PA122 DA2032=
0129008418999992016020503534+03000+131800FM-15+000099999V0200701N004619999999N999999999+02831+02171100841ADDMA1100811999999REMMET102MOBOB2 METAR XM24 //000 030318 050353Z AUTO 07009KT 28/22 A2977 RMK A02 SLP084 T02830217 PA140 DA2051=
0129008418999992016020504534+03000+131800FM-15+000099999V0200701N004619999999N999999999+02851+02241100771ADDMA1100741999999REMMET102MOBOB2 METAR XM24 //000 030318 050453Z AUTO 07009KT 29/22 A2975 RMK A02 SLP077 T02850224 PA159 DA2112=
0129008418999992016020505534+03000+131800FM-15+000099999V0200801N004119999999N999999999+02851+02231100701ADDMA1100681999999REMMET102MOBOB2 METAR XM24 //000 030318 050553Z AUTO 08008KT 29/22 A2973 RMK A02 SLP070 T02850223 PA177 DA2132=
0129008418999992016020506534+03000+131800FM-15+000099999V0200701N004619999999N999999999+02831+02261100631ADDMA1100611999999REMMET102MOBOB2 METAR XM24 //000 030318 050653Z AUTO 07009KT 28/23 A2971 RMK A02 SLP063 T02830226 PA196 DA2139=
0129008418999992016020507534+03000+131800FM-15+000099999V0200601N004119999999N999999999+02811+02311100671ADDMA1100641999999REMMET102MOBOB2 METAR XM24 //000 030318 050753Z AUTO 06008KT 28/23 A2972 RMK A02 SLP067 T02810231 PA187 DA2116=
0129008418999992016020508534+03000+131800FM-15+000099999V0200601N004619999999N999999999+02781+02331100671ADDMA1100641999999REMMET102MOBOB2 METAR XM24 //000 030318 050853Z AUTO 06009KT 28/23 A2972 RMK A02 SLP067 T02780233 PA187 DA2086=
0129008418999992016020509534+03000+131800FM-15+000099999V0200701N004119999999N999999999+02761+02331100731ADDMA1100711999999REMMET102MOBOB2 METAR XM24 //000 030318 050953Z AUTO 07008KT 28/23 A2974 RMK A02 SLP073 T02760233 PA168 DA2042=
0129008418999992016020510534+03000+131800FM-15+000099999V0200801N004119999999N999999999+02761+02341100801ADDMA1100781999999REMMET102MOBOB2 METAR XM24 //000 030318 051053Z AUTO 08008KT 28/23 A2976 RMK A02 SLP080 T02760234 PA149 DA2020=
0129008418999992016020511534+03000+131800FM-15+000099999V0200801N004119999999N999999999+02751+02321100841ADDMA1100811999999REMMET102MOBOB2 METAR XM24 //000 030318 051153Z AUTO 08008KT 28/23 A2977 RMK A02 SLP084 T02750232 PA140 DA1993=
0129008418999992016020512534+03000+131800FM-15+000099999V0200901N003619999999N999999999+02751+02331100871ADDMA1100851999999REMMET102MOBOB2 METAR XM24 //000 030318 051253Z AUTO 09007KT 28/23 A2978 RMK A02 SLP087 T02750233 PA131 DA1984=
0129008418999992016020513534+03000+131800FM-15+000099999V0201001N003619999999N999999999+02751+02341100871ADDMA1100851999999REMMET102MOBOB2 METAR XM24 //000 030318 051353Z AUTO 10007KT 28/23 A2978 RMK A02 SLP087 T02750234 PA131 DA1986=
0129008418999992016020514534+03000+131800FM-15+000099999V0200901N003619999999N999999999+02741+02331100841ADDMA1100811999999REMMET102MOBOB2 METAR XM24 //000 030318 051453Z AUTO 09007KT 27/23 A2977 RMK A02 SLP084 T02740233 PA140 DA1984=
0129008418999992016020515534+03000+131800FM-15+000099999V0201001N004119999999N999999999+02731+02341100771ADDMA1100741999999REMMET102MOBOB2 METAR XM24 //000 030318 051553Z AUTO 10008KT 27/23 A2975 RMK A02 SLP077 T02730234 PA159 DA1997=
0129008418999992016020516534+03000+131800FM-15+000099999V0201101N004619999999N999999999+02731+02341100701ADDMA1100681999999REMMET102MOBOB2 METAR XM24 //000 030318 051653Z AUTO 11009KT 27/23 A2973 RMK A02 SLP070 T02730234 PA177 DA2021=
0140008418999992016020517534+03000+131800FM-15+000099999V0201001N005119999999N999999999+02721+02321100671ADDMA1100641999999OC100621REMMET105MOBOB2 METAR XM24 //000 030318 051753Z AUTO 10010G12KT 27/23 A2972 RMK A02 SLP067 T02720232 PA187 DA2016=
0140008418999992016020518534+03000+131800FM-15+000099999V0201101N004619999999N999999999+02731+02341100701ADDMA1100681999999OC100671REMMET105MOBOB2 METAR XM24 //000 030318 051853Z AUTO 11009G13KT 27/23 A2973 RMK A02 SLP070 T02730234 PA177 DA2021=
0140008418999992016020519534+03000+131800FM-15+000099999V0201001N005719999999N999999999+02731+02341100731ADDMA1100711999999OC100671REMMET105MOBOB2 METAR XM24 //000 030318 051953Z AUTO 10011G13KT 27/23 A2974 RMK A02 SLP073 T02730234 PA168 DA2008=
0129008418999992016020520534+03000+131800FM-15+000099999V0201001N005119999999N999999999+02731+02321100771ADDMA1100741999999REMMET102MOBOB2 METAR XM24 //000 030318 052053Z AUTO 10010KT 27/23 A2975 RMK A02 SLP077 T02730232 PA159 DA1995=
0140008418999992016020521534+03000+131800FM-15+000099999V0201001N005719999999N999999999+02731+02311100841ADDMA1100811999999OC100671REMMET105MOBOB2 METAR XM24 //000 030318 052153Z AUTO 10011G13KT 27/23 A2977 RMK A02 SLP084 T02730231 PA140 DA1969=
0140008418999992016020522534+03000+131800FM-15+000099999V0200901N005119999999N999999999+02761+02321100901ADDMA1100881999999OC100671REMMET105MOBOB2 METAR XM24 //000 030318 052253Z AUTO 09010G13KT 28/23 A2979 RMK A02 SLP090 T02760232 PA122 DA1982=
0129008418999992016020523534+03000+131800FM-15+000099999V0200901N004619999999N999999999+02791+02331100941ADDMA1100911999999REMMET102MOBOB2 METAR XM24 //000 030318 052353Z AUTO 09009KT 28/23 A2980 RMK A02 SLP094 T02790233 PA112 DA2005=
0129008418999992016020600534+03000+131800FM-15+000099999V0201001N004619999999N999999999+02801+02321100971ADDMA1100951999999REMMET102MOBOB2 METAR XM24 //000 030318 060053Z AUTO 10009KT 28/23 A2981 RMK A02 SLP097 T02800232 PA103 DA2004=
0129008418999992016020601534+03000+131800FM-15+000099999V0201001N003619999999N999999999+02811+02321100941ADDMA1100911999999REMMET102MOBOB2 METAR XM24 //000 030318 060153Z AUTO 10007KT 28/23 A2980 RMK A02 SLP094 T02810232 PA112 DA2026=
0129008418999992016020602544+03000+131800FM-15+000099999V0201101N004119999999N999999999+02841+02311100871ADDMA1100851999999REMMET102MOBOB2 METAR XM24 //000 030318 060254Z AUTO 11008KT 28/23 A2978 RMK A02 SLP087 T02840231 PA131 DA2081=
0129008418999992016020603534+03000+131800FM-15+000099999V0201001N004119999999N999999999+02851+02351100841ADDMA1100811999999REMMET102MOBOB2 METAR XM24 //000 030318 060353Z AUTO 10008KT 29/23 A2977 RMK A02 SLP084 T02850235 PA140 DA2111=
0129008418999992016020604534+03000+131800FM-15+000099999V0201001N003119999999N999999999+02831+02281100801ADDMA1100781999999REMMET102MOBOB2 METAR XM24 //000 030318 060453Z AUTO 10006KT 28/23 A2976 RMK A02 SLP080 T02830228 PA149 DA2085=
0129008418999992016020605534+03000+131800FM-15+000099999V0201001N003119999999N999999999+02861+02291100771ADDMA1100741999999REMMET102MOBOB2 METAR XM24 //000 030318 060553Z AUTO 10006KT 29/23 A2975 RMK A02 SLP077 T02860229 PA159 DA2133=
0129008418999992016020606534+03000+131800FM-15+000099999V0201001N002619999999N999999999+02831+02311100771ADDMA1100741999999REMMET102MOBOB2 METAR XM24 //000 030318 060653Z AUTO 10005KT 28/23 A2975 RMK A02 SLP077 T02830231 PA159 DA2104=
0129008418999992016020607534+03000+131800FM-15+000099999V0200901N002119999999N999999999+02811+02341100801ADDMA1100781999999REMMET102MOBOB2 METAR XM24 //000 030318 060753Z AUTO 09004KT 28/23 A2976 RMK A02 SLP080 T02810234 PA149 DA2076=
0129008418999992016020608534+03000+131800FM-15+000099999V0200801N002119999999N999999999+02791+02341100841ADDMA1100811999999REMMET102MOBOB2 METAR XM24 //000 030318 060853Z AUTO 08004KT 28/23 A2977 RMK A02 SLP084 T02790234 PA140 DA2041=
0129008418999992016020609534+03000+131800FM-15+000099999V0200701N002619999999N999999999+02761+02361100871ADDMA1100851999999REMMET102MOBOB2 METAR XM24 //000 030318 060953Z AUTO 07005KT 28/24 A2978 RMK A02 SLP087 T02760236 PA131 DA2001=
0129008418999992016020610534+03000+131800FM-15+000099999V0200701N003119999999N999999999+02761+02351100941ADDMA1100911999999REMMET102MOBOB2 METAR XM24 //000 030318 061053Z AUTO 07006KT 28/23 A2980 RMK A02 SLP094 T02760235 PA112 DA1976=
0129008418999992016020611534+03000+131800FM-15+000099999V0200501N004119999999N999999999+02751+02331101001ADDMA1100981999999REMMET102MOBOB2 METAR XM24 //000 030318 061153Z AUTO 05008KT 28/23 A2982 RMK A02 SLP100 T02750233 PA094 DA1939=
0129008418999992016020612534+03000+131800FM-15+000099999V0200601N004619999999N999999999+02751+02351101071ADDMA1101051999999REMMET102MOBOB2 METAR XM24 //000 030318 061253Z AUTO 06009KT 28/24 A2984 RMK A02 SLP107 T02750235 PA075 DA1921=
0129008418999992016020613534+03000+131800FM-15+000099999V0200501N004119999999N999999999+02731+02321101071ADDMA1101051999999REMMET102MOBOB2 METAR XM24 //000 030318 061353Z AUTO 05008KT 27/23 A2984 RMK A02 SLP107 T02730232 PA075 DA1890=
0129008418999992016020614534+03000+131800FM-15+000099999V0200501N004119999999N999999999+02721+02301101041ADDMA1101021999999REMMET102MOBOB2 METAR XM24 //000 030318 061453Z AUTO 05008KT 27/23 A2983 RMK A02 SLP104 T02720230 PA084 DA1888=
0129008418999992016020615534+03000+131800FM-15+000099999V0200501N003619999999N999999999+02701+02291100971ADDMA1100951999999REMMET102MOBOB2 METAR XM24 //000 030318 061553Z AUTO 05007KT 27/23 A2981 RMK A02 SLP097 T02700229 PA103 DA1886=
0129008418999992016020616534+03000+131800FM-15+000099999V0200601N003619999999N999999999+02671+02271100901ADDMA1100881999999REMMET102MOBOB2 METAR XM24 //000 030318 061653Z AUTO 06007KT 27/23 A2979 RMK A02 SLP090 T02670227 PA122 DA1869=
0129008418999992016020617534+03000+131800FM-15+000099999V0200501N003119999999N999999999+02681+02271100841ADDMA1100811999999REMMET102MOBOB2 METAR XM24 //000 030318 061753Z AUTO 05006KT 27/23 A2977 RMK A02 SLP084 T02680227 PA140 DA1903=
0129008418999992016020618534+03000+131800FM-15+000099999V0200601N002619999999N999999999+02691+02271100841ADDMA1100811999999REMMET102MOBOB2 METAR XM24 //000 030318 061853Z AUTO 06005KT 27/23 A2977 RMK A02 SLP084 T02690227 PA140 DA1914=
0129008418999992016020619534+03000+131800FM-15+000099999V0200501N002619999999N999999999+02671+02241100901ADDMA1100881999999REMMET102MOBOB2 METAR XM24 //000 030318 061953Z AUTO 05005KT 27/22 A2979 RMK A02 SLP090 T02670224 PA122 DA1863=
0129008418999992016020620534+03000+131800FM-15+000099999V0200701N002619999999N999999999+02681+02261100941ADDMA1100911999999REMMET102MOBOB2 METAR XM24 //000 030318 062053Z AUTO 07005KT 27/23 A2980 RMK A02 SLP094 T02680226 PA112 DA1867=
0129008418999992016020621534+03000+131800FM-15+000099999V0200801N002119999999N999999999+02691+02271101001ADDMA1100981999999REMMET102MOBOB2 METAR XM24 //000 030318 062153Z AUTO 08004KT 27/23 A2982 RMK A02 SLP100 T02690227 PA094 DA1857=
0129008418999992016020622534+03000+131800FM-15+000099999V0200901N002119999999N999999999+02731+02261101071ADDMA1101051999999REMMET102MOBOB2 METAR XM24 //000 030318 062253Z AUTO 09004KT 27/23 A2984 RMK A02 SLP107 T02730226 PA075 DA1878=
0129008418999992016020623544+03000+131800FM-15+000099999V0200401N002119999999N999999999+02771+02251101141ADDMA1101121999999REMMET102MOBOB2 METAR XM24 //000 030318 062354Z AUTO 04004KT 28/22 A2986 RMK A02 SLP114 T02770225 PA057 DA1897=
0129008418999992016020700534+03000+131800FM-15+000099999V0200501N002619999999N999999999+02791+02231101141ADDMA1101121999999REMMET102MOBOB2 METAR XM24 //000 030318 070053Z AUTO 05005KT 28/22 A2986 RMK A02 SLP114 T02790223 PA057 DA1916=
0129008418999992016020701534+03000+131800FM-15+000099999V0200301N002619999999N999999999+02821+02231101071ADDMA1101051999999REMMET102MOBOB2 METAR XM24 //000 030318 070153Z AUTO 03005KT 28/22 A2984 RMK A02 SLP107 T02820223 PA075 DA1972=
0129008418999992016020702544+03000+131800FM-15+000099999V0200301N003119999999N999999999+02861+02251101041ADDMA1101021999999REMMET102MOBOB2 METAR XM24 //000 030318 070254Z AUTO 03006KT 29/22 A2983 RMK A02 SLP104 T02860225 PA084 DA2032=
0129008418999992016020703534+03000+131800FM-15+000099999V0200301N003119999999N999999999+02891+02181100971ADDMA1100951999999REMMET102MOBOB2 METAR XM24 //000 030318 070353Z AUTO 03006KT 29/22 A2981 RMK A02 SLP097 T02890218 PA103 DA2074=
0129008418999992016020704534+03000+131800FM-15+000099999V0200201N002119999999N999999999+02941+02201100901ADDMA1100881999999REMMET102MOBOB2 METAR XM24 //000 030318 070453Z AUTO 02004KT 29/22 A2979 RMK A02 SLP090 T02940220 PA122 DA2157=
0129008418999992016020705544+03000+131800FM-15+000099999V0200101N002619999999N999999999+02901+02231100841ADDMA1100811999999REMMET102MOBOB2 METAR XM24 //000 030318 070554Z AUTO 01005KT 29/22 A2977 RMK A02 SLP084 T02900223 PA140 DA2142=
0129008418999992016020706534+03000+131800FM-15+000099999V0203601N002619999999N999999999+02921+02251100841ADDMA1100811999999REMMET102MOBOB2 METAR XM24 //000 030318 070653Z AUTO 36005KT 29/23 A2977 RMK A02 SLP084 T02920225 PA140 DA2169=
0129008418999992016020707534+03000+131800FM-15+000099999V0203601N003619999999N999999999+02871+02261100871ADDMA1100851999999REMMET102MOBOB2 METAR XM24 //000 030318 070753Z AUTO 36007KT 29/23 A2978 RMK A02 SLP087 T02870226 PA131 DA2102=
0129008418999992016020708534+03000+131800FM-15+000099999V0203601N003119999999N999999999+02831+02281100901ADDMA1100881999999REMMET102MOBOB2 METAR XM24 //000 030318 070853Z AUTO 36006KT 28/23 A2979 RMK A02 SLP090 T02830228 PA122 DA2051=
0129008418999992016020709544+03000+131800FM-15+000099999V0200101N003119999999N999999999+02801+02271100971ADDMA1100951999999REMMET102MOBOB2 METAR XM24 //000 030318 070954Z AUTO 01006KT 28/23 A2981 RMK A02 SLP097 T02800227 PA103 DA1993=
0129008418999992016020710534+03000+131800FM-15+000099999V0200101N002619999999N999999999+02791+02301101071ADDMA1101051999999REMMET102MOBOB2 METAR XM24 //000 030318 071053Z AUTO 01005KT 28/23 A2984 RMK A02 SLP107 T02790230 PA075 DA1954=
0129008418999992016020711534+03000+131800FM-15+000099999V0203601N003619999999N999999999+02781+02321101111ADDMA1101081999999REMMET102MOBOB2 METAR XM24 //000 030318 071153Z AUTO 36007KT 28/23 A2985 RMK A02 SLP111 T02780232 PA066 DA1935=
0129008418999992016020712534+03000+131800FM-15+000099999V0200101N004119999999N999999999+02771+02311101141ADDMA1101121999999REMMET102MOBOB2 METAR XM24 //000 030318 071253Z AUTO 01008KT 28/23 A2986 RMK A02 SLP114 T02770231 PA057 DA1910=
0129008418999992016020713544+03000+131800FM-15+000099999V0200101N002119999999N999999999+02781+02391101111ADDMA1101081999999REMMET102MOBOB2 METAR XM24 //000 030318 071354Z AUTO 01004KT 28/24 A2985 RMK A02 SLP111 T02780239 PA066 DA1950=
0129008418999992016020714534+03000+131800FM-15+000099999V0200101N003119999999N999999999+02761+02321101071ADDMA1101051999999REMMET102MOBOB2 METAR XM24 //000 030318 071453Z AUTO 01006KT 28/23 A2984 RMK A02 SLP107 T02760232 PA075 DA1925=
0129008418999992016020715534+03000+131800FM-15+000099999V0200101N003619999999N999999999+02731+02321101041ADDMA1101021999999REMMET102MOBOB2 METAR XM24 //000 030318 071553Z AUTO 01007KT 27/23 A2983 RMK A02 SLP104 T02730232 PA084 DA1903=
0129008418999992016020716534+03000+131800FM-15+000099999V0200201N003119999999N999999999+02701+02301100971ADDMA1100951999999REMMET102MOBOB2 METAR XM24 //000 030318 071653Z AUTO 02006KT 27/23 A2981 RMK A02 SLP097 T02700230 PA103 DA1886=
0129008418999992016020717534+03000+131800FM-15+000099999V0200301N003619999999N999999999+02701+02341100971ADDMA1100951999999REMMET102MOBOB2 METAR XM24 //000 030318 071753Z AUTO 03007KT 27/23 A2981 RMK A02 SLP097 T02700234 PA103 DA1895=
0140008418999992016020718534+03000+131800FM-15+000099999V0200301N004619999999N999999999+02721+02331100941ADDMA1100911999999OC100721REMMET105MOBOB2 METAR XM24 //000 030318 071853Z AUTO 03009G14KT 27/23 A2980 RMK A02 SLP094 T02720233 PA112 DA1927=
0140008418999992016020719534+03000+131800FM-15+000099999V0200301N004119999999N999999999+02741+02361100971ADDMA1100951999999OC100621REMMET105MOBOB2 METAR XM24 //000 030318 071953Z AUTO 03008G12KT 27/24 A2981 RMK A02 SLP097 T02740236 PA103 DA1944=
0129008418999992016020720534+03000+131800FM-15+000099999V0200201N002619999999N999999999+02751+02371101001ADDMA1100981999999REMMET102MOBOB2 METAR XM24 //000 030318 072053Z AUTO 02005KT 28/24 A2982 RMK A02 SLP100 T02750237 PA094 DA1947=
0140008418999992016020721534+03000+131800FM-15+000099999V0200301N004619999999N999999999+02771+02381101041ADDMA1101021999999OC100671REMMET105MOBOB2 METAR XM24 //000 030318 072153Z AUTO 03009G13KT 28/24 A2983 RMK A02 SLP104 T02770238 PA084 DA1961=
0140008418999992016020722534+03000+131800FM-15+000099999V0200301N004119999999N999999999+02781+02391101071ADDMA1101051999999OC100721REMMET105MOBOB2 METAR XM24 //000 030318 072253Z AUTO 03008G14KT 28/24 A2984 RMK A02 SLP107 T02780239 PA075 DA1963=
0140008418999992016020723534+03000+131800FM-15+000099999V0200401N005719999999N999999999+02821+02351101141ADDMA1101121999999OC100671REMMET105MOBOB2 METAR XM24 //000 030318 072353Z AUTO 04011G13KT 28/24 A2986 RMK A02 SLP114 T02820235 PA057 DA1976=
0129008418999992016020800534+03000+131800FM-15+000099999V0200501N004619999999N999999999+02821+02401101141ADDMA1101121999999REMMET102MOBOB2 METAR XM24 //000 030318 080053Z AUTO 05009KT 28/24 A2986 RMK A02 SLP114 T02820240 PA057 DA1986=
0167008418999992016020801544+03000+131800FM-15+000099999V0200401N005719999999N999999999+02831+02391101111ADDAA101000021AW1611MA1101081999999OC100721REMMET115MOBOB2 METAR XM24 //000 030318 080154Z AUTO 04011G14KT -RA 28/24 A2985 RMK A02 SLP111 P0000 T02830239 PA066 DA2008=
0129008418999992016020802544+03000+131800FM-15+000099999V0200401N004619999999N999999999+02831+02421101001ADDMA1100981999999REMMET102MOBOB2 METAR XM24 //000 030318 080254Z AUTO 04009KT 28/24 A2982 RMK A02 SLP100 T02830242 PA094 DA2048=
0140008418999992016020803534+03000+131800FM-15+000099999V0200401N005719999999N999999999+02881+02451100941ADDMA1100911999999OC100671REMMET105MOBOB2 METAR XM24 //000 030318 080353Z AUTO 04011G13KT 29/25 A2980 RMK A02 SLP094 T02880245 PA112 DA2134=
0140008418999992016020804534+03000+131800FM-15+000099999V0200501N006219999999N999999999+02871+02421100841ADDMA1100811999999OC100771REMMET105MOBOB2 METAR XM24 //000 030318 080453Z AUTO 05012G15KT 29/24 A2977 RMK A02 SLP084 T02870242 PA140 DA2151=
0140008418999992016020805544+03000+131800FM-15+000099999V0200601N005719999999N999999999+02871+02511100801ADDMA1100781999999OC100721REMMET105MOBOB2 METAR XM24 //000 030318 080554Z AUTO 06011G14KT 29/25 A2976 RMK A02 SLP080 T02870251 PA149 DA2182=
0167008418999992016020806534+03000+131800FM-15+000099999V0200701N007219999999N999999999+02741+02421100771ADDAA101001231AW1611MA1100741999999OC101181REMMET115MOBOB2 METAR XM24 //000 030318 080653Z AUTO 07014G23KT -RA 27/24 A2975 RMK A02 SLP077 P0005 T02740242 PA159 DA2028=
0167008418999992016020807534+03000+131800FM-15+000099999V0200601N008219999999N999999999+02711+02421100771ADDAA101001531AW1631MA1100741999999OC101241REMMET115MOBOB2 METAR XM24 //000 030318 080753Z AUTO 06016G24KT +RA 27/24 A2975 RMK A02 SLP077 P0006 T02710242 PA159 DA1995=
0140008418999992016020808534+03000+131800FM-15+000099999V0200501N006719999999N999999999+02751+02431100801ADDMA1100781999999OC100771REMMET105MOBOB2 METAR XM24 //000 030318 080853Z AUTO 05013G15KT 28/24 A2976 RMK A02 SLP080 T02750243 PA149 DA2029=
0140008418999992016020809534+03000+131800FM-15+000099999V0200501N006719999999N999999999+02781+02421100841ADDMA1100811999999OC100771REMMET105MOBOB2 METAR XM24 //000 030318 080953Z AUTO 05013G15KT 28/24 A2977 RMK A02 SLP084 T02780242 PA140 DA2048=
0140008418999992016020810534+03000+131800FM-15+000099999V0200501N007219999999N999999999+02791+02401100901ADDMA1100881999999OC100881REMMET105MOBOB2 METAR XM24 //000 030318 081053Z AUTO 05014G17KT 28/24 A2979 RMK A02 SLP090 T02790240 PA122 DA2033=
0140008418999992016020811534+03000+131800FM-15+000099999V0200601N006719999999N999999999+02791+02411100971ADDMA1100951999999OC100821REMMET105MOBOB2 METAR XM24 //000 030318 081153Z AUTO 06013G16KT 28/24 A2981 RMK A02 SLP097 T02790241 PA103 DA2012=
0140008418999992016020812534+03000+131800FM-15+000099999V0200501N007219999999N999999999+02791+02391101001ADDMA1100981999999OC100821REMMET105MOBOB2 METAR XM24 //000 030318 081253Z AUTO 05014G16KT 28/24 A2982 RMK A02 SLP100 T02790239 PA094 DA1997=
0140008418999992016020813534+03000+131800FM-15+000099999V0200601N006719999999N999999999+02791+02421101001ADDMA1100981999999OC100821REMMET105MOBOB2 METAR XM24 //000 030318 081353Z AUTO 06013G16KT 28/24 A2982 RMK A02 SLP100 T02790242 PA094 DA2003=
0140008418999992016020814534+03000+131800FM-15+000099999V0200601N006219999999N999999999+02781+02401100971ADDMA1100951999999OC100721REMMET105MOBOB2 METAR XM24 //000 030318 081453Z AUTO 06012G14KT 28/24 A2981 RMK A02 SLP097 T02780240 PA103 DA1999=
0140008418999992016020815534+03000+131800FM-15+000099999V0200601N006219999999N999999999+02771+02371100941ADDMA1100911999999OC100821REMMET105MOBOB2 METAR XM24 //000 030318 081553Z AUTO 06012G16KT 28/24 A2980 RMK A02 SLP094 T02770237 PA112 DA1993=
0140008418999992016020816534+03000+131800FM-15+000099999V0200601N006719999999N999999999+02751+02341100871ADDMA1100851999999OC100771REMMET105MOBOB2 METAR XM24 //000 030318 081653Z AUTO 06013G15KT 28/23 A2978 RMK A02 SLP087 T02750234 PA131 DA1986=
0140008418999992016020817534+03000+131800FM-15+000099999V0200601N006219999999N999999999+02741+02361100841ADDMA1100811999999OC100721REMMET105MOBOB2 METAR XM24 //000 030318 081753Z AUTO 06012G14KT 27/24 A2977 RMK A02 SLP084 T02740236 PA140 DA1991=
0140008418999992016020818534+03000+131800FM-15+000099999V0200501N006219999999N999999999+02731+02351100801ADDMA1100781999999OC100821REMMET105MOBOB2 METAR XM24 //000 030318 081853Z AUTO 05012G16KT 27/23 A2976 RMK A02 SLP080 T02730235 PA149 DA1988=
0140008418999992016020819534+03000+131800FM-15+000099999V0200601N006719999999N999999999+02761+02341100841ADDMA1100811999999OC100771REMMET105MOBOB2 METAR XM24 //000 030318 081953Z AUTO 06013G15KT 28/23 A2977 RMK A02 SLP084 T02760234 PA140 DA2010=
0140008418999992016020820534+03000+131800FM-15+000099999V0200501N005719999999N999999999+02761+02361100871ADDMA1100851999999OC100771REMMET105MOBOB2 METAR XM24 //000 030318 082053Z AUTO 05011G15KT 28/24 A2978 RMK A02 SLP087 T02760236 PA131 DA2001=
0140008418999992016020821534+03000+131800FM-15+000099999V0200501N005719999999N999999999+02771+02391100971ADDMA1100951999999OC100671REMMET105MOBOB2 METAR XM24 //000 030318 082153Z AUTO 05011G13KT 28/24 A2981 RMK A02 SLP097 T02770239 PA103 DA1986=
0140008418999992016020822534+03000+131800FM-15+000099999V0200501N005719999999N999999999+02791+02381101041ADDMA1101021999999OC100721REMMET105MOBOB2 METAR XM24 //000 030318 082253Z AUTO 05011G14KT 28/24 A2983 RMK A02 SLP104 T02790238 PA084 DA1982=
0140008418999992016020823534+03000+131800FM-15+000099999V0200501N005719999999N999999999+02811+02371101071ADDMA1101051999999OC100671REMMET105MOBOB2 METAR XM24 //000 030318 082353Z AUTO 05011G13KT 28/24 A2984 RMK A02 SLP107 T02810237 PA075 DA1991=
0167008418999992016020900534+03000+131800FM-15+000099999V0200301N005719999999N999999999+02811+02441101071ADDAA101000021AW1611MA1101051999999OC100771REMMET115MOBOB2 METAR XM24 //000 030318 090053Z AUTO 03011G15KT -RA 28/24 A2984 RMK A02 SLP107 P0000 T02810244 PA075 DA2007=
0167008418999992016020901534+03000+131800FM-15+000099999V0200401N006219999999N999999999+02731+02441101041ADDAA101000021AW1611MA1101021999999OC100821REMMET115MOBOB2 METAR XM24 //000 030318 090153Z AUTO 04012G16KT -RA 27/24 A2983 RMK A02 SLP104 P0000 T02730244 PA084 DA1928=
0140008418999992016020902534+03000+131800FM-15+000099999V0200401N006219999999N999999999+02821+02381100971ADDMA1100951999999OC100771REMMET105MOBOB2 METAR XM24 //000 030318 090253Z AUTO 04012G15KT 28/24 A2981 RMK A02 SLP097 T02820238 PA103 DA2038=
0167008418999992016020903534+03000+131800FM-15+000099999V0200301N006219999999N999999999+02701+02411100901ADDAA101000021AW1611MA1100881999999OC101081REMMET115MOBOB2 METAR XM24 //000 030318 090353Z AUTO 03012G21KT -RA 27/24 A2979 RMK A02 SLP090 P0000 T02700241 PA122 DA1934=
0140008418999992016020904534+03000+131800FM-15+000099999V0200401N006719999999N999999999+02851+02321100801ADDMA1100781999999OC100821REMMET105MOBOB2 METAR XM24 //000 030318 090453Z AUTO 04013G16KT 29/23 A2976 RMK A02 SLP080 T02850232 PA149 DA2116=
0140008418999992016020905534+03000+131800FM-15+000099999V0200501N005719999999N999999999+02861+02411100801ADDMA1100781999999OC100721REMMET105MOBOB2 METAR XM24 //000 030318 090553Z AUTO 05011G14KT 29/24 A2976 RMK A02 SLP080 T02860241 PA149 DA2149=
0140008418999992016020906534+03000+131800FM-15+000099999V0200501N006719999999N999999999+02861+02421100771ADDMA1100741999999OC100821REMMET105MOBOB2 METAR XM24 //000 030318 090653Z AUTO 05013G16KT 29/24 A2975 RMK A02 SLP077 T02860242 PA159 DA2162=
0140008418999992016020907534+03000+131800FM-15+000099999V0200501N006719999999N999999999+02851+02421100771ADDMA1100741999999OC100771REMMET105MOBOB2 METAR XM24 //000 030318 090753Z AUTO 05013G15KT 29/24 A2975 RMK A02 SLP077 T02850242 PA159 DA2151=
0140008418999992016020908534+03000+131800FM-15+000099999V0200501N006719999999N999999999+02831+02421100801ADDMA1100781999999OC100771REMMET105MOBOB2 METAR XM24 //000 030318 090853Z AUTO 05013G15KT 28/24 A2976 RMK A02 SLP080 T02830242 PA149 DA2117=
0140008418999992016020909534+03000+131800FM-15+000099999V0200501N006219999999N999999999+02801+02401100871ADDMA1100851999999OC100771REMMET105MOBOB2 METAR XM24 //000 030318 090953Z AUTO 05012G15KT 28/24 A2978 RMK A02 SLP087 T02800240 PA131 DA2056=
0140008418999992016020910534+03000+131800FM-15+000099999V0200501N006219999999N999999999+02811+02421100971ADDMA1100951999999OC100721REMMET105MOBOB2 METAR XM24 //000 030318 091053Z AUTO 05012G14KT 28/24 A2981 RMK A02 SLP097 T02810242 PA103 DA2036=
0140008418999992016020911534+03000+131800FM-15+000099999V0200501N005719999999N999999999+02801+02411101001ADDMA1100981999999OC100721REMMET105MOBOB2 METAR XM24 //000 030318 091153Z AUTO 05011G14KT 28/24 A2982 RMK A02 SLP100 T02800241 PA094 DA2013=
0140008418999992016020912534+03000+131800FM-15+000099999V0200501N005119999999N999999999+02781+02391101041ADDMA1101021999999OC100671REMMET105MOBOB2 METAR XM24 //000 030318 091253Z AUTO 05010G13KT 28/24 A2983 RMK A02 SLP104 T02780239 PA084 DA1975=
0140008418999992016020913534+03000+131800FM-15+000099999V0200501N006219999999N999999999+02791+02401101001ADDMA1100981999999OC100721REMMET105MOBOB2 METAR XM24 //000 030318 091353Z AUTO 05012G14KT 28/24 A2982 RMK A02 SLP100 T02790240 PA094 DA1999=
0140008418999992016020914534+03000+131800FM-15+000099999V0200501N006219999999N999999999+02771+02381100941ADDMA1100911999999OC100721REMMET105MOBOB2 METAR XM24 //000 030318 091453Z AUTO 05012G14KT 28/24 A2980 RMK A02 SLP094 T02770238 PA112 DA1995=
0140008418999992016020915534+03000+131800FM-15+000099999V0200501N006719999999N999999999+02741+02361100871ADDMA1100851999999OC100821REMMET105MOBOB2 METAR XM24 //000 030318 091553Z AUTO 05013G16KT 27/24 A2978 RMK A02 SLP087 T02740236 PA131 DA1980=
0140008418999992016020916534+03000+131800FM-15+000099999V0200501N006219999999N999999999+02741+02341100841ADDMA1100811999999OC100721REMMET105MOBOB2 METAR XM24 //000 030318 091653Z AUTO 05012G14KT 27/23 A2977 RMK A02 SLP084 T02740234 PA140 DA1986=
0140008418999992016020917534+03000+131800FM-15+000099999V0200501N005719999999N999999999+02731+02321100801ADDMA1100781999999OC100721REMMET105MOBOB2 METAR XM24 //000 030318 091753Z AUTO 05011G14KT 27/23 A2976 RMK A02 SLP080 T02730232 PA149 DA1982=
0140008418999992016020918534+03000+131800FM-15+000099999V0200501N005719999999N999999999+02721+02321100801ADDMA1100781999999OC100721REMMET105MOBOB2 METAR XM24 //000 030318 091853Z AUTO 05011G14KT 27/23 A2976 RMK A02 SLP080 T02720232 PA149 DA1970=
0140008418999992016020919534+03000+131800FM-15+000099999V0200501N006219999999N999999999+02731+02321100841ADDMA1100811999999OC100721REMMET105MOBOB2 METAR XM24 //000 030318 091953Z AUTO 05012G14KT 27/23 A2977 RMK A02 SLP084 T02730232 PA140 DA1970=
0140008418999992016020920534+03000+131800FM-15+000099999V0200501N006219999999N999999999+02751+02341100871ADDMA1100851999999OC100771REMMET105MOBOB2 METAR XM24 //000 030318 092053Z AUTO 05012G15KT 28/23 A2978 RMK A02 SLP087 T02750234 PA131 DA1985=
0140008418999992016020921534+03000+131800FM-15+000099999V0200501N006719999999N999999999+02761+02361100941ADDMA1100911999999OC100821REMMET105MOBOB2 METAR XM24 //000 030318 092153Z AUTO 05013G16KT 28/24 A2980 RMK A02 SLP094 T02760236 PA112 DA1978=
0140008418999992016020922534+03000+131800FM-15+000099999V0200401N006219999999N999999999+02791+02371101001ADDMA1100981999999OC100771REMMET105MOBOB2 METAR XM24 //000 030318 092253Z AUTO 04012G15KT 28/24 A2982 RMK A02 SLP100 T02790237 PA094 DA1992=
0140008418999992016020923534+03000+131800FM-15+000099999V0200401N005119999999N999999999+02811+02381101071ADDMA1101051999999OC100671REMMET105MOBOB2 METAR XM24 //000 030318 092353Z AUTO 04010G13KT 28/24 A2984 RMK A02 SLP107 T02810238 PA075 DA1994=
0140008418999992016021000534+03000+131800FM-15+000099999V0200501N005719999999N999999999+02831+02381101041ADDMA1101021999999OC100671REMMET105MOBOB2 METAR XM24 //000 030318 100053Z AUTO 05011G13KT 28/24 A2983 RMK A02 SLP104 T02830238 PA084 DA2027=
0140008418999992016021001534+03000+131800FM-15+000099999V0200501N005719999999N999999999+02851+02391100971ADDMA1100951999999OC100721REMMET105MOBOB2 METAR XM24 //000 030318 100153Z AUTO 05011G14KT 29/24 A2981 RMK A02 SLP097 T02850239 PA103 DA2075=
0167008418999992016021002544+03000+131800FM-15+000099999V0200501N006219999999N999999999+02841+02421100901ADDAA101001031AW1611MA1100881999999OC100771REMMET115MOBOB2 METAR XM24 //000 030318 100254Z AUTO 05012G15KT -RA 28/24 A2979 RMK A02 SLP090 P0004 T02840242 PA122 DA2093=
0140008418999992016021003534+03000+131800FM-15+000099999V0200501N006719999999N999999999+02861+02381100841ADDMA1100811999999OC100771REMMET105MOBOB2 METAR XM24 //000 030318 100353Z AUTO 05013G15KT 29/24 A2977 RMK A02 SLP084 T02860238 PA140 DA2130=
0140008418999992016021004534+03000+131800FM-15+000099999V0200501N006719999999N999999999+02891+02431100771ADDMA1100741999999OC100821REMMET105MOBOB2 METAR XM24 //000 030318 100453Z AUTO 05013G16KT 29/24 A2975 RMK A02 SLP077 T02890243 PA159 DA2197=
0140008418999992016021005544+03000+131800FM-15+000099999V0200401N006219999999N999999999+02881+02431100771ADDMA1100741999999OC100721REMMET105MOBOB2 METAR XM24 //000 030318 100554Z AUTO 04012G14KT 29/24 A2975 RMK A02 SLP077 T02880243 PA159 DA2186=
0140008418999992016021006534+03000+131800FM-15+000099999V0200401N006219999999N999999999+02871+02361100771ADDMA1100741999999OC100721REMMET105MOBOB2 METAR XM24 //000 030318 100653Z AUTO 04012G14KT 29/24 A2975 RMK A02 SLP077 T02870236 PA159 DA2159=
0140008418999992016021007534+03000+131800FM-15+000099999V0200401N006719999999N999999999+02871+02401100771ADDMA1100741999999OC100821REMMET105MOBOB2 METAR XM24 //000 030318 100753Z AUTO 04013G16KT 29/24 A2975 RMK A02 SLP077 T02870240 PA159 DA2168=
0140008418999992016021008534+03000+131800FM-15+000099999V0200401N007219999999N999999999+02811+02381100801ADDMA1100781999999OC100881REMMET105MOBOB2 METAR XM24 //000 030318 100853Z AUTO 04014G17KT 28/24 A2976 RMK A02 SLP080 T02810238 PA149 DA2084=
0140008418999992016021009534+03000+131800FM-15+000099999V0200401N007219999999N999999999+02811+02361100901ADDMA1100881999999OC100881REMMET105MOBOB2 METAR XM24 //000 030318 100953Z AUTO 04014G17KT 28/24 A2979 RMK A02 SLP090 T02810236 PA122 DA2047=
0140008418999992016021010534+03000+131800FM-15+000099999V0200501N006719999999N999999999+02801+02361100971ADDMA1100951999999OC100881REMMET105MOBOB2 METAR XM24 //000 030318 101053Z AUTO 05013G17KT 28/24 A2981 RMK A02 SLP097 T02800236 PA103 DA2013=
0140008418999992016021011534+03000+131800FM-15+000099999V0200501N006719999999N999999999+02801+02361100971ADDMA1100951999999OC100881REMMET105MOBOB2 METAR XM24 //000 030318 101153Z AUTO 05013G17KT 28/24 A2981 RMK A02 SLP097 T02800236 PA103 DA2012=
0140008418999992016021012534+03000+131800FM-15+000099999V0200401N006719999999N999999999+02791+02341101001ADDMA1100981999999OC100821REMMET105MOBOB2 METAR XM24 //000 030318 101253Z AUTO 04013G16KT 28/23 A2982 RMK A02 SLP100 T02790234 PA094 DA1986=
0140008418999992016021013534+03000+131800FM-15+000099999V0200401N006719999999N999999999+02781+02361100971ADDMA1100951999999OC100821REMMET105MOBOB2 METAR XM24 //000 030318 101353Z AUTO 04013G16KT 28/24 A2981 RMK A02 SLP097 T02780236 PA103 DA1990=
0140008418999992016021014534+03000+131800FM-15+000099999V0200401N006719999999N999999999+02761+02321100941ADDMA1100911999999OC100881REMMET105MOBOB2 METAR XM24 //000 030318 101453Z AUTO 04013G17KT 28/23 A2980 RMK A02 SLP094 T02760232 PA112 DA1969=
0140008418999992016021015534+03000+131800FM-15+000099999V0200301N007219999999N999999999+02751+02331100871ADDMA1100851999999OC100881REMMET105MOBOB2 METAR XM24 //000 030318 101553Z AUTO 03014G17KT 28/23 A2978 RMK A02 SLP087 T02750233 PA131 DA1985=
0140008418999992016021016534+03000+131800FM-15+000099999V0200401N006719999999N999999999+02721+02311100841ADDMA1100811999999OC100981REMMET105MOBOB2 METAR XM24 //000 030318 101653Z AUTO 04013G19KT 27/23 A2977 RMK A02 SLP084 T02720231 PA140 DA1958=
0140008418999992016021017544+03000+131800FM-15+000099999V0200401N006219999999N999999999+02721+02281100871ADDMA1100851999999OC100771REMMET105MOBOB2 METAR XM24 //000 030318 101754Z AUTO 04012G15KT 27/23 A2978 RMK A02 SLP087 T02720228 PA131 DA1940=
0140008418999992016021018534+03000+131800FM-15+000099999V0200301N005719999999N999999999+02701+02281100871ADDMA1100851999999OC100771REMMET105MOBOB2 METAR XM24 //000 030318 101853Z AUTO 03011G15KT 27/23 A2978 RMK A02 SLP087 T02700228 PA131 DA1918=
0129008418999992016021019534+03000+131800FM-15+000099999V0200301N002619999999N999999999+02691+02281100901ADDMA1100881999999REMMET102MOBOB2 METAR XM24 //000 030318 101953Z AUTO 03005KT 27/23 A2979 RMK A02 SLP090 T02690228 PA122 DA1894=
0140008418999992016021020534+03000+131800FM-15+000099999V0200301N004119999999N999999999+02711+02331100941ADDMA1100911999999OC100721REMMET105MOBOB2 METAR XM24 //000 030318 102053Z AUTO 03008G14KT 27/23 A2980 RMK A02 SLP094 T02710233 PA112 DA1916=
0140008418999992016021021534+03000+131800FM-15+000099999V0200301N004119999999N999999999+02761+02361101001ADDMA1100981999999OC100671REMMET105MOBOB2 METAR XM24 //000 030318 102153Z AUTO 03008G13KT 28/24 A2982 RMK A02 SLP100 T02760236 PA094 DA1957=
0129008418999992016021022534+03000+131800FM-15+000099999V0200201N002619999999N999999999+02801+02351101041ADDMA1101021999999REMMET102MOBOB2 METAR XM24 //000 030318 102253Z AUTO 02005KT 28/23 A2983 RMK A02 SLP104 T02800235 PA084 DA1986=
0129008418999992016021023534+03000+131800FM-15+000099999V0200301N003619999999N999999999+02841+02351101111ADDMA1101081999999REMMET102MOBOB2 METAR XM24 //000 030318 102353Z AUTO 03007KT 28/23 A2985 RMK A02 SLP111 T02840235 PA066 DA2009=
0129008418999992016021100534+03000+131800FM-15+000099999V0200201N002619999999N999999999+02911+02361101071ADDMA1101051999999REMMET102MOBOB2 METAR XM24 //000 030318 110053Z AUTO 02005KT 29/24 A2984 RMK A02 SLP107 T02910236 PA075 DA2102=
0129008418999992016021101534+03000+131800FM-15+000099999V0200301N003619999999N999999999+02931+02351101041ADDMA1101021999999REMMET102MOBOB2 METAR XM24 //000 030318 110153Z AUTO 03007KT 29/24 A2983 RMK A02 SLP104 T02930235 PA084 DA2133=
0129008418999992016021102544+03000+131800FM-15+000099999V0200101N002619999999N999999999+02951+02361100971ADDMA1100951999999REMMET102MOBOB2 METAR XM24 //000 030318 110254Z AUTO 01005KT 30/24 A2981 RMK A02 SLP097 T02950236 PA103 DA2180=
0140008418999992016021103534+03000+131800FM-15+000099999V0200301N004119999999N999999999+02931+02421100871ADDMA1100851999999OC100621REMMET105MOBOB2 METAR XM24 //000 030318 110353Z AUTO 03008G12KT 29/24 A2978 RMK A02 SLP087 T02930242 PA131 DA2206=
0140008418999992016021104534+03000+131800FM-15+000099999V0200301N005119999999N999999999+02931+02441100771ADDMA1100741999999OC100621REMMET105MOBOB2 METAR XM24 //000 030318 110453Z AUTO 03010G12KT 29/24 A2975 RMK A02 SLP077 T02930244 PA159 DA2243=
0140008418999992016021105534+03000+131800FM-15+000099999V0200301N004119999999N999999999+02941+02391100731ADDMA1100711999999OC100771REMMET105MOBOB2 METAR XM24 //000 030318 110553Z AUTO 03008G15KT 29/24 A2974 RMK A02 SLP073 T02940239 PA168 DA2256=
0140008418999992016021106534+03000+131800FM-15+000099999V0200301N005719999999N999999999+02891+02431100701ADDMA1100681999999OC100771REMMET105MOBOB2 METAR XM24 //000 030318 110653Z AUTO 03011G15KT 29/24 A2973 RMK A02 SLP070 T02890243 PA177 DA2219=
0129008418999992016021107544+03000+131800FM-15+000099999V0200401N004119999999N999999999+02831+02391100771ADDMA1100741999999REMMET102MOBOB2 METAR XM24 //000 030318 110754Z AUTO 04008KT 28/24 A2975 RMK A02 SLP077 T02830239 PA159 DA2121=
0166008418999992016021108544+03000+131800FM-15+000099999V0200701N004619999999N999999999+02761+02431100801ADDAA101002531AW1621MA1100781999999OC100621REMMET114MOBOB2 METAR XM24 //000 030318 110854Z AUTO 07009G12KT RA 28/24 A2976 RMK A02 SLP080 P0010 T02760243 PA149 DA2041=
0167008418999992016021109534+03000+131800FM-15+000099999V0200501N007219999999N999999999+02751+02391100871ADDAA101000021AW1611MA1100851999999OC100881REMMET115MOBOB2 METAR XM24 //000 030318 110953Z AUTO 05014G17KT -RA 28/24 A2978 RMK A02 SLP087 P0000 T02750239 PA131 DA1997=
0140008418999992016021110534+03000+131800FM-15+000099999V0200401N007719999999N999999999+02791+02401100941ADDMA1100911999999OC100931REMMET105MOBOB2 METAR XM24 //000 030318 111053Z AUTO 04015G18KT 28/24 A2980 RMK A02 SLP094 T02790240 PA112 DA2022=
0140008418999992016021111534+03000+131800FM-15+000099999V0200401N006719999999N999999999+02801+02411100971ADDMA1100951999999OC100821REMMET105MOBOB2 METAR XM24 //000 030318 111153Z AUTO 04013G16KT 28/24 A2981 RMK A02 SLP097 T02800241 PA103 DA2024=
0140008418999992016021112544+03000+131800FM-15+000099999V0200501N006719999999N999999999+02791+02401101041ADDMA1101021999999OC100881REMMET105MOBOB2 METAR XM24 //000 030318 111254Z AUTO 05013G17KT 28/24 A2983 RMK A02 SLP104 T02790240 PA084 DA1988=
0140008418999992016021113544+03000+131800FM-15+000099999V0200501N006719999999N999999999+02801+02391101071ADDMA1101051999999OC100771REMMET105MOBOB2 METAR XM24 //000 030318 111354Z AUTO 05013G15KT 28/24 A2984 RMK A02 SLP107 T02800239 PA075 DA1985=
0140008418999992016021114534+03000+131800FM-15+000099999V0200601N005719999999N999999999+02781+02361101041ADDMA1101021999999OC100671REMMET105MOBOB2 METAR XM24 //000 030318 111453Z AUTO 06011G13KT 28/24 A2983 RMK A02 SLP104 T02780236 PA084 DA1968=
0140008418999992016021115534+03000+131800FM-15+000099999V0200501N005719999999N999999999+02781+02391100971ADDMA1100951999999OC100721REMMET105MOBOB2 METAR XM24 //000 030318 111553Z AUTO 05011G14KT 28/24 A2981 RMK A02 SLP097 T02780239 PA103 DA1997=
0140008418999992016021116534+03000+131800FM-15+000099999V0200401N006719999999N999999999+02761+02301100901ADDMA1100881999999OC100771REMMET105MOBOB2 METAR XM24 //000 030318 111653Z AUTO 04013G15KT 28/23 A2979 RMK A02 SLP090 T02760230 PA122 DA1978=
0140008418999992016021117534+03000+131800FM-15+000099999V0200501N006719999999N999999999+02751+02311100901ADDMA1100881999999OC100771REMMET105MOBOB2 METAR XM24 //000 030318 111753Z AUTO 05013G15KT 28/23 A2979 RMK A02 SLP090 T02750231 PA122 DA1968=
0140008418999992016021118534+03000+131800FM-15+000099999V0200401N005719999999N999999999+02741+02301100901ADDMA1100881999999OC100671REMMET105MOBOB2 METAR XM24 //000 030318 111853Z AUTO 04011G13KT 27/23 A2979 RMK A02 SLP090 T02740230 PA122 DA1955=
0140008418999992016021119534+03000+131800FM-15+000099999V0200501N005119999999N999999999+02751+02331100941ADDMA1100911999999OC100671REMMET105MOBOB2 METAR XM24 //000 030318 111953Z AUTO 05010G13KT 28/23 A2980 RMK A02 SLP094 T02750233 PA112 DA1960=
0140008418999992016021120534+03000+131800FM-15+000099999V0200501N005719999999N999999999+02741+02281101001ADDMA1100981999999OC100721REMMET105MOBOB2 METAR XM24 //000 030318 112053Z AUTO 05011G14KT 27/23 A2982 RMK A02 SLP100 T02740228 PA094 DA1916=
0140008418999992016021121534+03000+131800FM-15+000099999V0200501N005119999999N999999999+02781+02311101071ADDMA1101051999999OC100671REMMET105MOBOB2 METAR XM24 //000 030318 112153Z AUTO 05010G13KT 28/23 A2984 RMK A02 SLP107 T02780231 PA075 DA1945=
0140008418999992016021122534+03000+131800FM-15+000099999V0200601N005719999999N999999999+02791+02301101141ADDMA1101121999999OC100721REMMET105MOBOB2 METAR XM24 //000 030318 112253Z AUTO 06011G14KT 28/23 A2986 RMK A02 SLP114 T02790230 PA057 DA1931=
0140008418999992016021123534+03000+131800FM-15+000099999V0200501N005119999999N999999999+02811+02331101141ADDMA1101121999999OC100621REMMET105MOBOB2 METAR XM24 //000 030318 112353Z AUTO 05010G12KT 28/23 A2986 RMK A02 SLP114 T02810233 PA057 DA1960=
0140008418999992016021200534+03000+131800FM-15+000099999V0200501N005119999999N999999999+02831+02341101141ADDMA1101121999999OC100621REMMET105MOBOB2 METAR XM24 //000 030318 120053Z AUTO 05010G12KT 28/23 A2986 RMK A02 SLP114 T02830234 PA057 DA1984=
0129008418999992016021201534+03000+131800FM-15+000099999V0200501N005119999999N999999999+02831+02311101071ADDMA1101051999999REMMET102MOBOB2 METAR XM24 //000 030318 120153Z AUTO 05010KT 28/23 A2984 RMK A02 SLP107 T02830231 PA075 DA2002=
0129008418999992016021202544+03000+131800FM-15+000099999V0200501N004619999999N999999999+02841+02321101041ADDMA1101021999999REMMET102MOBOB2 METAR XM24 //000 030318 120254Z AUTO 05009KT 28/23 A2983 RMK A02 SLP104 T02840232 PA084 DA2026=
0129008418999992016021203534+03000+131800FM-15+000099999V0200501N004619999999N999999999+02851+02341100941ADDMA1100911999999REMMET102MOBOB2 METAR XM24 //000 030318 120353Z AUTO 05009KT 29/23 A2980 RMK A02 SLP094 T02850234 PA112 DA2075=
0129008418999992016021204534+03000+131800FM-15+000099999V0200501N004119999999N999999999+02851+02321100901ADDMA1100881999999REMMET102MOBOB2 METAR XM24 //000 030318 120453Z AUTO 05008KT 29/23 A2979 RMK A02 SLP090 T02850232 PA122 DA2081=
0129008418999992016021205534+03000+131800FM-15+000099999V0200501N004119999999N999999999+02881+02341100841ADDMA1100811999999REMMET102MOBOB2 METAR XM24 //000 030318 120553Z AUTO 05008KT 29/23 A2977 RMK A02 SLP084 T02880234 PA140 DA2143=
0129008418999992016021206534+03000+131800FM-15+000099999V0200501N003619999999N999999999+02861+02341100841ADDMA1100811999999REMMET102MOBOB2 METAR XM24 //000 030318 120653Z AUTO 05007KT 29/23 A2977 RMK A02 SLP084 T02860234 PA140 DA2121=
0129008418999992016021207534+03000+131800FM-15+000099999V0200401N004119999999N999999999+02851+02391100871ADDMA1100851999999REMMET102MOBOB2 METAR XM24 //000 030318 120753Z AUTO 04008KT 29/24 A2978 RMK A02 SLP087 T02850239 PA131 DA2110=
0129008418999992016021208534+03000+131800FM-15+000099999V0200601N004119999999N999999999+02831+02341100941ADDMA1100911999999REMMET102MOBOB2 METAR XM24 //000 030318 120853Z AUTO 06008KT 28/23 A2980 RMK A02 SLP094 T02830234 PA112 DA2053=
0129008418999992016021209534+03000+131800FM-15+000099999V0200601N004119999999N999999999+02801+02351100971ADDMA1100951999999REMMET102MOBOB2 METAR XM24 //000 030318 120953Z AUTO 06008KT 28/24 A2981 RMK A02 SLP097 T02800235 PA103 DA2010=
0129008418999992016021210534+03000+131800FM-15+000099999V0200601N004619999999N999999999+02791+02341101041ADDMA1101021999999REMMET102MOBOB2 METAR XM24 //000 030318 121053Z AUTO 06009KT 28/23 A2983 RMK A02 SLP104 T02790234 PA084 DA1975=
0129008418999992016021211534+03000+131800FM-15+000099999V0200501N002619999999N999999999+02791+02381101071ADDMA1101051999999REMMET102MOBOB2 METAR XM24 //000 030318 121153Z AUTO 05005KT 28/24 A2984 RMK A02 SLP107 T02790238 PA075 DA1971=
0129008418999992016021212534+03000+131800FM-15+000099999V0200401N003119999999N999999999+02781+02381101071ADDMA1101051999999REMMET102MOBOB2 METAR XM24 //000 030318 121253Z AUTO 04006KT 28/24 A2984 RMK A02 SLP107 T02780238 PA075 DA1959=
0129008418999992016021213534+03000+131800FM-15+000099999V0200601N002119999999N999999999+02771+02361101071ADDMA1101051999999REMMET102MOBOB2 METAR XM24 //000 030318 121353Z AUTO 06004KT 28/24 A2984 RMK A02 SLP107 T02770236 PA075 DA1943=
0129008418999992016021214534+03000+131800FM-15+000099999V0200801N003119999999N999999999+02771+02351101041ADDMA1101021999999REMMET102MOBOB2 METAR XM24 //000 030318 121453Z AUTO 08006KT 28/24 A2983 RMK A02 SLP104 T02770235 PA084 DA1954=
0129008418999992016021215534+03000+131800FM-15+000099999V0200801N002119999999N999999999+02741+02321100971ADDMA1100951999999REMMET102MOBOB2 METAR XM24 //000 030318 121553Z AUTO 08004KT 27/23 A2981 RMK A02 SLP097 T02740232 PA103 DA1936=
0129008418999992016021216534+03000+131800FM-15+000099999V0200701N002619999999N999999999+02741+02331100941ADDMA1100911999999REMMET102MOBOB2 METAR XM24 //000 030318 121653Z AUTO 07005KT 27/23 A2980 RMK A02 SLP094 T02740233 PA112 DA1950=
0129008418999992016021217544+03000+131800FM-15+000099999V0200501N002119999999N999999999+02731+02341100901ADDMA1100881999999REMMET102MOBOB2 METAR XM24 //000 030318 121754Z AUTO 05004KT 27/23 A2979 RMK A02 SLP090 T02730234 PA122 DA1953=
0129008418999992016021218534+03000+131800FM-15+000099999V0200501N001519999999N999999999+02711+02331100941ADDMA1100911999999REMMET102MOBOB2 METAR XM24 //000 030318 121853Z AUTO 05003KT 27/23 A2980 RMK A02 SLP094 T02710233 PA112 DA1917=
0129008418999992016021219534+03000+131800FM-15+000099999V0200701N001019999999N999999999+02701+02341100971ADDMA1100951999999REMMET102MOBOB2 METAR XM24 //000 030318 121953Z AUTO 07002KT 27/23 A2981 RMK A02 SLP097 T02700234 PA103 DA1896=
0129008418999992016021220534+03000+131800FM-15+000099999V0200801N000519999999N999999999+02671+02321101041ADDMA1101021999999REMMET102MOBOB2 METAR XM24 //000 030318 122053Z AUTO 08001KT 27/23 A2983 RMK A02 SLP104 T02670232 PA084 DA1836=
0129008418999992016021221534+03000+131800FM-15+000099999V0200801N001019999999N999999999+02701+02341101141ADDMA1101121999999REMMET102MOBOB2 METAR XM24 //000 030318 122153Z AUTO 08002KT 27/23 A2986 RMK A02 SLP114 T02700234 PA057 DA1839=
0129008418999992016021222534+03000+131800FM-15+000099999V0200801N001019999999N999999999+02791+02361101211ADDMA1101181999999REMMET102MOBOB2 METAR XM24 //000 030318 122253Z AUTO 08002KT 28/24 A2988 RMK A02 SLP121 T02790236 PA038 DA1920=
0129008418999992016021223534+03000+131800FM-15+000099999V0200901N001019999999N999999999+02931+02371101241ADDMA1101221999999REMMET102MOBOB2 METAR XM24 //000 030318 122353Z AUTO 09002KT 29/24 A2989 RMK A02 SLP124 T02930237 PA029 DA2069=
0129008418999992016021300534+03000+131800FM-15+000099999V0201901N001019999999N999999999+02991+02311101211ADDMA1101181999999REMMET102MOBOB2 METAR XM24 //000 030318 130053Z AUTO 19002KT 30/23 A2988 RMK A02 SLP121 T02990231 PA038 DA2134=
0129008418999992016021301534+03000+131800FM-15+000099999V0200701N000519999999N999999999+03001+02331101141ADDMA1101121999999REMMET102MOBOB2 METAR XM24 //000 030318 130153Z AUTO 07001KT 30/23 A2986 RMK A02 SLP114 T03000233 PA057 DA2172=
0129008418999992016021302534+03000+131800FM-15+000099999V0200601N000519999999N999999999+03031+02311101071ADDMA1101051999999REMMET102MOBOB2 METAR XM24 //000 030318 130253Z AUTO 06001KT 30/23 A2984 RMK A02 SLP107 T03030231 PA075 DA2223=
0129008418999992016021303534+03000+131800FM-15+000099999V0200901N000519999999N999999999+03111+02301101001ADDMA1100981999999REMMET102MOBOB2 METAR XM24 //000 030318 130353Z AUTO 09001KT 31/23 A2982 RMK A02 SLP100 T03110230 PA094 DA2333=
0129008418999992016021304534+03000+131800FM-15+000099999V0201001N000519999999N999999999+03091+02251100941ADDMA1100911999999REMMET102MOBOB2 METAR XM24 //000 030318 130453Z AUTO 10001KT 31/23 A2980 RMK A02 SLP094 T03090225 PA112 DA2323=
0129008418999992016021305534+03000+131800FM-15+000099999V0200901N001019999999N999999999+03041+02261100871ADDMA1100851999999REMMET102MOBOB2 METAR XM24 //000 030318 130553Z AUTO 09002KT 30/23 A2978 RMK A02 SLP087 T03040226 PA131 DA2291=
0129008418999992016021306534+03000+131800FM-15+000099999V0201001N001019999999N999999999+03111+02281100871ADDMA1100851999999REMMET102MOBOB2 METAR XM24 //000 030318 130653Z AUTO 10002KT 31/23 A2978 RMK A02 SLP087 T03110228 PA131 DA2373=
0129008418999992016021307534+03000+131800FM-15+000099999V0203501N000519999999N999999999+03001+02281100901ADDMA1100881999999REMMET102MOBOB2 METAR XM24 //000 030318 130753Z AUTO 35001KT 30/23 A2979 RMK A02 SLP090 T03000228 PA122 DA2240=
0129008418999992016021308534+03000+131800FM-15+000099999V0203601N001019999999N999999999+02931+02301100971ADDMA1100951999999REMMET102MOBOB2 METAR XM24 //000 030318 130853Z AUTO 36002KT 29/23 A2981 RMK A02 SLP097 T02930230 PA103 DA2143=
0129008418999992016021309534+03000+131800FM-15+000099999V0200201N001519999999N999999999+02821+02281101001ADDMA1100981999999REMMET102MOBOB2 METAR XM24 //000 030318 130953Z AUTO 02003KT 28/23 A2982 RMK A02 SLP100 T02820228 PA094 DA2006=
0129008418999992016021310534+03000+131800FM-15+000099999V0200401N001519999999N999999999+02801+02291101111ADDMA1101081999999REMMET102MOBOB2 METAR XM24 //000 030318 131053Z AUTO 04003KT 28/23 A2985 RMK A02 SLP111 T02800229 PA066 DA1951=
0129008418999992016021311534+03000+131800FM-15+000099999V0200601N002119999999N999999999+02811+02281101171ADDMA1101151999999REMMET102MOBOB2 METAR XM24 //000 030318 131153Z AUTO 06004KT 28/23 A2987 RMK A02 SLP117 T02810228 PA047 DA1937=
0129008418999992016021312534+03000+131800FM-15+000099999V0200401N002619999999N999999999+02781+02261101211ADDMA1101181999999REMMET102MOBOB2 METAR XM24 //000 030318 131253Z AUTO 04005KT 28/23 A2988 RMK A02 SLP121 T02780226 PA038 DA1888=
0129008418999992016021313534+03000+131800FM-15+000099999V0200501N002119999999N999999999+02801+02331101241ADDMA1101221999999REMMET102MOBOB2 METAR XM24 //000 030318 131353Z AUTO 05004KT 28/23 A2989 RMK A02 SLP124 T02800233 PA029 DA1914=
0129008418999992016021314534+03000+131800FM-15+000099999V0200501N003119999999N999999999+02771+02341101211ADDMA1101181999999REMMET102MOBOB2 METAR XM24 //000 030318 131453Z AUTO 05006KT 28/23 A2988 RMK A02 SLP121 T02770234 PA038 DA1895=
0129008418999992016021315534+03000+131800FM-15+000099999V0200601N002619999999N999999999+02761+02311101141ADDMA1101121999999REMMET102MOBOB2 METAR XM24 //000 030318 131553Z AUTO 06005KT 28/23 A2986 RMK A02 SLP114 T02760231 PA057 DA1900=
0129008418999992016021316534+03000+131800FM-15+000099999V0200501N003119999999N999999999+02751+02341101071ADDMA1101051999999REMMET102MOBOB2 METAR XM24 //000 030318 131653Z AUTO 05006KT 28/23 A2984 RMK A02 SLP107 T02750234 PA075 DA1918=
0129008418999992016021317534+03000+131800FM-15+000099999V0200301N003619999999N999999999+02731+02351100971ADDMA1100951999999REMMET102MOBOB2 METAR XM24 //000 030318 131753Z AUTO 03007KT 27/24 A2981 RMK A02 SLP097 T02730235 PA103 DA1932=
0129008418999992016021318534+03000+131800FM-15+000099999V0200501N003619999999N999999999+02741+02341100971ADDMA1100951999999REMMET102MOBOB2 METAR XM24 //000 030318 131853Z AUTO 05007KT 27/23 A2981 RMK A02 SLP097 T02740234 PA103 DA1940=
0129008418999992016021319534+03000+131800FM-15+000099999V0200401N004619999999N999999999+02711+02311101001ADDMA1100981999999REMMET102MOBOB2 METAR XM24 //000 030318 131953Z AUTO 04009KT 27/23 A2982 RMK A02 SLP100 T02710231 PA094 DA1889=
0129008418999992016021320534+03000+131800FM-15+000099999V0200401N004619999999N999999999+02721+02301101071ADDMA1101051999999REMMET102MOBOB2 METAR XM24 //000 030318 132053Z AUTO 04009KT 27/23 A2984 RMK A02 SLP107 T02720230 PA075 DA1874=
0129008418999992016021321534+03000+131800FM-15+000099999V0200601N004619999999N999999999+02731+02301101141ADDMA1101121999999REMMET102MOBOB2 METAR XM24 //000 030318 132153Z AUTO 06009KT 27/23 A2986 RMK A02 SLP114 T02730230 PA057 DA1863=
0129008418999992016021322534+03000+131800FM-15+000099999V0200601N004619999999N999999999+02791+02371101211ADDMA1101181999999REMMET102MOBOB2 METAR XM24 //000 030318 132253Z AUTO 06009KT 28/24 A2988 RMK A02 SLP121 T02790237 PA038 DA1924=
0129008418999992016021323534+03000+131800FM-15+000099999V0200701N004119999999N999999999+02801+02331101281ADDMA1101251999999REMMET102MOBOB2 METAR XM24 //000 030318 132353Z AUTO 07008KT 28/23 A2990 RMK A02 SLP128 T02800233 PA020 DA1902=
0129008418999992016021400534+03000+131800FM-15+000099999V0200701N004619999999N999999999+02831+02331101281ADDMA1101251999999REMMET102MOBOB2 METAR XM24 //000 030318 140053Z AUTO 07009KT 28/23 A2990 RMK A02 SLP128 T02830233 PA020 DA1936=
0129008418999992016021401534+03000+131800FM-15+000099999V0200801N005119999999N999999999+02811+02341101211ADDMA1101181999999REMMET102MOBOB2 METAR XM24 //000 030318 140153Z AUTO 08010KT 28/23 A2988 RMK A02 SLP121 T02810234 PA038 DA1939=
0129008418999992016021402534+03000+131800FM-15+000099999V0200801N004619999999N999999999+02801+02301101111ADDMA1101081999999REMMET102MOBOB2 METAR XM24 //000 030318 140253Z AUTO 08009KT 28/23 A2985 RMK A02 SLP111 T02800230 PA066 DA1954=
0129008418999992016021403534+03000+131800FM-15+000099999V0200801N004619999999N999999999+02841+02341101041ADDMA1101021999999REMMET102MOBOB2 METAR XM24 //000 030318 140353Z AUTO 08009KT 28/23 A2983 RMK A02 SLP104 T02840234 PA084 DA2030=
0129008418999992016021404534+03000+131800FM-15+000099999V0200801N004119999999N999999999+02851+02361100971ADDMA1100951999999REMMET102MOBOB2 METAR XM24 //000 030318 140453Z AUTO 08008KT 29/24 A2981 RMK A02 SLP097 T02850236 PA103 DA2067=
0129008418999992016021405534+03000+131800FM-15+000099999V0200801N004119999999N999999999+02821+02321100901ADDMA1100881999999REMMET102MOBOB2 METAR XM24 //000 030318 140553Z AUTO 08008KT 28/23 A2979 RMK A02 SLP090 T02820232 PA122 DA2048=
0129008418999992016021406534+03000+131800FM-15+000099999V0200701N004119999999N999999999+02811+02351100901ADDMA1100881999999REMMET102MOBOB2 METAR XM24 //000 030318 140653Z AUTO 07008KT 28/24 A2979 RMK A02 SLP090 T02810235 PA122 DA2044=
0129008418999992016021407544+03000+131800FM-15+000099999V0200601N004119999999N999999999+02801+02361100971ADDMA1100951999999REMMET102MOBOB2 METAR XM24 //000 030318 140754Z AUTO 06008KT 28/24 A2981 RMK A02 SLP097 T02800236 PA103 DA2013=
0129008418999992016021408534+03000+131800FM-15+000099999V0200501N004119999999N999999999+02781+02361101001ADDMA1100981999999REMMET102MOBOB2 METAR XM24 //000 030318 140853Z AUTO 05008KT 28/24 A2982 RMK A02 SLP100 T02780236 PA094 DA1978=
0129008418999992016021409534+03000+131800FM-15+000099999V0200501N004619999999N999999999+02761+02341101071ADDMA1101051999999REMMET102MOBOB2 METAR XM24 //000 030318 140953Z AUTO 05009KT 28/23 A2984 RMK A02 SLP107 T02760234 PA075 DA1929=
0129008418999992016021410534+03000+131800FM-15+000099999V0200401N004619999999N999999999+02771+02341101141ADDMA1101121999999REMMET102MOBOB2 METAR XM24 //000 030318 141053Z AUTO 04009KT 28/23 A2986 RMK A02 SLP114 T02770234 PA057 DA1918=
0129008418999992016021411534+03000+131800FM-15+000099999V0200501N004119999999N999999999+02791+02351101211ADDMA1101181999999REMMET102MOBOB2 METAR XM24 //000 030318 141153Z AUTO 05008KT 28/24 A2988 RMK A02 SLP121 T02790235 PA038 DA1919=
0129008418999992016021412534+03000+131800FM-15+000099999V0200601N004119999999N999999999+02781+02351101241ADDMA1101221999999REMMET102MOBOB2 METAR XM24 //000 030318 141253Z AUTO 06008KT 28/23 A2989 RMK A02 SLP124 T02780235 PA029 DA1895=
0129008418999992016021413534+03000+131800FM-15+000099999V0200501N003619999999N999999999+02791+02391101241ADDMA1101221999999REMMET102MOBOB2 METAR XM24 //000 030318 141353Z AUTO 05007KT 28/24 A2989 RMK A02 SLP124 T02790239 PA029 DA1915=
0129008418999992016021414534+03000+131800FM-15+000099999V0200501N004119999999N999999999+02771+02371101211ADDMA1101181999999REMMET102MOBOB2 METAR XM24 //000 030318 141453Z AUTO 05008KT 28/24 A2988 RMK A02 SLP121 T02770237 PA038 DA1901=
0129008418999992016021415534+03000+131800FM-15+000099999V0200601N003619999999N999999999+02761+02341101141ADDMA1101121999999REMMET102MOBOB2 METAR XM24 //000 030318 141553Z AUTO 06007KT 28/23 A2986 RMK A02 SLP114 T02760234 PA057 DA1907=
0129008418999992016021416534+03000+131800FM-15+000099999V0200301N003119999999N999999999+02751+02351101071ADDMA1101051999999REMMET102MOBOB2 METAR XM24 //000 030318 141653Z AUTO 03006KT 28/24 A2984 RMK A02 SLP107 T02750235 PA075 DA1921=
0129008418999992016021417534+03000+131800FM-15+000099999V0200201N001519999999N999999999+02731+02381101071ADDMA1101051999999REMMET102MOBOB2 METAR XM24 //000 030318 141753Z AUTO 02003KT 27/24 A2984 RMK A02 SLP107 T02730238 PA075 DA1904=
0129008418999992016021418534+03000+131800FM-15+000099999V0200201N002119999999N999999999+02731+02381101071ADDMA1101051999999REMMET102MOBOB2 METAR XM24 //000 030318 141853Z AUTO 02004KT 27/24 A2984 RMK A02 SLP107 T02730238 PA075 DA1904=
0129008418999992016021419534+03000+131800FM-15+000099999V0200301N003619999999N999999999+02741+02381101111ADDMA1101081999999REMMET102MOBOB2 METAR XM24 //000 030318 141953Z AUTO 03007KT 27/24 A2985 RMK A02 SLP111 T02740238 PA066 DA1903=
0140008418999992016021420534+03000+131800FM-15+000099999V0200401N005119999999N999999999+02751+02381101171ADDMA1101151999999OC100621REMMET105MOBOB2 METAR XM24 //000 030318 142053Z AUTO 04010G12KT 28/24 A2987 RMK A02 SLP117 T02750238 PA047 DA1891=
0129008418999992016021421534+03000+131800FM-15+000099999V0200501N004619999999N999999999+02751+02331101241ADDMA1101221999999REMMET102MOBOB2 METAR XM24 //000 030318 142153Z AUTO 05009KT 28/23 A2989 RMK A02 SLP124 T02750233 PA029 DA1859=
0129008418999992016021422544+03000+131800FM-15+000099999V0200501N004619999999N999999999+02791+02361101311ADDMA1101291999999REMMET102MOBOB2 METAR XM24 //000 030318 142254Z AUTO 05009KT 28/24 A2991 RMK A02 SLP131 T02790236 PA010 DA1886=
0129008418999992016021423534+03000+131800FM-15+000099999V0200401N005119999999N999999999+02811+02381101341ADDMA1101321999999REMMET102MOBOB2 METAR XM24 //000 030318 142353Z AUTO 04010KT 28/24 A2992 RMK A02 SLP134 T02810238 PA001 DA1902=
0129008418999992016021500534+03000+131800FM-15+000099999V0200401N005119999999N999999999+02831+02401101311ADDMA1101291999999REMMET102MOBOB2 METAR XM24 //000 030318 150053Z AUTO 04010KT 28/24 A2991 RMK A02 SLP131 T02830240 PA010 DA1941=
0140008418999992016021501534+03000+131800FM-15+000099999V0200401N005119999999N999999999+02831+02331101241ADDMA1101221999999OC100671REMMET105MOBOB2 METAR XM24 //000 030318 150153Z AUTO 04010G13KT 28/23 A2989 RMK A02 SLP124 T02830233 PA029 DA1948=
0140008418999992016021502534+03000+131800FM-15+000099999V0200301N005719999999N999999999+02831+02301101171ADDMA1101151999999OC100721REMMET105MOBOB2 METAR XM24 //000 030318 150253Z AUTO 03011G14KT 28/23 A2987 RMK A02 SLP117 T02830230 PA047 DA1963=
0140008418999992016021503534+03000+131800FM-15+000099999V0200401N005719999999N999999999+02831+02311101071ADDMA1101051999999OC100671REMMET105MOBOB2 METAR XM24 //000 030318 150353Z AUTO 04011G13KT 28/23 A2984 RMK A02 SLP107 T02830231 PA075 DA2002=
0140008418999992016021504534+03000+131800FM-15+000099999V0200501N006219999999N999999999+02841+02361100971ADDMA1100951999999OC100721REMMET105MOBOB2 METAR XM24 //000 030318 150453Z AUTO 05012G14KT 28/24 A2981 RMK A02 SLP097 T02840236 PA103 DA2056=
0140008418999992016021505534+03000+131800FM-15+000099999V0200401N005719999999N999999999+02821+02341100941ADDMA1100911999999OC100671REMMET105MOBOB2 METAR XM24 //000 030318 150553Z AUTO 04011G13KT 28/23 A2980 RMK A02 SLP094 T02820234 PA112 DA2041=
0140008418999992016021506534+03000+131800FM-15+000099999V0200401N006219999999N999999999+02791+02331100901ADDMA1100881999999OC100771REMMET105MOBOB2 METAR XM24 //000 030318 150653Z AUTO 04012G15KT 28/23 A2979 RMK A02 SLP090 T02790233 PA122 DA2018=
0140008418999992016021507544+03000+131800FM-15+000099999V0200501N006219999999N999999999+02821+02361100971ADDMA1100951999999OC100771REMMET105MOBOB2 METAR XM24 //000 030318 150754Z AUTO 05012G15KT 28/24 A2981 RMK A02 SLP097 T02820236 PA103 DA2034=
0140008418999992016021508534+03000+131800FM-15+000099999V0200501N005119999999N999999999+02821+02371101041ADDMA1101021999999OC100621REMMET105MOBOB2 METAR XM24 //000 030318 150853Z AUTO 05010G12KT 28/24 A2983 RMK A02 SLP104 T02820237 PA084 DA2013=
0140008418999992016021509534+03000+131800FM-15+000099999V0200601N006219999999N999999999+02781+02351101111ADDMA1101081999999OC100721REMMET105MOBOB2 METAR XM24 //000 030318 150953Z AUTO 06012G14KT 28/23 A2985 RMK A02 SLP111 T02780235 PA066 DA1942=
0140008418999992016021510534+03000+131800FM-15+000099999V0200601N005719999999N999999999+02781+02331101141ADDMA1101121999999OC100671REMMET105MOBOB2 METAR XM24 //000 030318 151053Z AUTO 06011G13KT 28/23 A2986 RMK A02 SLP114 T02780233 PA057 DA1927=
0140008418999992016021511534+03000+131800FM-15+000099999V0200501N005119999999N999999999+02791+02371101211ADDMA1101181999999OC100621REMMET105MOBOB2 METAR XM24 //000 030318 151153Z AUTO 05010G12KT 28/24 A2988 RMK A02 SLP121 T02790237 PA038 DA1924=
0129008418999992016021513534+03000+131800FM-15+000099999V0200501N004619999999N999999999+02791+02391101211ADDMA1101181999999REMMET102MOBOB2 METAR XM24 //000 030318 151353Z AUTO 05009KT 28/24 A2988 RMK A02 SLP121 T02790239 PA038 DA1928=
0129008418999992016021520534+03000+131800FM-15+000099999V0200401N004119999999N999999999+02771+02371101211ADDMA1101181999999REMMET102MOBOB2 METAR XM24 //000 030318 152053Z AUTO 04008KT 28/24 A2988 RMK A02 SLP121 T02770237 PA038 DA1900=
0140008418999992016021521534+03000+131800FM-15+000099999V0200401N005719999999N999999999+02721+02271101241ADDMA1101221999999OC100621REMMET105MOBOB2 METAR XM24 //000 030318 152153Z AUTO 04011G12KT 27/23 A2989 RMK A02 SLP124 T02720227 PA029 DA1811=
0129008418999992016021522544+03000+131800FM-15+000099999V0200301N003619999999N999999999+02791+02421101311ADDMA1101291999999REMMET102MOBOB2 METAR XM24 //000 030318 152254Z AUTO 03007KT 28/24 A2991 RMK A02 SLP131 T02790242 PA010 DA1901=
0140008418999992016021523534+03000+131800FM-15+000099999V0200501N005719999999N999999999+02791+02331101341ADDMA1101321999999OC100721REMMET105MOBOB2 METAR XM24 //000 030318 152353Z AUTO 05011G14KT 28/23 A2992 RMK A02 SLP134 T02790233 PA001 DA1868=
0129008418999992016021600534+03000+131800FM-15+000099999V0200401N004619999999N999999999+02841+02401101381ADDMA1101351999999REMMET102MOBOB2 METAR XM24 //000 030318 160053Z AUTO 04009KT 28/24 A2993 RMK A02 SLP138 T02840240 PA-08 DA1929=
0129008418999992016021601534+03000+131800FM-15+000099999V0200301N004619999999N999999999+02861+02361101341ADDMA1101321999999REMMET102MOBOB2 METAR XM24 //000 030318 160153Z AUTO 03009KT 29/24 A2992 RMK A02 SLP134 T02860236 PA001 DA1953=
0129008418999992016021602534+03000+131800FM-15+000099999V0200401N004119999999N999999999+02861+02331101241ADDMA1101221999999REMMET102MOBOB2 METAR XM24 //000 030318 160253Z AUTO 04008KT 29/23 A2989 RMK A02 SLP124 T02860233 PA029 DA1982=
0140008418999992016021603534+03000+131800FM-15+000099999V0200401N005119999999N999999999+02851+02351101171ADDMA1101151999999OC100671REMMET105MOBOB2 METAR XM24 //000 030318 160353Z AUTO 04010G13KT 29/24 A2987 RMK A02 SLP117 T02850235 PA047 DA1998=
0140008418999992016021604534+03000+131800FM-15+000099999V0200401N006219999999N999999999+02841+02341101071ADDMA1101051999999OC100721REMMET105MOBOB2 METAR XM24 //000 030318 160453Z AUTO 04012G14KT 28/23 A2984 RMK A02 SLP107 T02840234 PA075 DA2018=
0140008418999992016021605534+03000+131800FM-15+000099999V0200401N006219999999N999999999+02831+02301101071ADDMA1101051999999OC100771REMMET105MOBOB2 METAR XM24 //000 030318 160553Z AUTO 04012G15KT 28/23 A2984 RMK A02 SLP107 T02830230 PA075 DA1998=
0140008418999992016021606534+03000+131800FM-15+000099999V0200401N006219999999N999999999+02821+02361101041ADDMA1101021999999OC100771REMMET105MOBOB2 METAR XM24 //000 030318 160653Z AUTO 04012G15KT 28/24 A2983 RMK A02 SLP104 T02820236 PA084 DA2013=
0140008418999992016021607534+03000+131800FM-15+000099999V0200401N007219999999N999999999+02821+02351101071ADDMA1101051999999OC100931REMMET105MOBOB2 METAR XM24 //000 030318 160753Z AUTO 04014G18KT 28/23 A2984 RMK A02 SLP107 T02820235 PA075 DA1998=
0140008418999992016021608534+03000+131800FM-15+000099999V0200301N006219999999N999999999+02801+02341101141ADDMA1101121999999OC100771REMMET105MOBOB2 METAR XM24 //000 030318 160853Z AUTO 03012G15KT 28/23 A2986 RMK A02 SLP114 T02800234 PA057 DA1951=
0140008418999992016021609534+03000+131800FM-15+000099999V0200301N004619999999N999999999+02781+02301101211ADDMA1101181999999OC100671REMMET105MOBOB2 METAR XM24 //000 030318 160953Z AUTO 03009G13KT 28/23 A2988 RMK A02 SLP121 T02780230 PA038 DA1896=
0129008418999992016021610534+03000+131800FM-15+000099999V0200201N003119999999N999999999+02761+02311101241ADDMA1101221999999REMMET102MOBOB2 METAR XM24 //000 030318 161053Z AUTO 02006KT 28/23 A2989 RMK A02 SLP124 T02760231 PA029 DA1865=
0140008418999992016021611534+03000+131800FM-15+000099999V0200301N005719999999N999999999+02741+02291101241ADDMA1101221999999OC100721REMMET105MOBOB2 METAR XM24 //000 030318 161153Z AUTO 03011G14KT 27/23 A2989 RMK A02 SLP124 T02740229 PA029 DA1839=
0129008418999992016021612534+03000+131800FM-15+000099999V0200201N002619999999N999999999+02741+02291101281ADDMA1101251999999REMMET102MOBOB2 METAR XM24 //000 030318 161253Z AUTO 02005KT 27/23 A2990 RMK A02 SLP128 T02740229 PA020 DA1827=
0129008418999992016021613534+03000+131800FM-15+000099999V0200201N003619999999N999999999+02751+02301101241ADDMA1101221999999REMMET102MOBOB2 METAR XM24 //000 030318 161353Z AUTO 02007KT 28/23 A2989 RMK A02 SLP124 T02750230 PA029 DA1851=
0129008418999992016021614534+03000+131800FM-15+000099999V0200301N003119999999N999999999+02751+02291101211ADDMA1101181999999REMMET102MOBOB2 METAR XM24 //000 030318 161453Z AUTO 03006KT 28/23 A2988 RMK A02 SLP121 T02750229 PA038 DA1861=
0129008418999992016021615534+03000+131800FM-15+000099999V0200101N002619999999N999999999+02731+02251101171ADDMA1101151999999REMMET102MOBOB2 METAR XM24 //000 030318 161553Z AUTO 01005KT 27/23 A2987 RMK A02 SLP117 T02730225 PA047 DA1842=
0129008418999992016021616534+03000+131800FM-15+000099999V0200101N003119999999N999999999+02741+02131101111ADDMA1101081999999REMMET102MOBOB2 METAR XM24 //000 030318 161653Z AUTO 01006KT 27/21 A2985 RMK A02 SLP111 T02740213 PA066 DA1851=
0140008418999992016021617534+03000+131800FM-15+000099999V0203601N004119999999N999999999+02731+02111101071ADDMA1101051999999OC100721REMMET105MOBOB2 METAR XM24 //000 030318 161753Z AUTO 36008G14KT 27/21 A2984 RMK A02 SLP107 T02730211 PA075 DA1847=
0129008418999992016021618534+03000+131800FM-15+000099999V0203601N003119999999N999999999+02721+02121101071ADDMA1101051999999REMMET102MOBOB2 METAR XM24 //000 030318 161853Z AUTO 36006KT 27/21 A2984 RMK A02 SLP107 T02720212 PA075 DA1838=
0129008418999992016021619534+03000+131800FM-15+000099999V0200101N003119999999N999999999+02711+02111101111ADDMA1101081999999REMMET102MOBOB2 METAR XM24 //000 030318 161953Z AUTO 01006KT 27/21 A2985 RMK A02 SLP111 T02710211 PA066 DA1813=
0129008418999992016021620534+03000+131800FM-15+000099999V0203601N002619999999N999999999+02701+02101101171ADDMA1101151999999REMMET102MOBOB2 METAR XM24 //000 030318 162053Z AUTO 36005KT 27/21 A2987 RMK A02 SLP117 T02700210 PA047 DA1777=
0129008418999992016021700534+03000+131800FM-15+000099999V0200301N003619999999N999999999+02801+02161101341ADDMA1101321999999REMMET102MOBOB2 METAR XM24 //000 030318 170053Z AUTO 03007KT 28/22 A2992 RMK A02 SLP134 T02800216 PA001 DA1845=
0129008418999992016021701534+03000+131800FM-15+000099999V0200401N004119999999N999999999+02791+02151101341ADDMA1101321999999REMMET102MOBOB2 METAR XM24 //000 030318 170153Z AUTO 04008KT 28/22 A2992 RMK A02 SLP134 T02790215 PA001 DA1832=
0129008418999992016021702534+03000+131800FM-15+000099999V0200301N003119999999N999999999+02851+02181101311ADDMA1101291999999REMMET102MOBOB2 METAR XM24 //000 030318 170253Z AUTO 03006KT 29/22 A2991 RMK A02 SLP131 T02850218 PA010 DA1916=
0129008418999992016021703534+03000+131800FM-15+000099999V0200101N002119999999N999999999+02941+02131101241ADDMA1101221999999REMMET102MOBOB2 METAR XM24 //000 030318 170353Z AUTO 01004KT 29/21 A2989 RMK A02 SLP124 T02940213 PA029 DA2028=
0129008418999992016021704534+03000+131800FM-15+000099999V0200201N002119999999N999999999+02961+02121101171ADDMA1101151999999REMMET102MOBOB2 METAR XM24 //000 030318 170453Z AUTO 02004KT 30/21 A2987 RMK A02 SLP117 T02960212 PA047 DA2071=
0129008418999992016021705534+03000+131800FM-15+000099999V0200101N002619999999N999999999+02901+02171101071ADDMA1101051999999REMMET102MOBOB2 METAR XM24 //000 030318 170553Z AUTO 01005KT 29/22 A2984 RMK A02 SLP107 T02900217 PA075 DA2050=
0129008418999992016021706534+03000+131800FM-15+000099999V0200101N003119999999N999999999+02881+02131101071ADDMA1101051999999REMMET102MOBOB2 METAR XM24 //000 030318 170653Z AUTO 01006KT 29/21 A2984 RMK A02 SLP107 T02880213 PA075 DA2019=
0129008418999992016021707544+03000+131800FM-15+000099999V0203601N002619999999N999999999+02861+02151101111ADDMA1101081999999REMMET102MOBOB2 METAR XM24 //000 030318 170754Z AUTO 36005KT 29/21 A2985 RMK A02 SLP111 T02860215 PA066 DA1989=
0129008418999992016021708534+03000+131800FM-15+000099999V0203601N003619999999N999999999+02821+02201101141ADDMA1101121999999REMMET102MOBOB2 METAR XM24 //000 030318 170853Z AUTO 36007KT 28/22 A2986 RMK A02 SLP114 T02820220 PA057 DA1944=
0140008418999992016021709544+03000+131800FM-15+000099999V0200301N003619999999N999999999+02731+02291101171ADDMA1101151999999OC100671REMMET105MOBOB2 METAR XM24 //000 030318 170954Z AUTO 03007G13KT 27/23 A2987 RMK A02 SLP117 T02730229 PA047 DA1850=
0140008418999992016021710534+03000+131800FM-15+000099999V0200301N004619999999N999999999+02711+02311101211ADDMA1101181999999OC100621REMMET105MOBOB2 METAR XM24 //000 030318 171053Z AUTO 03009G12KT 27/23 A2988 RMK A02 SLP121 T02710231 PA038 DA1821=
0140008418999992016021711534+03000+131800FM-15+000099999V0200401N005119999999N999999999+02711+02271101241ADDMA1101221999999OC100721REMMET105MOBOB2 METAR XM24 //000 030318 171153Z AUTO 04010G14KT 27/23 A2989 RMK A02 SLP124 T02710227 PA029 DA1800=
